{"type":"FeatureCollection","features":[{"type":"Feature","geometry":{"type":"Point","coordinates":[68.9380278,41.3083034]},"properties":{"osm_id":573212087,"osm_type":"node","seamark_type":"gate","name":null,"importance":1,"min_zoom":15,"attributes":{},"common":{"type":"gate"},"children":{},"osm_tags":{"seamark:type":"gate","waterway":"lock_gate"}}},{"type":"Feature","geometry":{"type":"Point","coordinates":[69.7904124,42.1976527]},"properties":{"osm_id":1285554155,"osm_type":"node","seamark_type":"gate","name":null,"importance":1,"min_zoom":15,"attributes":{},"common":{"type":"gate"},"children":{},"osm_tags":{"seamark:type":"gate","waterway":"lock_gate"}}},{"type":"Feature","geometry":{"type":"Point","coordinates":[61.6628802,46.7944829]},"properties":{"osm_id":6516226802,"osm_type":"node","seamark_type":"wreck","name":null,"importance":4,"min_zoom":9,"attributes":{"category":"hull_visible"},"common":{"type":"wreck"},"children":{},"osm_tags":{"historic":"wreck","seamark:type":"wreck","seamark:wreck:category":"hull_visible","source":"Digital Globe Premium"}}},{"type":"Feature","geometry":{"type":"Point","coordinates":[61.6697466,46.7879656]},"properties":{"osm_id":6516226803,"osm_type":"node","seamark_type":"wreck","name":null,"importance":4,"min_zoom":9,"attributes":{"category":"hull_visible"},"common":{"type":"wreck"},"children":{},"osm_tags":{"historic":"wreck","seamark:type":"wreck","seamark:wreck:category":"hull_visible","source":"Digital Globe Premium"}}},{"type":"Feature","geometry":{"type":"Point","coordinates":[68.2020776,40.9442695]},"properties":{"osm_id":11233145947,"osm_type":"node","seamark_type":"gate","name":null,"importance":1,"min_zoom":15,"attributes":{},"common":{"type":"gate"},"children":{},"osm_tags":{"seamark:type":"gate","waterway":"lock_gate"}}},{"type":"Feature","geometry":{"type":"Point","coordinates":[68.2045663,40.9328575]},"properties":{"osm_id":11235651304,"osm_type":"node","seamark_type":"gate","name":null,"importance":1,"min_zoom":15,"attributes":{},"common":{"type":"gate"},"children":{},"osm_tags":{"seamark:type":"gate","waterway":"lock_gate"}}},{"type":"Feature","geometry":{"type":"Point","coordinates":[68.2733125,40.9905398]},"properties":{"osm_id":11252640368,"osm_type":"node","seamark_type":"gate","name":null,"importance":1,"min_zoom":15,"attributes":{},"common":{"type":"gate"},"children":{},"osm_tags":{"seamark:type":"gate","waterway":"lock_gate"}}},{"type":"Feature","geometry":{"type":"Point","coordinates":[68.2281377,40.7503425]},"properties":{"osm_id":11254775092,"osm_type":"node","seamark_type":"gate","name":null,"importance":1,"min_zoom":15,"attributes":{},"common":{"type":"gate"},"children":{},"osm_tags":{"seamark:type":"gate","waterway":"lock_gate"}}},{"type":"Feature","geometry":{"type":"Point","coordinates":[68.2607492,40.7459284]},"properties":{"osm_id":11255076145,"osm_type":"node","seamark_type":"gate","name":null,"importance":1,"min_zoom":15,"attributes":{},"common":{"type":"gate"},"children":{},"osm_tags":{"seamark:type":"gate","waterway":"lock_gate"}}},{"type":"Feature","geometry":{"type":"Point","coordinates":[68.2681844,40.7883147]},"properties":{"osm_id":11257406639,"osm_type":"node","seamark_type":"gate","name":null,"importance":1,"min_zoom":15,"attributes":{},"common":{"type":"gate"},"children":{},"osm_tags":{"seamark:type":"gate","waterway":"lock_gate"}}},{"type":"Feature","geometry":{"type":"Point","coordinates":[68.3093305,40.8635693]},"properties":{"osm_id":11277147088,"osm_type":"node","seamark_type":"gate","name":null,"importance":1,"min_zoom":15,"attributes":{},"common":{"type":"gate"},"children":{},"osm_tags":{"seamark:type":"gate","waterway":"lock_gate"}}},{"type":"Feature","geometry":{"type":"Point","coordinates":[69.215606,41.2503458]},"properties":{"osm_id":11370446312,"osm_type":"node","seamark_type":"gate","name":null,"importance":1,"min_zoom":15,"attributes":{},"common":{"type":"gate"},"children":{},"osm_tags":{"seamark:type":"gate","waterway":"lock_gate"}}},{"type":"Feature","geometry":{"type":"Point","coordinates":[69.2157141,41.2503801]},"properties":{"osm_id":11370446313,"osm_type":"node","seamark_type":"gate","name":null,"importance":1,"min_zoom":15,"attributes":{},"common":{"type":"gate"},"children":{},"osm_tags":{"seamark:type":"gate","waterway":"lock_gate"}}},{"type":"Feature","geometry":{"type":"Point","coordinates":[68.7972916,41.2062274]},"properties":{"osm_id":11611373821,"osm_type":"node","seamark_type":"gate","name":null,"importance":1,"min_zoom":15,"attributes":{},"common":{"type":"gate"},"children":{},"osm_tags":{"seamark:type":"gate","waterway":"lock_gate"}}},{"type":"Feature","geometry":{"type":"Point","coordinates":[68.939462,41.3084617]},"properties":{"osm_id":11641353312,"osm_type":"node","seamark_type":"gate","name":null,"importance":1,"min_zoom":15,"attributes":{},"common":{"type":"gate"},"children":{},"osm_tags":{"seamark:type":"gate","waterway":"lock_gate"}}},{"type":"Feature","geometry":{"type":"Point","coordinates":[69.0197827,41.3775979]},"properties":{"osm_id":11700339551,"osm_type":"node","seamark_type":"gate","name":null,"importance":1,"min_zoom":15,"attributes":{},"common":{"type":"gate"},"children":{},"osm_tags":{"seamark:type":"gate","waterway":"lock_gate"}}},{"type":"Feature","geometry":{"type":"Point","coordinates":[69.0199351,41.377609]},"properties":{"osm_id":11700339570,"osm_type":"node","seamark_type":"gate","name":null,"importance":1,"min_zoom":15,"attributes":{},"common":{"type":"gate"},"children":{},"osm_tags":{"seamark:type":"gate","waterway":"lock_gate"}}},{"type":"Feature","geometry":{"type":"Point","coordinates":[69.0212902,41.3792424]},"properties":{"osm_id":11700339908,"osm_type":"node","seamark_type":"gate","name":null,"importance":1,"min_zoom":15,"attributes":{},"common":{"type":"gate"},"children":{},"osm_tags":{"seamark:type":"gate","waterway":"lock_gate"}}},{"type":"Feature","geometry":{"type":"Point","coordinates":[69.0905969,41.3735908]},"properties":{"osm_id":11716258340,"osm_type":"node","seamark_type":"gate","name":null,"importance":1,"min_zoom":15,"attributes":{},"common":{"type":"gate"},"children":{},"osm_tags":{"seamark:type":"gate","waterway":"lock_gate"}}},{"type":"Feature","geometry":{"type":"Point","coordinates":[69.1750222,41.402714]},"properties":{"osm_id":11737303736,"osm_type":"node","seamark_type":"gate","name":null,"importance":1,"min_zoom":15,"attributes":{},"common":{"type":"gate"},"children":{},"osm_tags":{"seamark:type":"gate","waterway":"lock_gate"}}},{"type":"Feature","geometry":{"type":"Point","coordinates":[60.3707524,41.8161161]},"properties":{"osm_id":11866443359,"osm_type":"node","seamark_type":"small_craft_facility","name":"Prapan","importance":1,"min_zoom":15,"attributes":{"category":"fuel_station"},"common":{"type":"small_craft_facility"},"children":{},"osm_tags":{"name":"Prapan","seamark:small_craft_facility:category":"fuel_station","seamark:type":"small_craft_facility","waterway":"fuel"}}},{"type":"Feature","geometry":{"type":"Point","coordinates":[69.934593,41.6246489]},"properties":{"osm_id":12025170193,"osm_type":"node","seamark_type":"harbour","name":null,"importance":5,"min_zoom":7,"attributes":{"category":"marina"},"common":{"type":"harbour"},"children":{},"osm_tags":{"leisure":"marina","seamark:harbour:category":"marina","seamark:type":"harbour"}}},{"type":"Feature","geometry":{"type":"Point","coordinates":[69.1419504,41.4375243]},"properties":{"osm_id":12035896052,"osm_type":"node","seamark_type":"gate","name":null,"importance":1,"min_zoom":15,"attributes":{},"common":{"type":"gate"},"children":{},"osm_tags":{"seamark:type":"gate","waterway":"lock_gate"}}},{"type":"Feature","geometry":{"type":"Point","coordinates":[69.142281,41.4376287]},"properties":{"osm_id":12035896053,"osm_type":"node","seamark_type":"gate","name":null,"importance":1,"min_zoom":15,"attributes":{},"common":{"type":"gate"},"children":{},"osm_tags":{"seamark:type":"gate","waterway":"lock_gate"}}},{"type":"Feature","geometry":{"type":"Point","coordinates":[69.1425456,41.4380702]},"properties":{"osm_id":12035896054,"osm_type":"node","seamark_type":"gate","name":null,"importance":1,"min_zoom":15,"attributes":{},"common":{"type":"gate"},"children":{},"osm_tags":{"seamark:type":"gate","waterway":"lock_gate"}}},{"type":"Feature","geometry":{"type":"Point","coordinates":[69.2181405,41.4596779]},"properties":{"osm_id":12093891533,"osm_type":"node","seamark_type":"gate","name":null,"importance":1,"min_zoom":15,"attributes":{},"common":{"type":"gate"},"children":{},"osm_tags":{"seamark:type":"gate","waterway":"lock_gate"}}},{"type":"Feature","geometry":{"type":"Point","coordinates":[69.2181168,41.4595286]},"properties":{"osm_id":12093891534,"osm_type":"node","seamark_type":"gate","name":null,"importance":1,"min_zoom":15,"attributes":{},"common":{"type":"gate"},"children":{},"osm_tags":{"seamark:type":"gate","waterway":"lock_gate"}}},{"type":"Feature","geometry":{"type":"Point","coordinates":[69.3699147,41.5008114]},"properties":{"osm_id":12207173589,"osm_type":"node","seamark_type":"gate","name":null,"importance":1,"min_zoom":15,"attributes":{},"common":{"type":"gate"},"children":{},"osm_tags":{"seamark:type":"gate","waterway":"lock_gate"}}},{"type":"Feature","geometry":{"type":"Point","coordinates":[69.3614441,41.5116757]},"properties":{"osm_id":12241893478,"osm_type":"node","seamark_type":"gate","name":null,"importance":1,"min_zoom":15,"attributes":{},"common":{"type":"gate"},"children":{},"osm_tags":{"seamark:type":"gate","waterway":"lock_gate"}}},{"type":"Feature","geometry":{"type":"Point","coordinates":[69.3721814,41.5177253]},"properties":{"osm_id":12244104276,"osm_type":"node","seamark_type":"gate","name":null,"importance":1,"min_zoom":15,"attributes":{},"common":{"type":"gate"},"children":{},"osm_tags":{"seamark:type":"gate","waterway":"lock_gate"}}},{"type":"Feature","geometry":{"type":"Point","coordinates":[69.3697669,41.520109]},"properties":{"osm_id":12244104294,"osm_type":"node","seamark_type":"gate","name":null,"importance":1,"min_zoom":15,"attributes":{},"common":{"type":"gate"},"children":{},"osm_tags":{"seamark:type":"gate","waterway":"lock_gate"}}},{"type":"Feature","geometry":{"type":"Point","coordinates":[69.8176462,42.4124447]},"properties":{"osm_id":12470769277,"osm_type":"node","seamark_type":"gate","name":null,"importance":1,"min_zoom":15,"attributes":{},"common":{"type":"gate"},"children":{},"osm_tags":{"seamark:type":"gate","waterway":"lock_gate"}}},{"type":"Feature","geometry":{"type":"Point","coordinates":[69.8179277,42.4126675]},"properties":{"osm_id":12470769286,"osm_type":"node","seamark_type":"gate","name":null,"importance":1,"min_zoom":15,"attributes":{},"common":{"type":"gate"},"children":{},"osm_tags":{"seamark:type":"gate","waterway":"lock_gate"}}},{"type":"Feature","geometry":{"type":"Point","coordinates":[69.9704711,42.3718496]},"properties":{"osm_id":12475576480,"osm_type":"node","seamark_type":"gate","name":null,"importance":1,"min_zoom":15,"attributes":{},"common":{"type":"gate"},"children":{},"osm_tags":{"seamark:type":"gate","waterway":"lock_gate"}}},{"type":"Feature","geometry":{"type":"Point","coordinates":[69.9691527,42.3729858]},"properties":{"osm_id":12475576500,"osm_type":"node","seamark_type":"gate","name":null,"importance":1,"min_zoom":15,"attributes":{},"common":{"type":"gate"},"children":{},"osm_tags":{"seamark:type":"gate","waterway":"lock_gate"}}},{"type":"Feature","geometry":{"type":"Point","coordinates":[69.9695966,42.3725213]},"properties":{"osm_id":12475576515,"osm_type":"node","seamark_type":"gate","name":null,"importance":1,"min_zoom":15,"attributes":{},"common":{"type":"gate"},"children":{},"osm_tags":{"seamark:type":"gate","waterway":"lock_gate"}}},{"type":"Feature","geometry":{"type":"Point","coordinates":[69.9605019,42.262406]},"properties":{"osm_id":12518786656,"osm_type":"node","seamark_type":"gate","name":null,"importance":1,"min_zoom":15,"attributes":{},"common":{"type":"gate"},"children":{},"osm_tags":{"seamark:type":"gate","waterway":"lock_gate"}}},{"type":"Feature","geometry":{"type":"Point","coordinates":[69.4201667,42.4883497]},"properties":{"osm_id":1173400995,"osm_type":"way","seamark_type":"small_craft_facility","name":"Бейбарс Газ","importance":1,"min_zoom":15,"attributes":{"category":"fuel_station"},"common":{"type":"small_craft_facility"},"children":{},"osm_tags":{"addr:street":"улица Кунаева","building":"yes","name":"Бейбарс Газ","seamark:small_craft_facility:category":"fuel_station","seamark:type":"small_craft_facility","waterway":"fuel"}}},{"type":"Feature","geometry":{"type":"Point","coordinates":[61.0922151,41.3269023]},"properties":{"osm_id":1229501356,"osm_type":"way","seamark_type":"small_craft_facility","name":null,"importance":1,"min_zoom":15,"attributes":{"category":"fuel_station"},"common":{"type":"small_craft_facility"},"children":{},"osm_tags":{"seamark:small_craft_facility:category":"fuel_station","seamark:type":"small_craft_facility","waterway":"fuel"}}},{"type":"Feature","geometry":{"type":"Point","coordinates":[61.0920186,41.326942]},"properties":{"osm_id":1229501357,"osm_type":"way","seamark_type":"small_craft_facility","name":null,"importance":1,"min_zoom":15,"attributes":{"category":"fuel_station"},"common":{"type":"small_craft_facility"},"children":{},"osm_tags":{"building":"retail","seamark:small_craft_facility:category":"fuel_station","seamark:type":"small_craft_facility","waterway":"fuel"}}},{"type":"Feature","geometry":{"type":"Point","coordinates":[61.091925,41.3264772]},"properties":{"osm_id":1229501358,"osm_type":"way","seamark_type":"small_craft_facility","name":null,"importance":1,"min_zoom":15,"attributes":{"category":"fuel_station"},"common":{"type":"small_craft_facility"},"children":{},"osm_tags":{"seamark:small_craft_facility:category":"fuel_station","seamark:type":"small_craft_facility","waterway":"fuel"}}},{"type":"Feature","geometry":{"type":"Point","coordinates":[69.2510159,41.477872]},"properties":{"osm_id":1312624626,"osm_type":"way","seamark_type":"gate","name":null,"importance":1,"min_zoom":15,"attributes":{},"common":{"type":"gate"},"children":{},"osm_tags":{"seamark:type":"gate","waterway":"lock_gate"}}},{"type":"Feature","geometry":{"type":"Point","coordinates":[69.3002309,41.4374533]},"properties":{"osm_id":1313463506,"osm_type":"way","seamark_type":"gate","name":null,"importance":1,"min_zoom":15,"attributes":{},"common":{"type":"gate"},"children":{},"osm_tags":{"boat":"no","seamark:type":"gate","waterway":"lock_gate"}}},{"type":"Feature","geometry":{"type":"Point","coordinates":[69.8153841,42.1889027]},"properties":{"osm_id":1362001942,"osm_type":"way","seamark_type":"gate","name":null,"importance":1,"min_zoom":15,"attributes":{},"common":{"type":"gate"},"children":{},"osm_tags":{"seamark:type":"gate","waterway":"lock_gate"}}}],"type":"FeatureCollection"}