{"type":"FeatureCollection","name":"OpenSeaMap Seamarks 5A","properties":{"tile":"5A","bbox":[40,80,50,90],"size_degrees":10,"display_rules":{"TSS":6,"LIGHTHOUSE":7,"BEACON":9,"OTHER":12,"monotonic_visibility":true}},"features":[{"type":"Feature","geometry":{"type":"Polygon","coordinates":[[[47.6106194,80.7491083],[47.5886111,80.7611361],[47.650175,80.7705417],[47.8286083,80.7722],[47.6106194,80.7491083]]]},"properties":{"osm_id":1079652516,"osm_type":"way","seamark_type":"anchorage","display_class":"OTHER","min_zoom":12,"importance":2,"name":"Якорное место акватории удаленного участка Архангельского порта на ЗФИ","ref":null,"common":{"name":"Якорное место акватории удаленного участка Архангельского порта на ЗФИ","type":"anchorage"},"children":{"name":{"en":"Anchorage place of the water area of ​​the remote section of the Arkhangelsk port on the FJL","hu":"Az Arhangelszki kikötő távoli szakaszának vízterületének horgonyzóhelye az FJL-en"}},"osm_tags":{"seamark:name":"Якорное место акватории удаленного участка Архангельского порта на ЗФИ","seamark:name:en":"Anchorage place of the water area of ​​the remote section of the Arkhangelsk port on the FJL","seamark:name:hu":"Az Arhangelszki kikötő távoli szakaszának vízterületének horgonyzóhelye az FJL-en","seamark:type":"anchorage"}}},{"type":"Feature","geometry":{"type":"Point","coordinates":[47.6453815,80.8062537]},"properties":{"osm_id":9982516482,"osm_type":"node","seamark_type":"light_minor","display_class":"OTHER","min_zoom":12,"importance":1,"name":null,"ref":null,"common":{"type":"light_minor"},"children":{},"osm_tags":{"man_made":"lighthouse","seamark:type":"light_minor"}}},{"type":"Feature","geometry":{"type":"Point","coordinates":[46.905,80.2533333]},"properties":{"osm_id":10154417295,"osm_type":"node","seamark_type":"landmark","display_class":"OTHER","min_zoom":12,"importance":1,"name":null,"ref":null,"common":{"type":"landmark"},"children":{"landmark":{"category":"monument"}},"osm_tags":{"seamark:landmark:category":"monument","seamark:type":"landmark"}}}]}