{"type":"FeatureCollection","features":[{"type":"Feature","geometry":{"type":"Point","coordinates":[155.736,44.471]},"properties":{"osm_id":656510997,"osm_type":"node","seamark_type":"buoy_special_purpose","name":"DART 21419","importance":5,"min_zoom":7,"attributes":{"shape":"can"},"common":{"name":"DART 21419","type":"buoy_special_purpose"},"children":{"light":{"character":"Fl","colour":"yellow","group":"4","period":"20"}},"osm_tags":{"description":"DART Tsunami Warning Station 21419","name":"DART 21419","operator":"NOAA / NDBC","ref":"21419","seamark:buoy_special_purpose:shape":"can","seamark:light:character":"Fl","seamark:light:colour":"yellow","seamark:light:group":"4","seamark:light:period":"20","seamark:name":"DART 21419","seamark:type":"buoy_special_purpose","url":"http://nctr.pmel.noaa.gov/Dart/"}}},{"type":"Feature","geometry":{"type":"Point","coordinates":[150.338075,46.225739]},"properties":{"osm_id":1211610855,"osm_type":"node","seamark_type":"light_minor","name":"Mys Chyeryepakha","importance":5,"min_zoom":7,"attributes":{},"common":{"name":"Mys Chyeryepakha","type":"light_minor"},"children":{"light":{"character":"Fl","colour":"white","period":"5","reference":"M 8050.5"}},"osm_tags":{"seamark:light:character":"Fl","seamark:light:colour":"white","seamark:light:period":"5","seamark:light:reference":"M 8050.5","seamark:name":"Mys Chyeryepakha","seamark:type":"light_minor","source":"US NGA Pub. 112. 2009-11-12."}}},{"type":"Feature","geometry":{"type":"Point","coordinates":[150.1894423,46.1109039]},"properties":{"osm_id":1230908811,"osm_type":"way","seamark_type":"wreck","name":null,"importance":4,"min_zoom":9,"attributes":{},"common":{"type":"wreck"},"children":{},"osm_tags":{"historic":"wreck","seamark:type":"wreck"}}}],"type":"FeatureCollection"}