{"type":"FeatureCollection","features":[{"type":"Feature","geometry":{"type":"Point","coordinates":[22.5969133,12.1225177]},"properties":{"osm_id":10881112771,"osm_type":"node","seamark_type":"small_craft_facility","name":"الطريفى للبترول","importance":1,"min_zoom":15,"attributes":{"category":"fuel_station"},"common":{"type":"small_craft_facility"},"children":{},"osm_tags":{"name":"الطريفى للبترول","seamark:small_craft_facility:category":"fuel_station","seamark:type":"small_craft_facility","waterway":"fuel"}}}],"type":"FeatureCollection"}