{"type":"FeatureCollection","features":[{"type":"Feature","geometry":{"type":"Point","coordinates":[10.1325671,3.9518524]},"properties":{"osm_id":7636735074,"osm_type":"node","seamark_type":"buoy_lateral","name":"Nkom","importance":4,"min_zoom":9,"attributes":{},"common":{"type":"buoy_lateral"},"children":{},"osm_tags":{"name":"Nkom","seamark:type":"buoy_lateral"}}},{"type":"Feature","geometry":{"type":"Point","coordinates":[12.0590675,4.5367408]},"properties":{"osm_id":11044193474,"osm_type":"node","seamark_type":"harbour","name":null,"importance":5,"min_zoom":7,"attributes":{"category":"marina"},"common":{"type":"harbour"},"children":{},"osm_tags":{"leisure":"marina","seamark:harbour:category":"marina","seamark:type":"harbour"}}},{"type":"Feature","geometry":{"type":"Point","coordinates":[12.0703574,4.5221126]},"properties":{"osm_id":11044202245,"osm_type":"node","seamark_type":"harbour","name":null,"importance":5,"min_zoom":7,"attributes":{"category":"marina"},"common":{"type":"harbour"},"children":{},"osm_tags":{"leisure":"marina","seamark:harbour:category":"marina","seamark:type":"harbour"}}},{"type":"Feature","geometry":{"type":"Point","coordinates":[12.0939152,4.5167005]},"properties":{"osm_id":11044202512,"osm_type":"node","seamark_type":"harbour","name":null,"importance":5,"min_zoom":7,"attributes":{"category":"marina"},"common":{"type":"harbour"},"children":{},"osm_tags":{"leisure":"marina","seamark:harbour:category":"marina","seamark:type":"harbour"}}},{"type":"Feature","geometry":{"type":"Point","coordinates":[11.5332878,3.7181516]},"properties":{"osm_id":12944582658,"osm_type":"node","seamark_type":"small_craft_facility","name":null,"importance":1,"min_zoom":15,"attributes":{"category":"fuel_station"},"common":{"type":"small_craft_facility"},"children":{},"osm_tags":{"seamark:small_craft_facility:category":"fuel_station","seamark:type":"small_craft_facility","waterway":"fuel"}}},{"type":"Feature","geometry":{"type":"Point","coordinates":[18.5871828,3.7136199]},"properties":{"osm_id":421633205,"osm_type":"way","seamark_type":"wreck","name":"Le Gouverneur Lamblin","importance":4,"min_zoom":9,"attributes":{"category":"hull_visible"},"common":{"type":"wreck"},"children":{},"osm_tags":{"heritage":"1","heritage:operator":"whc","historic":"wreck","name":"Le Gouverneur Lamblin","operator":"CGTA","seamark:type":"wreck","seamark:wreck:category":"hull_visible","start_date":"1920","website":"https://whc.unesco.org/fr/listesindicatives/4007/","wreck:date_sunk":"1962","wreck:visible_at_high_tide":"yes","wreck:visible_at_low_tide":"yes"}}},{"type":"Feature","geometry":{"type":"Point","coordinates":[10.1589897,5.9171233]},"properties":{"osm_id":1066433756,"osm_type":"way","seamark_type":"wreck","name":null,"importance":4,"min_zoom":9,"attributes":{},"common":{"type":"wreck"},"children":{},"osm_tags":{"historic":"wreck","seamark:type":"wreck"}}}],"type":"FeatureCollection"}