{"type":"FeatureCollection","features":[{"type":"Feature","geometry":{"type":"Point","coordinates":[-44.3131713,1.6831451]},"properties":{"osm_id":187929712,"osm_type":"way","seamark_type":"cable_submarine","name":"AMERICAS 2","importance":2,"min_zoom":13,"attributes":{"name":"AMERICAS 2"},"common":{"type":"cable_submarine"},"children":{},"osm_tags":{"communication":"line","location":"underwater","name":"AMERICAS 2","seamark:cable_submarine:name":"AMERICAS 2","seamark:type":"cable_submarine","wikidata":"Q4745657","wikipedia":"en:Americas II"}}},{"type":"Feature","geometry":{"type":"Point","coordinates":[-47.7584468,5.6360982]},"properties":{"osm_id":187929725,"osm_type":"way","seamark_type":"cable_submarine","name":"BRUS","importance":2,"min_zoom":13,"attributes":{"name":"BRUS"},"common":{"type":"cable_submarine"},"children":{},"osm_tags":{"communication":"line","location":"underwater","name":"BRUS","seamark:cable_submarine:name":"BRUS","seamark:type":"cable_submarine"}}},{"type":"Feature","geometry":{"type":"Point","coordinates":[-48.1459514,5.6256197]},"properties":{"osm_id":187929763,"osm_type":"way","seamark_type":"cable_submarine","name":null,"importance":2,"min_zoom":13,"attributes":{},"common":{"type":"cable_submarine"},"children":{},"osm_tags":{"communication":"line","location":"underwater","seamark:type":"cable_submarine"}}},{"type":"Feature","geometry":{"type":"Point","coordinates":[-49.988827,3.995981]},"properties":{"osm_id":187929801,"osm_type":"way","seamark_type":"cable_submarine","name":null,"importance":2,"min_zoom":13,"attributes":{},"common":{"type":"cable_submarine"},"children":{},"osm_tags":{"communication":"line","location":"underwater","seamark:type":"cable_submarine"}}},{"type":"Feature","geometry":{"type":"Point","coordinates":[-46.3491474,5.6293782]},"properties":{"osm_id":187929813,"osm_type":"way","seamark_type":"cable_submarine","name":null,"importance":2,"min_zoom":13,"attributes":{"name":"SAm 1"},"common":{"type":"cable_submarine"},"children":{},"osm_tags":{"communication":"line","location":"underwater","man_made":"submarine_cable","seamark:cable_submarine:name":"SAm 1","seamark:type":"cable_submarine","wikidata":"Q7388904","wikipedia":"en:SAm-1"}}}],"type":"FeatureCollection"}