{"type":"FeatureCollection","features":[{"type":"Feature","geometry":{"type":"Point","coordinates":[-60.1089644,-3.052779]},"properties":{"osm_id":831977847,"osm_type":"node","seamark_type":"harbour","name":"Marina Davi","importance":5,"min_zoom":7,"attributes":{"category":"marina"},"common":{"type":"harbour"},"children":{},"osm_tags":{"harbour":"yes","leisure":"marina","name":"Marina Davi","seamark:harbour:category":"marina","seamark:type":"harbour"}}},{"type":"Feature","geometry":{"type":"Point","coordinates":[-60.0441179,-3.1248859]},"properties":{"osm_id":1445511771,"osm_type":"node","seamark_type":"harbour","name":"Balsa do São Raimundo","importance":5,"min_zoom":7,"attributes":{"category":"ferry"},"common":{"name":"Balsa do São Raimundo","type":"harbour"},"children":{},"osm_tags":{"amenity":"ferry_terminal","harbour":"yes","name":"Balsa do São Raimundo","seamark:harbour:category":"ferry","seamark:name":"Balsa do São Raimundo","seamark:type":"harbour"}}},{"type":"Feature","geometry":{"type":"Point","coordinates":[-60.0552575,-3.1175916]},"properties":{"osm_id":1781687290,"osm_type":"node","seamark_type":"harbour","name":"Porto da Sanave","importance":5,"min_zoom":7,"attributes":{},"common":{"name":"Porto da Sanave","type":"harbour"},"children":{},"osm_tags":{"amenity":"ferry_terminal","harbour":"yes","name":"Porto da Sanave","seamark:name":"Porto da Sanave","seamark:type":"harbour"}}},{"type":"Feature","geometry":{"type":"Point","coordinates":[-60.076925,-3.0955747]},"properties":{"osm_id":1781687292,"osm_type":"node","seamark_type":"harbour","name":null,"importance":5,"min_zoom":7,"attributes":{},"common":{"type":"harbour"},"children":{},"osm_tags":{"amenity":"ferry_terminal","ferry":"yes","harbour":"yes","public_transport":"station","seamark:type":"harbour"}}},{"type":"Feature","geometry":{"type":"Point","coordinates":[-60.0004667,-3.153694]},"properties":{"osm_id":1798984204,"osm_type":"node","seamark_type":"harbour","name":"Porto Moss","importance":5,"min_zoom":7,"attributes":{},"common":{"name":"Porto Moss","type":"harbour"},"children":{},"osm_tags":{"amenity":"ferry_terminal","ferry":"yes","harbour":"yes","name":"Porto Moss","public_transport":"station","seamark:name":"Porto Moss","seamark:type":"harbour"}}},{"type":"Feature","geometry":{"type":"Point","coordinates":[-60.0140301,-3.1428353]},"properties":{"osm_id":1824732385,"osm_type":"node","seamark_type":"landmark","name":"Paróquia Nossa Senhora do Perpétuo Socorro","importance":5,"min_zoom":7,"attributes":{"function":"church"},"common":{"type":"landmark"},"children":{},"osm_tags":{"addr:city":"Manaus","addr:housename":"Igreja Católica","addr:housenumber":"44","addr:postcode":"69070-100","addr:street":"Rua Inocêncio Araújo","addr:suburb":"Educandos","amenity":"place_of_worship","denomination":"roman_catholic","name":"Paróquia Nossa Senhora do Perpétuo Socorro","phone":"+55 92 3624-4594","religion":"christian","seamark:landmark:function":"church","seamark:type":"landmark","website":"https://plus.google.com/110926134643820026523/about?gl=br&hl=pt-BR","wheelchair":"yes"}}},{"type":"Feature","geometry":{"type":"Point","coordinates":[-60.0880907,-3.1152015]},"properties":{"osm_id":1990857937,"osm_type":"node","seamark_type":"anchorage","name":"Aguada","importance":4,"min_zoom":9,"attributes":{},"common":{"name":"Aguada","type":"anchorage"},"children":{},"osm_tags":{"seamark:name":"Aguada","seamark:type":"anchorage"}}},{"type":"Feature","geometry":{"type":"Point","coordinates":[-60.0368756,-3.1329211]},"properties":{"osm_id":1990857939,"osm_type":"node","seamark_type":"light_minor","name":null,"importance":4,"min_zoom":9,"attributes":{},"common":{"status":"private","type":"light_minor"},"children":{"light":{"character":"Fl","colour":"red"}},"osm_tags":{"seamark:light:character":"Fl","seamark:light:colour":"red","seamark:status":"private","seamark:type":"light_minor"}}},{"type":"Feature","geometry":{"type":"Point","coordinates":[-60.0337493,-3.1380625]},"properties":{"osm_id":1990857945,"osm_type":"node","seamark_type":"wreck","name":null,"importance":4,"min_zoom":9,"attributes":{"category":"non-dangerous"},"common":{"type":"wreck"},"children":{},"osm_tags":{"historic":"wreck","seamark:type":"wreck","seamark:wreck:category":"non-dangerous"}}},{"type":"Feature","geometry":{"type":"Point","coordinates":[-60.0351286,-3.139256]},"properties":{"osm_id":1990857995,"osm_type":"node","seamark_type":"wreck","name":null,"importance":4,"min_zoom":9,"attributes":{"category":"non-dangerous"},"common":{"type":"wreck"},"children":{},"osm_tags":{"historic":"wreck","seamark:type":"wreck","seamark:wreck:category":"non-dangerous"}}},{"type":"Feature","geometry":{"type":"Point","coordinates":[-60.028968,-3.1432039]},"properties":{"osm_id":1990858027,"osm_type":"node","seamark_type":"wreck","name":null,"importance":4,"min_zoom":9,"attributes":{"category":"non-dangerous"},"common":{"type":"wreck"},"children":{},"osm_tags":{"historic":"wreck","seamark:type":"wreck","seamark:wreck:category":"non-dangerous"}}},{"type":"Feature","geometry":{"type":"Point","coordinates":[-60.0776862,-3.1535536]},"properties":{"osm_id":1990858040,"osm_type":"node","seamark_type":"landmark","name":null,"importance":5,"min_zoom":7,"attributes":{"category":"chimney"},"common":{"type":"landmark"},"children":{},"osm_tags":{"man_made":"chimney","seamark:landmark:category":"chimney","seamark:type":"landmark"}}},{"type":"Feature","geometry":{"type":"Point","coordinates":[-60.0184859,-3.1523848]},"properties":{"osm_id":1990858421,"osm_type":"node","seamark_type":"buoy_isolated_danger","name":null,"importance":5,"min_zoom":7,"attributes":{"colour":"black;red;black","colour_pattern":"horizontal","shape":"pillar"},"common":{"radar_reflector":"yes","type":"buoy_isolated_danger"},"children":{"light":{"character":"Fl","colour":"white","group":"2","period":"5"},"topmark":{"colour":"black","shape":"2 spheres"}},"osm_tags":{"radar_reflector":"yes","seamark:buoy_isolated_danger:colour":"black;red;black","seamark:buoy_isolated_danger:colour_pattern":"horizontal","seamark:buoy_isolated_danger:shape":"pillar","seamark:light:character":"Fl","seamark:light:colour":"white","seamark:light:group":"2","seamark:light:period":"5","seamark:radar_reflector":"yes","seamark:topmark:colour":"black","seamark:topmark:shape":"2 spheres","seamark:type":"buoy_isolated_danger"}}},{"type":"Feature","geometry":{"type":"Point","coordinates":[-60.1820044,-3.2855403]},"properties":{"osm_id":1990859492,"osm_type":"node","seamark_type":"landmark","name":null,"importance":5,"min_zoom":7,"attributes":{"category":"chimney"},"common":{"type":"landmark"},"children":{},"osm_tags":{"man_made":"chimney","seamark:landmark:category":"chimney","seamark:type":"landmark"}}},{"type":"Feature","geometry":{"type":"Point","coordinates":[-60.0170755,-3.1191058]},"properties":{"osm_id":2305135990,"osm_type":"node","seamark_type":"landmark","name":"TV Cultura","importance":5,"min_zoom":7,"attributes":{"category":"mast"},"common":{"type":"landmark"},"children":{},"osm_tags":{"man_made":"mast","name":"TV Cultura","seamark:landmark:category":"mast","seamark:type":"landmark","tower:construction":"freestanding","tower:type":"communication"}}},{"type":"Feature","geometry":{"type":"Point","coordinates":[-60.029479,-3.1372428]},"properties":{"osm_id":2419656518,"osm_type":"node","seamark_type":"harbour","name":"Porto Público de Manaus","importance":5,"min_zoom":7,"attributes":{},"common":{"name":"Porto Público de Manaus","type":"harbour"},"children":{},"osm_tags":{"amenity":"ferry_terminal","harbour":"yes","name":"Porto Público de Manaus","seamark:name":"Porto Público de Manaus","seamark:type":"harbour"}}},{"type":"Feature","geometry":{"type":"Point","coordinates":[-60.0275417,-3.1384546]},"properties":{"osm_id":2419656530,"osm_type":"node","seamark_type":"harbour","name":"Porto Roadway","importance":5,"min_zoom":7,"attributes":{},"common":{"name":"Porto Roadway","type":"harbour"},"children":{},"osm_tags":{"amenity":"ferry_terminal","ferry":"yes","harbour":"yes","name":"Roadway Porto Público de Manaus","public_transport":"station","seamark:name":"Porto Roadway","seamark:type":"harbour"}}},{"type":"Feature","geometry":{"type":"Point","coordinates":[-60.0077958,-3.1469917]},"properties":{"osm_id":2420899236,"osm_type":"node","seamark_type":"landmark","name":"Igreja São Francisco das Chagas","importance":5,"min_zoom":7,"attributes":{"function":"church"},"common":{"type":"landmark"},"children":{},"osm_tags":{"amenity":"place_of_worship","name":"Igreja São Francisco das Chagas","religion":"christian","seamark:landmark:function":"church","seamark:type":"landmark"}}},{"type":"Feature","geometry":{"type":"Point","coordinates":[-60.0374005,-3.1281773]},"properties":{"osm_id":2926852194,"osm_type":"node","seamark_type":"landmark","name":null,"importance":5,"min_zoom":7,"attributes":{"function":"church"},"common":{"type":"landmark"},"children":{},"osm_tags":{"amenity":"place_of_worship","religion":"christian","seamark:landmark:function":"church","seamark:type":"landmark"}}},{"type":"Feature","geometry":{"type":"Point","coordinates":[-60.0331823,-3.1300882]},"properties":{"osm_id":2926852196,"osm_type":"node","seamark_type":"landmark","name":null,"importance":5,"min_zoom":7,"attributes":{"category":"chimney"},"common":{"type":"landmark"},"children":{},"osm_tags":{"man_made":"chimney","seamark:landmark:category":"chimney","seamark:type":"landmark"}}},{"type":"Feature","geometry":{"type":"Point","coordinates":[-60.239075,-3.0825363]},"properties":{"osm_id":2926852512,"osm_type":"node","seamark_type":"landmark","name":null,"importance":5,"min_zoom":7,"attributes":{"function":"church"},"common":{"type":"landmark"},"children":{},"osm_tags":{"amenity":"place_of_worship","religion":"christian","seamark:landmark:function":"church","seamark:type":"landmark"}}},{"type":"Feature","geometry":{"type":"Point","coordinates":[-60.0211753,-3.1385608]},"properties":{"osm_id":2926852517,"osm_type":"node","seamark_type":"landmark","name":null,"importance":5,"min_zoom":7,"attributes":{"function":"church"},"common":{"type":"landmark"},"children":{},"osm_tags":{"amenity":"place_of_worship","religion":"christian","seamark:landmark:function":"church","seamark:type":"landmark"}}},{"type":"Feature","geometry":{"type":"Point","coordinates":[-60.2093222,-3.2770823]},"properties":{"osm_id":2926852525,"osm_type":"node","seamark_type":"rock","name":null,"importance":1,"min_zoom":15,"attributes":{"water_level":"submerged"},"common":{"type":"rock"},"children":{},"osm_tags":{"seamark:rock:water_level":"submerged","seamark:type":"rock"}}},{"type":"Feature","geometry":{"type":"Point","coordinates":[-60.0859049,-3.287214]},"properties":{"osm_id":2926852526,"osm_type":"node","seamark_type":"landmark","name":null,"importance":5,"min_zoom":7,"attributes":{"function":"church"},"common":{"type":"landmark"},"children":{},"osm_tags":{"amenity":"place_of_worship","religion":"christian","seamark:landmark:function":"church","seamark:type":"landmark"}}},{"type":"Feature","geometry":{"type":"Point","coordinates":[-60.0970556,-3.2875463]},"properties":{"osm_id":2926852527,"osm_type":"node","seamark_type":"landmark","name":null,"importance":5,"min_zoom":7,"attributes":{"function":"church"},"common":{"type":"landmark"},"children":{},"osm_tags":{"amenity":"place_of_worship","religion":"christian","seamark:landmark:function":"church","seamark:type":"landmark"}}},{"type":"Feature","geometry":{"type":"Point","coordinates":[-60.0796639,-3.2894571]},"properties":{"osm_id":2926852528,"osm_type":"node","seamark_type":"landmark","name":null,"importance":5,"min_zoom":7,"attributes":{"function":"church"},"common":{"type":"landmark"},"children":{},"osm_tags":{"amenity":"place_of_worship","religion":"christian","seamark:landmark:function":"church","seamark:type":"landmark"}}},{"type":"Feature","geometry":{"type":"Point","coordinates":[-60.1736646,-3.3399372]},"properties":{"osm_id":2926852529,"osm_type":"node","seamark_type":"landmark","name":null,"importance":5,"min_zoom":7,"attributes":{"function":"church"},"common":{"type":"landmark"},"children":{},"osm_tags":{"amenity":"place_of_worship","religion":"christian","seamark:landmark:function":"church","seamark:type":"landmark"}}},{"type":"Feature","geometry":{"type":"Point","coordinates":[-60.0216124,-3.1510346]},"properties":{"osm_id":2926852608,"osm_type":"node","seamark_type":"rock","name":null,"importance":1,"min_zoom":15,"attributes":{"water_level":"awash"},"common":{"type":"rock"},"children":{},"osm_tags":{"seamark:rock:water_level":"awash","seamark:type":"rock"}}},{"type":"Feature","geometry":{"type":"Point","coordinates":[-60.0112907,-3.1685059]},"properties":{"osm_id":2926852611,"osm_type":"node","seamark_type":"rock","name":null,"importance":1,"min_zoom":15,"attributes":{"water_level":"submerged"},"common":{"type":"rock"},"children":{},"osm_tags":{"seamark:rock:water_level":"submerged","seamark:type":"rock"}}},{"type":"Feature","geometry":{"type":"Point","coordinates":[-60.2150886,-3.2710903]},"properties":{"osm_id":2926852617,"osm_type":"node","seamark_type":"rock","name":null,"importance":1,"min_zoom":15,"attributes":{"water_level":"submerged"},"common":{"type":"rock"},"children":{},"osm_tags":{"seamark:rock:water_level":"submerged","seamark:type":"rock"}}},{"type":"Feature","geometry":{"type":"Point","coordinates":[-60.2137941,-3.2733226]},"properties":{"osm_id":2926852618,"osm_type":"node","seamark_type":"rock","name":null,"importance":1,"min_zoom":15,"attributes":{"water_level":"submerged"},"common":{"type":"rock"},"children":{},"osm_tags":{"seamark:rock:water_level":"submerged","seamark:type":"rock"}}},{"type":"Feature","geometry":{"type":"Point","coordinates":[-60.0640091,-3.1114682]},"properties":{"osm_id":2934754607,"osm_type":"node","seamark_type":"harbour","name":"Estaleiro Sandro","importance":5,"min_zoom":7,"attributes":{"category":"marina"},"common":{"type":"harbour"},"children":{},"osm_tags":{"leisure":"marina","name":"Estaleiro Sandro","seamark:harbour:category":"marina","seamark:type":"harbour"}}},{"type":"Feature","geometry":{"type":"Point","coordinates":[-60.0653831,-3.1107995]},"properties":{"osm_id":2936053847,"osm_type":"node","seamark_type":"harbour","name":"Estaleiro Sales Nave","importance":5,"min_zoom":7,"attributes":{"category":"marina"},"common":{"type":"harbour"},"children":{},"osm_tags":{"leisure":"marina","name":"Estaleiro Sales Nave","seamark:harbour:category":"marina","seamark:type":"harbour"}}},{"type":"Feature","geometry":{"type":"Point","coordinates":[-68.9419668,-3.4594351]},"properties":{"osm_id":3124221109,"osm_type":"node","seamark_type":"harbour","name":"São Paulo de Olivença","importance":5,"min_zoom":7,"attributes":{},"common":{"name":"São Paulo de Olivença","type":"harbour"},"children":{},"osm_tags":{"harbour":"yes","seamark:name":"São Paulo de Olivença","seamark:type":"harbour"}}},{"type":"Feature","geometry":{"type":"Point","coordinates":[-69.5282015,-4.0451397]},"properties":{"osm_id":3299596044,"osm_type":"node","seamark_type":"harbour","name":"Belém do Solimões","importance":5,"min_zoom":7,"attributes":{},"common":{"name":"Belém do Solimões","type":"harbour"},"children":{},"osm_tags":{"harbour":"yes","seamark:name":"Belém do Solimões","seamark:type":"harbour"}}},{"type":"Feature","geometry":{"type":"Point","coordinates":[-65.4432977,-9.6608368]},"properties":{"osm_id":3625504700,"osm_type":"node","seamark_type":"pylon","name":null,"importance":1,"min_zoom":15,"attributes":{"category":"power","water_level":"dry"},"common":{"type":"pylon"},"children":{},"osm_tags":{"power":"tower","seamark:pylon:category":"power","seamark:pylon:water_level":"dry","seamark:type":"pylon"}}},{"type":"Feature","geometry":{"type":"Point","coordinates":[-65.4507001,-9.6644711]},"properties":{"osm_id":3625504701,"osm_type":"node","seamark_type":"pylon","name":null,"importance":1,"min_zoom":15,"attributes":{"category":"power","water_level":"dry"},"common":{"type":"pylon"},"children":{},"osm_tags":{"power":"tower","seamark:pylon:category":"power","seamark:pylon:water_level":"dry","seamark:type":"pylon"}}},{"type":"Feature","geometry":{"type":"Point","coordinates":[-67.4010061,-8.7446489]},"properties":{"osm_id":3627422119,"osm_type":"node","seamark_type":"harbour","name":"Boca do Acre","importance":5,"min_zoom":7,"attributes":{},"common":{"name":"Boca do Acre","type":"harbour"},"children":{},"osm_tags":{"harbour":"yes","seamark:name":"Boca do Acre","seamark:type":"harbour"}}},{"type":"Feature","geometry":{"type":"Point","coordinates":[-69.255898,-8.8382491]},"properties":{"osm_id":3629566036,"osm_type":"node","seamark_type":"harbour","name":"Manoel Urbano","importance":5,"min_zoom":7,"attributes":{},"common":{"name":"Manoel Urbano","type":"harbour"},"children":{},"osm_tags":{"harbour":"yes","seamark:name":"Manoel Urbano","seamark:type":"harbour"}}},{"type":"Feature","geometry":{"type":"Point","coordinates":[-66.0693371,-2.4959799]},"properties":{"osm_id":3629978261,"osm_type":"node","seamark_type":"harbour","name":"Fonte Boa","importance":5,"min_zoom":7,"attributes":{},"common":{"name":"Fonte Boa","type":"harbour"},"children":{},"osm_tags":{"harbour":"yes","seamark:name":"Fonte Boa","seamark:type":"harbour"}}},{"type":"Feature","geometry":{"type":"Point","coordinates":[-69.9494227,-4.2168533]},"properties":{"osm_id":3631546457,"osm_type":"node","seamark_type":"harbour","name":"Letícia","importance":5,"min_zoom":7,"attributes":{},"common":{"name":"Letícia","type":"harbour"},"children":{},"osm_tags":{"harbour":"yes","seamark:name":"Letícia","seamark:type":"harbour"}}},{"type":"Feature","geometry":{"type":"Point","coordinates":[-69.9455416,-4.230987]},"properties":{"osm_id":3631546458,"osm_type":"node","seamark_type":"harbour","name":"Tabatinga","importance":5,"min_zoom":7,"attributes":{},"common":{"name":"Tabatinga","type":"harbour"},"children":{},"osm_tags":{"harbour":"yes","seamark:name":"Tabatinga","seamark:type":"harbour"}}},{"type":"Feature","geometry":{"type":"Point","coordinates":[-60.022298,-3.1419956]},"properties":{"osm_id":3631760177,"osm_type":"node","seamark_type":"harbour","name":"Manaus Moderna","importance":5,"min_zoom":7,"attributes":{},"common":{"name":"Manaus Moderna","type":"harbour"},"children":{},"osm_tags":{"harbour":"yes","seamark:name":"Manaus Moderna","seamark:type":"harbour"}}},{"type":"Feature","geometry":{"type":"Point","coordinates":[-61.3001967,-5.8034302]},"properties":{"osm_id":3631823525,"osm_type":"node","seamark_type":"harbour","name":"Manicoré","importance":5,"min_zoom":7,"attributes":{},"common":{"name":"Manicoré","type":"harbour"},"children":{},"osm_tags":{"harbour":"yes","seamark:name":"Manicoré","seamark:type":"harbour"}}},{"type":"Feature","geometry":{"type":"Point","coordinates":[-67.5310505,-9.5899724]},"properties":{"osm_id":3632671290,"osm_type":"node","seamark_type":"harbour","name":"Porto Acre","importance":5,"min_zoom":7,"attributes":{},"common":{"name":"Porto Acre","type":"harbour"},"children":{},"osm_tags":{"harbour":"yes","seamark:name":"Porto Acre","seamark:type":"harbour"}}},{"type":"Feature","geometry":{"type":"Point","coordinates":[-63.917368,-8.7482617]},"properties":{"osm_id":3633212060,"osm_type":"node","seamark_type":"harbour","name":"Porto Velho","importance":5,"min_zoom":7,"attributes":{},"common":{"name":"Porto Velho","type":"harbour"},"children":{},"osm_tags":{"harbour":"yes","seamark:name":"Porto Velho","seamark:type":"harbour"}}},{"type":"Feature","geometry":{"type":"Point","coordinates":[-61.3768288,-3.8980309]},"properties":{"osm_id":3634797791,"osm_type":"node","seamark_type":"harbour","name":"Beruri","importance":5,"min_zoom":7,"attributes":{},"common":{"name":"Beruri","type":"harbour"},"children":{},"osm_tags":{"harbour":"yes","seamark:name":"Beruri","seamark:type":"harbour"}}},{"type":"Feature","geometry":{"type":"Point","coordinates":[-63.1896838,-5.618255]},"properties":{"osm_id":3634802839,"osm_type":"node","seamark_type":"harbour","name":"Tapauá","importance":5,"min_zoom":7,"attributes":{},"common":{"name":"Tapauá","type":"harbour"},"children":{},"osm_tags":{"harbour":"yes","seamark:name":"Tapauá","seamark:type":"harbour"}}},{"type":"Feature","geometry":{"type":"Point","coordinates":[-64.3875792,-6.5418193]},"properties":{"osm_id":3634803517,"osm_type":"node","seamark_type":"harbour","name":"Canutama","importance":5,"min_zoom":7,"attributes":{},"common":{"name":"Canutama","type":"harbour"},"children":{},"osm_tags":{"harbour":"yes","seamark:name":"Canutama","seamark:type":"harbour"}}},{"type":"Feature","geometry":{"type":"Point","coordinates":[-64.7974337,-7.2573779]},"properties":{"osm_id":3634803846,"osm_type":"node","seamark_type":"harbour","name":"Lábrea","importance":5,"min_zoom":7,"attributes":{},"common":{"name":"Lábrea","type":"harbour"},"children":{},"osm_tags":{"harbour":"yes","seamark:name":"Lábrea","seamark:type":"harbour"}}},{"type":"Feature","geometry":{"type":"Point","coordinates":[-67.0008052,-7.7182987]},"properties":{"osm_id":3634804944,"osm_type":"node","seamark_type":"harbour","name":"Pauini","importance":5,"min_zoom":7,"attributes":{},"common":{"name":"Pauini","type":"harbour"},"children":{},"osm_tags":{"harbour":"yes","seamark:name":"Pauini","seamark:type":"harbour"}}},{"type":"Feature","geometry":{"type":"Point","coordinates":[-67.0908991,-0.1353412]},"properties":{"osm_id":3635723000,"osm_type":"node","seamark_type":"harbour","name":"São Gabriel da Cachoeira","importance":5,"min_zoom":7,"attributes":{},"common":{"name":"São Gabriel da Cachoeira","type":"harbour"},"children":{},"osm_tags":{"harbour":"yes","seamark:name":"São Gabriel da Cachoeira","seamark:type":"harbour"}}},{"type":"Feature","geometry":{"type":"Point","coordinates":[-65.019811,-0.4176538]},"properties":{"osm_id":3635723001,"osm_type":"node","seamark_type":"harbour","name":"Santa Isabel do Rio Negro","importance":5,"min_zoom":7,"attributes":{},"common":{"name":"Santa Isabel do Rio Negro","type":"harbour"},"children":{},"osm_tags":{"harbour":"yes","seamark:name":"Santa Isabel do Rio Negro","seamark:type":"harbour"}}},{"type":"Feature","geometry":{"type":"Point","coordinates":[-62.9282,-0.9668366]},"properties":{"osm_id":3635723002,"osm_type":"node","seamark_type":"harbour","name":"Barcelos","importance":5,"min_zoom":7,"attributes":{},"common":{"name":"Barcelos","type":"harbour"},"children":{},"osm_tags":{"harbour":"yes","seamark:name":"Barcelos","seamark:type":"harbour"}}},{"type":"Feature","geometry":{"type":"Point","coordinates":[-66.7733043,-2.7429858]},"properties":{"osm_id":3635723005,"osm_type":"node","seamark_type":"harbour","name":"Jutaí","importance":5,"min_zoom":7,"attributes":{},"common":{"name":"Jutaí","type":"harbour"},"children":{},"osm_tags":{"harbour":"yes","seamark:name":"Jutaí","seamark:type":"harbour"}}},{"type":"Feature","geometry":{"type":"Point","coordinates":[-67.7709989,-2.8632999]},"properties":{"osm_id":3635723307,"osm_type":"node","seamark_type":"harbour","name":"Tonantins","importance":5,"min_zoom":7,"attributes":{},"common":{"name":"Tonantins","type":"harbour"},"children":{},"osm_tags":{"harbour":"yes","seamark:name":"Tonantins","seamark:type":"harbour"}}},{"type":"Feature","geometry":{"type":"Point","coordinates":[-67.944068,-3.1085532]},"properties":{"osm_id":3635723311,"osm_type":"node","seamark_type":"harbour","name":"Santo Antônio do Iça","importance":5,"min_zoom":7,"attributes":{},"common":{"name":"Santo Antônio do Iça","type":"harbour"},"children":{},"osm_tags":{"harbour":"yes","seamark:name":"Santo Antônio do Iça","seamark:type":"harbour"}}},{"type":"Feature","geometry":{"type":"Point","coordinates":[-60.6213953,-3.3039988]},"properties":{"osm_id":3635723320,"osm_type":"node","seamark_type":"harbour","name":"Manacapuru","importance":5,"min_zoom":7,"attributes":{},"common":{"name":"Manacapuru","type":"harbour"},"children":{},"osm_tags":{"harbour":"yes","seamark:name":"Manacapuru","seamark:type":"harbour"}}},{"type":"Feature","geometry":{"type":"Point","coordinates":[-64.708086,-3.3438573]},"properties":{"osm_id":3635723409,"osm_type":"node","seamark_type":"harbour","name":"Tefé","importance":5,"min_zoom":7,"attributes":{},"common":{"name":"Tefé","type":"harbour"},"children":{},"osm_tags":{"harbour":"yes","seamark:name":"Tefé","seamark:type":"harbour"}}},{"type":"Feature","geometry":{"type":"Point","coordinates":[-68.1987423,-3.3591757]},"properties":{"osm_id":3635723411,"osm_type":"node","seamark_type":"harbour","name":"Amaturá","importance":5,"min_zoom":7,"attributes":{},"common":{"name":"Amaturá","type":"harbour"},"children":{},"osm_tags":{"harbour":"yes","seamark:name":"Amaturá","seamark:type":"harbour"}}},{"type":"Feature","geometry":{"type":"Point","coordinates":[-61.4036336,-3.5827215]},"properties":{"osm_id":3635723428,"osm_type":"node","seamark_type":"harbour","name":"Anamã","importance":5,"min_zoom":7,"attributes":{},"common":{"name":"Anamã","type":"harbour"},"children":{},"osm_tags":{"harbour":"yes","seamark:name":"Anamã","seamark:type":"harbour"}}},{"type":"Feature","geometry":{"type":"Point","coordinates":[-61.656385,-3.7558499]},"properties":{"osm_id":3635723457,"osm_type":"node","seamark_type":"harbour","name":"Anori","importance":5,"min_zoom":7,"attributes":{},"common":{"name":"Anori","type":"harbour"},"children":{},"osm_tags":{"harbour":"yes","seamark:name":"Anori","seamark:type":"harbour"}}},{"type":"Feature","geometry":{"type":"Point","coordinates":[-62.0649328,-3.8435348]},"properties":{"osm_id":3635724340,"osm_type":"node","seamark_type":"harbour","name":"Codajás","importance":5,"min_zoom":7,"attributes":{},"common":{"name":"Codajás","type":"harbour"},"children":{},"osm_tags":{"harbour":"yes","seamark:name":"Codajás","seamark:type":"harbour"}}},{"type":"Feature","geometry":{"type":"Point","coordinates":[-60.37431,-5.1147238]},"properties":{"osm_id":3635725817,"osm_type":"node","seamark_type":"harbour","name":"Novo Aripuanã","importance":5,"min_zoom":7,"attributes":{},"common":{"name":"Novo Aripuanã","type":"harbour"},"children":{},"osm_tags":{"harbour":"yes","seamark:name":"Novo Aripuanã","seamark:type":"harbour"}}},{"type":"Feature","geometry":{"type":"Point","coordinates":[-66.0644997,-3.4699547]},"properties":{"osm_id":3636008686,"osm_type":"node","seamark_type":"harbour","name":"Juruá","importance":5,"min_zoom":7,"attributes":{},"common":{"name":"Juruá","type":"harbour"},"children":{},"osm_tags":{"harbour":"yes","seamark:name":"Juruá","seamark:type":"harbour"}}},{"type":"Feature","geometry":{"type":"Point","coordinates":[-60.9364874,-2.6236863]},"properties":{"osm_id":3636010841,"osm_type":"node","seamark_type":"harbour","name":"Novo Airão","importance":5,"min_zoom":7,"attributes":{},"common":{"name":"Novo Airão","type":"harbour"},"children":{},"osm_tags":{"harbour":"yes","seamark:name":"Novo Airão","seamark:type":"harbour"}}},{"type":"Feature","geometry":{"type":"Point","coordinates":[-65.1525423,-2.9834624]},"properties":{"osm_id":3636010843,"osm_type":"node","seamark_type":"harbour","name":"Uarini","importance":5,"min_zoom":7,"attributes":{},"common":{"name":"Uarini","type":"harbour"},"children":{},"osm_tags":{"harbour":"yes","seamark:name":"Uarini","seamark:type":"harbour"}}},{"type":"Feature","geometry":{"type":"Point","coordinates":[-60.02464,-3.1413487]},"properties":{"osm_id":3636010844,"osm_type":"node","seamark_type":"harbour","name":"Terminal AJATO","importance":5,"min_zoom":7,"attributes":{"category":"passenger"},"common":{"name":"Terminal AJATO","type":"harbour"},"children":{},"osm_tags":{"harbour":"yes","harbour:operator":"AJATO","operator":"AJATO","seamark:harbour:category":"passenger","seamark:name":"Terminal AJATO","seamark:type":"harbour","website":"http://terminalajato.com.br/"}}},{"type":"Feature","geometry":{"type":"Point","coordinates":[-64.8071767,-3.2105761]},"properties":{"osm_id":3636010890,"osm_type":"node","seamark_type":"harbour","name":"Alvarães","importance":5,"min_zoom":7,"attributes":{},"common":{"name":"Alvarães","type":"harbour"},"children":{},"osm_tags":{"harbour":"yes","seamark:name":"Alvarães","seamark:type":"harbour"}}},{"type":"Feature","geometry":{"type":"Point","coordinates":[-60.364981,-3.8265589]},"properties":{"osm_id":3636011099,"osm_type":"node","seamark_type":"harbour","name":"Careiro","importance":5,"min_zoom":7,"attributes":{},"common":{"name":"Careiro","type":"harbour"},"children":{},"osm_tags":{"harbour":"yes","seamark:name":"Careiro","seamark:type":"harbour"}}},{"type":"Feature","geometry":{"type":"Point","coordinates":[-69.86803,-6.6680947]},"properties":{"osm_id":3636011100,"osm_type":"node","seamark_type":"harbour","name":"Eirunepé","importance":5,"min_zoom":7,"attributes":{},"common":{"name":"Eirunepé","type":"harbour"},"children":{},"osm_tags":{"harbour":"yes","seamark:name":"Eirunepé","seamark:type":"harbour"}}},{"type":"Feature","geometry":{"type":"Point","coordinates":[-63.0179248,-7.5069252]},"properties":{"osm_id":3636011101,"osm_type":"node","seamark_type":"harbour","name":"Humaitá","importance":5,"min_zoom":7,"attributes":{},"common":{"name":"Humaitá","type":"harbour"},"children":{},"osm_tags":{"harbour":"yes","seamark:name":"Humaitá","seamark:type":"harbour"}}},{"type":"Feature","geometry":{"type":"Point","coordinates":[-69.9587955,-4.2222142]},"properties":{"osm_id":4367321991,"osm_type":"node","seamark_type":"harbour","name":"Puerto Santa Rosa","importance":5,"min_zoom":7,"attributes":{"category":"marina"},"common":{"type":"harbour"},"children":{},"osm_tags":{"leisure":"marina","name":"Puerto Santa Rosa","seamark:harbour:category":"marina","seamark:type":"harbour"}}},{"type":"Feature","geometry":{"type":"Point","coordinates":[-60.0108354,-3.1105762]},"properties":{"osm_id":4915794293,"osm_type":"node","seamark_type":"landmark","name":null,"importance":5,"min_zoom":7,"attributes":{"category":"mast"},"common":{"type":"landmark"},"children":{"light":{"character":"Q","colour":"white"}},"osm_tags":{"addr:street":"Rua Fortaleza","amenity":"studio","man_made":"tower","seamark:landmark:category":"mast","seamark:light:character":"Q","seamark:light:colour":"white","seamark:type":"landmark"}}},{"type":"Feature","geometry":{"type":"Point","coordinates":[-60.0175087,-3.1388957]},"properties":{"osm_id":4916874092,"osm_type":"node","seamark_type":"landmark","name":null,"importance":5,"min_zoom":7,"attributes":{"category":"chimney"},"common":{"type":"landmark"},"children":{},"osm_tags":{"man_made":"chimney","seamark:landmark:category":"chimney","seamark:type":"landmark"}}},{"type":"Feature","geometry":{"type":"Point","coordinates":[-60.0881062,-3.1387545]},"properties":{"osm_id":8355630149,"osm_type":"node","seamark_type":"mooring","name":"Balsa","importance":1,"min_zoom":15,"attributes":{},"common":{"type":"mooring"},"children":{"harbour":{"category":"marina"}},"osm_tags":{"leisure":"marina","name":"Balsa","seamark:harbour:category":"marina","seamark:type":"mooring","wikidata":"Q103798972","wikipedia":"en:Balsa, Brazil"}}},{"type":"Feature","geometry":{"type":"Point","coordinates":[-64.6361215,-3.3923781]},"properties":{"osm_id":8699173323,"osm_type":"node","seamark_type":"mooring","name":null,"importance":1,"min_zoom":15,"attributes":{},"common":{"type":"mooring"},"children":{},"osm_tags":{"seamark:type":"mooring"}}},{"type":"Feature","geometry":{"type":"Point","coordinates":[-69.9445407,-4.2346768]},"properties":{"osm_id":9905811017,"osm_type":"node","seamark_type":"harbour","name":"Terminal hidroviario de Tabatinga","importance":5,"min_zoom":7,"attributes":{"category":"marina"},"common":{"type":"harbour"},"children":{},"osm_tags":{"amenity":"ferry_terminal","name":"Terminal hidroviario de Tabatinga","name:en":"Portobras","seamark:harbour:category":"marina","seamark:type":"harbour"}}},{"type":"Feature","geometry":{"type":"Point","coordinates":[-60.0330891,-3.1301476]},"properties":{"osm_id":12636768938,"osm_type":"node","seamark_type":"landmark","name":null,"importance":5,"min_zoom":7,"attributes":{"category":"chimney"},"common":{"type":"landmark"},"children":{},"osm_tags":{"man_made":"chimney","seamark:landmark:category":"chimney","seamark:type":"landmark"}}},{"type":"Feature","geometry":{"type":"Point","coordinates":[-60.0332952,-3.1303952]},"properties":{"osm_id":12636768939,"osm_type":"node","seamark_type":"landmark","name":null,"importance":5,"min_zoom":7,"attributes":{"category":"chimney"},"common":{"type":"landmark"},"children":{},"osm_tags":{"man_made":"chimney","seamark:landmark:category":"chimney","seamark:type":"landmark"}}},{"type":"Feature","geometry":{"type":"Point","coordinates":[-60.0187532,-3.1145562]},"properties":{"osm_id":43138000,"osm_type":"way","seamark_type":"landmark","name":"Cemitério São João Batista","importance":5,"min_zoom":7,"attributes":{"category":"cemetery"},"common":{"type":"landmark"},"children":{},"osm_tags":{"landuse":"cemetery","name":"Cemitério São João Batista","seamark:landmark:category":"cemetery","seamark:type":"landmark","surface":"paved"}}},{"type":"Feature","geometry":{"type":"Point","coordinates":[-60.0554034,-3.1426354]},"properties":{"osm_id":188456604,"osm_type":"way","seamark_type":"pipeline_submarine","name":"Urucu - Manaus Pipeline (Section 3)","importance":2,"min_zoom":13,"attributes":{"category":"gas","product":"gas"},"common":{"type":"pipeline_submarine"},"children":{},"osm_tags":{"description":"Ramal UTE Aparecida","layer":"-1","location":"underwater","man_made":"pipeline","name":"Urucu - Manaus Pipeline (Section 3)","network":"transmission","operator":"Petrobras","seamark:pipeline_submarine:category":"gas","seamark:pipeline_submarine:product":"gas","seamark:type":"pipeline_submarine","source":"Bing","substance":"gas"}}},{"type":"Feature","geometry":{"type":"Point","coordinates":[-60.0255984,-3.1165188]},"properties":{"osm_id":198227976,"osm_type":"way","seamark_type":"tank","name":null,"importance":1,"min_zoom":15,"attributes":{"category":"water_tower"},"common":{"type":"tank"},"children":{},"osm_tags":{"addr:housename":"Reservatório","man_made":"water_tower","seamark:tank:category":"water_tower","seamark:type":"tank"}}},{"type":"Feature","geometry":{"type":"Point","coordinates":[-60.726692,-3.2249173]},"properties":{"osm_id":310573679,"osm_type":"way","seamark_type":"pipeline_submarine","name":"Urucu - Manaus Pipeline (Section 3)","importance":2,"min_zoom":13,"attributes":{},"common":{"type":"pipeline_submarine"},"children":{},"osm_tags":{"description":"Coari - Manaus","layer":"-1","location":"underwater","man_made":"pipeline","name":"Urucu - Manaus Pipeline (Section 3)","network":"transmission","operator":"Petrobras","seamark:type":"pipeline_submarine","source":"Bing","substance":"gas"}}},{"type":"Feature","geometry":{"type":"Point","coordinates":[-63.5440448,-4.0978956]},"properties":{"osm_id":310573689,"osm_type":"way","seamark_type":"pipeline_submarine","name":"Urucu - Manaus Pipeline (Section 1)","importance":2,"min_zoom":13,"attributes":{},"common":{"type":"pipeline_submarine"},"children":{},"osm_tags":{"description":"Urucu - Coari","layer":"-1","location":"underwater","man_made":"pipeline","name":"Urucu - Manaus Pipeline (Section 1)","network":"transmission","operator":"Petrobras","seamark:type":"pipeline_submarine","short_name":"GARSOL","substance":"gas"}}},{"type":"Feature","geometry":{"type":"Point","coordinates":[-63.141598,-3.9621186]},"properties":{"osm_id":321589257,"osm_type":"way","seamark_type":"pipeline_submarine","name":"Urucu - Manaus Pipeline (Section 2)","importance":2,"min_zoom":13,"attributes":{"category":"gas","product":"gas"},"common":{"type":"pipeline_submarine"},"children":{},"osm_tags":{"description":"Coari - Manaus","layer":"-1","location":"underwater","man_made":"pipeline","name":"Urucu - Manaus Pipeline (Section 2)","network":"transmission","operator":"Petrobras","seamark:pipeline_submarine:category":"gas","seamark:pipeline_submarine:product":"gas","seamark:type":"pipeline_submarine","substance":"gas"}}},{"type":"Feature","geometry":{"type":"Point","coordinates":[-63.15987,-4.0633914]},"properties":{"osm_id":354416266,"osm_type":"way","seamark_type":"pipeline_submarine","name":"Urucu - Manaus Pipeline (Coari Branch)","importance":2,"min_zoom":13,"attributes":{"category":"gas","product":"gas"},"common":{"type":"pipeline_submarine"},"children":{},"osm_tags":{"layer":"-1","location":"underwater","man_made":"pipeline","name":"Urucu - Manaus Pipeline (Coari Branch)","network":"transmission","operator":"Petrobras","seamark:pipeline_submarine:category":"gas","seamark:pipeline_submarine:product":"gas","seamark:type":"pipeline_submarine","substance":"gas"}}}],"type":"FeatureCollection"}