{"type":"FeatureCollection","features":[{"type":"Feature","geometry":{"type":"Point","coordinates":[-14.4088503,-7.9267485]},"properties":{"osm_id":11919675690,"osm_type":"node","seamark_type":"beacon_special_purpose","name":null,"importance":4,"min_zoom":9,"attributes":{"colour":"white;red;white;red","colour_pattern":"horizontal","height":"27.4","shape":"pole"},"common":{"type":"beacon_special_purpose"},"children":{"light":{"category":"rear","character":"F","colour":"white","height":"55","reference":"D 4804.10"}},"osm_tags":{"seamark:beacon_special_purpose:colour":"white;red;white;red","seamark:beacon_special_purpose:colour_pattern":"horizontal","seamark:beacon_special_purpose:height":"27.4","seamark:beacon_special_purpose:shape":"pole","seamark:light:category":"rear","seamark:light:character":"F","seamark:light:colour":"white","seamark:light:height":"55","seamark:light:reference":"D 4804.10","seamark:type":"beacon_special_purpose","source":"US NGA Pub. 113. 2024-05-18."}}},{"type":"Feature","geometry":{"type":"Point","coordinates":[-14.4154762,-7.9219709]},"properties":{"osm_id":25591772,"osm_type":"way","seamark_type":"pipeline_submarine","name":null,"importance":2,"min_zoom":13,"attributes":{},"common":{"type":"pipeline_submarine"},"children":{},"osm_tags":{"layer":"-1","location":"underwater","man_made":"pipeline","seamark:type":"pipeline_submarine"}}}],"type":"FeatureCollection"}