{"type":"FeatureCollection","features":[{"type":"Feature","geometry":{"type":"Point","coordinates":[42.5546476,-0.3798748]},"properties":{"osm_id":838592376,"osm_type":"node","seamark_type":"light_minor","name":"Isola dei Serpenti","importance":5,"min_zoom":7,"attributes":{},"common":{"name":"Isola dei Serpenti","type":"light_minor"},"children":{"light":{"character":"Fl","colour":"white","height":"35","period":"4","range":"12","reference":"D 6842"}},"osm_tags":{"man_made":"lighthouse","seamark:light:character":"Fl","seamark:light:colour":"white","seamark:light:height":"35","seamark:light:period":"4","seamark:light:range":"12","seamark:light:reference":"D 6842","seamark:name":"Isola dei Serpenti","seamark:type":"light_minor","source":"US NGA Pub. 112. 2010-11-10."}}},{"type":"Feature","geometry":{"type":"Point","coordinates":[42.5419287,-0.3870517]},"properties":{"osm_id":1295699705,"osm_type":"node","seamark_type":"light_minor","name":null,"importance":4,"min_zoom":9,"attributes":{},"common":{"information":"surmounted by red lantern;","type":"light_minor"},"children":{"light":{"character":"Q","colour":"red","range":"3","reference":"D 6846"}},"osm_tags":{"seamark:information":"surmounted by red lantern;","seamark:light:character":"Q","seamark:light:colour":"red","seamark:light:range":"3","seamark:light:reference":"D 6846","seamark:type":"light_minor","source":"US NGA Pub. 112. 2010-11-10."}}},{"type":"Feature","geometry":{"type":"Point","coordinates":[42.544809,-0.3876037]},"properties":{"osm_id":70235506,"osm_type":"way","seamark_type":"harbour","name":"Port of Kismaayo","importance":5,"min_zoom":7,"attributes":{},"common":{"type":"harbour"},"children":{},"osm_tags":{"name":"Port of Kismaayo","seamark:type":"harbour","source":"NIMA - 1992"}}},{"type":"Feature","geometry":{"type":"Point","coordinates":[40.2066083,-2.9353466]},"properties":{"osm_id":662857987,"osm_type":"way","seamark_type":"platform","name":"Centro spaziale Luigi Broglio - Platform Santa Rita","importance":2,"min_zoom":13,"attributes":{"category":"research"},"common":{"name":"Centro spaziale Luigi Broglio - Platform Santa Rita","type":"platform"},"children":{},"osm_tags":{"building":"industrial","man_made":"offshore_platform","name":"Centro spaziale Luigi Broglio - Platform Santa Rita","name:fr":"Centre spatial Luigi Broglio - Plateforme Santa Rita","seamark:name":"Centro spaziale Luigi Broglio - Platform Santa Rita","seamark:platform:category":"research","seamark:type":"platform","wikipedia":"fr:Plate-forme San Marco"}}},{"type":"Feature","geometry":{"type":"Point","coordinates":[40.214079,-2.9415771]},"properties":{"osm_id":662857988,"osm_type":"way","seamark_type":"platform","name":"Centro spaziale Luigi Broglio","importance":2,"min_zoom":13,"attributes":{"category":"research"},"common":{"name":"Centro spaziale Luigi Broglio","type":"platform"},"children":{},"osm_tags":{"building":"industrial","man_made":"offshore_platform","name":"Luigi Broglio Space Assembly Facility","name:fr":"Centre spatial Luigi Broglio - Plateforme San Marco","seamark:name":"Centro spaziale Luigi Broglio","seamark:platform:category":"research","seamark:type":"platform","wikipedia":"fr:Plate-forme San Marco"}}},{"type":"Feature","geometry":{"type":"Point","coordinates":[40.9093621,-2.2579059]},"properties":{"osm_id":666532608,"osm_type":"way","seamark_type":"wreck","name":"Tawasal","importance":4,"min_zoom":9,"attributes":{"category":"hull_visible"},"common":{"type":"wreck"},"children":{},"osm_tags":{"access":"yes","historic":"wreck","name":"Tawasal","seamark:type":"wreck","seamark:wreck:category":"hull_visible","wreck:visible_at_high_tide":"yes","wreck:visible_at_low_tide":"yes"}}},{"type":"Feature","geometry":{"type":"Point","coordinates":[40.2099845,-2.9385085]},"properties":{"osm_id":736291315,"osm_type":"way","seamark_type":"platform","name":"Centro spaziale Luigi Broglio","importance":2,"min_zoom":13,"attributes":{"category":"research"},"common":{"name":"Centro spaziale Luigi Broglio","type":"platform"},"children":{},"osm_tags":{"building":"industrial","man_made":"offshore_platform","seamark:name":"Centro spaziale Luigi Broglio","seamark:platform:category":"research","seamark:type":"platform","wikipedia":"fr:Plate-forme San Marco"}}},{"type":"Feature","geometry":{"type":"Point","coordinates":[40.2069592,-2.9352473]},"properties":{"osm_id":873057394,"osm_type":"way","seamark_type":"platform","name":"Centro spaziale Luigi Broglio - Platform Santa Rita","importance":2,"min_zoom":13,"attributes":{"category":"research"},"common":{"name":"Centro spaziale Luigi Broglio - Platform Santa Rita","type":"platform"},"children":{},"osm_tags":{"building":"industrial","man_made":"offshore_platform","name":"Centro spaziale Luigi Broglio - Platform Santa Rita","name:fr":"Centre spatial Luigi Broglio - Plateforme Santa Rita","seamark:name":"Centro spaziale Luigi Broglio - Platform Santa Rita","seamark:platform:category":"research","seamark:type":"platform","wikipedia":"fr:Plate-forme San Marco"}}}],"type":"FeatureCollection"}