{"type":"FeatureCollection","features":[{"type":"Feature","geometry":{"type":"Point","coordinates":[55.4695085,-4.6180669]},"properties":{"osm_id":1295700491,"osm_type":"node","seamark_type":"light_minor","name":"Victoria","importance":5,"min_zoom":7,"attributes":{},"common":{"information":"R. lights on radio mast 1.5 F.R. and 2 F.R. on radio mast 2.8 miles SSW.Fl.R. (occas.) 2.1 miles S. and 3.3 miles SSE.-AVIATION LIGHT.","name":"Victoria","type":"light_minor"},"children":{"light":{"character":"Fl","colour":"white","height":"12","period":"6.7","range":"7","reference":"D 6868","sequence":"0.7+(6)"}},"osm_tags":{"seamark:information":"R. lights on radio mast 1.5 F.R. and 2 F.R. on radio mast 2.8 miles SSW.Fl.R. (occas.) 2.1 miles S. and 3.3 miles SSE.-AVIATION LIGHT.","seamark:light:character":"Fl","seamark:light:colour":"white","seamark:light:height":"12","seamark:light:period":"6.7","seamark:light:range":"7","seamark:light:reference":"D 6868","seamark:light:sequence":"0.7+(6)","seamark:name":"Victoria","seamark:type":"light_minor","source":"US NGA Pub. 112. 2010-11-10."}}},{"type":"Feature","geometry":{"type":"Point","coordinates":[55.2518852,-4.4842712]},"properties":{"osm_id":1823150832,"osm_type":"node","seamark_type":"harbour","name":null,"importance":5,"min_zoom":7,"attributes":{"category":"marina"},"common":{"type":"harbour"},"children":{},"osm_tags":{"leisure":"marina","seamark:harbour:category":"marina","seamark:type":"harbour"}}},{"type":"Feature","geometry":{"type":"Point","coordinates":[55.4767662,-4.6416626]},"properties":{"osm_id":4785809291,"osm_type":"node","seamark_type":"harbour","name":"Eden Island","importance":5,"min_zoom":7,"attributes":{"category":"marina"},"common":{"type":"harbour"},"children":{},"osm_tags":{"leisure":"marina","name":"Eden Island","name:fr":"Ile Éden","seamark:harbour:category":"marina","seamark:type":"harbour"}}},{"type":"Feature","geometry":{"type":"Point","coordinates":[55.9488425,-4.5846982]},"properties":{"osm_id":6021820039,"osm_type":"node","seamark_type":"harbour","name":null,"importance":5,"min_zoom":7,"attributes":{},"common":{"type":"harbour"},"children":{},"osm_tags":{"harbour":"yes","seamark:type":"harbour"}}},{"type":"Feature","geometry":{"type":"Point","coordinates":[53.3123146,-5.745825]},"properties":{"osm_id":6472857432,"osm_type":"node","seamark_type":"harbour","name":null,"importance":5,"min_zoom":7,"attributes":{"category":"marina"},"common":{"type":"harbour"},"children":{},"osm_tags":{"leisure":"marina","seamark:harbour:category":"marina","seamark:type":"harbour"}}},{"type":"Feature","geometry":{"type":"Point","coordinates":[55.6857772,-4.2899044]},"properties":{"osm_id":7470325772,"osm_type":"node","seamark_type":"rock","name":null,"importance":1,"min_zoom":15,"attributes":{"water_level":"awash"},"common":{"type":"rock"},"children":{},"osm_tags":{"seamark:rock:water_level":"awash","seamark:type":"rock"}}},{"type":"Feature","geometry":{"type":"Point","coordinates":[55.7628794,-4.3470247]},"properties":{"osm_id":100291708,"osm_type":"way","seamark_type":"small_craft_facility","name":null,"importance":1,"min_zoom":15,"attributes":{"category":"slipway"},"common":{"information":"cable winch","type":"small_craft_facility"},"children":{},"osm_tags":{"leisure":"slipway","seamark:information":"cable winch","seamark:small_craft_facility:category":"slipway","seamark:type":"small_craft_facility"}}},{"type":"Feature","geometry":{"type":"Point","coordinates":[55.4769597,-4.6456009]},"properties":{"osm_id":144767467,"osm_type":"way","seamark_type":"harbour","name":null,"importance":5,"min_zoom":7,"attributes":{"category":"marina"},"common":{"type":"harbour"},"children":{},"osm_tags":{"leisure":"marina","seamark:harbour:category":"marina","seamark:type":"harbour"}}},{"type":"Feature","geometry":{"type":"Point","coordinates":[55.2521084,-4.4845489]},"properties":{"osm_id":435741241,"osm_type":"way","seamark_type":"harbour","name":"Jetty Hilton Labriz","importance":5,"min_zoom":7,"attributes":{"category":"marina"},"common":{"type":"harbour"},"children":{},"osm_tags":{"building":"yes","leisure":"marina","name":"Jetty Hilton Labriz","seamark:harbour:category":"marina","seamark:type":"harbour","waterway":"boatyard"}}}],"type":"FeatureCollection"}