{"type":"FeatureCollection","features":[{"type":"Feature","geometry":{"type":"Point","coordinates":[96.8771766,-12.0904249]},"properties":{"osm_id":1293087701,"osm_type":"node","seamark_type":"light_minor","name":"Cocos Islands","importance":5,"min_zoom":7,"attributes":{},"common":{"name":"Cocos Islands","type":"light_minor"},"children":{"beacon_special_purpose":{"construction":"metal;framework","height":"7.0","shape":"tower"},"light":{"character":"Fl","colour":"white","group":"2","height":"6","period":"8","range":"8","reference":"Q 0824","sequence":"0.5+(1.5)+0.5+(5.5)"}},"osm_tags":{"seamark:beacon_special_purpose:construction":"metal;framework","seamark:beacon_special_purpose:height":"7.0","seamark:beacon_special_purpose:shape":"tower","seamark:light:character":"Fl","seamark:light:colour":"white","seamark:light:group":"2","seamark:light:height":"6","seamark:light:period":"8","seamark:light:range":"8","seamark:light:reference":"Q 0824","seamark:light:sequence":"0.5+(1.5)+0.5+(5.5)","seamark:name":"Cocos Islands","seamark:type":"light_minor","source":"US NGA Pub. 112. 2024-05-18."}}},{"type":"Feature","geometry":{"type":"Point","coordinates":[96.8796667,-12.0947965]},"properties":{"osm_id":3023996226,"osm_type":"node","seamark_type":"beacon_lateral","name":null,"importance":4,"min_zoom":9,"attributes":{"category":"starboard","colour":"green","system":"iala-a"},"common":{"type":"beacon_lateral"},"children":{"topmark":{"colour":"green","shape":"cone, point up"}},"osm_tags":{"seamark:beacon_lateral:category":"starboard","seamark:beacon_lateral:colour":"green","seamark:beacon_lateral:system":"iala-a","seamark:topmark:colour":"green","seamark:topmark:shape":"cone, point up","seamark:type":"beacon_lateral"}}},{"type":"Feature","geometry":{"type":"Point","coordinates":[96.877906,-12.0963867]},"properties":{"osm_id":3023996227,"osm_type":"node","seamark_type":"beacon_lateral","name":null,"importance":4,"min_zoom":9,"attributes":{"category":"port","colour":"red","system":"iala-a"},"common":{"type":"beacon_lateral"},"children":{"topmark":{"colour":"red","shape":"cylinder"}},"osm_tags":{"seamark:beacon_lateral:category":"port","seamark:beacon_lateral:colour":"red","seamark:beacon_lateral:system":"iala-a","seamark:topmark:colour":"red","seamark:topmark:shape":"cylinder","seamark:type":"beacon_lateral"}}},{"type":"Feature","geometry":{"type":"Point","coordinates":[96.8636085,-12.1057878]},"properties":{"osm_id":3023996228,"osm_type":"node","seamark_type":"beacon_special_purpose","name":null,"importance":4,"min_zoom":9,"attributes":{"category":"leading","colour":"black"},"common":{"type":"beacon_special_purpose"},"children":{"light":{"category":"directional","character":"Fl","colour":"white"}},"osm_tags":{"seamark:beacon_special_purpose:category":"leading","seamark:beacon_special_purpose:colour":"black","seamark:light:category":"directional","seamark:light:character":"Fl","seamark:light:colour":"white","seamark:type":"beacon_special_purpose"}}},{"type":"Feature","geometry":{"type":"Point","coordinates":[96.8665994,-12.0962611]},"properties":{"osm_id":3027860356,"osm_type":"node","seamark_type":"beacon_special_purpose","name":null,"importance":4,"min_zoom":9,"attributes":{"category":"leading","colour":"black"},"common":{"type":"beacon_special_purpose"},"children":{"light":{"character":"Fl","colour":"white"}},"osm_tags":{"seamark:beacon_special_purpose:category":"leading","seamark:beacon_special_purpose:colour":"black","seamark:light:character":"Fl","seamark:light:colour":"white","seamark:type":"beacon_special_purpose"}}},{"type":"Feature","geometry":{"type":"Point","coordinates":[96.8772704,-12.0904801]},"properties":{"osm_id":12501018620,"osm_type":"node","seamark_type":"light_minor","name":"Cocos Islands","importance":5,"min_zoom":7,"attributes":{},"common":{"name":"Cocos Islands","type":"light_minor"},"children":{"light":{"character":"Fl","colour":"white","group":"2","height":"6","period":"8","range":"8","reference":"Q 0824","sequence":"0.5+(1.5)+0.5+(5.5)"}},"osm_tags":{"man_made":"beacon","seamark:light:character":"Fl","seamark:light:colour":"white","seamark:light:group":"2","seamark:light:height":"6","seamark:light:period":"8","seamark:light:range":"8","seamark:light:reference":"Q 0824","seamark:light:sequence":"0.5+(1.5)+0.5+(5.5)","seamark:name":"Cocos Islands","seamark:type":"light_minor"}}}],"type":"FeatureCollection"}