{"type":"FeatureCollection","features":[{"type":"Feature","geometry":{"type":"Point","coordinates":[-81.3406205,-33.6051306]},"properties":{"osm_id":19357647,"osm_type":"relation","seamark_type":"restricted_area","name":"Parque Nacional Mar de Juan Fernández","importance":1,"min_zoom":15,"attributes":{"category":"fish_sanctuary","restriction":"restricted_anchoring"},"common":{"type":"restricted_area"},"children":{},"osm_tags":{"access":"permit","boundary":"protected_area","description":"26.444.283 hectáreas protegidas de ecosistemas únicos con alto grado de endemismo: montes submarinos y ecosistemas pelágicos, recursos hidrobiológicos, además de conservación de especies vulnerables (tiburón mako, tortuga laúd, etc.)","leisure":"nature_reserve","name":"Parque Nacional Mar de Juan Fernández","old_name":"Parque Marino Mar de Juan Fernández","operator":"Servicio Nacional de Pesca y Acuicultura","operator:type":"government","protect_class":"1a","protected_area":"national_park","protection_title":"Parque Nacional","related_law":"Decreto 12 de 2018","related_law:url":"https://bcn.cl/3ae2a","seamark:restricted_area:category":"fish_sanctuary","seamark:restricted_area:restriction":"restricted_anchoring","seamark:type":"restricted_area","start_date":"2018-12-19","type":"boundary","website":"https://discoverjuanfernandez.com/areas-marinas-protegidas/","wikimedia_commons":"File:Arrecife Juan Fernandez.jpg"}}}],"type":"FeatureCollection"}