{"type":"FeatureCollection","features":[{"type":"Feature","geometry":{"type":"Point","coordinates":[107.6216667,0.8483333]},"properties":{"osm_id":14004437156,"osm_type":"node","seamark_type":"landmark","display_class":"OTHER","min_zoom":12,"importance":1,"name":"Karang Takongmangirang","ref":null,"common":{"name":"Karang Takongmangirang","radar_reflector":"yes","type":"landmark"},"children":{"landmark":{"category":"tower","colour":"white","construction":"grp","function":"light_support"},"light":{"character":"Q","colour":"white","group":"2","height":"15","period":"8","range":"12","reference":"F 1887.5"}},"osm_tags":{"seamark:landmark:category":"tower","seamark:landmark:colour":"white","seamark:landmark:construction":"grp","seamark:landmark:function":"light_support","seamark:light:character":"Q","seamark:light:colour":"white","seamark:light:group":"2","seamark:light:height":"15","seamark:light:period":"8","seamark:light:range":"12","seamark:light:reference":"F 1887.5","seamark:name":"Karang Takongmangirang","seamark:radar_reflector":"yes","seamark:type":"landmark"}}},{"type":"Feature","geometry":{"type":"Point","coordinates":[107.3205783,0.7459885]},"properties":{"osm_id":14004437157,"osm_type":"node","seamark_type":"landmark","display_class":"OTHER","min_zoom":12,"importance":1,"name":"Pulau Jangkulan","ref":null,"common":{"name":"Pulau Jangkulan","type":"landmark"},"children":{"landmark":{"category":"tower","colour":"white","conspicuity":"conspicuous","construction":"grp","function":"light_support"},"light":{"1:character":"Fl","1:colour":"white","1:group":"3","1:height":"15","1:period":"15","1:range":"12","1:sequence":"0.3+(1.7)+0.3+(1.7)+0.3+(10.7)"}},"osm_tags":{"seamark:landmark:category":"tower","seamark:landmark:colour":"white","seamark:landmark:conspicuity":"conspicuous","seamark:landmark:construction":"grp","seamark:landmark:function":"light_support","seamark:light:1:character":"Fl","seamark:light:1:colour":"white","seamark:light:1:group":"3","seamark:light:1:height":"15","seamark:light:1:period":"15","seamark:light:1:range":"12","seamark:light:1:sequence":"0.3+(1.7)+0.3+(1.7)+0.3+(10.7)","seamark:name":"Pulau Jangkulan","seamark:type":"landmark"}}}],"type":"FeatureCollection"}