{"type":"FeatureCollection","features":[{"type":"Feature","geometry":{"type":"Polygon","coordinates":[[[73.5377435,0.3528208],[73.5378567,0.3528106],[73.5382245,0.3526741],[73.5380812,0.3522862],[73.5384269,0.3521338],[73.5379581,0.350566],[73.5371819,0.3507456],[73.5370946,0.3507466],[73.5374239,0.3518113],[73.5375557,0.352254],[73.5377435,0.3528208]]]},"properties":{"osm_id":1128276821,"osm_type":"way","seamark_type":"harbour","display_class":"OTHER","min_zoom":12,"importance":1,"name":null,"ref":null,"common":{"type":"harbour"},"children":{"harbour":{"category":"marina"}},"osm_tags":{"leisure":"marina","seamark:harbour:category":"marina","seamark:type":"harbour"}}},{"type":"Feature","geometry":{"type":"Polygon","coordinates":[[[73.2390027,0.5581961],[73.2393616,0.5582589],[73.2393908,0.5582046],[73.2399285,0.5582477],[73.2400948,0.5568483],[73.24032,0.5563465],[73.2397316,0.5560626],[73.2392343,0.5566669],[73.2392252,0.556678],[73.2391243,0.5570948],[73.2390027,0.5581961]]]},"properties":{"osm_id":1213267026,"osm_type":"way","seamark_type":"harbour","display_class":"OTHER","min_zoom":12,"importance":1,"name":null,"ref":null,"common":{"type":"harbour"},"children":{"harbour":{"category":"marina"}},"osm_tags":{"leisure":"marina","seamark:harbour:category":"marina","seamark:type":"harbour"}}},{"type":"Feature","geometry":{"type":"Point","coordinates":[73.3522667,0.8982333]},"properties":{"osm_id":1293790199,"osm_type":"node","seamark_type":"light_minor","display_class":"OTHER","min_zoom":12,"importance":1,"name":"Kudalafari","ref":null,"common":{"name":"Kudalafari","type":"light_minor"},"children":{"light":{"character":"Fl","colour":"white","height":"15","period":"5","range":"10","reference":"F 0767.6"}},"osm_tags":{"seamark:light:character":"Fl","seamark:light:colour":"white","seamark:light:height":"15","seamark:light:period":"5","seamark:light:range":"10","seamark:light:reference":"F 0767.6","seamark:name":"Kudalafari","seamark:type":"light_minor","source":"US NGA Pub. 112. 2009-11-12."}}}],"type":"FeatureCollection"}