{"type":"FeatureCollection","features":[{"type":"Feature","geometry":{"type":"LineString","coordinates":[[-84.1552762,-3.0253239],[-86.2866321,0.329599]]},"properties":{"osm_id":601702601,"osm_type":"way","seamark_type":"cable_submarine","display_class":"OTHER","min_zoom":12,"importance":1,"name":"Souh America-1","ref":"SAm-1","common":{"type":"cable_submarine"},"children":{"cable_submarine":{"category":"fibre_optic"}},"osm_tags":{"communication":"line","fixme":"continue","location":"underwater","name":"Souh America-1","operator":"Telxius","ref":"SAm-1","seamark:cable_submarine:category":"fibre_optic","seamark:type":"cable_submarine","wikidata":"Q7388904"}}}],"type":"FeatureCollection"}