{"type":"FeatureCollection","features":[{"type":"Feature","geometry":{"type":"Point","coordinates":[98.7546218,1.7285666]},"properties":{"osm_id":12486617926,"osm_type":"node","seamark_type":"beacon_cardinal","display_class":"BEACON","min_zoom":9,"importance":4,"name":"P. Pocan Kecil","ref":null,"common":{"name":"P. Pocan Kecil","type":"beacon_cardinal"},"children":{"beacon_cardinal":{"category":"east","colour":"black;yellow;black","colour_pattern":"horizontal"},"light":{"character":"Q","colour":"white","group":"3","height":"12","period":"12","range":"13","reference":"F 1263.2"},"topmark":{"colour":"black","shape":"2 cones base together"}},"osm_tags":{"man_made":"beacon","seamark:beacon_cardinal:category":"east","seamark:beacon_cardinal:colour":"black;yellow;black","seamark:beacon_cardinal:colour_pattern":"horizontal","seamark:light:character":"Q","seamark:light:colour":"white","seamark:light:group":"3","seamark:light:height":"12","seamark:light:period":"12","seamark:light:range":"13","seamark:light:reference":"F 1263.2","seamark:name":"P. Pocan Kecil","seamark:topmark:colour":"black","seamark:topmark:shape":"2 cones base together","seamark:type":"beacon_cardinal"}}},{"type":"Feature","geometry":{"type":"Point","coordinates":[98.7836974,1.7219314]},"properties":{"osm_id":12486468001,"osm_type":"node","seamark_type":"light_minor","display_class":"OTHER","min_zoom":12,"importance":1,"name":"Aik Habil","ref":null,"common":{"name":"Aik Habil","type":"light_minor"},"children":{"light":{"character":"Fl","colour":"green","height":"10","period":"5","range":"5","reference":"F 1263.5","sequence":"0.5+(4.5)"}},"osm_tags":{"seamark:light:character":"Fl","seamark:light:colour":"green","seamark:light:height":"10","seamark:light:period":"5","seamark:light:range":"5","seamark:light:reference":"F 1263.5","seamark:light:sequence":"0.5+(4.5)","seamark:name":"Aik Habil","seamark:type":"light_minor"}}},{"type":"Feature","geometry":{"type":"Point","coordinates":[98.1768125,1.4780824]},"properties":{"osm_id":12484555066,"osm_type":"node","seamark_type":"landmark","display_class":"OTHER","min_zoom":12,"importance":1,"name":"Bintanah","ref":null,"common":{"name":"Bintanah","type":"landmark"},"children":{"landmark":{"category":"tower","colour":"white","construction":"framework;metal","function":"light_support"},"light":{"character":"Fl","colour":"white","height":"33","period":"5","range":"15","reference":"F 1262.3","sequence":"0.5+(4.5)"}},"osm_tags":{"man_made":"lighthouse","name":"Mercusuar Bintanah","name:en":"Bintanah Lighthouse","seamark:landmark:category":"tower","seamark:landmark:colour":"white","seamark:landmark:construction":"framework;metal","seamark:landmark:function":"light_support","seamark:light:character":"Fl","seamark:light:colour":"white","seamark:light:height":"33","seamark:light:period":"5","seamark:light:range":"15","seamark:light:reference":"F 1262.3","seamark:light:sequence":"0.5+(4.5)","seamark:name":"Bintanah","seamark:type":"landmark"}}},{"type":"Feature","geometry":{"type":"Point","coordinates":[98.6113924,1.5790827]},"properties":{"osm_id":12484641526,"osm_type":"node","seamark_type":"landmark","display_class":"OTHER","min_zoom":12,"importance":1,"name":"Labu Labu Kecil","ref":null,"common":{"name":"Labu Labu Kecil","type":"landmark"},"children":{"landmark":{"category":"tower","colour":"white","construction":"framework;metal","function":"light_support"},"light":{"character":"Fl","colour":"white","group":"2","height":"57","period":"7","range":"15","reference":"F 1262.5","sequence":"1+(1)+1+(4)"}},"osm_tags":{"man_made":"lighthouse","name":"Mercusuar Labu-labu Kecil","name:en":"Labu Labu Kecil Lighthouse","seamark:landmark:category":"tower","seamark:landmark:colour":"white","seamark:landmark:construction":"framework;metal","seamark:landmark:function":"light_support","seamark:light:character":"Fl","seamark:light:colour":"white","seamark:light:group":"2","seamark:light:height":"57","seamark:light:period":"7","seamark:light:range":"15","seamark:light:reference":"F 1262.5","seamark:light:sequence":"1+(1)+1+(4)","seamark:name":"Labu Labu Kecil","seamark:type":"landmark"}}},{"type":"Feature","geometry":{"type":"Point","coordinates":[98.8192075,1.2660735]},"properties":{"osm_id":12486461669,"osm_type":"node","seamark_type":"landmark","display_class":"OTHER","min_zoom":12,"importance":1,"name":"Pulau Ilir","ref":null,"common":{"name":"Pulau Ilir","type":"landmark"},"children":{"landmark":{"category":"tower","colour":"white","conspicuity":"conspicuous","construction":"framework;metal","function":"light_support"},"light":{"character":"Fl","colour":"white","height":"94","period":"9","range":"24","reference":"F 1245"}},"osm_tags":{"seamark:landmark:category":"tower","seamark:landmark:colour":"white","seamark:landmark:conspicuity":"conspicuous","seamark:landmark:construction":"framework;metal","seamark:landmark:function":"light_support","seamark:light:character":"Fl","seamark:light:colour":"white","seamark:light:height":"94","seamark:light:period":"9","seamark:light:range":"24","seamark:light:reference":"F 1245","seamark:name":"Pulau Ilir","seamark:type":"landmark"}}},{"type":"Feature","geometry":{"type":"Point","coordinates":[98.3490822,1.9708525]},"properties":{"osm_id":12488250796,"osm_type":"node","seamark_type":"light_minor","display_class":"OTHER","min_zoom":12,"importance":1,"name":"Pulau Karang","ref":null,"common":{"name":"Pulau Karang","radar_reflector":"yes","type":"light_minor"},"children":{"light":{"character":"Fl","colour":"white","height":"13","period":"5","range":"12","reference":"F 1265.5","sequence":"0.5+(3.5)"}},"osm_tags":{"seamark:light:character":"Fl","seamark:light:colour":"white","seamark:light:height":"13","seamark:light:period":"5","seamark:light:range":"12","seamark:light:reference":"F 1265.5","seamark:light:sequence":"0.5+(3.5)","seamark:name":"Pulau Karang","seamark:radar_reflector":"yes","seamark:type":"light_minor"}}},{"type":"Feature","geometry":{"type":"Point","coordinates":[98.4607289,1.7020802]},"properties":{"osm_id":12484331313,"osm_type":"node","seamark_type":"light_minor","display_class":"OTHER","min_zoom":12,"importance":1,"name":"Pulau Mansalar","ref":null,"common":{"name":"Pulau Mansalar","type":"light_minor"},"children":{"light":{"character":"Fl","colour":"white","height":"35","period":"5","range":"14","reference":"F 1265","sequence":"1+(4)"}},"osm_tags":{"man_made":"beacon","seamark:light:character":"Fl","seamark:light:colour":"white","seamark:light:height":"35","seamark:light:period":"5","seamark:light:range":"14","seamark:light:reference":"F 1265","seamark:light:sequence":"1+(4)","seamark:name":"Pulau Mansalar","seamark:type":"light_minor"}}},{"type":"Feature","geometry":{"type":"Point","coordinates":[98.7626494,1.7190297]},"properties":{"osm_id":12486449305,"osm_type":"node","seamark_type":"light_minor","display_class":"OTHER","min_zoom":12,"importance":1,"name":"Pulau Poncan","ref":null,"common":{"name":"Pulau Poncan","type":"light_minor"},"children":{"light":{"character":"Fl","colour":"green","height":"11","period":"2","range":"5","reference":"F 1263.3","sequence":"0.2+(1.8)"}},"osm_tags":{"seamark:light:character":"Fl","seamark:light:colour":"green","seamark:light:height":"11","seamark:light:period":"2","seamark:light:range":"5","seamark:light:reference":"F 1263.3","seamark:light:sequence":"0.2+(1.8)","seamark:name":"Pulau Poncan","seamark:type":"light_minor"}}},{"type":"Feature","geometry":{"type":"Point","coordinates":[98.7822527,1.7236276]},"properties":{"osm_id":12486505969,"osm_type":"node","seamark_type":"light_minor","display_class":"OTHER","min_zoom":12,"importance":1,"name":"Sarudut","ref":null,"common":{"name":"Sarudut","type":"light_minor"},"children":{"light":{"character":"Fl","colour":"red","height":"10","period":"6","range":"5","reference":"F 1264.5","sequence":"0.5+(5.5)"}},"osm_tags":{"seamark:light:character":"Fl","seamark:light:colour":"red","seamark:light:height":"10","seamark:light:period":"6","seamark:light:range":"5","seamark:light:reference":"F 1264.5","seamark:light:sequence":"0.5+(5.5)","seamark:name":"Sarudut","seamark:type":"light_minor"}}},{"type":"Feature","geometry":{"type":"Point","coordinates":[98.7746111,1.7407172]},"properties":{"osm_id":12486634599,"osm_type":"node","seamark_type":"landmark","display_class":"OTHER","min_zoom":12,"importance":1,"name":"Teluk Sibolga","ref":null,"common":{"information":"F.R. shown from near customhouse in Barus when vessels are in roadstead.","name":"Teluk Sibolga","type":"landmark"},"children":{"landmark":{"category":"tower","colour":"white","conspicuity":"conspicuous","construction":"framework;metal","function":"light_support"},"light":{"character":"Fl","colour":"white","height":"13","period":"5","range":"12","reference":"F 1264","sequence":"1+(4)"}},"osm_tags":{"seamark:information":"F.R. shown from near customhouse in Barus when vessels are in roadstead.","seamark:landmark:category":"tower","seamark:landmark:colour":"white","seamark:landmark:conspicuity":"conspicuous","seamark:landmark:construction":"framework;metal","seamark:landmark:function":"light_support","seamark:light:character":"Fl","seamark:light:colour":"white","seamark:light:height":"13","seamark:light:period":"5","seamark:light:range":"12","seamark:light:reference":"F 1264","seamark:light:sequence":"1+(4)","seamark:name":"Teluk Sibolga","seamark:type":"landmark"}}},{"type":"Feature","geometry":{"type":"Point","coordinates":[98.6924125,1.7329604]},"properties":{"osm_id":12486620217,"osm_type":"node","seamark_type":"landmark","display_class":"OTHER","min_zoom":12,"importance":1,"name":"Ujung Karang","ref":null,"common":{"name":"Ujung Karang","type":"landmark"},"children":{"landmark":{"category":"tower","colour":"white","conspicuity":"conspicuous","construction":"framework;metal","function":"light_support"},"light":{"character":"Fl","colour":"white","group":"3","height":"41","period":"17","range":"17","reference":"F 1263","sequence":"0.5+(3)+0.5+(3)+0.5+(9.5)"}},"osm_tags":{"seamark:landmark:category":"tower","seamark:landmark:colour":"white","seamark:landmark:conspicuity":"conspicuous","seamark:landmark:construction":"framework;metal","seamark:landmark:function":"light_support","seamark:light:character":"Fl","seamark:light:colour":"white","seamark:light:group":"3","seamark:light:height":"41","seamark:light:period":"17","seamark:light:range":"17","seamark:light:reference":"F 1263","seamark:light:sequence":"0.5+(3)+0.5+(3)+0.5+(9.5)","seamark:name":"Ujung Karang","seamark:type":"landmark"}}}],"type":"FeatureCollection"}