{"type":"FeatureCollection","features":[{"type":"Feature","geometry":{"type":"Polygon","coordinates":[[[-71.9547991,1.3352906],[-71.9548085,1.335237],[-71.9548179,1.3351834],[-71.9549211,1.3352014],[-71.9549023,1.3353087],[-71.9547991,1.3352906]]]},"properties":{"osm_id":1172872159,"osm_type":"way","seamark_type":"anchorage","display_class":"OTHER","min_zoom":12,"importance":1,"name":"Puerto Embarque","ref":null,"common":{"name":"Puerto Embarque","type":"anchorage"},"children":{},"osm_tags":{"building":"yes","seamark:name":"Puerto Embarque","seamark:type":"anchorage"}}}],"type":"FeatureCollection"}