{"type":"FeatureCollection","features":[{"type":"Feature","geometry":{"type":"Point","coordinates":[106.4148468,2.9826771]},"properties":{"osm_id":14003129691,"osm_type":"node","seamark_type":"landmark","display_class":"OTHER","min_zoom":12,"importance":1,"name":"Nunsa Island","ref":null,"common":{"name":"Nunsa Island","type":"landmark"},"children":{"landmark":{"category":"tower","colour":"white","construction":"framework;metal","function":"light_support"},"light":{"1:character":"Fl","1:colour":"white","1:group":"4","1:height":"25","1:period":"30","1:range":"15","1:sequence":"0.4+(4.6)+0.4+(4.6)+0.4+(4.6)+0.4+(14.6)","reference":"F 1834"}},"osm_tags":{"seamark:landmark:category":"tower","seamark:landmark:colour":"white","seamark:landmark:construction":"framework;metal","seamark:landmark:function":"light_support","seamark:light:1:character":"Fl","seamark:light:1:colour":"white","seamark:light:1:group":"4","seamark:light:1:height":"25","seamark:light:1:period":"30","seamark:light:1:range":"15","seamark:light:1:sequence":"0.4+(4.6)+0.4+(4.6)+0.4+(4.6)+0.4+(14.6)","seamark:light:reference":"F 1834","seamark:name":"Nunsa Island","seamark:type":"landmark"}}},{"type":"Feature","geometry":{"type":"Point","coordinates":[106.0151704,2.7849868]},"properties":{"osm_id":14003129686,"osm_type":"node","seamark_type":"landmark","display_class":"OTHER","min_zoom":12,"importance":1,"name":"Serak Island","ref":null,"common":{"name":"Serak Island","type":"landmark"},"children":{"landmark":{"category":"tower","colour":"white","construction":"framework;metal","function":"light_support"},"light":{"1:character":"Fl","1:group":"4","1:height":"22","1:period":"20","1:range":"14","1:sequence":"0.3+(3)+0.3+(3)+0.3+(3)+0.3+(9.8)","reference":"F 1830.6"}},"osm_tags":{"seamark:landmark:category":"tower","seamark:landmark:colour":"white","seamark:landmark:construction":"framework;metal","seamark:landmark:function":"light_support","seamark:light:1:character":"Fl","seamark:light:1:group":"4","seamark:light:1:height":"22","seamark:light:1:period":"20","seamark:light:1:range":"14","seamark:light:1:sequence":"0.3+(3)+0.3+(3)+0.3+(3)+0.3+(9.8)","seamark:light:reference":"F 1830.6","seamark:name":"Serak Island","seamark:type":"landmark"}}}],"type":"FeatureCollection"}