{"type":"FeatureCollection","features":[{"type":"Feature","geometry":{"type":"Point","coordinates":[126.697,3.9368795]},"properties":{"osm_id":1293784371,"osm_type":"node","seamark_type":"light_minor","display_class":"OTHER","min_zoom":12,"importance":1,"name":"Lirung","ref":null,"common":{"name":"Lirung","type":"light_minor"},"children":{"light":{"character":"Fl","colour":"white","height":"12","period":"3","range":"12","reference":"F 2133"}},"osm_tags":{"seamark:light:character":"Fl","seamark:light:colour":"white","seamark:light:height":"12","seamark:light:period":"3","seamark:light:range":"12","seamark:light:reference":"F 2133","seamark:name":"Lirung","seamark:type":"light_minor","source":"US NGA Pub. 112. 2009-11-12."}}},{"type":"Feature","geometry":{"type":"Point","coordinates":[126.8227567,3.7290808]},"properties":{"osm_id":1293784360,"osm_type":"node","seamark_type":"light_minor","display_class":"OTHER","min_zoom":12,"importance":1,"name":"Tg. Palle","ref":null,"common":{"name":"Tg. Palle","type":"light_minor"},"children":{"light":{"character":"Fl","colour":"white","height":"65","period":"10","range":"24","reference":"F 2133.5"}},"osm_tags":{"man_made":"lighthouse","seamark:light:character":"Fl","seamark:light:colour":"white","seamark:light:height":"65","seamark:light:period":"10","seamark:light:range":"24","seamark:light:reference":"F 2133.5","seamark:name":"Tg. Palle","seamark:type":"light_minor","source":"US NGA Pub. 112. 2009-11-12."}}}],"type":"FeatureCollection"}