{"type":"FeatureCollection","features":[{"type":"Feature","geometry":{"type":"Polygon","coordinates":[[[4.6177551,4.5573815],[4.6172841,4.5576518],[4.6167838,4.5578636],[4.6162615,4.5580137],[4.6157249,4.5580999],[4.6151818,4.558121],[4.6146401,4.5580768],[4.6141077,4.5579677],[4.6135924,4.5577955],[4.6131016,4.5575626],[4.6126426,4.5572725],[4.612222,4.5569293],[4.611846,4.5565381],[4.61152,4.5561045],[4.6112489,4.555635],[4.6110364,4.5551363],[4.6108859,4.5546157],[4.6107994,4.5540808],[4.6107822,4.5535741],[4.6108226,4.5529994],[4.610932,4.5524687],[4.6111047,4.551955],[4.6113383,4.5514658],[4.6116294,4.5510082],[4.6119737,4.5505889],[4.6123661,4.5502141],[4.612801,4.5498892],[4.6132721,4.5496188],[4.6137724,4.5494071],[4.6142946,4.549257],[4.6148312,4.5491708],[4.6153743,4.5491496],[4.615916,4.5491939],[4.6164484,4.5493029],[4.6169638,4.5494751],[4.6174545,4.549708],[4.6179135,4.5499982],[4.6183341,4.5503414],[4.6187101,4.5507326],[4.6190361,4.5511661],[4.6193073,4.5516357],[4.6195197,4.5521344],[4.6196703,4.552655],[4.6197568,4.5531899],[4.619782,4.5537661],[4.6197336,4.5542713],[4.6196242,4.554802],[4.6194514,4.5553157],[4.6192178,4.5558049],[4.6189267,4.5562625],[4.6185825,4.5566817],[4.61819,4.5570566],[4.6177551,4.5573815]]]},"properties":{"osm_id":460047133,"osm_type":"way","seamark_type":"restricted_area","display_class":"OTHER","min_zoom":12,"importance":1,"name":null,"ref":null,"common":{"type":"restricted_area"},"children":{"restricted_area":{"restriction":"restricted_speed"}},"osm_tags":{"seamark:restricted_area:restriction":"restricted_speed","seamark:type":"restricted_area"}}},{"type":"Feature","geometry":{"type":"Point","coordinates":[4.6152832,4.5536726]},"properties":{"osm_id":4557344697,"osm_type":"node","seamark_type":"platform","display_class":"OTHER","min_zoom":12,"importance":1,"name":"Bonga FPSO","ref":null,"common":{"name":"Bonga FPSO","type":"platform"},"children":{"platform":{"category":"fpso"}},"osm_tags":{"seamark:name":"Bonga FPSO","seamark:platform:category":"fpso","seamark:type":"platform"}}}],"type":"FeatureCollection"}