{"type":"FeatureCollection","features":[{"type":"Feature","geometry":{"type":"Polygon","coordinates":[[[72.9891086,4.2638505],[72.9891247,4.2637836],[72.9891703,4.2637515],[72.9895002,4.2636017],[72.9895592,4.2637114],[72.9898488,4.2636445],[72.9900205,4.2642891],[72.9909191,4.265343],[72.990734,4.2655062],[72.990844,4.2656319],[72.9910143,4.2655048],[72.9914018,4.2659716],[72.9910827,4.2662738],[72.9908077,4.2661359],[72.9896665,4.2650862],[72.989299,4.2646235],[72.9891086,4.2638505]]]},"properties":{"osm_id":672523012,"osm_type":"way","seamark_type":"harbour","display_class":"OTHER","min_zoom":12,"importance":1,"name":null,"ref":null,"common":{"type":"harbour"},"children":{"harbour":{"category":"marina"}},"osm_tags":{"alt_name:en":"AA. Rasdhoo","harbour":"yes","leisure":"marina","name:en":"Main Harbour","seamark:harbour:category":"marina","seamark:type":"harbour","tourism":"attraction"}}},{"type":"Feature","geometry":{"type":"Polygon","coordinates":[[[72.9650834,4.4382503],[72.96515,4.4381097],[72.9652638,4.4381633],[72.9651972,4.4383039],[72.9650834,4.4382503]]]},"properties":{"osm_id":1327790824,"osm_type":"way","seamark_type":"small_craft_facility","display_class":"OTHER","min_zoom":12,"importance":1,"name":null,"ref":null,"common":{"type":"small_craft_facility"},"children":{"small_craft_facility":{"category":"fuel_station"}},"osm_tags":{"building":"yes","seamark:small_craft_facility:category":"fuel_station","seamark:type":"small_craft_facility","waterway":"fuel"}}},{"type":"Feature","geometry":{"type":"Polygon","coordinates":[[[72.7748262,4.1865713],[72.7751891,4.1871644],[72.7753596,4.1872115],[72.7753922,4.1872205],[72.775706,4.1872767],[72.775662,4.187337],[72.7755049,4.1875522],[72.7749309,4.1874078],[72.7745286,4.187694],[72.7745688,4.1879294],[72.7740994,4.187916],[72.7740515,4.1877214],[72.7741179,4.187686],[72.7738304,4.1870925],[72.7745973,4.1866948],[72.7748262,4.1865713]]]},"properties":{"osm_id":602736646,"osm_type":"way","seamark_type":"harbour","display_class":"OTHER","min_zoom":12,"importance":1,"name":"AA. Bodufolhudhoo","ref":null,"common":{"type":"harbour"},"children":{"harbour":{"category":"marina"}},"osm_tags":{"leisure":"marina","name":"AA. Bodufolhudhoo","seamark:harbour:category":"marina","seamark:type":"harbour"}}},{"type":"Feature","geometry":{"type":"Polygon","coordinates":[[[72.7277319,4.0531594],[72.7276459,4.0529991],[72.7274557,4.0526449],[72.7267404,4.0530271],[72.7270167,4.0535415],[72.7277319,4.0531594]]]},"properties":{"osm_id":602737193,"osm_type":"way","seamark_type":"harbour","display_class":"OTHER","min_zoom":12,"importance":1,"name":"AA. Feridhoo","ref":null,"common":{"type":"harbour"},"children":{"harbour":{"category":"marina"}},"osm_tags":{"harbour":"yes","leisure":"marina","name":"AA. Feridhoo","seamark:harbour:category":"marina","seamark:type":"harbour"}}},{"type":"Feature","geometry":{"type":"Polygon","coordinates":[[[72.7481188,4.1940782],[72.7474649,4.1937328],[72.7481841,4.192349],[72.7489293,4.1927287],[72.7484032,4.1937433],[72.7481188,4.1940782]]]},"properties":{"osm_id":1060823931,"osm_type":"way","seamark_type":"harbour","display_class":"OTHER","min_zoom":12,"importance":1,"name":"AA. Mathiveri","ref":null,"common":{"type":"harbour"},"children":{"harbour":{"category":"marina"}},"osm_tags":{"harbour":"yes","leisure":"marina","name":"AA. Mathiveri","seamark:harbour:category":"marina","seamark:type":"harbour"}}},{"type":"Feature","geometry":{"type":"Polygon","coordinates":[[[72.8639784,4.2178011],[72.8641723,4.2180158],[72.8647801,4.217257],[72.8649893,4.2170002],[72.8651181,4.2169199],[72.8652441,4.2168878],[72.8655043,4.2169467],[72.865739,4.2165396],[72.865507,4.2164277],[72.8654896,4.2164023],[72.8655043,4.2163836],[72.8655472,4.2163916],[72.8657109,4.2164705],[72.8660971,4.2158045],[72.8655472,4.2153722],[72.8650017,4.2160597],[72.8652195,4.2161923],[72.8648791,4.2166131],[72.8645125,4.2163321],[72.8635553,4.2174379],[72.8639784,4.2178011]]]},"properties":{"osm_id":602735940,"osm_type":"way","seamark_type":"harbour","display_class":"OTHER","min_zoom":12,"importance":1,"name":"AA. Ukulhas","ref":null,"common":{"type":"harbour"},"children":{"harbour":{"category":"marina"}},"osm_tags":{"harbour":"yes","leisure":"marina","name":"AA. Ukulhas","port_of_entry":"no","seamark:harbour:category":"marina","seamark:type":"harbour"}}},{"type":"Feature","geometry":{"type":"Point","coordinates":[72.7557,4.2188]},"properties":{"osm_id":1293790058,"osm_type":"node","seamark_type":"light_minor","display_class":"OTHER","min_zoom":12,"importance":1,"name":"Gangehi","ref":null,"common":{"name":"Gangehi","type":"light_minor"},"children":{"light":{"character":"Fl","colour":"white","height":"15","period":"5","range":"10","reference":"F 0765.2"}},"osm_tags":{"seamark:light:character":"Fl","seamark:light:colour":"white","seamark:light:height":"15","seamark:light:period":"5","seamark:light:range":"10","seamark:light:reference":"F 0765.2","seamark:name":"Gangehi","seamark:type":"light_minor","source":"US NGA Pub. 112. 2009-11-12."}}},{"type":"Feature","geometry":{"type":"Point","coordinates":[72.9116389,4.0545578]},"properties":{"osm_id":663869881,"osm_type":"node","seamark_type":"wreck","display_class":"OTHER","min_zoom":12,"importance":1,"name":"Halaveli","ref":null,"common":{"type":"wreck"},"children":{},"osm_tags":{"historic":"wreck","name":"Halaveli","scuba_diving:entry:boat":"yes","scuba_diving:type:wreck":"yes","seamark:type":"wreck","source":"www.dive-links.com","sport":"scuba_diving","tourism":"attraction","website":"http://www.dive-links.com/tauchplatz.php?id=864","wreck:date_sunk":"1991"}}},{"type":"Feature","geometry":{"type":"Point","coordinates":[72.7476481,4.2047782]},"properties":{"osm_id":11113779910,"osm_type":"node","seamark_type":"wreck","display_class":"OTHER","min_zoom":12,"importance":1,"name":"Mathiveri Shipwreck","ref":null,"common":{"type":"wreck"},"children":{},"osm_tags":{"access":"yes","historic":"wreck","name":"Mathiveri Shipwreck","seamark:type":"wreck"}}}],"type":"FeatureCollection"}