{"type":"FeatureCollection","features":[{"type":"Feature","geometry":{"type":"Polygon","coordinates":[[[-3.9578711,5.2509533],[-3.9577954,5.2509126],[-3.9578334,5.2508424],[-3.9579092,5.2508831],[-3.9578711,5.2509533]]]},"properties":{"osm_id":1286102345,"osm_type":"way","seamark_type":"light_minor","display_class":"LIGHTHOUSE","min_zoom":7,"importance":5,"name":"Phare de Port-Bouët","ref":null,"common":{"type":"light_minor"},"children":{"light":{"1:character":"F","1:colour":"red","1:sector_end":"19","1:sector_start":"13","reference":"D 8542.2"}},"osm_tags":{"building":"yes","man_made":"lighthouse","name":"Phare de Port-Bouët","seamark:light:1:character":"F","seamark:light:1:colour":"red","seamark:light:1:sector_end":"19","seamark:light:1:sector_start":"13","seamark:light:reference":"D 8542.2","seamark:type":"light_minor"}}},{"type":"Feature","geometry":{"type":"Point","coordinates":[-3.9964192,5.2876963]},"properties":{"osm_id":12654078728,"osm_type":"node","seamark_type":"small_craft_facility","display_class":"OTHER","min_zoom":12,"importance":1,"name":null,"ref":null,"common":{"type":"small_craft_facility"},"children":{"small_craft_facility":{"category":"fuel_station"}},"osm_tags":{"seamark:small_craft_facility:category":"fuel_station","seamark:type":"small_craft_facility","waterway":"fuel"}}},{"type":"Feature","geometry":{"type":"Point","coordinates":[-3.9833486,5.2737983]},"properties":{"osm_id":13686990858,"osm_type":"node","seamark_type":"harbour","display_class":"OTHER","min_zoom":12,"importance":1,"name":null,"ref":null,"common":{"type":"harbour"},"children":{"harbour":{"category":"marina"}},"osm_tags":{"description":"Embarcadère vers l'île Boulay, utilisé par exemple par Coconut Grove Lodge.","leisure":"marina","man_made":"pier","power_supply":"no","seamark:harbour:category":"marina","seamark:type":"harbour"}}},{"type":"Feature","geometry":{"type":"Polygon","coordinates":[[[-3.9929817,5.2896705],[-3.9931213,5.2897365],[-3.9931724,5.2898102],[-3.9932907,5.2898683],[-3.9935977,5.2892482],[-3.9939397,5.2885735],[-3.9939236,5.2885657],[-3.993902,5.2885553],[-3.9938379,5.2885246],[-3.9938191,5.2885156],[-3.9937391,5.2884774],[-3.9937024,5.2884735],[-3.9935598,5.2884585],[-3.9935365,5.2884561],[-3.9934303,5.2884652],[-3.9934042,5.2884675],[-3.9933432,5.2884747],[-3.9933181,5.2884776],[-3.993252,5.2884854],[-3.9932294,5.288488],[-3.9931677,5.2884951],[-3.9931431,5.288498],[-3.9928228,5.2885354],[-3.9928115,5.2885367],[-3.9928262,5.2887748],[-3.9928473,5.2891181],[-3.9928513,5.2891825],[-3.992857,5.2892743],[-3.9928788,5.289628],[-3.9929817,5.2896705]]]},"properties":{"osm_id":334892573,"osm_type":"way","seamark_type":"harbour","display_class":"OTHER","min_zoom":12,"importance":1,"name":null,"ref":null,"common":{"type":"harbour"},"children":{"harbour":{"category":"marina"}},"osm_tags":{"leisure":"marina","seamark:harbour:category":"marina","seamark:type":"harbour"}}},{"type":"Feature","geometry":{"type":"Polygon","coordinates":[[[-3.9965775,5.2875007],[-3.9965877,5.2874257],[-3.9965854,5.2873299],[-3.9965442,5.2872455],[-3.9965039,5.2871703],[-3.9964375,5.2871221],[-3.9963475,5.2871016],[-3.9962007,5.2870828],[-3.9958458,5.2871005],[-3.9954119,5.2870983],[-3.9953789,5.2872229],[-3.9953312,5.2874824],[-3.9953135,5.287619],[-3.9955069,5.2876324],[-3.9955545,5.2876322],[-3.9956012,5.2876534],[-3.9956382,5.2876868],[-3.9956562,5.2877316],[-3.9956641,5.2878089],[-3.9956181,5.288248],[-3.9956878,5.2882589],[-3.995678,5.2882925],[-3.9956173,5.2884968],[-3.9955892,5.2885953],[-3.9955276,5.2888011],[-3.9955087,5.288872],[-3.9954842,5.2889527],[-3.9954622,5.2890235],[-3.9954409,5.2890971],[-3.9954301,5.2891344],[-3.9954249,5.2891477],[-3.9955723,5.2891748],[-3.9956086,5.2891825],[-3.9956429,5.2891883],[-3.9956745,5.2891936],[-3.9967217,5.2894017],[-3.9966191,5.2884024],[-3.9966007,5.2881653],[-3.9965916,5.2880587],[-3.9965754,5.2878566],[-3.9965714,5.2877827],[-3.9965568,5.2876452],[-3.9965775,5.2875007]]]},"properties":{"osm_id":334892576,"osm_type":"way","seamark_type":"harbour","display_class":"OTHER","min_zoom":12,"importance":1,"name":"Association Sportive Nautique d'Abidjan","ref":null,"common":{"type":"harbour"},"children":{"harbour":{"category":"marina"}},"osm_tags":{"leisure":"marina","name":"Association Sportive Nautique d'Abidjan","seamark:harbour:category":"marina","seamark:type":"harbour","short_name":"ASNA"}}},{"type":"Feature","geometry":{"type":"Point","coordinates":[-3.9522786,5.3155355]},"properties":{"osm_id":3468275452,"osm_type":"node","seamark_type":"harbour","display_class":"OTHER","min_zoom":12,"importance":1,"name":"Gare de Pinasse Koumassi – M’Pouto","ref":null,"common":{"type":"harbour"},"children":{"harbour":{"category":"marina"}},"osm_tags":{"leisure":"marina","name":"Gare de Pinasse Koumassi – M’Pouto","seamark:harbour:category":"marina","seamark:type":"harbour"}}},{"type":"Feature","geometry":{"type":"Point","coordinates":[-3.954956,5.3213451]},"properties":{"osm_id":3501611131,"osm_type":"node","seamark_type":"harbour","display_class":"OTHER","min_zoom":12,"importance":1,"name":"Gare de Pinasse M’Pouto – Koumassi","ref":null,"common":{"type":"harbour"},"children":{"harbour":{"category":"marina"}},"osm_tags":{"leisure":"marina","name":"Gare de Pinasse M’Pouto – Koumassi","seamark:harbour:category":"marina","seamark:type":"harbour"}}},{"type":"Feature","geometry":{"type":"Point","coordinates":[-3.9531726,5.3196865]},"properties":{"osm_id":7982654284,"osm_type":"node","seamark_type":"harbour","display_class":"OTHER","min_zoom":12,"importance":1,"name":"Gare de Pinasse M’Pouto – Koumassi","ref":null,"common":{"type":"harbour"},"children":{"harbour":{"category":"marina"}},"osm_tags":{"leisure":"marina","name":"Gare de Pinasse M’Pouto – Koumassi","seamark:harbour:category":"marina","seamark:type":"harbour"}}},{"type":"Feature","geometry":{"type":"Point","coordinates":[-3.9855693,5.2842581]},"properties":{"osm_id":13656733238,"osm_type":"node","seamark_type":"harbour","display_class":"OTHER","min_zoom":12,"importance":1,"name":"Ponton BBr","ref":null,"common":{"type":"harbour"},"children":{"harbour":{"category":"marina"}},"osm_tags":{"alt_name":"Embarcadère Boulay Beach resort","fee":"yes","leisure":"marina","man_made":"pier","name":"Ponton BBr","seamark:harbour:category":"marina","seamark:type":"harbour"}}}],"type":"FeatureCollection"}