{"type":"FeatureCollection","features":[{"type":"Feature","geometry":{"type":"Point","coordinates":[99.5420063,6.8426167]},"properties":{"osm_id":617258388,"osm_type":"node","seamark_type":"buoy_isolated_danger","display_class":"OTHER","min_zoom":12,"importance":1,"name":null,"ref":null,"common":{"type":"buoy_isolated_danger"},"children":{"buoy_isolated_danger":{"colour":"black;red;black","colour_pattern":"horizontal"},"light":{"character":"Fl","colour":"white","group":"2","period":"3"}},"osm_tags":{"seamark:buoy_isolated_danger:colour":"black;red;black","seamark:buoy_isolated_danger:colour_pattern":"horizontal","seamark:light:character":"Fl","seamark:light:colour":"white","seamark:light:group":"2","seamark:light:period":"3","seamark:type":"buoy_isolated_danger"}}},{"type":"Feature","geometry":{"type":"Point","coordinates":[99.682984,6.3680038]},"properties":{"osm_id":1384060968,"osm_type":"node","seamark_type":"harbour","display_class":"OTHER","min_zoom":12,"importance":1,"name":null,"ref":null,"common":{"type":"harbour"},"children":{"harbour":{"category":"marina"}},"osm_tags":{"leisure":"marina","seamark:harbour:category":"marina","seamark:type":"harbour"}}},{"type":"Feature","geometry":{"type":"Point","coordinates":[99.8028751,6.7994017]},"properties":{"osm_id":9015072918,"osm_type":"node","seamark_type":"harbour","display_class":"OTHER","min_zoom":12,"importance":1,"name":null,"ref":null,"common":{"type":"harbour"},"children":{"harbour":{"category":"marina"}},"osm_tags":{"leisure":"marina","seamark:harbour:category":"marina","seamark:type":"harbour"}}},{"type":"Feature","geometry":{"type":"LineString","coordinates":[[97.9581621,6.8374112],[99.7176643,6.7658745],[99.9586769,6.5032865],[100.0421043,6.5343269]]},"properties":{"osm_id":459197250,"osm_type":"way","seamark_type":"cable_submarine","display_class":"OTHER","min_zoom":12,"importance":1,"name":null,"ref":null,"common":{"type":"cable_submarine"},"children":{"cable_submarine":{"category":"fibre_optic"}},"osm_tags":{"communication":"line","note":"Speculative route","seamark:cable_submarine:category":"fibre_optic","seamark:type":"cable_submarine"}}},{"type":"Feature","geometry":{"type":"Point","coordinates":[99.1796147,6.4992228]},"properties":{"osm_id":1293084962,"osm_type":"node","seamark_type":"light_minor","display_class":"OTHER","min_zoom":12,"importance":1,"name":"Ko Palai","ref":null,"common":{"name":"Ko Palai","type":"light_minor"},"children":{"light":{"character":"Fl","colour":"white","group":"2","height":"49","period":"12","range":"10","reference":"F 1192.4","sequence":"1.5+(2)+1.5+(7)"}},"osm_tags":{"seamark:light:character":"Fl","seamark:light:colour":"white","seamark:light:group":"2","seamark:light:height":"49","seamark:light:period":"12","seamark:light:range":"10","seamark:light:reference":"F 1192.4","seamark:light:sequence":"1.5+(2)+1.5+(7)","seamark:name":"Ko Palai","seamark:type":"light_minor","source":"US NGA Pub. 112. 2009-11-12."}}},{"type":"Feature","geometry":{"type":"Point","coordinates":[99.4448424,6.5557537]},"properties":{"osm_id":1293084969,"osm_type":"node","seamark_type":"light_minor","display_class":"OTHER","min_zoom":12,"importance":1,"name":"Ko Tangah","ref":null,"common":{"name":"Ko Tangah","type":"light_minor"},"children":{"light":{"character":"Fl","colour":"white","height":"86","period":"6","range":"10","reference":"F 1192.5"}},"osm_tags":{"seamark:light:character":"Fl","seamark:light:colour":"white","seamark:light:height":"86","seamark:light:period":"6","seamark:light:range":"10","seamark:light:reference":"F 1192.5","seamark:name":"Ko Tangah","seamark:type":"light_minor","source":"US NGA Pub. 112. 2009-11-12."}}},{"type":"Feature","geometry":{"type":"Polygon","coordinates":[[[99.6849418,6.3642641],[99.6852624,6.3650505],[99.6855009,6.3655421],[99.6855125,6.3655622],[99.6856729,6.3659109],[99.6856697,6.3660361],[99.6856695,6.3660455],[99.6856709,6.3660713],[99.6856949,6.3671242],[99.6856121,6.3672403],[99.6855918,6.3672624],[99.6849818,6.3679845],[99.6846355,6.3682073],[99.6845928,6.3681482],[99.6841133,6.3685194],[99.6839299,6.3684618],[99.6837419,6.3684907],[99.6835267,6.3686143],[99.6834011,6.3687868],[99.6833173,6.3689982],[99.6831052,6.3690823],[99.6830412,6.3690515],[99.6829091,6.3688416],[99.68214,6.3677399],[99.682011,6.3675587],[99.6819955,6.3674323],[99.6822046,6.3673717],[99.6823909,6.3672666],[99.682484,6.367129],[99.6825165,6.3668615],[99.6826119,6.3667064],[99.6827559,6.3666257],[99.6828795,6.3666304],[99.683083,6.3666883],[99.6832361,6.3666434],[99.6833432,6.3665582],[99.683413,6.366454],[99.6834699,6.3664187],[99.6836555,6.3664197],[99.6838212,6.3663872],[99.6839835,6.3662864],[99.6840085,6.3660964],[99.6841205,6.3659458],[99.6842984,6.365871],[99.6844944,6.3658856],[99.6846315,6.3658332],[99.6847218,6.3656246],[99.684751,6.3653974],[99.6845283,6.3648228],[99.6844751,6.3646768],[99.684407,6.3645774],[99.6849418,6.3642641]]]},"properties":{"osm_id":542349739,"osm_type":"way","seamark_type":"harbour","display_class":"OTHER","min_zoom":12,"importance":1,"name":"Telaga Harbor","ref":null,"common":{"type":"harbour"},"children":{"harbour":{"category":"marina"}},"osm_tags":{"leisure":"marina","name":"Telaga Harbor","name:en":"Telaga Harbor","seamark:harbour:category":"marina","seamark:type":"harbour"}}}],"type":"FeatureCollection"}