{"type":"FeatureCollection","features":[{"type":"Feature","geometry":{"type":"Point","coordinates":[116.3100161,6.7098466]},"properties":{"osm_id":6771752288,"osm_type":"node","seamark_type":"landmark","display_class":"LIGHTHOUSE","min_zoom":7,"importance":5,"name":"Mantanani Islands","ref":null,"common":{"name":"Mantanani Islands","type":"landmark"},"children":{"landmark":{"category":"tower","conspicuity":"conspicuous","construction":"masonry","function":"light_support"},"light":{"1:character":"LFl","1:colour":"white","1:height":"47","1:period":"10","1:range":"15","1:sector_end":"258","1:sector_start":"278","1:sequence":"2+(8)","reference":"F 1962"}},"osm_tags":{"ele":"47","man_made":"lighthouse","name":"Pulau Mantanani Lighthouse","operator":"Marine Department Of Sabah","seamark:landmark:category":"tower","seamark:landmark:conspicuity":"conspicuous","seamark:landmark:construction":"masonry","seamark:landmark:function":"light_support","seamark:light:1:character":"LFl","seamark:light:1:colour":"white","seamark:light:1:height":"47","seamark:light:1:period":"10","seamark:light:1:range":"15","seamark:light:1:sector_end":"258","seamark:light:1:sector_start":"278","seamark:light:1:sequence":"2+(8)","seamark:light:reference":"F 1962","seamark:name":"Mantanani Islands","seamark:type":"landmark"}}},{"type":"Feature","geometry":{"type":"Point","coordinates":[116.0126662,6.0391462]},"properties":{"osm_id":4247244184,"osm_type":"node","seamark_type":"light_major","display_class":"LIGHTHOUSE","min_zoom":7,"importance":5,"name":"Rumah Api Pulau Gaya","ref":null,"common":{"type":"light_major"},"children":{"light":{"character":"Fl","colour":"white","period":"10","range":"15"}},"osm_tags":{"ele":"169","man_made":"lighthouse","name":"Rumah Api Pulau Gaya","name:en":"Gaya Island Lighthouse","name:ms":"Rumah Api Pulau Gaya","operator":"Marine Department Of Sabah","seamark:light:character":"Fl","seamark:light:colour":"white","seamark:light:period":"10","seamark:light:range":"15","seamark:type":"light_major"}}},{"type":"Feature","geometry":{"type":"Point","coordinates":[116.3267486,6.3963156]},"properties":{"osm_id":6771742759,"osm_type":"node","seamark_type":"light_major","display_class":"LIGHTHOUSE","min_zoom":7,"importance":5,"name":"Rumah Api Pulau Usukan","ref":null,"common":{"type":"light_major"},"children":{"light":{"character":"Fl","colour":"white","group":"2","period":"15","range":"15"}},"osm_tags":{"check_date":"20190904","ele":"58","man_made":"lighthouse","name":"Rumah Api Pulau Usukan","name:en":"Usukan Island Lighthouse","name:ms":"Rumah Api Pulau Usukan","operator":"Marine Department Of Sabah","seamark:light:character":"Fl","seamark:light:colour":"white","seamark:light:group":"2","seamark:light:period":"15","seamark:light:range":"15","seamark:type":"light_major"}}},{"type":"Feature","geometry":{"type":"Point","coordinates":[116.9179952,6.6761003]},"properties":{"osm_id":8458228783,"osm_type":"node","seamark_type":"marine_farm","display_class":"OTHER","min_zoom":12,"importance":1,"name":null,"ref":null,"common":{"type":"marine_farm"},"children":{},"osm_tags":{"seamark:type":"marine_farm"}}},{"type":"Feature","geometry":{"type":"Point","coordinates":[116.9219649,6.6786138]},"properties":{"osm_id":8458228784,"osm_type":"node","seamark_type":"marine_farm","display_class":"OTHER","min_zoom":12,"importance":1,"name":null,"ref":null,"common":{"type":"marine_farm"},"children":{},"osm_tags":{"seamark:type":"marine_farm"}}},{"type":"Feature","geometry":{"type":"Point","coordinates":[116.9225201,6.6766544]},"properties":{"osm_id":8458228785,"osm_type":"node","seamark_type":"marine_farm","display_class":"OTHER","min_zoom":12,"importance":1,"name":null,"ref":null,"common":{"type":"marine_farm"},"children":{},"osm_tags":{"seamark:type":"marine_farm"}}},{"type":"Feature","geometry":{"type":"Point","coordinates":[116.9242783,6.6791239]},"properties":{"osm_id":8458228786,"osm_type":"node","seamark_type":"marine_farm","display_class":"OTHER","min_zoom":12,"importance":1,"name":null,"ref":null,"common":{"type":"marine_farm"},"children":{},"osm_tags":{"seamark:type":"marine_farm"}}},{"type":"Feature","geometry":{"type":"Point","coordinates":[116.9255725,6.6759884]},"properties":{"osm_id":8458228787,"osm_type":"node","seamark_type":"marine_farm","display_class":"OTHER","min_zoom":12,"importance":1,"name":null,"ref":null,"common":{"type":"marine_farm"},"children":{},"osm_tags":{"seamark:type":"marine_farm"}}},{"type":"Feature","geometry":{"type":"Point","coordinates":[116.9287375,6.6782235]},"properties":{"osm_id":8458228788,"osm_type":"node","seamark_type":"marine_farm","display_class":"OTHER","min_zoom":12,"importance":1,"name":null,"ref":null,"common":{"type":"marine_farm"},"children":{},"osm_tags":{"seamark:type":"marine_farm"}}},{"type":"Feature","geometry":{"type":"Point","coordinates":[116.9308135,6.6792492]},"properties":{"osm_id":8458228789,"osm_type":"node","seamark_type":"marine_farm","display_class":"OTHER","min_zoom":12,"importance":1,"name":null,"ref":null,"common":{"type":"marine_farm"},"children":{},"osm_tags":{"seamark:type":"marine_farm"}}},{"type":"Feature","geometry":{"type":"Point","coordinates":[116.9339557,6.6813764]},"properties":{"osm_id":8458228790,"osm_type":"node","seamark_type":"marine_farm","display_class":"OTHER","min_zoom":12,"importance":1,"name":null,"ref":null,"common":{"type":"marine_farm"},"children":{},"osm_tags":{"seamark:type":"marine_farm"}}},{"type":"Feature","geometry":{"type":"Point","coordinates":[116.9317013,6.6829121]},"properties":{"osm_id":8458228791,"osm_type":"node","seamark_type":"marine_farm","display_class":"OTHER","min_zoom":12,"importance":1,"name":null,"ref":null,"common":{"type":"marine_farm"},"children":{},"osm_tags":{"seamark:type":"marine_farm"}}},{"type":"Feature","geometry":{"type":"Point","coordinates":[116.9291398,6.6822648]},"properties":{"osm_id":8458228792,"osm_type":"node","seamark_type":"marine_farm","display_class":"OTHER","min_zoom":12,"importance":1,"name":null,"ref":null,"common":{"type":"marine_farm"},"children":{},"osm_tags":{"seamark:type":"marine_farm"}}},{"type":"Feature","geometry":{"type":"Point","coordinates":[116.9249636,6.683381]},"properties":{"osm_id":8458228793,"osm_type":"node","seamark_type":"marine_farm","display_class":"OTHER","min_zoom":12,"importance":1,"name":null,"ref":null,"common":{"type":"marine_farm"},"children":{},"osm_tags":{"seamark:type":"marine_farm"}}},{"type":"Feature","geometry":{"type":"Point","coordinates":[116.9278899,6.6851153]},"properties":{"osm_id":8458228794,"osm_type":"node","seamark_type":"marine_farm","display_class":"OTHER","min_zoom":12,"importance":1,"name":null,"ref":null,"common":{"type":"marine_farm"},"children":{},"osm_tags":{"seamark:type":"marine_farm"}}},{"type":"Feature","geometry":{"type":"Point","coordinates":[116.9273534,6.6872251]},"properties":{"osm_id":8458228795,"osm_type":"node","seamark_type":"marine_farm","display_class":"OTHER","min_zoom":12,"importance":1,"name":null,"ref":null,"common":{"type":"marine_farm"},"children":{},"osm_tags":{"seamark:type":"marine_farm"}}},{"type":"Feature","geometry":{"type":"Point","coordinates":[116.9300437,6.6888448]},"properties":{"osm_id":8458228796,"osm_type":"node","seamark_type":"marine_farm","display_class":"OTHER","min_zoom":12,"importance":1,"name":null,"ref":null,"common":{"type":"marine_farm"},"children":{},"osm_tags":{"seamark:type":"marine_farm"}}},{"type":"Feature","geometry":{"type":"Point","coordinates":[116.9344747,6.6869587]},"properties":{"osm_id":8458228797,"osm_type":"node","seamark_type":"marine_farm","display_class":"OTHER","min_zoom":12,"importance":1,"name":null,"ref":null,"common":{"type":"marine_farm"},"children":{},"osm_tags":{"seamark:type":"marine_farm"}}},{"type":"Feature","geometry":{"type":"Point","coordinates":[116.9348288,6.6903739]},"properties":{"osm_id":8458228798,"osm_type":"node","seamark_type":"marine_farm","display_class":"OTHER","min_zoom":12,"importance":1,"name":null,"ref":null,"common":{"type":"marine_farm"},"children":{},"osm_tags":{"seamark:type":"marine_farm"}}},{"type":"Feature","geometry":{"type":"Point","coordinates":[116.9366983,6.6900542]},"properties":{"osm_id":8458228799,"osm_type":"node","seamark_type":"marine_farm","display_class":"OTHER","min_zoom":12,"importance":1,"name":null,"ref":null,"common":{"type":"marine_farm"},"children":{},"osm_tags":{"seamark:type":"marine_farm"}}},{"type":"Feature","geometry":{"type":"Point","coordinates":[116.9383693,6.6883227]},"properties":{"osm_id":8458228800,"osm_type":"node","seamark_type":"marine_farm","display_class":"OTHER","min_zoom":12,"importance":1,"name":null,"ref":null,"common":{"type":"marine_farm"},"children":{},"osm_tags":{"seamark:type":"marine_farm"}}},{"type":"Feature","geometry":{"type":"Point","coordinates":[116.9559994,6.7455224]},"properties":{"osm_id":8458228801,"osm_type":"node","seamark_type":"marine_farm","display_class":"OTHER","min_zoom":12,"importance":1,"name":null,"ref":null,"common":{"type":"marine_farm"},"children":{},"osm_tags":{"seamark:type":"marine_farm"}}},{"type":"Feature","geometry":{"type":"Point","coordinates":[116.9584993,6.7408397]},"properties":{"osm_id":8458228802,"osm_type":"node","seamark_type":"marine_farm","display_class":"OTHER","min_zoom":12,"importance":1,"name":null,"ref":null,"common":{"type":"marine_farm"},"children":{},"osm_tags":{"seamark:type":"marine_farm"}}},{"type":"Feature","geometry":{"type":"Point","coordinates":[116.9626513,6.7414231]},"properties":{"osm_id":8458228803,"osm_type":"node","seamark_type":"marine_farm","display_class":"OTHER","min_zoom":12,"importance":1,"name":null,"ref":null,"common":{"type":"marine_farm"},"children":{},"osm_tags":{"seamark:type":"marine_farm"}}},{"type":"Feature","geometry":{"type":"Point","coordinates":[116.9535103,6.7437298]},"properties":{"osm_id":8458228804,"osm_type":"node","seamark_type":"marine_farm","display_class":"OTHER","min_zoom":12,"importance":1,"name":null,"ref":null,"common":{"type":"marine_farm"},"children":{},"osm_tags":{"seamark:type":"marine_farm"}}},{"type":"Feature","geometry":{"type":"Point","coordinates":[116.9558895,6.7419984]},"properties":{"osm_id":8458228805,"osm_type":"node","seamark_type":"marine_farm","display_class":"OTHER","min_zoom":12,"importance":1,"name":null,"ref":null,"common":{"type":"marine_farm"},"children":{},"osm_tags":{"seamark:type":"marine_farm"}}},{"type":"Feature","geometry":{"type":"Point","coordinates":[116.9594729,6.7434794]},"properties":{"osm_id":8458228806,"osm_type":"node","seamark_type":"marine_farm","display_class":"OTHER","min_zoom":12,"importance":1,"name":null,"ref":null,"common":{"type":"marine_farm"},"children":{},"osm_tags":{"seamark:type":"marine_farm"}}},{"type":"Feature","geometry":{"type":"Point","coordinates":[116.960873,6.7479676]},"properties":{"osm_id":8458228807,"osm_type":"node","seamark_type":"marine_farm","display_class":"OTHER","min_zoom":12,"importance":1,"name":null,"ref":null,"common":{"type":"marine_farm"},"children":{},"osm_tags":{"seamark:type":"marine_farm"}}},{"type":"Feature","geometry":{"type":"Point","coordinates":[116.9553101,6.7235655]},"properties":{"osm_id":8458228808,"osm_type":"node","seamark_type":"marine_farm","display_class":"OTHER","min_zoom":12,"importance":1,"name":null,"ref":null,"common":{"type":"marine_farm"},"children":{},"osm_tags":{"seamark:type":"marine_farm"}}},{"type":"Feature","geometry":{"type":"Point","coordinates":[116.9660765,6.7074894]},"properties":{"osm_id":8458228809,"osm_type":"node","seamark_type":"marine_farm","display_class":"OTHER","min_zoom":12,"importance":1,"name":null,"ref":null,"common":{"type":"marine_farm"},"children":{},"osm_tags":{"seamark:type":"marine_farm"}}},{"type":"Feature","geometry":{"type":"Point","coordinates":[116.9640192,6.7070446]},"properties":{"osm_id":8458228810,"osm_type":"node","seamark_type":"marine_farm","display_class":"OTHER","min_zoom":12,"importance":1,"name":null,"ref":null,"common":{"type":"marine_farm"},"children":{},"osm_tags":{"seamark:type":"marine_farm"}}},{"type":"Feature","geometry":{"type":"Point","coordinates":[116.9613451,6.7067649]},"properties":{"osm_id":8458228811,"osm_type":"node","seamark_type":"marine_farm","display_class":"OTHER","min_zoom":12,"importance":1,"name":null,"ref":null,"common":{"type":"marine_farm"},"children":{},"osm_tags":{"seamark:type":"marine_farm"}}},{"type":"Feature","geometry":{"type":"Point","coordinates":[116.9590518,6.7077319]},"properties":{"osm_id":8458228812,"osm_type":"node","seamark_type":"marine_farm","display_class":"OTHER","min_zoom":12,"importance":1,"name":null,"ref":null,"common":{"type":"marine_farm"},"children":{},"osm_tags":{"seamark:type":"marine_farm"}}},{"type":"Feature","geometry":{"type":"Point","coordinates":[116.9637322,6.710156]},"properties":{"osm_id":8458228813,"osm_type":"node","seamark_type":"marine_farm","display_class":"OTHER","min_zoom":12,"importance":1,"name":null,"ref":null,"common":{"type":"marine_farm"},"children":{},"osm_tags":{"seamark:type":"marine_farm"}}},{"type":"Feature","geometry":{"type":"Point","coordinates":[116.9612271,6.708888]},"properties":{"osm_id":8458228814,"osm_type":"node","seamark_type":"marine_farm","display_class":"OTHER","min_zoom":12,"importance":1,"name":null,"ref":null,"common":{"type":"marine_farm"},"children":{},"osm_tags":{"seamark:type":"marine_farm"}}},{"type":"Feature","geometry":{"type":"Point","coordinates":[116.9599262,6.7140185]},"properties":{"osm_id":8458228815,"osm_type":"node","seamark_type":"marine_farm","display_class":"OTHER","min_zoom":12,"importance":1,"name":null,"ref":null,"common":{"type":"marine_farm"},"children":{},"osm_tags":{"seamark:type":"marine_farm"}}},{"type":"Feature","geometry":{"type":"Point","coordinates":[116.9582927,6.7118768]},"properties":{"osm_id":8458228816,"osm_type":"node","seamark_type":"marine_farm","display_class":"OTHER","min_zoom":12,"importance":1,"name":null,"ref":null,"common":{"type":"marine_farm"},"children":{},"osm_tags":{"seamark:type":"marine_farm"}}},{"type":"Feature","geometry":{"type":"Point","coordinates":[116.9586843,6.7250466]},"properties":{"osm_id":8458240917,"osm_type":"node","seamark_type":"marine_farm","display_class":"OTHER","min_zoom":12,"importance":1,"name":null,"ref":null,"common":{"type":"marine_farm"},"children":{},"osm_tags":{"seamark:type":"marine_farm"}}},{"type":"Feature","geometry":{"type":"Point","coordinates":[116.9565815,6.7303314]},"properties":{"osm_id":8458240918,"osm_type":"node","seamark_type":"marine_farm","display_class":"OTHER","min_zoom":12,"importance":1,"name":null,"ref":null,"common":{"type":"marine_farm"},"children":{},"osm_tags":{"seamark:type":"marine_farm"}}},{"type":"Feature","geometry":{"type":"Point","coordinates":[116.9557607,6.7379123]},"properties":{"osm_id":8458240919,"osm_type":"node","seamark_type":"marine_farm","display_class":"OTHER","min_zoom":12,"importance":1,"name":null,"ref":null,"common":{"type":"marine_farm"},"children":{},"osm_tags":{"seamark:type":"marine_farm"}}},{"type":"Feature","geometry":{"type":"Point","coordinates":[116.9633836,6.7335705]},"properties":{"osm_id":8458240920,"osm_type":"node","seamark_type":"marine_farm","display_class":"OTHER","min_zoom":12,"importance":1,"name":null,"ref":null,"common":{"type":"marine_farm"},"children":{},"osm_tags":{"seamark:type":"marine_farm"}}},{"type":"Feature","geometry":{"type":"Point","coordinates":[116.9610929,6.7381787]},"properties":{"osm_id":8458240921,"osm_type":"node","seamark_type":"marine_farm","display_class":"OTHER","min_zoom":12,"importance":1,"name":null,"ref":null,"common":{"type":"marine_farm"},"children":{},"osm_tags":{"seamark:type":"marine_farm"}}},{"type":"Feature","geometry":{"type":"Point","coordinates":[116.963051,6.7367936]},"properties":{"osm_id":8458240922,"osm_type":"node","seamark_type":"marine_farm","display_class":"OTHER","min_zoom":12,"importance":1,"name":null,"ref":null,"common":{"type":"marine_farm"},"children":{},"osm_tags":{"seamark:type":"marine_farm"}}},{"type":"Feature","geometry":{"type":"Point","coordinates":[116.9615757,6.7350622]},"properties":{"osm_id":8458240923,"osm_type":"node","seamark_type":"marine_farm","display_class":"OTHER","min_zoom":12,"importance":1,"name":null,"ref":null,"common":{"type":"marine_farm"},"children":{},"osm_tags":{"seamark:type":"marine_farm"}}},{"type":"Feature","geometry":{"type":"Point","coordinates":[116.9568551,6.7344335]},"properties":{"osm_id":8458240924,"osm_type":"node","seamark_type":"marine_farm","display_class":"OTHER","min_zoom":12,"importance":1,"name":null,"ref":null,"common":{"type":"marine_farm"},"children":{},"osm_tags":{"seamark:type":"marine_farm"}}},{"type":"Feature","geometry":{"type":"Point","coordinates":[116.9600308,6.73283]},"properties":{"osm_id":8458240925,"osm_type":"node","seamark_type":"marine_farm","display_class":"OTHER","min_zoom":12,"importance":1,"name":null,"ref":null,"common":{"type":"marine_farm"},"children":{},"osm_tags":{"seamark:type":"marine_farm"}}},{"type":"Feature","geometry":{"type":"Point","coordinates":[116.9589847,6.7288291]},"properties":{"osm_id":8458240926,"osm_type":"node","seamark_type":"marine_farm","display_class":"OTHER","min_zoom":12,"importance":1,"name":null,"ref":null,"common":{"type":"marine_farm"},"children":{},"osm_tags":{"seamark:type":"marine_farm"}}},{"type":"Feature","geometry":{"type":"Point","coordinates":[116.9610983,6.7296655]},"properties":{"osm_id":8458240927,"osm_type":"node","seamark_type":"marine_farm","display_class":"OTHER","min_zoom":12,"importance":1,"name":null,"ref":null,"common":{"type":"marine_farm"},"children":{},"osm_tags":{"seamark:type":"marine_farm"}}},{"type":"Feature","geometry":{"type":"Point","coordinates":[116.9630992,6.7307044]},"properties":{"osm_id":8458240928,"osm_type":"node","seamark_type":"marine_farm","display_class":"OTHER","min_zoom":12,"importance":1,"name":null,"ref":null,"common":{"type":"marine_farm"},"children":{},"osm_tags":{"seamark:type":"marine_farm"}}},{"type":"Feature","geometry":{"type":"Point","coordinates":[116.965937,6.7346173]},"properties":{"osm_id":8458240929,"osm_type":"node","seamark_type":"marine_farm","display_class":"OTHER","min_zoom":12,"importance":1,"name":null,"ref":null,"common":{"type":"marine_farm"},"children":{},"osm_tags":{"seamark:type":"marine_farm"}}},{"type":"Feature","geometry":{"type":"Point","coordinates":[116.9652182,6.7326169]},"properties":{"osm_id":8458240930,"osm_type":"node","seamark_type":"marine_farm","display_class":"OTHER","min_zoom":12,"importance":1,"name":null,"ref":null,"common":{"type":"marine_farm"},"children":{},"osm_tags":{"seamark:type":"marine_farm"}}},{"type":"Feature","geometry":{"type":"Point","coordinates":[116.9675973,6.7318284]},"properties":{"osm_id":8458240931,"osm_type":"node","seamark_type":"marine_farm","display_class":"OTHER","min_zoom":12,"importance":1,"name":null,"ref":null,"common":{"type":"marine_farm"},"children":{},"osm_tags":{"seamark:type":"marine_farm"}}},{"type":"Feature","geometry":{"type":"Point","coordinates":[116.9658136,6.7301929]},"properties":{"osm_id":8458240932,"osm_type":"node","seamark_type":"marine_farm","display_class":"OTHER","min_zoom":12,"importance":1,"name":null,"ref":null,"common":{"type":"marine_farm"},"children":{},"osm_tags":{"seamark:type":"marine_farm"}}},{"type":"Feature","geometry":{"type":"Point","coordinates":[116.9689947,6.7282058]},"properties":{"osm_id":8458240933,"osm_type":"node","seamark_type":"marine_farm","display_class":"OTHER","min_zoom":12,"importance":1,"name":null,"ref":null,"common":{"type":"marine_farm"},"children":{},"osm_tags":{"seamark:type":"marine_farm"}}},{"type":"Feature","geometry":{"type":"Point","coordinates":[116.9705772,6.7270977]},"properties":{"osm_id":8458240934,"osm_type":"node","seamark_type":"marine_farm","display_class":"OTHER","min_zoom":12,"importance":1,"name":null,"ref":null,"common":{"type":"marine_farm"},"children":{},"osm_tags":{"seamark:type":"marine_farm"}}},{"type":"Feature","geometry":{"type":"Point","coordinates":[116.9675624,6.7256699]},"properties":{"osm_id":8458240935,"osm_type":"node","seamark_type":"marine_farm","display_class":"OTHER","min_zoom":12,"importance":1,"name":null,"ref":null,"common":{"type":"marine_farm"},"children":{},"osm_tags":{"seamark:type":"marine_farm"}}},{"type":"Feature","geometry":{"type":"Point","coordinates":[116.9719344,6.7252117]},"properties":{"osm_id":8458240936,"osm_type":"node","seamark_type":"marine_farm","display_class":"OTHER","min_zoom":12,"importance":1,"name":null,"ref":null,"common":{"type":"marine_farm"},"children":{},"osm_tags":{"seamark:type":"marine_farm"}}},{"type":"Feature","geometry":{"type":"Point","coordinates":[116.9693756,6.7244765]},"properties":{"osm_id":8458240937,"osm_type":"node","seamark_type":"marine_farm","display_class":"OTHER","min_zoom":12,"importance":1,"name":null,"ref":null,"common":{"type":"marine_farm"},"children":{},"osm_tags":{"seamark:type":"marine_farm"}}},{"type":"Feature","geometry":{"type":"Point","coordinates":[116.973002,6.7219832]},"properties":{"osm_id":8458240938,"osm_type":"node","seamark_type":"marine_farm","display_class":"OTHER","min_zoom":12,"importance":1,"name":null,"ref":null,"common":{"type":"marine_farm"},"children":{},"osm_tags":{"seamark:type":"marine_farm"}}},{"type":"Feature","geometry":{"type":"Point","coordinates":[116.9705558,6.7213439]},"properties":{"osm_id":8458240939,"osm_type":"node","seamark_type":"marine_farm","display_class":"OTHER","min_zoom":12,"importance":1,"name":null,"ref":null,"common":{"type":"marine_farm"},"children":{},"osm_tags":{"seamark:type":"marine_farm"}}},{"type":"Feature","geometry":{"type":"Point","coordinates":[116.9685227,6.7192236]},"properties":{"osm_id":8458240940,"osm_type":"node","seamark_type":"marine_farm","display_class":"OTHER","min_zoom":12,"importance":1,"name":null,"ref":null,"common":{"type":"marine_farm"},"children":{},"osm_tags":{"seamark:type":"marine_farm"}}},{"type":"Feature","geometry":{"type":"Point","coordinates":[116.964848,6.7196018]},"properties":{"osm_id":8458240941,"osm_type":"node","seamark_type":"marine_farm","display_class":"OTHER","min_zoom":12,"importance":1,"name":null,"ref":null,"common":{"type":"marine_farm"},"children":{},"osm_tags":{"seamark:type":"marine_farm"}}},{"type":"Feature","geometry":{"type":"Point","coordinates":[116.9674122,6.721589]},"properties":{"osm_id":8458240942,"osm_type":"node","seamark_type":"marine_farm","display_class":"OTHER","min_zoom":12,"importance":1,"name":null,"ref":null,"common":{"type":"marine_farm"},"children":{},"osm_tags":{"seamark:type":"marine_farm"}}},{"type":"Feature","geometry":{"type":"Point","coordinates":[116.9659585,6.7236934]},"properties":{"osm_id":8458240943,"osm_type":"node","seamark_type":"marine_farm","display_class":"OTHER","min_zoom":12,"importance":1,"name":null,"ref":null,"common":{"type":"marine_farm"},"children":{},"osm_tags":{"seamark:type":"marine_farm"}}},{"type":"Feature","geometry":{"type":"Point","coordinates":[116.963979,6.7278915]},"properties":{"osm_id":8458240944,"osm_type":"node","seamark_type":"marine_farm","display_class":"OTHER","min_zoom":12,"importance":1,"name":null,"ref":null,"common":{"type":"marine_farm"},"children":{},"osm_tags":{"seamark:type":"marine_farm"}}},{"type":"Feature","geometry":{"type":"Point","coordinates":[116.9618171,6.7272415]},"properties":{"osm_id":8458240945,"osm_type":"node","seamark_type":"marine_farm","display_class":"OTHER","min_zoom":12,"importance":1,"name":null,"ref":null,"common":{"type":"marine_farm"},"children":{},"osm_tags":{"seamark:type":"marine_farm"}}},{"type":"Feature","geometry":{"type":"Point","coordinates":[116.9660443,6.7270497]},"properties":{"osm_id":8458240946,"osm_type":"node","seamark_type":"marine_farm","display_class":"OTHER","min_zoom":12,"importance":1,"name":null,"ref":null,"common":{"type":"marine_farm"},"children":{},"osm_tags":{"seamark:type":"marine_farm"}}},{"type":"Feature","geometry":{"type":"Point","coordinates":[116.9629329,6.7251957]},"properties":{"osm_id":8458240947,"osm_type":"node","seamark_type":"marine_farm","display_class":"OTHER","min_zoom":12,"importance":1,"name":null,"ref":null,"common":{"type":"marine_farm"},"children":{},"osm_tags":{"seamark:type":"marine_farm"}}},{"type":"Feature","geometry":{"type":"Point","coordinates":[116.9608945,6.7247163]},"properties":{"osm_id":8458240948,"osm_type":"node","seamark_type":"marine_farm","display_class":"OTHER","min_zoom":12,"importance":1,"name":null,"ref":null,"common":{"type":"marine_farm"},"children":{},"osm_tags":{"seamark:type":"marine_farm"}}},{"type":"Feature","geometry":{"type":"Point","coordinates":[116.9639307,6.7232672]},"properties":{"osm_id":8458240949,"osm_type":"node","seamark_type":"marine_farm","display_class":"OTHER","min_zoom":12,"importance":1,"name":null,"ref":null,"common":{"type":"marine_farm"},"children":{},"osm_tags":{"seamark:type":"marine_farm"}}},{"type":"Feature","geometry":{"type":"Point","coordinates":[116.9600201,6.7219779]},"properties":{"osm_id":8458240950,"osm_type":"node","seamark_type":"marine_farm","display_class":"OTHER","min_zoom":12,"importance":1,"name":null,"ref":null,"common":{"type":"marine_farm"},"children":{},"osm_tags":{"seamark:type":"marine_farm"}}},{"type":"Feature","geometry":{"type":"Point","coordinates":[116.9628471,6.720662]},"properties":{"osm_id":8458240951,"osm_type":"node","seamark_type":"marine_farm","display_class":"OTHER","min_zoom":12,"importance":1,"name":null,"ref":null,"common":{"type":"marine_farm"},"children":{},"osm_tags":{"seamark:type":"marine_farm"}}},{"type":"Feature","geometry":{"type":"Point","coordinates":[116.9606155,6.7188879]},"properties":{"osm_id":8458240952,"osm_type":"node","seamark_type":"marine_farm","display_class":"OTHER","min_zoom":12,"importance":1,"name":null,"ref":null,"common":{"type":"marine_farm"},"children":{},"osm_tags":{"seamark:type":"marine_farm"}}},{"type":"Feature","geometry":{"type":"Point","coordinates":[116.9623643,6.7172364]},"properties":{"osm_id":8458240953,"osm_type":"node","seamark_type":"marine_farm","display_class":"OTHER","min_zoom":12,"importance":1,"name":null,"ref":null,"common":{"type":"marine_farm"},"children":{},"osm_tags":{"seamark:type":"marine_farm"}}},{"type":"Feature","geometry":{"type":"Point","coordinates":[116.9665807,6.7180941]},"properties":{"osm_id":8458240954,"osm_type":"node","seamark_type":"marine_farm","display_class":"OTHER","min_zoom":12,"importance":1,"name":null,"ref":null,"common":{"type":"marine_farm"},"children":{},"osm_tags":{"seamark:type":"marine_farm"}}},{"type":"Feature","geometry":{"type":"Point","coordinates":[116.9645637,6.7171778]},"properties":{"osm_id":8458240955,"osm_type":"node","seamark_type":"marine_farm","display_class":"OTHER","min_zoom":12,"importance":1,"name":null,"ref":null,"common":{"type":"marine_farm"},"children":{},"osm_tags":{"seamark:type":"marine_farm"}}},{"type":"Feature","geometry":{"type":"Point","coordinates":[116.9680399,6.7160004]},"properties":{"osm_id":8458240956,"osm_type":"node","seamark_type":"marine_farm","display_class":"OTHER","min_zoom":12,"importance":1,"name":null,"ref":null,"common":{"type":"marine_farm"},"children":{},"osm_tags":{"seamark:type":"marine_farm"}}},{"type":"Feature","geometry":{"type":"Point","coordinates":[116.9700515,6.7158672]},"properties":{"osm_id":8458240957,"osm_type":"node","seamark_type":"marine_farm","display_class":"OTHER","min_zoom":12,"importance":1,"name":null,"ref":null,"common":{"type":"marine_farm"},"children":{},"osm_tags":{"seamark:type":"marine_farm"}}},{"type":"Feature","geometry":{"type":"Point","coordinates":[116.9712102,6.7143435]},"properties":{"osm_id":8458240958,"osm_type":"node","seamark_type":"marine_farm","display_class":"OTHER","min_zoom":12,"importance":1,"name":null,"ref":null,"common":{"type":"marine_farm"},"children":{},"osm_tags":{"seamark:type":"marine_farm"}}},{"type":"Feature","geometry":{"type":"Point","coordinates":[116.9738012,6.7154729]},"properties":{"osm_id":8458240959,"osm_type":"node","seamark_type":"marine_farm","display_class":"OTHER","min_zoom":12,"importance":1,"name":null,"ref":null,"common":{"type":"marine_farm"},"children":{},"osm_tags":{"seamark:type":"marine_farm"}}},{"type":"Feature","geometry":{"type":"Point","coordinates":[116.9731736,6.7112082]},"properties":{"osm_id":8458240960,"osm_type":"node","seamark_type":"marine_farm","display_class":"OTHER","min_zoom":12,"importance":1,"name":null,"ref":null,"common":{"type":"marine_farm"},"children":{},"osm_tags":{"seamark:type":"marine_farm"}}},{"type":"Feature","geometry":{"type":"Point","coordinates":[116.9685817,6.71388]},"properties":{"osm_id":8458240961,"osm_type":"node","seamark_type":"marine_farm","display_class":"OTHER","min_zoom":12,"importance":1,"name":null,"ref":null,"common":{"type":"marine_farm"},"children":{},"osm_tags":{"seamark:type":"marine_farm"}}},{"type":"Feature","geometry":{"type":"Point","coordinates":[116.9670421,6.7128304]},"properties":{"osm_id":8458240962,"osm_type":"node","seamark_type":"marine_farm","display_class":"OTHER","min_zoom":12,"importance":1,"name":null,"ref":null,"common":{"type":"marine_farm"},"children":{},"osm_tags":{"seamark:type":"marine_farm"}}},{"type":"Feature","geometry":{"type":"Point","coordinates":[116.9704699,6.7124096]},"properties":{"osm_id":8458240963,"osm_type":"node","seamark_type":"marine_farm","display_class":"OTHER","min_zoom":12,"importance":1,"name":null,"ref":null,"common":{"type":"marine_farm"},"children":{},"osm_tags":{"seamark:type":"marine_farm"}}},{"type":"Feature","geometry":{"type":"Point","coordinates":[116.9688928,6.7120846]},"properties":{"osm_id":8458240964,"osm_type":"node","seamark_type":"marine_farm","display_class":"OTHER","min_zoom":12,"importance":1,"name":null,"ref":null,"common":{"type":"marine_farm"},"children":{},"osm_tags":{"seamark:type":"marine_farm"}}},{"type":"Feature","geometry":{"type":"Point","coordinates":[116.9671923,6.7109231]},"properties":{"osm_id":8458240965,"osm_type":"node","seamark_type":"marine_farm","display_class":"OTHER","min_zoom":12,"importance":1,"name":null,"ref":null,"common":{"type":"marine_farm"},"children":{},"osm_tags":{"seamark:type":"marine_farm"}}},{"type":"Feature","geometry":{"type":"Point","coordinates":[116.9696814,6.7102998]},"properties":{"osm_id":8458240966,"osm_type":"node","seamark_type":"marine_farm","display_class":"OTHER","min_zoom":12,"importance":1,"name":null,"ref":null,"common":{"type":"marine_farm"},"children":{},"osm_tags":{"seamark:type":"marine_farm"}}},{"type":"Feature","geometry":{"type":"Point","coordinates":[116.9682544,6.7086642]},"properties":{"osm_id":8458240967,"osm_type":"node","seamark_type":"marine_farm","display_class":"OTHER","min_zoom":12,"importance":1,"name":null,"ref":null,"common":{"type":"marine_farm"},"children":{},"osm_tags":{"seamark:type":"marine_farm"}}},{"type":"Feature","geometry":{"type":"Point","coordinates":[116.9724762,6.7083605]},"properties":{"osm_id":8458240968,"osm_type":"node","seamark_type":"marine_farm","display_class":"OTHER","min_zoom":12,"importance":1,"name":null,"ref":null,"common":{"type":"marine_farm"},"children":{},"osm_tags":{"seamark:type":"marine_farm"}}},{"type":"Feature","geometry":{"type":"Point","coordinates":[116.970486,6.7084511]},"properties":{"osm_id":8458240969,"osm_type":"node","seamark_type":"marine_farm","display_class":"OTHER","min_zoom":12,"importance":1,"name":null,"ref":null,"common":{"type":"marine_farm"},"children":{},"osm_tags":{"seamark:type":"marine_farm"}}},{"type":"Feature","geometry":{"type":"Point","coordinates":[116.9694668,6.706011]},"properties":{"osm_id":8458240970,"osm_type":"node","seamark_type":"marine_farm","display_class":"OTHER","min_zoom":12,"importance":1,"name":null,"ref":null,"common":{"type":"marine_farm"},"children":{},"osm_tags":{"seamark:type":"marine_farm"}}},{"type":"Feature","geometry":{"type":"Point","coordinates":[116.967541,6.7054782]},"properties":{"osm_id":8458240971,"osm_type":"node","seamark_type":"marine_farm","display_class":"OTHER","min_zoom":12,"importance":1,"name":null,"ref":null,"common":{"type":"marine_farm"},"children":{},"osm_tags":{"seamark:type":"marine_farm"}}},{"type":"Feature","geometry":{"type":"Point","coordinates":[116.9655454,6.7050573]},"properties":{"osm_id":8458240972,"osm_type":"node","seamark_type":"marine_farm","display_class":"OTHER","min_zoom":12,"importance":1,"name":null,"ref":null,"common":{"type":"marine_farm"},"children":{},"osm_tags":{"seamark:type":"marine_farm"}}},{"type":"Feature","geometry":{"type":"Point","coordinates":[116.9633782,6.7045459]},"properties":{"osm_id":8458240973,"osm_type":"node","seamark_type":"marine_farm","display_class":"OTHER","min_zoom":12,"importance":1,"name":null,"ref":null,"common":{"type":"marine_farm"},"children":{},"osm_tags":{"seamark:type":"marine_farm"}}},{"type":"Feature","geometry":{"type":"Point","coordinates":[116.9597143,6.705068]},"properties":{"osm_id":8458240974,"osm_type":"node","seamark_type":"marine_farm","display_class":"OTHER","min_zoom":12,"importance":1,"name":null,"ref":null,"common":{"type":"marine_farm"},"children":{},"osm_tags":{"seamark:type":"marine_farm"}}},{"type":"Feature","geometry":{"type":"Point","coordinates":[116.9613719,6.7036615]},"properties":{"osm_id":8458240975,"osm_type":"node","seamark_type":"marine_farm","display_class":"OTHER","min_zoom":12,"importance":1,"name":null,"ref":null,"common":{"type":"marine_farm"},"children":{},"osm_tags":{"seamark:type":"marine_farm"}}},{"type":"Feature","geometry":{"type":"Point","coordinates":[116.959092,6.7025693]},"properties":{"osm_id":8458240976,"osm_type":"node","seamark_type":"marine_farm","display_class":"OTHER","min_zoom":12,"importance":1,"name":null,"ref":null,"common":{"type":"marine_farm"},"children":{},"osm_tags":{"seamark:type":"marine_farm"}}},{"type":"Feature","geometry":{"type":"Point","coordinates":[116.949082,6.7088853]},"properties":{"osm_id":8458240977,"osm_type":"node","seamark_type":"marine_farm","display_class":"OTHER","min_zoom":12,"importance":1,"name":null,"ref":null,"common":{"type":"marine_farm"},"children":{},"osm_tags":{"seamark:type":"marine_farm"}}},{"type":"Feature","geometry":{"type":"Point","coordinates":[116.954323,6.7071884]},"properties":{"osm_id":8458240978,"osm_type":"node","seamark_type":"marine_farm","display_class":"OTHER","min_zoom":12,"importance":1,"name":null,"ref":null,"common":{"type":"marine_farm"},"children":{},"osm_tags":{"seamark:type":"marine_farm"}}},{"type":"Feature","geometry":{"type":"Point","coordinates":[116.9511205,6.7047164]},"properties":{"osm_id":8458240979,"osm_type":"node","seamark_type":"marine_farm","display_class":"OTHER","min_zoom":12,"importance":1,"name":null,"ref":null,"common":{"type":"marine_farm"},"children":{},"osm_tags":{"seamark:type":"marine_farm"}}},{"type":"Feature","geometry":{"type":"Point","coordinates":[116.9531107,6.7039066]},"properties":{"osm_id":8458240980,"osm_type":"node","seamark_type":"marine_farm","display_class":"OTHER","min_zoom":12,"importance":1,"name":null,"ref":null,"common":{"type":"marine_farm"},"children":{},"osm_tags":{"seamark:type":"marine_farm"}}},{"type":"Feature","geometry":{"type":"Point","coordinates":[116.9541192,6.7020046]},"properties":{"osm_id":8458240981,"osm_type":"node","seamark_type":"marine_farm","display_class":"OTHER","min_zoom":12,"importance":1,"name":null,"ref":null,"common":{"type":"marine_farm"},"children":{},"osm_tags":{"seamark:type":"marine_farm"}}},{"type":"Feature","geometry":{"type":"Point","coordinates":[116.9508791,6.7016849]},"properties":{"osm_id":8458240982,"osm_type":"node","seamark_type":"marine_farm","display_class":"OTHER","min_zoom":12,"importance":1,"name":null,"ref":null,"common":{"type":"marine_farm"},"children":{},"osm_tags":{"seamark:type":"marine_farm"}}},{"type":"Feature","geometry":{"type":"Point","coordinates":[116.9526923,6.7001558]},"properties":{"osm_id":8458240983,"osm_type":"node","seamark_type":"marine_farm","display_class":"OTHER","min_zoom":12,"importance":1,"name":null,"ref":null,"common":{"type":"marine_farm"},"children":{},"osm_tags":{"seamark:type":"marine_farm"}}},{"type":"Feature","geometry":{"type":"Point","coordinates":[116.9558358,6.6957337]},"properties":{"osm_id":8458240984,"osm_type":"node","seamark_type":"marine_farm","display_class":"OTHER","min_zoom":12,"importance":1,"name":null,"ref":null,"common":{"type":"marine_farm"},"children":{},"osm_tags":{"seamark:type":"marine_farm"}}},{"type":"Feature","geometry":{"type":"Point","coordinates":[116.9542372,6.6970764]},"properties":{"osm_id":8458240985,"osm_type":"node","seamark_type":"marine_farm","display_class":"OTHER","min_zoom":12,"importance":1,"name":null,"ref":null,"common":{"type":"marine_farm"},"children":{},"osm_tags":{"seamark:type":"marine_farm"}}},{"type":"Feature","geometry":{"type":"Point","coordinates":[116.9409871,6.7024468]},"properties":{"osm_id":8458240986,"osm_type":"node","seamark_type":"marine_farm","display_class":"OTHER","min_zoom":12,"importance":1,"name":null,"ref":null,"common":{"type":"marine_farm"},"children":{},"osm_tags":{"seamark:type":"marine_farm"}}},{"type":"Feature","geometry":{"type":"Point","coordinates":[116.9461906,6.7022336]},"properties":{"osm_id":8458240987,"osm_type":"node","seamark_type":"marine_farm","display_class":"OTHER","min_zoom":12,"importance":1,"name":null,"ref":null,"common":{"type":"marine_farm"},"children":{},"osm_tags":{"seamark:type":"marine_farm"}}},{"type":"Feature","geometry":{"type":"Point","coordinates":[116.9485617,6.7012374]},"properties":{"osm_id":8458240988,"osm_type":"node","seamark_type":"marine_farm","display_class":"OTHER","min_zoom":12,"importance":1,"name":null,"ref":null,"common":{"type":"marine_farm"},"children":{},"osm_tags":{"seamark:type":"marine_farm"}}},{"type":"Feature","geometry":{"type":"Point","coordinates":[116.9474298,6.6989837]},"properties":{"osm_id":8458240989,"osm_type":"node","seamark_type":"marine_farm","display_class":"OTHER","min_zoom":12,"importance":1,"name":null,"ref":null,"common":{"type":"marine_farm"},"children":{},"osm_tags":{"seamark:type":"marine_farm"}}},{"type":"Feature","geometry":{"type":"Point","coordinates":[116.9431436,6.6992075]},"properties":{"osm_id":8458240990,"osm_type":"node","seamark_type":"marine_farm","display_class":"OTHER","min_zoom":12,"importance":1,"name":null,"ref":null,"common":{"type":"marine_farm"},"children":{},"osm_tags":{"seamark:type":"marine_farm"}}},{"type":"Feature","geometry":{"type":"Point","coordinates":[116.9437659,6.6971083]},"properties":{"osm_id":8458240991,"osm_type":"node","seamark_type":"marine_farm","display_class":"OTHER","min_zoom":12,"importance":1,"name":null,"ref":null,"common":{"type":"marine_farm"},"children":{},"osm_tags":{"seamark:type":"marine_farm"}}},{"type":"Feature","geometry":{"type":"Point","coordinates":[116.9459546,6.6968526]},"properties":{"osm_id":8458240992,"osm_type":"node","seamark_type":"marine_farm","display_class":"OTHER","min_zoom":12,"importance":1,"name":null,"ref":null,"common":{"type":"marine_farm"},"children":{},"osm_tags":{"seamark:type":"marine_farm"}}},{"type":"Feature","geometry":{"type":"Point","coordinates":[116.947301,6.6938317]},"properties":{"osm_id":8458240993,"osm_type":"node","seamark_type":"marine_farm","display_class":"OTHER","min_zoom":12,"importance":1,"name":null,"ref":null,"common":{"type":"marine_farm"},"children":{},"osm_tags":{"seamark:type":"marine_farm"}}},{"type":"Feature","geometry":{"type":"Point","coordinates":[116.9526172,6.6944284]},"properties":{"osm_id":8458240994,"osm_type":"node","seamark_type":"marine_farm","display_class":"OTHER","min_zoom":12,"importance":1,"name":null,"ref":null,"common":{"type":"marine_farm"},"children":{},"osm_tags":{"seamark:type":"marine_farm"}}},{"type":"Feature","geometry":{"type":"Point","coordinates":[116.9505304,6.6939116]},"properties":{"osm_id":8458240995,"osm_type":"node","seamark_type":"marine_farm","display_class":"OTHER","min_zoom":12,"importance":1,"name":null,"ref":null,"common":{"type":"marine_farm"},"children":{},"osm_tags":{"seamark:type":"marine_farm"}}},{"type":"Feature","geometry":{"type":"Point","coordinates":[116.9484115,6.6922547]},"properties":{"osm_id":8458240996,"osm_type":"node","seamark_type":"marine_farm","display_class":"OTHER","min_zoom":12,"importance":1,"name":null,"ref":null,"common":{"type":"marine_farm"},"children":{},"osm_tags":{"seamark:type":"marine_farm"}}},{"type":"Feature","geometry":{"type":"Point","coordinates":[116.9511849,6.6919616]},"properties":{"osm_id":8458240997,"osm_type":"node","seamark_type":"marine_farm","display_class":"OTHER","min_zoom":12,"importance":1,"name":null,"ref":null,"common":{"type":"marine_farm"},"children":{},"osm_tags":{"seamark:type":"marine_farm"}}},{"type":"Feature","geometry":{"type":"Point","coordinates":[116.9564098,6.7000812]},"properties":{"osm_id":8458240998,"osm_type":"node","seamark_type":"marine_farm","display_class":"OTHER","min_zoom":12,"importance":1,"name":null,"ref":null,"common":{"type":"marine_farm"},"children":{},"osm_tags":{"seamark:type":"marine_farm"}}},{"type":"Feature","geometry":{"type":"Polygon","coordinates":[[[116.4864756,6.5423236],[116.4865716,6.5423379],[116.4866964,6.5424046],[116.4867588,6.5425334],[116.4868549,6.542543],[116.4869653,6.5425],[116.4872438,6.5425477],[116.4873494,6.542605],[116.487383,6.5426765],[116.4875559,6.5427862],[116.4876711,6.5428864],[116.4876903,6.5430009],[116.4876327,6.5430677],[116.4875222,6.5431106],[116.4874022,6.5431488],[116.4872774,6.5431392],[116.487239,6.5430438],[116.4872726,6.5429627],[116.4872486,6.542896],[116.4871766,6.5428769],[116.4871141,6.5429198],[116.4870421,6.5429055],[116.4869749,6.5429484],[116.4868741,6.5429627],[116.48673,6.542958],[116.4866244,6.5429341],[116.486586,6.5428721],[116.4865188,6.5428244],[116.4864324,6.5427576],[116.4863699,6.5426813],[116.4863075,6.5425764],[116.4863363,6.5425287],[116.4864035,6.5425382],[116.4864035,6.5424619],[116.4863939,6.5423522],[116.4864756,6.5423236]]]},"properties":{"osm_id":1322281172,"osm_type":"way","seamark_type":"rock","display_class":"OTHER","min_zoom":12,"importance":1,"name":"Batuan Ant","ref":null,"common":{"type":"rock"},"children":{"rock":{"water_level":"covers"}},"osm_tags":{"name":"Batuan Ant","natural":"reef","reef":"rock","seamark:rock:water_level":"covers","seamark:type":"rock"}}},{"type":"Feature","geometry":{"type":"Polygon","coordinates":[[[116.0996275,6.0473174],[116.0996217,6.0471263],[116.0996062,6.0469358],[116.0995809,6.0467463],[116.0995461,6.0465583],[116.0995017,6.0463723],[116.0994479,6.0461888],[116.0993848,6.0460083],[116.0993127,6.0458311],[116.0992315,6.0456578],[116.0991417,6.0454888],[116.0990434,6.0453246],[116.0989368,6.0451655],[116.0988223,6.045012],[116.0987001,6.0448644],[116.0985705,6.0447232],[116.0984339,6.0445888],[116.0982906,6.0444613],[116.0981411,6.0443413],[116.0979856,6.0442289],[116.0978245,6.0441245],[116.0976584,6.0440283],[116.0974876,6.0439407],[116.0973125,6.0438617],[116.0971337,6.0437917],[116.0969515,6.0437308],[116.0967664,6.0436791],[116.096579,6.0436368],[116.0963896,6.043604],[116.0961988,6.0435808],[116.0960071,6.0435672],[116.0958149,6.0435633],[116.0956228,6.0435691],[116.0954312,6.0435846],[116.0952406,6.0436097],[116.0950516,6.0436443],[116.0948646,6.0436885],[116.09468,6.043742],[116.0944985,6.0438047],[116.0943203,6.0438765],[116.094146,6.0439571],[116.0939761,6.0440465],[116.093811,6.0441442],[116.093651,6.0442502],[116.0934966,6.0443641],[116.0933482,6.0444856],[116.0932063,6.0446145],[116.093071,6.0447503],[116.0929429,6.0448928],[116.0928221,6.0450415],[116.0927091,6.0451962],[116.0926041,6.0453563],[116.0925075,6.0455215],[116.0924193,6.0456914],[116.0923399,6.0458654],[116.0922695,6.0460433],[116.0922082,6.0462245],[116.0921563,6.0464085],[116.0921137,6.0465949],[116.0920808,6.0467832],[116.0920574,6.046973],[116.0920438,6.0471636],[116.0920399,6.0473547],[116.0920457,6.0475458],[116.0920612,6.0477363],[116.0920865,6.0479258],[116.0921213,6.0481138],[116.0921657,6.0482998],[116.0922195,6.0484833],[116.0922825,6.0486639],[116.0923547,6.048841],[116.0924359,6.0490143],[116.0925257,6.0491833],[116.092624,6.0493475],[116.0927306,6.0495066],[116.0928451,6.0496601],[116.0929673,6.0498077],[116.0930969,6.0499489],[116.0932335,6.0500834],[116.0933768,6.0502108],[116.0935263,6.0503309],[116.0936818,6.0504432],[116.0938428,6.0505476],[116.094009,6.0506438],[116.0941798,6.0507314],[116.0943548,6.0508104],[116.0945337,6.0508804],[116.0947159,6.0509413],[116.0949009,6.050993],[116.0950884,6.0510353],[116.0952778,6.0510681],[116.0954686,6.0510913],[116.0956603,6.0511049],[116.0958525,6.0511088],[116.0960446,6.051103],[116.0962362,6.0510875],[116.0964268,6.0510624],[116.0966158,6.0510278],[116.0968028,6.0509837],[116.0969873,6.0509302],[116.0971689,6.0508674],[116.0973471,6.0507957],[116.0975213,6.050715],[116.0976913,6.0506257],[116.0978564,6.0505279],[116.0980164,6.0504219],[116.0981708,6.050308],[116.0983191,6.0501865],[116.0984611,6.0500576],[116.0985964,6.0499218],[116.0987245,6.0497793],[116.0988453,6.0496306],[116.0989583,6.049476],[116.0990632,6.0493158],[116.0991599,6.0491506],[116.0992481,6.0489808],[116.0993275,6.0488067],[116.0993979,6.0486288],[116.0994592,6.0484477],[116.0995111,6.0482636],[116.0995536,6.0480772],[116.0995866,6.0478889],[116.09961,6.0476992],[116.0996236,6.0475085],[116.0996275,6.0473174]]]},"properties":{"osm_id":1355098389,"osm_type":"way","seamark_type":"anchorage","display_class":"OTHER","min_zoom":12,"importance":1,"name":"J-1","ref":null,"common":{"type":"anchorage"},"children":{"anchorage":{"category":"cargo, tanker, container","radius":"420","restriction":"designated"}},"osm_tags":{"name":"J-1","seamark:anchorage:category":"cargo, tanker, container","seamark:anchorage:radius":"420","seamark:anchorage:restriction":"designated","seamark:type":"anchorage","source":"Ports and Harbours Deparment Sabah"}}},{"type":"Feature","geometry":{"type":"Polygon","coordinates":[[[116.0971277,6.039977],[116.0971219,6.0397859],[116.0971063,6.0395954],[116.0970811,6.0394059],[116.0970463,6.0392179],[116.0970019,6.0390319],[116.0969481,6.0388484],[116.096885,6.0386678],[116.0968128,6.0384907],[116.0967317,6.0383174],[116.0966419,6.0381484],[116.0965435,6.0379841],[116.096437,6.0378251],[116.0963224,6.0376715],[116.0962002,6.037524],[116.0960707,6.0373828],[116.0959341,6.0372483],[116.0957908,6.0371209],[116.0956412,6.0370008],[116.0954857,6.0368884],[116.0953247,6.036784],[116.0951586,6.0366879],[116.0949878,6.0366002],[116.0948127,6.0365213],[116.0946339,6.0364512],[116.0944517,6.0363903],[116.0942666,6.0363386],[116.0940792,6.0362963],[116.0938898,6.0362636],[116.093699,6.0362403],[116.0935073,6.0362268],[116.0933151,6.0362229],[116.093123,6.0362287],[116.0929314,6.0362441],[116.0927408,6.0362692],[116.0925518,6.0363039],[116.0923648,6.036348],[116.0921802,6.0364015],[116.0919986,6.0364642],[116.0918205,6.036536],[116.0916462,6.0366167],[116.0914763,6.036706],[116.0913111,6.0368038],[116.0911512,6.0369098],[116.0909968,6.0370237],[116.0908484,6.0371452],[116.0907064,6.037274],[116.0905712,6.0374099],[116.090443,6.0375523],[116.0903223,6.0377011],[116.0902093,6.0378557],[116.0901043,6.0380158],[116.0900076,6.0381811],[116.0899195,6.0383509],[116.0898401,6.038525],[116.0897697,6.0387029],[116.0897084,6.0388841],[116.0896564,6.0390681],[116.0896139,6.0392545],[116.089581,6.0394428],[116.0895576,6.0396326],[116.089544,6.0398232],[116.08954,6.0400143],[116.0895459,6.0402054],[116.0895614,6.0403959],[116.0895866,6.0405854],[116.0896215,6.0407734],[116.0896659,6.0409594],[116.0897197,6.0411429],[116.0897827,6.0413235],[116.0898549,6.0415006],[116.089936,6.0416739],[116.0900259,6.0418429],[116.0901242,6.0420072],[116.0902308,6.0421662],[116.0903453,6.0423198],[116.0904675,6.0424673],[116.0905971,6.0426085],[116.0907337,6.042743],[116.0908769,6.0428704],[116.0910265,6.0429905],[116.091182,6.0431029],[116.091343,6.0432073],[116.0915091,6.0433034],[116.09168,6.0433911],[116.091855,6.04347],[116.0920339,6.0435401],[116.0922161,6.043601],[116.0924011,6.0436527],[116.0925886,6.0436949],[116.092778,6.0437277],[116.0929687,6.0437509],[116.0931605,6.0437645],[116.0933527,6.0437684],[116.0935448,6.0437626],[116.0937364,6.0437472],[116.0939269,6.0437221],[116.094116,6.0436874],[116.094303,6.0436433],[116.0944875,6.0435898],[116.0946691,6.0435271],[116.0948473,6.0434553],[116.0950215,6.0433746],[116.0951915,6.0432853],[116.0953566,6.0431875],[116.0955166,6.0430815],[116.095671,6.0429676],[116.0958193,6.0428461],[116.0959613,6.0427172],[116.0960966,6.0425814],[116.0962247,6.0424389],[116.0963454,6.0422902],[116.0964584,6.0421356],[116.0965634,6.0419755],[116.0966601,6.0418102],[116.0967483,6.0416404],[116.0968276,6.0414663],[116.0968981,6.0412884],[116.0969593,6.0411073],[116.0970113,6.0409232],[116.0970538,6.0407368],[116.0970868,6.0405485],[116.0971101,6.0403588],[116.0971238,6.0401681],[116.0971277,6.039977]]]},"properties":{"osm_id":1355098390,"osm_type":"way","seamark_type":"anchorage","display_class":"OTHER","min_zoom":12,"importance":1,"name":"J-2","ref":null,"common":{"type":"anchorage"},"children":{"anchorage":{"category":"cargo, tanker, container","radius":"420","restriction":"designated"}},"osm_tags":{"name":"J-2","seamark:anchorage:category":"cargo, tanker, container","seamark:anchorage:radius":"420","seamark:anchorage:restriction":"designated","seamark:type":"anchorage","source":"Ports and Harbours Department Sabah"}}},{"type":"Feature","geometry":{"type":"Polygon","coordinates":[[[116.0947942,6.0324818],[116.0947884,6.0322907],[116.0947728,6.0321002],[116.0947476,6.0319107],[116.0947127,6.0317227],[116.0946684,6.0315367],[116.0946146,6.0313532],[116.0945515,6.0311726],[116.0944793,6.0309954],[116.0943982,6.0308221],[116.0943084,6.0306531],[116.09421,6.0304889],[116.0941035,6.0303298],[116.0939889,6.0301763],[116.0938667,6.0300287],[116.0937371,6.0298875],[116.0936006,6.029753],[116.0934573,6.0296256],[116.0933077,6.0295055],[116.0931522,6.0293932],[116.0929912,6.0292888],[116.0928251,6.0291926],[116.0926543,6.0291049],[116.0924792,6.029026],[116.0923004,6.028956],[116.0921182,6.028895],[116.0919331,6.0288434],[116.0917456,6.0288011],[116.0915563,6.0287683],[116.0913655,6.0287451],[116.0911737,6.0287315],[116.0909816,6.0287276],[116.0907894,6.0287334],[116.0905978,6.0287488],[116.0904073,6.0287739],[116.0902183,6.0288086],[116.0900312,6.0288527],[116.0898467,6.0289062],[116.0896651,6.0289689],[116.089487,6.0290407],[116.0893127,6.0291214],[116.0891428,6.0292107],[116.0889776,6.0293085],[116.0888176,6.0294145],[116.0886633,6.0295284],[116.0885149,6.0296499],[116.0883729,6.0297788],[116.0882377,6.0299146],[116.0881095,6.0300571],[116.0879888,6.0302058],[116.0878758,6.0303605],[116.0877708,6.0305206],[116.0876741,6.0306858],[116.087586,6.0308557],[116.0875066,6.0310298],[116.0874362,6.0312076],[116.0873749,6.0313888],[116.0873229,6.0315729],[116.0872804,6.0317593],[116.0872474,6.0319476],[116.0872241,6.0321373],[116.0872104,6.032328],[116.0872065,6.0325191],[116.0872123,6.0327102],[116.0872279,6.0329007],[116.0872531,6.0330902],[116.087288,6.0332782],[116.0873323,6.0334642],[116.0873861,6.0336477],[116.0874492,6.0338283],[116.0875214,6.0340054],[116.0876025,6.0341787],[116.0876923,6.0343477],[116.0877907,6.034512],[116.0878972,6.0346711],[116.0880118,6.0348246],[116.088134,6.0349721],[116.0882636,6.0351133],[116.0884001,6.0352478],[116.0885434,6.0353753],[116.088693,6.0354953],[116.0888485,6.0356077],[116.0890095,6.0357121],[116.0891756,6.0358082],[116.0893464,6.0358959],[116.0895215,6.0359749],[116.0897004,6.0360449],[116.0898825,6.0361058],[116.0900676,6.0361575],[116.0902551,6.0361998],[116.0904444,6.0362326],[116.0906352,6.0362558],[116.090827,6.0362693],[116.0910191,6.0362732],[116.0912113,6.0362675],[116.0914029,6.036252],[116.0915934,6.0362269],[116.0917824,6.0361923],[116.0919695,6.0361481],[116.092154,6.0360946],[116.0923356,6.0360319],[116.0925137,6.0359601],[116.092688,6.0358795],[116.0928579,6.0357901],[116.0930231,6.0356923],[116.0931831,6.0355863],[116.0933374,6.0354724],[116.0934858,6.0353509],[116.0936278,6.0352221],[116.093763,6.0350862],[116.0938912,6.0349438],[116.0940119,6.034795],[116.0941249,6.0346404],[116.0942299,6.0344803],[116.0943266,6.0343151],[116.0944147,6.0341452],[116.0944941,6.0339711],[116.0945645,6.0337932],[116.0946258,6.0336121],[116.0946778,6.033428],[116.0947203,6.0332416],[116.0947533,6.0330533],[116.0947766,6.0328635],[116.0947903,6.0326729],[116.0947942,6.0324818]]]},"properties":{"osm_id":1355098388,"osm_type":"way","seamark_type":"anchorage","display_class":"OTHER","min_zoom":12,"importance":1,"name":"J-3","ref":null,"common":{"type":"anchorage"},"children":{"anchorage":{"category":"cargo, tanker, container","radius":"420","restriction":"designated"}},"osm_tags":{"name":"J-3","seamark:anchorage:category":"cargo, tanker, container","seamark:anchorage:radius":"420","seamark:anchorage:restriction":"designated","seamark:type":"anchorage","source":"Ports and Harbours Department Sabah"}}},{"type":"Feature","geometry":{"type":"Polygon","coordinates":[[[116.0924619,6.0251491],[116.0924561,6.024958],[116.0924405,6.0247675],[116.0924153,6.024578],[116.0923805,6.02439],[116.0923361,6.024204],[116.0922823,6.0240205],[116.0922192,6.0238399],[116.092147,6.0236627],[116.0920659,6.0234894],[116.0919761,6.0233204],[116.0918778,6.0231562],[116.0917712,6.0229971],[116.0916566,6.0228436],[116.0915344,6.022696],[116.0914049,6.0225548],[116.0912683,6.0224203],[116.091125,6.0222929],[116.0909754,6.0221728],[116.09082,6.0220604],[116.0906589,6.021956],[116.0904928,6.0218599],[116.090322,6.0217722],[116.0901469,6.0216933],[116.0899681,6.0216232],[116.0897859,6.0215623],[116.0896008,6.0215106],[116.0894134,6.0214683],[116.089224,6.0214355],[116.0890332,6.0214123],[116.0888415,6.0213988],[116.0886493,6.0213949],[116.0884572,6.0214007],[116.0882656,6.0214161],[116.088075,6.0214412],[116.087886,6.0214759],[116.087699,6.02152],[116.0875144,6.0215735],[116.0873328,6.0216362],[116.0871547,6.021708],[116.0869804,6.0217887],[116.0868105,6.021878],[116.0866453,6.0219758],[116.0864854,6.0220818],[116.086331,6.0221957],[116.0861826,6.0223172],[116.0860406,6.0224461],[116.0859054,6.0225819],[116.0857772,6.0227244],[116.0856565,6.0228731],[116.0855435,6.0230278],[116.0854385,6.0231879],[116.0853418,6.0233531],[116.0852537,6.023523],[116.0851743,6.0236971],[116.0851039,6.0238749],[116.0850426,6.0240561],[116.0849907,6.0242402],[116.0849481,6.0244266],[116.0849152,6.0246149],[116.0848918,6.0248046],[116.0848782,6.0249953],[116.0848743,6.0251864],[116.0848801,6.0253775],[116.0848956,6.025568],[116.0849208,6.0257575],[116.0849557,6.0259455],[116.0850001,6.0261315],[116.0850539,6.026315],[116.0851169,6.0264956],[116.0851891,6.0266728],[116.0852702,6.0268461],[116.0853601,6.0270151],[116.0854584,6.0271793],[116.085565,6.0273384],[116.0856795,6.0274919],[116.0858017,6.0276395],[116.0859313,6.0277807],[116.0860679,6.0279152],[116.0862111,6.0280426],[116.0863607,6.0281627],[116.0865162,6.028275],[116.0866772,6.0283794],[116.0868434,6.0284756],[116.0870142,6.0285633],[116.0871892,6.0286422],[116.0873681,6.0287122],[116.0875503,6.0287732],[116.0877353,6.0288248],[116.0879228,6.0288671],[116.0881122,6.0288999],[116.088303,6.0289231],[116.0884947,6.0289367],[116.0886869,6.0289406],[116.088879,6.0289348],[116.0890706,6.0289194],[116.0892611,6.0288943],[116.0894502,6.0288596],[116.0896372,6.0288155],[116.0898217,6.028762],[116.0900033,6.0286993],[116.0901815,6.0286275],[116.0903557,6.0285468],[116.0905257,6.0284575],[116.0906908,6.0283597],[116.0908508,6.0282537],[116.0910052,6.0281398],[116.0911535,6.0280183],[116.0912955,6.0278894],[116.0914308,6.0277536],[116.0915589,6.0276111],[116.0916796,6.0274624],[116.0917926,6.0273077],[116.0918976,6.0271476],[116.0919943,6.0269824],[116.0920825,6.0268125],[116.0921619,6.0266384],[116.0922323,6.0264606],[116.0922935,6.0262794],[116.0923455,6.0260953],[116.092388,6.0259089],[116.092421,6.0257206],[116.0924443,6.0255309],[116.092458,6.0253402],[116.0924619,6.0251491]]]},"properties":{"osm_id":1355098397,"osm_type":"way","seamark_type":"anchorage","display_class":"OTHER","min_zoom":12,"importance":1,"name":"J-4","ref":null,"common":{"type":"anchorage"},"children":{"anchorage":{"category":"cargo, tanker, container","radius":"420","restriction":"designated"}},"osm_tags":{"name":"J-4","seamark:anchorage:category":"cargo, tanker, container","seamark:anchorage:radius":"420","seamark:anchorage:restriction":"designated","seamark:type":"anchorage","source":"Ports and Harbours Department Sabah"}}},{"type":"Feature","geometry":{"type":"Polygon","coordinates":[[[116.0894619,6.0409799],[116.0894561,6.0407888],[116.0894406,6.0405983],[116.0894154,6.0404088],[116.0893805,6.0402208],[116.0893361,6.0400348],[116.0892823,6.0398513],[116.0892193,6.0396707],[116.0891471,6.0394936],[116.089066,6.0393203],[116.0889761,6.0391513],[116.0888778,6.0389871],[116.0887712,6.038828],[116.0886567,6.0386745],[116.0885345,6.0385269],[116.0884049,6.0383857],[116.0882683,6.0382512],[116.0881251,6.0381238],[116.0879755,6.0380037],[116.08782,6.0378913],[116.087659,6.0377869],[116.0874928,6.0376908],[116.087322,6.0376031],[116.087147,6.0375242],[116.0869681,6.0374542],[116.0867859,6.0373932],[116.0866009,6.0373415],[116.0864134,6.0372993],[116.086224,6.0372665],[116.0860332,6.0372433],[116.0858415,6.0372297],[116.0856493,6.0372258],[116.0854572,6.0372316],[116.0852656,6.037247],[116.0850751,6.0372721],[116.084886,6.0373068],[116.084699,6.0373509],[116.0845145,6.0374044],[116.0843329,6.0374671],[116.0841547,6.0375389],[116.0839805,6.0376196],[116.0838105,6.0377089],[116.0836454,6.0378067],[116.0834854,6.0379127],[116.083331,6.0380266],[116.0831827,6.0381481],[116.0830407,6.038277],[116.0829054,6.0384128],[116.0827773,6.0385553],[116.0826566,6.038704],[116.0825436,6.0388586],[116.0824386,6.0390188],[116.0823419,6.039184],[116.0822537,6.0393538],[116.0821743,6.0395279],[116.0821039,6.0397058],[116.0820427,6.039887],[116.0819907,6.040071],[116.0819482,6.0402574],[116.0819152,6.0404457],[116.0818919,6.0406355],[116.0818782,6.0408261],[116.0818743,6.0410172],[116.0818801,6.0412083],[116.0818957,6.0413988],[116.0819209,6.0415883],[116.0819557,6.0417763],[116.0820001,6.0419623],[116.0820539,6.0421458],[116.082117,6.0423264],[116.0821892,6.0425035],[116.0822703,6.0426768],[116.0823601,6.0428458],[116.0824584,6.0430101],[116.082565,6.0431692],[116.0826796,6.0433227],[116.0828018,6.0434702],[116.0829313,6.0436114],[116.0830679,6.0437459],[116.0832112,6.0438733],[116.0833608,6.0439934],[116.0835162,6.0441058],[116.0836773,6.0442102],[116.0838434,6.0443063],[116.0840142,6.044394],[116.0841893,6.0444729],[116.0843681,6.044543],[116.0845503,6.0446039],[116.0847354,6.0446556],[116.0849228,6.0446978],[116.0851122,6.0447306],[116.085303,6.0447538],[116.0854947,6.0447674],[116.0856869,6.0447713],[116.085879,6.0447655],[116.0860706,6.0447501],[116.0862612,6.044725],[116.0864502,6.0446903],[116.0866372,6.0446462],[116.0868218,6.0445927],[116.0870034,6.04453],[116.0871815,6.0444582],[116.0873558,6.0443775],[116.0875257,6.0442882],[116.0876909,6.0441904],[116.0878508,6.0440844],[116.0880052,6.0439705],[116.0881536,6.043849],[116.0882956,6.0437202],[116.0884308,6.0435843],[116.088559,6.0434419],[116.0886797,6.0432931],[116.0887927,6.0431385],[116.0888977,6.0429784],[116.0889944,6.0428132],[116.0890825,6.0426433],[116.0891619,6.0424692],[116.0892323,6.0422913],[116.0892936,6.0421102],[116.0893455,6.0419261],[116.0893881,6.0417397],[116.089421,6.0415514],[116.0894444,6.0413617],[116.089458,6.041171],[116.0894619,6.0409799]]]},"properties":{"osm_id":1355098391,"osm_type":"way","seamark_type":"anchorage","display_class":"OTHER","min_zoom":12,"importance":1,"name":"J-6","ref":null,"common":{"type":"anchorage"},"children":{"anchorage":{"category":"cargo, tanker, container","radius":"420","restriction":"designated"}},"osm_tags":{"name":"J-6","seamark:anchorage:category":"cargo, tanker, container","seamark:anchorage:radius":"420","seamark:anchorage:restriction":"designated","seamark:type":"anchorage","source":"Ports and Harbours Department Sabah"}}},{"type":"Feature","geometry":{"type":"Polygon","coordinates":[[[116.0917955,6.0483149],[116.0917896,6.0481239],[116.0917741,6.0479334],[116.0917489,6.0477439],[116.091714,6.0475559],[116.0916697,6.0473699],[116.0916159,6.0471864],[116.0915528,6.0470058],[116.0914806,6.0468287],[116.0913995,6.0466554],[116.0913096,6.0464864],[116.0912113,6.0463221],[116.0911047,6.0461631],[116.0909902,6.0460096],[116.090868,6.045862],[116.0907384,6.0457208],[116.0906018,6.0455863],[116.0904586,6.0454589],[116.090309,6.0453388],[116.0901535,6.0452264],[116.0899925,6.0451221],[116.0898264,6.0450259],[116.0896556,6.0449382],[116.0894805,6.0448593],[116.0893016,6.0447893],[116.0891194,6.0447283],[116.0889344,6.0446767],[116.0887469,6.0446344],[116.0885576,6.0446016],[116.0883668,6.0445784],[116.088175,6.0445648],[116.0879829,6.0445609],[116.0877907,6.0445667],[116.0875991,6.0445822],[116.0874086,6.0446072],[116.0872195,6.0446419],[116.0870325,6.044686],[116.086848,6.0447395],[116.0866664,6.0448022],[116.0864883,6.044874],[116.086314,6.0449547],[116.0861441,6.045044],[116.0859789,6.0451418],[116.0858189,6.0452478],[116.0856646,6.0453617],[116.0855162,6.0454832],[116.0853742,6.0456121],[116.085239,6.0457479],[116.0851108,6.0458904],[116.0849901,6.0460391],[116.0848771,6.0461937],[116.0847721,6.0463539],[116.0846754,6.0465191],[116.0845873,6.0466889],[116.0845079,6.046863],[116.0844374,6.0470409],[116.0843762,6.047222],[116.0843242,6.0474061],[116.0842817,6.0475925],[116.0842487,6.0477808],[116.0842254,6.0479705],[116.0842117,6.0481612],[116.0842078,6.0483523],[116.0842136,6.0485434],[116.0842292,6.0487339],[116.0842544,6.0489234],[116.0842893,6.0491114],[116.0843336,6.0492974],[116.0843874,6.0494809],[116.0844505,6.0496614],[116.0845227,6.0498386],[116.0846038,6.0500119],[116.0846936,6.0501809],[116.084792,6.0503451],[116.0848985,6.0505042],[116.0850131,6.0506577],[116.0851353,6.0508052],[116.0852648,6.0509464],[116.0854014,6.0510809],[116.0855447,6.0512084],[116.0856943,6.0513284],[116.0858498,6.0514408],[116.0860108,6.0515452],[116.0861769,6.0516413],[116.0863477,6.051729],[116.0865228,6.0518079],[116.0867016,6.051878],[116.0868838,6.0519389],[116.0870689,6.0519906],[116.0872564,6.0520329],[116.0874457,6.0520656],[116.0876365,6.0520889],[116.0878282,6.0521024],[116.0880204,6.0521063],[116.0882126,6.0521005],[116.0884041,6.0520851],[116.0885947,6.05206],[116.0887837,6.0520253],[116.0889708,6.0519812],[116.0891553,6.0519277],[116.0893369,6.051865],[116.089515,6.0517932],[116.0896893,6.0517125],[116.0898592,6.0516232],[116.0900244,6.0515254],[116.0901844,6.0514194],[116.0903387,6.0513056],[116.0904871,6.051184],[116.0906291,6.0510552],[116.0907643,6.0509194],[116.0908925,6.0507769],[116.0910132,6.0506281],[116.0911262,6.0504735],[116.0912312,6.0503134],[116.0913279,6.0501482],[116.091416,6.0499783],[116.0914954,6.0498042],[116.0915658,6.0496264],[116.0916271,6.0494452],[116.0916791,6.0492612],[116.0917216,6.0490748],[116.0917546,6.0488865],[116.0917779,6.0486967],[116.0917916,6.0485061],[116.0917955,6.0483149]]]},"properties":{"osm_id":1355098392,"osm_type":"way","seamark_type":"anchorage","display_class":"OTHER","min_zoom":12,"importance":1,"name":"J-6","ref":null,"common":{"type":"anchorage"},"children":{"anchorage":{"category":"cargo, tanker, container","radius":"420","restriction":"designated"}},"osm_tags":{"name":"J-6","seamark:anchorage:category":"cargo, tanker, container","seamark:anchorage:radius":"420","seamark:anchorage:restriction":"designated","seamark:type":"anchorage","source":"Ports and Harbours Department Sabah"}}},{"type":"Feature","geometry":{"type":"Polygon","coordinates":[[[116.0819786,6.0439353],[116.0819728,6.0437442],[116.0819572,6.0435537],[116.081932,6.0433642],[116.0818971,6.0431762],[116.0818528,6.0429902],[116.081799,6.0428067],[116.0817359,6.0426261],[116.0816637,6.042449],[116.0815826,6.0422757],[116.0814928,6.0421067],[116.0813944,6.0419424],[116.0812879,6.0417834],[116.0811733,6.0416298],[116.0810511,6.0414823],[116.0809216,6.0413411],[116.080785,6.0412066],[116.0806417,6.0410792],[116.0804921,6.0409591],[116.0803366,6.0408467],[116.0801756,6.0407423],[116.0800095,6.0406462],[116.0798387,6.0405585],[116.0796636,6.0404796],[116.0794848,6.0404095],[116.0793026,6.0403486],[116.0791175,6.0402969],[116.07893,6.0402547],[116.0787407,6.0402219],[116.0785499,6.0401987],[116.0783581,6.0401851],[116.078166,6.0401812],[116.0779738,6.040187],[116.0777823,6.0402024],[116.0775917,6.0402275],[116.0774027,6.0402622],[116.0772156,6.0403063],[116.0770311,6.0403598],[116.0768495,6.0404225],[116.0766714,6.0404943],[116.0764971,6.040575],[116.0763272,6.0406643],[116.076162,6.0407621],[116.076002,6.0408681],[116.0758477,6.040982],[116.0756993,6.0411035],[116.0755573,6.0412324],[116.0754221,6.0413682],[116.0752939,6.0415107],[116.0751732,6.0416594],[116.0750602,6.041814],[116.0749552,6.0419741],[116.0748585,6.0421394],[116.0747704,6.0423092],[116.074691,6.0424833],[116.0746206,6.0426612],[116.0745593,6.0428423],[116.0745073,6.0430264],[116.0744648,6.0432128],[116.0744318,6.0434011],[116.0744085,6.0435908],[116.0743948,6.0437815],[116.0743909,6.0439726],[116.0743968,6.0441637],[116.0744123,6.0443542],[116.0744375,6.0445437],[116.0744724,6.0447317],[116.0745167,6.0449177],[116.0745705,6.0451012],[116.0746336,6.0452818],[116.0747058,6.0454589],[116.0747869,6.0456322],[116.0748768,6.0458012],[116.0749751,6.0459654],[116.0750817,6.0461245],[116.0751962,6.046278],[116.0753184,6.0464256],[116.075448,6.0465668],[116.0755846,6.0467013],[116.0757278,6.0468287],[116.0758774,6.0469488],[116.0760329,6.0470611],[116.0761939,6.0471655],[116.07636,6.0472617],[116.0765308,6.0473493],[116.0767059,6.0474283],[116.0768848,6.0474983],[116.0770669,6.0475592],[116.077252,6.0476109],[116.0774395,6.0476532],[116.0776288,6.047686],[116.0778196,6.0477092],[116.0780114,6.0477228],[116.0782035,6.0477267],[116.0783957,6.0477209],[116.0785873,6.0477054],[116.0787778,6.0476803],[116.0789669,6.0476457],[116.0791539,6.0476015],[116.0793384,6.0475481],[116.07952,6.0474853],[116.0796981,6.0474136],[116.0798724,6.0473329],[116.0800423,6.0472435],[116.0802075,6.0471458],[116.0803675,6.0470398],[116.0805218,6.0469259],[116.0806702,6.0468044],[116.0808122,6.0466755],[116.0809474,6.0465397],[116.0810756,6.0463972],[116.0811963,6.0462485],[116.0813093,6.0460938],[116.0814143,6.0459337],[116.081511,6.0457685],[116.0815991,6.0455987],[116.0816785,6.0454246],[116.081749,6.0452467],[116.0818102,6.0450655],[116.0818622,6.0448815],[116.0819047,6.0446951],[116.0819377,6.0445068],[116.081961,6.044317],[116.0819747,6.0441264],[116.0819786,6.0439353]]]},"properties":{"osm_id":1355098393,"osm_type":"way","seamark_type":"anchorage","display_class":"OTHER","min_zoom":12,"importance":1,"name":"S-1","ref":null,"common":{"type":"anchorage"},"children":{"anchorage":{"category":"cargo, tanker, container","radius":"420","restriction":"designated"}},"osm_tags":{"name":"S-1","seamark:anchorage:category":"cargo, tanker, container","seamark:anchorage:radius":"420","seamark:anchorage:restriction":"designated","seamark:type":"anchorage","source":"Ports and Harbours Department Sabah"}}},{"type":"Feature","geometry":{"type":"Point","coordinates":[116.8611082,6.8704976]},"properties":{"osm_id":14084164019,"osm_type":"node","seamark_type":"light_minor","display_class":"OTHER","min_zoom":12,"importance":1,"name":"Sandilands Rock","ref":null,"common":{"name":"Sandilands Rock","type":"light_minor"},"children":{"light":{"character":"Fl","colour":"green","height":"8","period":"3","range":"7","reference":"F 1968","sequence":"0.5+(2.5)"}},"osm_tags":{"seamark:light:character":"Fl","seamark:light:colour":"green","seamark:light:height":"8","seamark:light:period":"3","seamark:light:range":"7","seamark:light:reference":"F 1968","seamark:light:sequence":"0.5+(2.5)","seamark:name":"Sandilands Rock","seamark:type":"light_minor"}}},{"type":"Feature","geometry":{"type":"Point","coordinates":[116.0090581,6.0092467]},"properties":{"osm_id":1524453516,"osm_type":"node","seamark_type":"harbour","display_class":"OTHER","min_zoom":12,"importance":1,"name":"Sapi Pier","ref":null,"common":{"type":"harbour"},"children":{"harbour":{"category":"marina"}},"osm_tags":{"leisure":"marina","name":"Sapi Pier","name:en":"Sapi Pier","seamark:harbour:category":"marina","seamark:type":"harbour"}}}],"type":"FeatureCollection"}