{"type":"FeatureCollection","features":[{"type":"Feature","geometry":{"type":"LineString","coordinates":[[114.5427703,4.75017],[114.2358344,5.3808722],[113.1042371,6.7409971],[111.1429253,7.9007277]]},"properties":{"osm_id":1324108113,"osm_type":"way","seamark_type":"cable_submarine","display_class":"OTHER","min_zoom":12,"importance":1,"name":"Southeast Asia-Japan Cable","ref":null,"common":{"type":"cable_submarine"},"children":{"cable_submarine":{"category":"fibre_optic"}},"osm_tags":{"communication":"line","name":"Southeast Asia-Japan Cable","seamark:cable_submarine:category":"fibre_optic","seamark:type":"cable_submarine","short_name":"SJC","submarine":"yes","telecom:medium":"fibre","wikidata":"Q7390539"}}}],"type":"FeatureCollection"}