{"type":"FeatureCollection","features":[{"type":"Feature","geometry":{"type":"Point","coordinates":[95.1180747,6.0731298]},"properties":{"osm_id":1293085309,"osm_type":"node","seamark_type":"light_major","display_class":"LIGHTHOUSE","min_zoom":7,"importance":5,"name":"Pulau Rondo","ref":null,"common":{"name":"Pulau Rondo","type":"light_major"},"children":{"light":{"character":"Fl","colour":"white","group":"3","height":"193","period":"20","range":"40","reference":"F 1300","sequence":"0.5+(3)+0.5+(3)+0.5+(12.5)"}},"osm_tags":{"seamark:light:character":"Fl","seamark:light:colour":"white","seamark:light:group":"3","seamark:light:height":"193","seamark:light:period":"20","seamark:light:range":"40","seamark:light:reference":"F 1300","seamark:light:sequence":"0.5+(3)+0.5+(3)+0.5+(12.5)","seamark:name":"Pulau Rondo","seamark:type":"light_major","source":"US NGA Pub. 112. 2023-07-01"}}}],"type":"FeatureCollection"}