{"type":"FeatureCollection","features":[{"type":"Feature","geometry":{"type":"LineString","coordinates":[[-52.32288,4.945],[-52.32297,4.95242],[-52.3171,4.96645],[-52.28567,5.019],[-52.27125,5.04333],[-52.25855,5.06428],[-52.25813,5.06493],[-52.25182,5.07335],[-52.2494,5.07657],[-52.24883,5.0775],[-52.23498,5.09615],[-52.2098,5.1275],[-52.18218,5.16177],[-52.18082,5.16345],[-52.18045,5.16392],[-52.1216,5.23708],[-51.86452,5.55672],[-51.73823,5.71227],[-51.6693,5.79732],[-51.66803,5.79887],[-51.66073,5.80783],[-51.6599,5.80885],[-51.65413,5.81592],[-51.65328,5.81697],[-51.64752,5.82405],[-51.64702,5.82467],[-51.6267,5.84958],[-51.62605,5.85038],[-51.61125,5.86855],[-51.61115,5.86867],[-51.60848,5.87193],[-51.60778,5.8728],[-51.60272,5.879],[-51.60238,5.87942],[-51.59808,5.8847],[-51.58373,5.9023],[-51.58217,5.90417],[-51.58123,5.90543],[-51.5644,5.9282],[-51.56112,5.9397],[-51.5478,5.95665],[-51.54417,5.96298],[-51.5334,5.9818],[-51.5271,5.99262],[-51.51345,6.01762],[-51.50895,6.02398],[-51.46875,6.05595],[-51.4467,6.07338],[-51.41173,6.11725],[-51.29845,6.2596],[-51.23907,6.33417],[-51.2031,6.37912],[-51.0878,6.5236],[-50.87888,6.78483],[-50.85852,6.8104],[-50.80112,6.88217],[-50.79657,6.88793],[-50.72655,6.97552],[-50.6971,7.0121],[-50.59768,7.09735]]},"properties":{"osm_id":761201756,"osm_type":"way","seamark_type":"cable_submarine","display_class":"OTHER","min_zoom":12,"importance":1,"name":"AMERICAS2-L","ref":null,"common":{"type":"cable_submarine"},"children":{"cable_submarine":{"category":"fiber_optic","name":"AMERICAS2-L"}},"osm_tags":{"communication":"line","location":"underwater","name":"AMERICAS2-L","seamark:cable_submarine:category":"fiber_optic","seamark:cable_submarine:name":"AMERICAS2-L","seamark:type":"cable_submarine","source":"https://www.sigcables.com/index.php/cableliste/fiche_cable/2","wikidata":"Q4745657","wikipedia":"en:Americas II"}}}],"type":"FeatureCollection"}