{"type":"FeatureCollection","features":[{"type":"Feature","geometry":{"type":"Polygon","coordinates":[[[-77.6927944,6.8096988],[-77.6927555,6.8097392],[-77.6927919,6.8099643],[-77.6928295,6.8100128],[-77.6928824,6.8100274],[-77.6931024,6.8100206],[-77.6932258,6.8099721],[-77.69323,6.8098971],[-77.6931873,6.8098408],[-77.692976,6.8098261],[-77.6928568,6.8097125],[-77.6927944,6.8096988]]]},"properties":{"osm_id":1110605516,"osm_type":"way","seamark_type":"rock","display_class":"OTHER","min_zoom":12,"importance":1,"name":null,"ref":null,"common":{"type":"rock"},"children":{"rock":{"water_level":"dry"}},"osm_tags":{"seamark:rock:water_level":"dry","seamark:type":"rock"}}},{"type":"Feature","geometry":{"type":"Polygon","coordinates":[[[-77.6935189,6.8127342],[-77.693353,6.8127466],[-77.6930951,6.8123966],[-77.693511,6.8125826],[-77.6935189,6.8127342]]]},"properties":{"osm_id":1386671030,"osm_type":"way","seamark_type":"rock","display_class":"OTHER","min_zoom":12,"importance":1,"name":null,"ref":null,"common":{"type":"rock"},"children":{"rock":{"water_level":"awash"}},"osm_tags":{"seamark:rock:water_level":"awash","seamark:type":"rock"}}},{"type":"Feature","geometry":{"type":"Point","coordinates":[-77.690388,6.8271535]},"properties":{"osm_id":12835108786,"osm_type":"node","seamark_type":"light_minor","display_class":"OTHER","min_zoom":12,"importance":1,"name":"Cabo Marzo","ref":null,"common":{"name":"Cabo Marzo","type":"light_minor"},"children":{"light":{"character":"Fl","colour":"white","height":"66","period":"15","range":"12","reference":"G 3153","sequence":"1+(14)"}},"osm_tags":{"man_made":"lighthouse","name":"Faro Cabo Marzo","name:es":"Faro Cabo Marzo","seamark:light:character":"Fl","seamark:light:colour":"white","seamark:light:height":"66","seamark:light:period":"15","seamark:light:range":"12","seamark:light:reference":"G 3153","seamark:light:sequence":"1+(14)","seamark:name":"Cabo Marzo","seamark:type":"light_minor"}}}],"type":"FeatureCollection"}