{"type":"FeatureCollection","features":[{"type":"Feature","geometry":{"type":"Point","coordinates":[134.4513092,7.3231608]},"properties":{"osm_id":2821131985,"osm_type":"node","seamark_type":"beacon_lateral","display_class":"BEACON","min_zoom":9,"importance":4,"name":null,"ref":null,"common":{"type":"beacon_lateral"},"children":{"beacon_lateral":{"category":"starboard","colour":"white","system":"iala-a"}},"osm_tags":{"seamark:beacon_lateral:category":"starboard","seamark:beacon_lateral:colour":"white","seamark:beacon_lateral:system":"iala-a","seamark:type":"beacon_lateral"}}},{"type":"Feature","geometry":{"type":"Point","coordinates":[134.458844,7.2919245]},"properties":{"osm_id":2821152951,"osm_type":"node","seamark_type":"beacon_lateral","display_class":"BEACON","min_zoom":9,"importance":4,"name":null,"ref":null,"common":{"type":"beacon_lateral"},"children":{"beacon_lateral":{"category":"starboard","colour":"white","system":"iala-a"}},"osm_tags":{"seamark:beacon_lateral:category":"starboard","seamark:beacon_lateral:colour":"white","seamark:beacon_lateral:system":"iala-a","seamark:type":"beacon_lateral"}}},{"type":"Feature","geometry":{"type":"Point","coordinates":[134.4575,7.2966201]},"properties":{"osm_id":2821152952,"osm_type":"node","seamark_type":"beacon_lateral","display_class":"BEACON","min_zoom":9,"importance":4,"name":null,"ref":null,"common":{"type":"beacon_lateral"},"children":{"beacon_lateral":{"category":"starboard","colour":"white","system":"iala-a"}},"osm_tags":{"seamark:beacon_lateral:category":"starboard","seamark:beacon_lateral:colour":"white","seamark:beacon_lateral:system":"iala-a","seamark:type":"beacon_lateral"}}},{"type":"Feature","geometry":{"type":"Point","coordinates":[134.4576546,7.2984842]},"properties":{"osm_id":2821152953,"osm_type":"node","seamark_type":"beacon_lateral","display_class":"BEACON","min_zoom":9,"importance":4,"name":null,"ref":null,"common":{"type":"beacon_lateral"},"children":{"beacon_lateral":{"category":"starboard","colour":"white","system":"iala-a"}},"osm_tags":{"seamark:beacon_lateral:category":"starboard","seamark:beacon_lateral:colour":"white","seamark:beacon_lateral:system":"iala-a","seamark:type":"beacon_lateral"}}},{"type":"Feature","geometry":{"type":"Point","coordinates":[134.4582374,7.3036045]},"properties":{"osm_id":2821152954,"osm_type":"node","seamark_type":"beacon_lateral","display_class":"BEACON","min_zoom":9,"importance":4,"name":null,"ref":null,"common":{"type":"beacon_lateral"},"children":{"beacon_lateral":{"category":"port","colour":"white","system":"iala-a"}},"osm_tags":{"seamark:beacon_lateral:category":"port","seamark:beacon_lateral:colour":"white","seamark:beacon_lateral:system":"iala-a","seamark:type":"beacon_lateral"}}},{"type":"Feature","geometry":{"type":"Point","coordinates":[134.4606877,7.3168768]},"properties":{"osm_id":2821152955,"osm_type":"node","seamark_type":"beacon_lateral","display_class":"BEACON","min_zoom":9,"importance":4,"name":null,"ref":null,"common":{"type":"beacon_lateral"},"children":{"beacon_lateral":{"category":"starboard","colour":"white","system":"iala-a"}},"osm_tags":{"seamark:beacon_lateral:category":"starboard","seamark:beacon_lateral:colour":"white","seamark:beacon_lateral:system":"iala-a","seamark:type":"beacon_lateral"}}},{"type":"Feature","geometry":{"type":"Point","coordinates":[134.4604498,7.3208879]},"properties":{"osm_id":2821152956,"osm_type":"node","seamark_type":"beacon_lateral","display_class":"BEACON","min_zoom":9,"importance":4,"name":null,"ref":null,"common":{"type":"beacon_lateral"},"children":{"beacon_lateral":{"category":"starboard","colour":"white","system":"iala-a"}},"osm_tags":{"seamark:beacon_lateral:category":"starboard","seamark:beacon_lateral:colour":"white","seamark:beacon_lateral:system":"iala-a","seamark:type":"beacon_lateral"}}},{"type":"Feature","geometry":{"type":"Point","coordinates":[134.4575238,7.3242856]},"properties":{"osm_id":2821152957,"osm_type":"node","seamark_type":"beacon_lateral","display_class":"BEACON","min_zoom":9,"importance":4,"name":null,"ref":null,"common":{"type":"beacon_lateral"},"children":{"beacon_lateral":{"category":"port","colour":"red","system":"iala-a"}},"osm_tags":{"seamark:beacon_lateral:category":"port","seamark:beacon_lateral:colour":"red","seamark:beacon_lateral:system":"iala-a","seamark:type":"beacon_lateral"}}},{"type":"Feature","geometry":{"type":"Point","coordinates":[134.4505353,7.337335]},"properties":{"osm_id":2821152958,"osm_type":"node","seamark_type":"beacon_lateral","display_class":"BEACON","min_zoom":9,"importance":4,"name":null,"ref":null,"common":{"type":"beacon_lateral"},"children":{"beacon_lateral":{"category":"starboard","colour":"green","system":"iala-a"},"light":{"character":"Fl","colour":"green"}},"osm_tags":{"seamark:beacon_lateral:category":"starboard","seamark:beacon_lateral:colour":"green","seamark:beacon_lateral:system":"iala-a","seamark:light:character":"Fl","seamark:light:colour":"green","seamark:type":"beacon_lateral"}}},{"type":"Feature","geometry":{"type":"Point","coordinates":[134.4503419,7.3375686]},"properties":{"osm_id":2821152959,"osm_type":"node","seamark_type":"beacon_lateral","display_class":"BEACON","min_zoom":9,"importance":4,"name":null,"ref":null,"common":{"type":"beacon_lateral"},"children":{"beacon_lateral":{"category":"port","colour":"red","system":"iala-a"},"light":{"character":"Fl","colour":"red"}},"osm_tags":{"seamark:beacon_lateral:category":"port","seamark:beacon_lateral:colour":"red","seamark:beacon_lateral:system":"iala-a","seamark:light:character":"Fl","seamark:light:colour":"red","seamark:type":"beacon_lateral"}}},{"type":"Feature","geometry":{"type":"Point","coordinates":[134.247052,7.2706271]},"properties":{"osm_id":7138821854,"osm_type":"node","seamark_type":"beacon_isolated_danger","display_class":"BEACON","min_zoom":9,"importance":4,"name":null,"ref":null,"common":{"type":"beacon_isolated_danger"},"children":{},"osm_tags":{"seamark:type":"beacon_isolated_danger"}}},{"type":"Feature","geometry":{"type":"Point","coordinates":[134.4613067,7.340821]},"properties":{"osm_id":9808120579,"osm_type":"node","seamark_type":"beacon_lateral","display_class":"BEACON","min_zoom":9,"importance":4,"name":null,"ref":null,"common":{"type":"beacon_lateral"},"children":{},"osm_tags":{"seamark:type":"beacon_lateral"}}},{"type":"Feature","geometry":{"type":"Point","coordinates":[134.4640829,7.2826301]},"properties":{"osm_id":1199795257,"osm_type":"node","seamark_type":"beacon_lateral","display_class":"BEACON","min_zoom":9,"importance":4,"name":"Malakal Pass","ref":null,"common":{"information":"Aero Radiobeacon 4.2 miles NNE.","name":"Malakal Pass","type":"beacon_lateral"},"children":{"beacon_lateral":{"category":"port","colour":"white","construction":"concreted","shape":"tower","system":"iala-a"},"light":{"character":"Fl","colour":"white","height":"7","period":"6","range":"7","reference":"M 8408"}},"osm_tags":{"seamark:beacon_lateral:category":"port","seamark:beacon_lateral:colour":"white","seamark:beacon_lateral:construction":"concreted","seamark:beacon_lateral:shape":"tower","seamark:beacon_lateral:system":"iala-a","seamark:information":"Aero Radiobeacon 4.2 miles NNE.","seamark:light:character":"Fl","seamark:light:colour":"white","seamark:light:height":"7","seamark:light:period":"6","seamark:light:range":"7","seamark:light:reference":"M 8408","seamark:name":"Malakal Pass","seamark:type":"beacon_lateral","source":"US NGA Pub. 111. 2024-04-19."}}},{"type":"Feature","geometry":{"type":"Point","coordinates":[134.4556753,7.5385724]},"properties":{"osm_id":693153630,"osm_type":"node","seamark_type":"wreck","display_class":"OTHER","min_zoom":12,"importance":1,"name":null,"ref":null,"common":{"type":"wreck"},"children":{},"osm_tags":{"historic":"wreck","seamark:type":"wreck","source":"approximation","wreck:depth":"0"}}},{"type":"Feature","geometry":{"type":"Point","coordinates":[134.561115,7.3587047]},"properties":{"osm_id":6139819212,"osm_type":"node","seamark_type":"harbour","display_class":"OTHER","min_zoom":12,"importance":1,"name":null,"ref":null,"common":{"type":"harbour"},"children":{"harbour":{"category":"marina"}},"osm_tags":{"leisure":"marina","seamark:harbour:category":"marina","seamark:type":"harbour"}}},{"type":"Feature","geometry":{"type":"Point","coordinates":[134.5053993,7.3637365]},"properties":{"osm_id":6139902449,"osm_type":"node","seamark_type":"harbour","display_class":"OTHER","min_zoom":12,"importance":1,"name":null,"ref":null,"common":{"type":"harbour"},"children":{"harbour":{"category":"marina"}},"osm_tags":{"leisure":"marina","seamark:harbour:category":"marina","seamark:type":"harbour"}}},{"type":"Feature","geometry":{"type":"Point","coordinates":[134.5067296,7.3626359]},"properties":{"osm_id":9530541669,"osm_type":"node","seamark_type":"harbour","display_class":"OTHER","min_zoom":12,"importance":1,"name":null,"ref":null,"common":{"type":"harbour"},"children":{"harbour":{"category":"marina"}},"osm_tags":{"leisure":"marina","seamark:harbour:category":"marina","seamark:type":"harbour"}}},{"type":"Feature","geometry":{"type":"Point","coordinates":[134.4340249,7.3382625]},"properties":{"osm_id":9835653086,"osm_type":"node","seamark_type":"wreck","display_class":"OTHER","min_zoom":12,"importance":1,"name":"Amatsu Maru","ref":null,"common":{"type":"wreck"},"children":{},"osm_tags":{"historic":"wreck","name":"Amatsu Maru","seamark:type":"wreck"}}},{"type":"Feature","geometry":{"type":"Point","coordinates":[134.4792777,7.3511841]},"properties":{"osm_id":7123578086,"osm_type":"node","seamark_type":"small_craft_facility","display_class":"OTHER","min_zoom":12,"importance":1,"name":"Blue Bay","ref":null,"common":{"type":"small_craft_facility"},"children":{"small_craft_facility":{"category":"fuel_station"}},"osm_tags":{"name":"Blue Bay","seamark:small_craft_facility:category":"fuel_station","seamark:type":"small_craft_facility","waterway":"fuel"}}},{"type":"Feature","geometry":{"type":"Point","coordinates":[134.4392897,7.3402859]},"properties":{"osm_id":4031041874,"osm_type":"node","seamark_type":"wreck","display_class":"OTHER","min_zoom":12,"importance":1,"name":"Chuyo Maru","ref":null,"common":{"type":"wreck"},"children":{},"osm_tags":{"description":"A yellow bouy on surface","historic":"wreck","name":"Chuyo Maru","scuba_diving:depth":"30","scuba_diving:divespot":"yes","scuba_diving:entry:boat":"yes","scuba_diving:type:wreck":"yes","seamark:type":"wreck","sport":"scuba_diving","wreck:date_sunk":"1 April 1944","wreck:visible_at_high_tide":"no","wreck:visible_at_low_tide":"no"}}},{"type":"Feature","geometry":{"type":"Point","coordinates":[134.4439383,7.3203853]},"properties":{"osm_id":9835653089,"osm_type":"node","seamark_type":"wreck","display_class":"OTHER","min_zoom":12,"importance":1,"name":"Hafa Adai","ref":null,"common":{"type":"wreck"},"children":{},"osm_tags":{"historic":"wreck","name":"Hafa Adai","seamark:type":"wreck"}}},{"type":"Feature","geometry":{"type":"Point","coordinates":[134.4657965,7.3278662]},"properties":{"osm_id":6457176737,"osm_type":"node","seamark_type":"wreck","display_class":"OTHER","min_zoom":12,"importance":1,"name":"Helmet Wreck","ref":null,"common":{"type":"wreck"},"children":{},"osm_tags":{"description":"Also known as Depth Charge Wreck","historic":"wreck","name":"Helmet Wreck","scuba_diving:depth":"18","scuba_diving:maxdepth":"30","scuba_diving:type":"wreck","seamark:type":"wreck","wreck:visible_at_high_tide":"no","wreck:visible_at_low_tide":"no"}}},{"type":"Feature","geometry":{"type":"Point","coordinates":[134.4484596,7.3691524]},"properties":{"osm_id":6463626906,"osm_type":"node","seamark_type":"wreck","display_class":"OTHER","min_zoom":12,"importance":1,"name":"Jake SeaPlane","ref":null,"common":{"type":"wreck"},"children":{"wreck":{"category":"non-dangerous"}},"osm_tags":{"access":"yes","historic":"wreck","name":"Jake SeaPlane","scuba_diving:depth":"12","scuba_diving:divespot":"yes","scuba_diving:type:wreck":"yes","seamark:type":"wreck","seamark:wreck:category":"non-dangerous","sport":"scuba_diving","wreck:visible_at_high_tide":"no","wreck:visible_at_low_tide":"no"}}},{"type":"Feature","geometry":{"type":"Point","coordinates":[134.4347974,7.3454557]},"properties":{"osm_id":9835653087,"osm_type":"node","seamark_type":"wreck","display_class":"OTHER","min_zoom":12,"importance":1,"name":"LST","ref":null,"common":{"type":"wreck"},"children":{},"osm_tags":{"historic":"wreck","name":"LST","seamark:type":"wreck"}}},{"type":"Feature","geometry":{"type":"Point","coordinates":[134.4297334,7.3517337]},"properties":{"osm_id":9835653090,"osm_type":"node","seamark_type":"wreck","display_class":"OTHER","min_zoom":12,"importance":1,"name":"Raizan Maru","ref":null,"common":{"type":"wreck"},"children":{},"osm_tags":{"historic":"wreck","name":"Raizan Maru","seamark:type":"wreck"}}},{"type":"Feature","geometry":{"type":"Point","coordinates":[134.4442709,7.3440032]},"properties":{"osm_id":9835653085,"osm_type":"node","seamark_type":"wreck","display_class":"OTHER","min_zoom":12,"importance":1,"name":"Ryuko Maru","ref":null,"common":{"type":"wreck"},"children":{},"osm_tags":{"historic":"wreck","name":"Ryuko Maru","seamark:type":"wreck"}}},{"type":"Feature","geometry":{"type":"Point","coordinates":[134.4404407,7.3321545]},"properties":{"osm_id":9835653088,"osm_type":"node","seamark_type":"wreck","display_class":"OTHER","min_zoom":12,"importance":1,"name":"Urakami Maru","ref":null,"common":{"type":"wreck"},"children":{},"osm_tags":{"historic":"wreck","name":"Urakami Maru","seamark:type":"wreck"}}},{"type":"Feature","geometry":{"type":"Point","coordinates":[134.4833382,7.3160197]},"properties":{"osm_id":9633235064,"osm_type":"node","seamark_type":"wreck","display_class":"OTHER","min_zoom":12,"importance":1,"name":"WWII Shohatsu-class landing craft 小発動艇","ref":null,"common":{"type":"wreck"},"children":{},"osm_tags":{"historic":"wreck","name":"WWII Shohatsu-class landing craft 小発動艇","seamark:type":"wreck","wreck:visible_at_low_tide":"yes"}}}],"type":"FeatureCollection"}