{"type":"FeatureCollection","features":[{"type":"Feature","geometry":{"type":"Polygon","coordinates":[[[72.7987895,7.0667245],[72.7989663,7.0668112],[72.7992174,7.0662847],[72.7992113,7.0662121],[72.7991859,7.0661778],[72.7991279,7.0661556],[72.7990832,7.0661506],[72.7990649,7.0661576],[72.7990487,7.0661727],[72.7990253,7.0661969],[72.7987895,7.0667245]]]},"properties":{"osm_id":1361131043,"osm_type":"way","seamark_type":"wreck","display_class":"OTHER","min_zoom":12,"importance":1,"name":null,"ref":null,"common":{"type":"wreck"},"children":{},"osm_tags":{"historic":"wreck","seamark:type":"wreck"}}},{"type":"Feature","geometry":{"type":"Polygon","coordinates":[[[72.9940016,7.014165],[72.9939387,7.0146133],[72.9942351,7.0146285],[72.9946403,7.0146467],[72.9948273,7.0136271],[72.9943677,7.0130593],[72.994189,7.013052],[72.9940016,7.014165]]]},"properties":{"osm_id":1466425062,"osm_type":"way","seamark_type":"harbour","display_class":"OTHER","min_zoom":12,"importance":1,"name":null,"ref":null,"common":{"type":"harbour"},"children":{"harbour":{"category":"marina"}},"osm_tags":{"leisure":"marina","seamark:harbour:category":"marina","seamark:type":"harbour"}}},{"type":"Feature","geometry":{"type":"Polygon","coordinates":[[[72.9018041,7.1039369],[72.902206,7.1034709],[72.9022668,7.1034625],[72.902295,7.1034037],[72.9015385,7.1027974],[72.9011813,7.1025831],[72.9007792,7.1030641],[72.9010321,7.1034637],[72.9018041,7.1039369]]]},"properties":{"osm_id":1466425064,"osm_type":"way","seamark_type":"harbour","display_class":"OTHER","min_zoom":12,"importance":1,"name":"Thuraakunu harbor","ref":null,"common":{"type":"harbour"},"children":{"harbour":{"category":"marina"}},"osm_tags":{"leisure":"marina","name":"Thuraakunu harbor","seamark:harbour:category":"marina","seamark:type":"harbour"}}},{"type":"Feature","geometry":{"type":"Polygon","coordinates":[[[72.9233077,7.0846767],[72.9236068,7.0847317],[72.9238989,7.0847831],[72.9240448,7.0839664],[72.9237802,7.0839199],[72.9237894,7.0838683],[72.923449,7.0838085],[72.9233916,7.0841303],[72.9233077,7.0846767]]]},"properties":{"osm_id":1466425063,"osm_type":"way","seamark_type":"harbour","display_class":"OTHER","min_zoom":12,"importance":1,"name":"Uligan harbor","ref":null,"common":{"type":"harbour"},"children":{"harbour":{"category":"marina"}},"osm_tags":{"leisure":"marina","name":"Uligan harbor","seamark:harbour:category":"marina","seamark:type":"harbour"}}}],"type":"FeatureCollection"}