{"type":"FeatureCollection","features":[{"type":"Feature","geometry":{"type":"Point","coordinates":[117.8361087,8.7684429]},"properties":{"osm_id":6919486812,"osm_type":"node","seamark_type":"light_minor","display_class":"LIGHTHOUSE","min_zoom":7,"importance":5,"name":"Brooke's Point","ref":null,"common":{"name":"Brooke's Point","type":"light_minor"},"children":{"light":{"character":"Fl","colour":"white","period":"5"}},"osm_tags":{"addr:city":"Brooke's Point","addr:province":"Palawan","building:material":"glass_reinforced_plastic","man_made":"lighthouse","name":"Brooke's Point Lighthouse","operator":"Brooke’s Point Station, Philippine Coast Guard","ref:pcg":"PAL-029","seamark:light:character":"Fl","seamark:light:colour":"white","seamark:light:period":"5","seamark:name":"Brooke's Point","seamark:type":"light_minor","source":"Philippine Coast Guard, 2019 lighthouse masterlist","start_date":"2002-03-18"}}},{"type":"Feature","geometry":{"type":"Point","coordinates":[117.8266899,8.7697114]},"properties":{"osm_id":9473420221,"osm_type":"node","seamark_type":"light_minor","display_class":"LIGHTHOUSE","min_zoom":7,"importance":5,"name":"Brookes Point Jetty G","ref":null,"common":{"name":"Brookes Point Jetty G","type":"light_minor"},"children":{"light":{"character":"Fl","colour":"green","period":"5"}},"osm_tags":{"addr:province":"Palawan","addr:town":"Brooke's Point","building:material":"concrete","man_made":"lighthouse","name":"Brookes Point Jetty G Lighthouse","operator":"Brooke’s Point Station, Philippine Coast Guard","ref:pcg":"PAL-030","seamark:light:character":"Fl","seamark:light:colour":"green","seamark:light:period":"5","seamark:name":"Brookes Point Jetty G","seamark:type":"light_minor","source":"Philippine Coast Guard, 2019 lighthouse masterlist","start_date":"2001-03-03"}}},{"type":"Feature","geometry":{"type":"Point","coordinates":[117.8279595,8.7694455]},"properties":{"osm_id":9473420712,"osm_type":"node","seamark_type":"light_minor","display_class":"LIGHTHOUSE","min_zoom":7,"importance":5,"name":"Brookes Point Jetty R","ref":null,"common":{"name":"Brookes Point Jetty R","type":"light_minor"},"children":{"light":{"character":"Fl","colour":"red","period":"5"}},"osm_tags":{"addr:province":"Palawan","addr:town":"Brooke's Point","building:material":"concrete","man_made":"lighthouse","name":"Brookes Point Jetty R Lighthouse","operator":"Brooke’s Point Station, Philippine Coast Guard","ref:pcg":"PAL-031","seamark:light:character":"Fl","seamark:light:colour":"red","seamark:light:period":"5","seamark:name":"Brookes Point Jetty R","seamark:type":"light_minor","source":"Philippine Coast Guard, 2019 lighthouse masterlist","start_date":"2001-03-03"}}}],"type":"FeatureCollection"}