{"type":"FeatureCollection","features":[{"type":"Feature","geometry":{"type":"Point","coordinates":[105.1553627,8.6640392]},"properties":{"osm_id":12213482994,"osm_type":"node","seamark_type":"landmark","display_class":"OTHER","min_zoom":12,"importance":1,"name":null,"ref":null,"common":{"type":"landmark"},"children":{"landmark":{"category":"windmotor"}},"osm_tags":{"generator:method":"wind_turbine","generator:source":"wind","generator:type":"horizontal_axis","offshore":"yes","power":"generator","seamark:landmark:category":"windmotor","seamark:type":"landmark"}}},{"type":"Feature","geometry":{"type":"Point","coordinates":[105.157583,8.6614179]},"properties":{"osm_id":12213482995,"osm_type":"node","seamark_type":"landmark","display_class":"OTHER","min_zoom":12,"importance":1,"name":null,"ref":null,"common":{"type":"landmark"},"children":{"landmark":{"category":"windmotor"}},"osm_tags":{"generator:method":"wind_turbine","generator:source":"wind","generator:type":"horizontal_axis","offshore":"yes","power":"generator","seamark:landmark:category":"windmotor","seamark:type":"landmark"}}},{"type":"Feature","geometry":{"type":"Point","coordinates":[105.1590273,8.6877969]},"properties":{"osm_id":12213482996,"osm_type":"node","seamark_type":"landmark","display_class":"OTHER","min_zoom":12,"importance":1,"name":null,"ref":null,"common":{"type":"landmark"},"children":{"landmark":{"category":"windmotor"}},"osm_tags":{"generator:method":"wind_turbine","generator:source":"wind","generator:type":"horizontal_axis","offshore":"yes","power":"generator","seamark:landmark:category":"windmotor","seamark:type":"landmark"}}},{"type":"Feature","geometry":{"type":"Point","coordinates":[105.1701209,8.6746635]},"properties":{"osm_id":12213482997,"osm_type":"node","seamark_type":"landmark","display_class":"OTHER","min_zoom":12,"importance":1,"name":null,"ref":null,"common":{"type":"landmark"},"children":{"landmark":{"category":"windmotor"}},"osm_tags":{"generator:method":"wind_turbine","generator:source":"wind","generator:type":"horizontal_axis","offshore":"yes","power":"generator","seamark:landmark:category":"windmotor","seamark:type":"landmark"}}},{"type":"Feature","geometry":{"type":"Point","coordinates":[105.1745735,8.6693938]},"properties":{"osm_id":12213482998,"osm_type":"node","seamark_type":"landmark","display_class":"OTHER","min_zoom":12,"importance":1,"name":null,"ref":null,"common":{"type":"landmark"},"children":{"landmark":{"category":"windmotor"}},"osm_tags":{"generator:method":"wind_turbine","generator:source":"wind","generator:type":"horizontal_axis","offshore":"yes","power":"generator","seamark:landmark:category":"windmotor","seamark:type":"landmark"}}},{"type":"Feature","geometry":{"type":"Point","coordinates":[105.1568321,8.6904035]},"properties":{"osm_id":12213482999,"osm_type":"node","seamark_type":"landmark","display_class":"OTHER","min_zoom":12,"importance":1,"name":null,"ref":null,"common":{"type":"landmark"},"children":{"landmark":{"category":"windmotor"}},"osm_tags":{"generator:method":"wind_turbine","generator:source":"wind","generator:type":"horizontal_axis","offshore":"yes","power":"generator","seamark:landmark:category":"windmotor","seamark:type":"landmark"}}},{"type":"Feature","geometry":{"type":"Point","coordinates":[105.1678906,8.6772583]},"properties":{"osm_id":12213483000,"osm_type":"node","seamark_type":"landmark","display_class":"OTHER","min_zoom":12,"importance":1,"name":null,"ref":null,"common":{"type":"landmark"},"children":{"landmark":{"category":"windmotor"}},"osm_tags":{"generator:method":"wind_turbine","generator:source":"wind","generator:type":"horizontal_axis","offshore":"yes","power":"generator","seamark:landmark:category":"windmotor","seamark:type":"landmark"}}},{"type":"Feature","geometry":{"type":"Point","coordinates":[105.1509526,8.6692938]},"properties":{"osm_id":12213513401,"osm_type":"node","seamark_type":"landmark","display_class":"OTHER","min_zoom":12,"importance":1,"name":null,"ref":null,"common":{"type":"landmark"},"children":{"landmark":{"category":"windmotor"}},"osm_tags":{"generator:method":"wind_turbine","generator:source":"wind","generator:type":"horizontal_axis","offshore":"yes","power":"generator","seamark:landmark:category":"windmotor","seamark:type":"landmark"}}},{"type":"Feature","geometry":{"type":"Point","coordinates":[105.1487057,8.6719309]},"properties":{"osm_id":12213513402,"osm_type":"node","seamark_type":"landmark","display_class":"OTHER","min_zoom":12,"importance":1,"name":null,"ref":null,"common":{"type":"landmark"},"children":{"landmark":{"category":"windmotor"}},"osm_tags":{"generator:method":"wind_turbine","generator:source":"wind","generator:type":"horizontal_axis","offshore":"yes","power":"generator","seamark:landmark:category":"windmotor","seamark:type":"landmark"}}},{"type":"Feature","geometry":{"type":"Point","coordinates":[105.1465045,8.6745431]},"properties":{"osm_id":12213513403,"osm_type":"node","seamark_type":"landmark","display_class":"OTHER","min_zoom":12,"importance":1,"name":null,"ref":null,"common":{"type":"landmark"},"children":{"landmark":{"category":"windmotor"}},"osm_tags":{"generator:method":"wind_turbine","generator:source":"wind","generator:type":"horizontal_axis","offshore":"yes","power":"generator","seamark:landmark:category":"windmotor","seamark:type":"landmark"}}},{"type":"Feature","geometry":{"type":"Point","coordinates":[105.165703,8.6799073]},"properties":{"osm_id":12213513404,"osm_type":"node","seamark_type":"landmark","display_class":"OTHER","min_zoom":12,"importance":1,"name":null,"ref":null,"common":{"type":"landmark"},"children":{"landmark":{"category":"windmotor"}},"osm_tags":{"generator:method":"wind_turbine","generator:source":"wind","generator:type":"horizontal_axis","offshore":"yes","power":"generator","seamark:landmark:category":"windmotor","seamark:type":"landmark"}}},{"type":"Feature","geometry":{"type":"Point","coordinates":[105.1523812,8.6956955]},"properties":{"osm_id":12213513405,"osm_type":"node","seamark_type":"landmark","display_class":"OTHER","min_zoom":12,"importance":1,"name":null,"ref":null,"common":{"type":"landmark"},"children":{"landmark":{"category":"windmotor"}},"osm_tags":{"generator:method":"wind_turbine","generator:source":"wind","generator:type":"horizontal_axis","offshore":"yes","power":"generator","seamark:landmark:category":"windmotor","seamark:type":"landmark"}}},{"type":"Feature","geometry":{"type":"Point","coordinates":[105.1546081,8.6930805]},"properties":{"osm_id":12213513406,"osm_type":"node","seamark_type":"landmark","display_class":"OTHER","min_zoom":12,"importance":1,"name":null,"ref":null,"common":{"type":"landmark"},"children":{"landmark":{"category":"windmotor"}},"osm_tags":{"generator:method":"wind_turbine","generator:source":"wind","generator:type":"horizontal_axis","offshore":"yes","power":"generator","seamark:landmark:category":"windmotor","seamark:type":"landmark"}}},{"type":"Feature","geometry":{"type":"Point","coordinates":[105.1531226,8.6666665]},"properties":{"osm_id":12213513407,"osm_type":"node","seamark_type":"landmark","display_class":"OTHER","min_zoom":12,"importance":1,"name":null,"ref":null,"common":{"type":"landmark"},"children":{"landmark":{"category":"windmotor"}},"osm_tags":{"generator:method":"wind_turbine","generator:source":"wind","generator:type":"horizontal_axis","offshore":"yes","power":"generator","seamark:landmark:category":"windmotor","seamark:type":"landmark"}}},{"type":"Feature","geometry":{"type":"Point","coordinates":[105.1612274,8.685189]},"properties":{"osm_id":12213513408,"osm_type":"node","seamark_type":"landmark","display_class":"OTHER","min_zoom":12,"importance":1,"name":null,"ref":null,"common":{"type":"landmark"},"children":{"landmark":{"category":"windmotor"}},"osm_tags":{"generator:method":"wind_turbine","generator:source":"wind","generator:type":"horizontal_axis","offshore":"yes","power":"generator","seamark:landmark:category":"windmotor","seamark:type":"landmark"}}},{"type":"Feature","geometry":{"type":"Point","coordinates":[105.1635053,8.6825111]},"properties":{"osm_id":12213513409,"osm_type":"node","seamark_type":"landmark","display_class":"OTHER","min_zoom":12,"importance":1,"name":null,"ref":null,"common":{"type":"landmark"},"children":{"landmark":{"category":"windmotor"}},"osm_tags":{"generator:method":"wind_turbine","generator:source":"wind","generator:type":"horizontal_axis","offshore":"yes","power":"generator","seamark:landmark:category":"windmotor","seamark:type":"landmark"}}},{"type":"Feature","geometry":{"type":"Point","coordinates":[105.1723467,8.672008]},"properties":{"osm_id":12213513410,"osm_type":"node","seamark_type":"landmark","display_class":"OTHER","min_zoom":12,"importance":1,"name":null,"ref":null,"common":{"type":"landmark"},"children":{"landmark":{"category":"windmotor"}},"osm_tags":{"generator:method":"wind_turbine","generator:source":"wind","generator:type":"horizontal_axis","offshore":"yes","power":"generator","seamark:landmark:category":"windmotor","seamark:type":"landmark"}}},{"type":"Feature","geometry":{"type":"Point","coordinates":[105.4239122,8.9846971]},"properties":{"osm_id":12213520105,"osm_type":"node","seamark_type":"landmark","display_class":"OTHER","min_zoom":12,"importance":1,"name":null,"ref":null,"common":{"type":"landmark"},"children":{"landmark":{"category":"windmotor"}},"osm_tags":{"generator:method":"wind_turbine","generator:source":"wind","generator:type":"horizontal_axis","offshore":"yes","power":"generator","seamark:landmark:category":"windmotor","seamark:type":"landmark"}}},{"type":"Feature","geometry":{"type":"Point","coordinates":[105.3938971,8.9093189]},"properties":{"osm_id":12213520106,"osm_type":"node","seamark_type":"landmark","display_class":"OTHER","min_zoom":12,"importance":1,"name":null,"ref":null,"common":{"type":"landmark"},"children":{"landmark":{"category":"windmotor"}},"osm_tags":{"generator:method":"wind_turbine","generator:source":"wind","generator:type":"horizontal_axis","offshore":"yes","power":"generator","seamark:landmark:category":"windmotor","seamark:type":"landmark"}}},{"type":"Feature","geometry":{"type":"Point","coordinates":[105.4083801,8.9343599]},"properties":{"osm_id":12213520107,"osm_type":"node","seamark_type":"landmark","display_class":"OTHER","min_zoom":12,"importance":1,"name":null,"ref":null,"common":{"type":"landmark"},"children":{"landmark":{"category":"windmotor"}},"osm_tags":{"generator:method":"wind_turbine","generator:source":"wind","generator:type":"horizontal_axis","offshore":"yes","power":"generator","seamark:landmark:category":"windmotor","seamark:type":"landmark"}}},{"type":"Feature","geometry":{"type":"Point","coordinates":[105.3928157,8.9041926]},"properties":{"osm_id":12213520108,"osm_type":"node","seamark_type":"landmark","display_class":"OTHER","min_zoom":12,"importance":1,"name":null,"ref":null,"common":{"type":"landmark"},"children":{"landmark":{"category":"windmotor"}},"osm_tags":{"generator:method":"wind_turbine","generator:source":"wind","generator:type":"horizontal_axis","offshore":"yes","power":"generator","seamark:landmark:category":"windmotor","seamark:type":"landmark"}}},{"type":"Feature","geometry":{"type":"Point","coordinates":[105.4309989,8.9493457]},"properties":{"osm_id":12213520109,"osm_type":"node","seamark_type":"landmark","display_class":"OTHER","min_zoom":12,"importance":1,"name":null,"ref":null,"common":{"type":"landmark"},"children":{"landmark":{"category":"windmotor"}},"osm_tags":{"generator:method":"wind_turbine","generator:source":"wind","generator:type":"horizontal_axis","offshore":"yes","power":"generator","seamark:landmark:category":"windmotor","seamark:type":"landmark"}}},{"type":"Feature","geometry":{"type":"Point","coordinates":[105.4246913,8.9808077]},"properties":{"osm_id":12213520110,"osm_type":"node","seamark_type":"landmark","display_class":"OTHER","min_zoom":12,"importance":1,"name":null,"ref":null,"common":{"type":"landmark"},"children":{"landmark":{"category":"windmotor"}},"osm_tags":{"generator:method":"wind_turbine","generator:source":"wind","generator:type":"horizontal_axis","offshore":"yes","power":"generator","seamark:landmark:category":"windmotor","seamark:type":"landmark"}}},{"type":"Feature","geometry":{"type":"Point","coordinates":[105.3952142,8.9171228]},"properties":{"osm_id":12213520111,"osm_type":"node","seamark_type":"landmark","display_class":"OTHER","min_zoom":12,"importance":1,"name":null,"ref":null,"common":{"type":"landmark"},"children":{"landmark":{"category":"windmotor"}},"osm_tags":{"generator:method":"wind_turbine","generator:source":"wind","generator:type":"horizontal_axis","offshore":"yes","power":"generator","seamark:landmark:category":"windmotor","seamark:type":"landmark"}}},{"type":"Feature","geometry":{"type":"Point","coordinates":[105.3959544,8.9222964]},"properties":{"osm_id":12213520112,"osm_type":"node","seamark_type":"landmark","display_class":"OTHER","min_zoom":12,"importance":1,"name":null,"ref":null,"common":{"type":"landmark"},"children":{"landmark":{"category":"windmotor"}},"osm_tags":{"generator:method":"wind_turbine","generator:source":"wind","generator:type":"horizontal_axis","offshore":"yes","power":"generator","seamark:landmark:category":"windmotor","seamark:type":"landmark"}}},{"type":"Feature","geometry":{"type":"Point","coordinates":[105.4072281,8.9292649]},"properties":{"osm_id":12213520113,"osm_type":"node","seamark_type":"landmark","display_class":"OTHER","min_zoom":12,"importance":1,"name":null,"ref":null,"common":{"type":"landmark"},"children":{"landmark":{"category":"windmotor"}},"osm_tags":{"generator:method":"wind_turbine","generator:source":"wind","generator:type":"horizontal_axis","offshore":"yes","power":"generator","seamark:landmark:category":"windmotor","seamark:type":"landmark"}}},{"type":"Feature","geometry":{"type":"Point","coordinates":[105.4105148,8.9472687]},"properties":{"osm_id":12213520114,"osm_type":"node","seamark_type":"landmark","display_class":"OTHER","min_zoom":12,"importance":1,"name":null,"ref":null,"common":{"type":"landmark"},"children":{"landmark":{"category":"windmotor"}},"osm_tags":{"generator:method":"wind_turbine","generator:source":"wind","generator:type":"horizontal_axis","offshore":"yes","power":"generator","seamark:landmark:category":"windmotor","seamark:type":"landmark"}}},{"type":"Feature","geometry":{"type":"Point","coordinates":[105.4145089,8.9971981]},"properties":{"osm_id":12213520115,"osm_type":"node","seamark_type":"landmark","display_class":"OTHER","min_zoom":12,"importance":1,"name":null,"ref":null,"common":{"type":"landmark"},"children":{"landmark":{"category":"windmotor"}},"osm_tags":{"generator:method":"wind_turbine","generator:source":"wind","generator:type":"horizontal_axis","offshore":"yes","power":"generator","seamark:landmark:category":"windmotor","seamark:type":"landmark"}}},{"type":"Feature","geometry":{"type":"Point","coordinates":[105.4286311,8.9611472]},"properties":{"osm_id":12213520116,"osm_type":"node","seamark_type":"landmark","display_class":"OTHER","min_zoom":12,"importance":1,"name":null,"ref":null,"common":{"type":"landmark"},"children":{"landmark":{"category":"windmotor"}},"osm_tags":{"generator:method":"wind_turbine","generator:source":"wind","generator:type":"horizontal_axis","offshore":"yes","power":"generator","seamark:landmark:category":"windmotor","seamark:type":"landmark"}}},{"type":"Feature","geometry":{"type":"Point","coordinates":[105.3947688,8.9144997]},"properties":{"osm_id":12213520117,"osm_type":"node","seamark_type":"landmark","display_class":"OTHER","min_zoom":12,"importance":1,"name":null,"ref":null,"common":{"type":"landmark"},"children":{"landmark":{"category":"windmotor"}},"osm_tags":{"generator:method":"wind_turbine","generator:source":"wind","generator:type":"horizontal_axis","offshore":"yes","power":"generator","seamark:landmark:category":"windmotor","seamark:type":"landmark"}}},{"type":"Feature","geometry":{"type":"Point","coordinates":[105.4088119,8.9369208]},"properties":{"osm_id":12213520118,"osm_type":"node","seamark_type":"landmark","display_class":"OTHER","min_zoom":12,"importance":1,"name":null,"ref":null,"common":{"type":"landmark"},"children":{"landmark":{"category":"windmotor"}},"osm_tags":{"generator:method":"wind_turbine","generator:source":"wind","generator:type":"horizontal_axis","offshore":"yes","power":"generator","seamark:landmark:category":"windmotor","seamark:type":"landmark"}}},{"type":"Feature","geometry":{"type":"Point","coordinates":[105.4278339,8.9650523]},"properties":{"osm_id":12213520119,"osm_type":"node","seamark_type":"landmark","display_class":"OTHER","min_zoom":12,"importance":1,"name":null,"ref":null,"common":{"type":"landmark"},"children":{"landmark":{"category":"windmotor"}},"osm_tags":{"generator:method":"wind_turbine","generator:source":"wind","generator:type":"horizontal_axis","offshore":"yes","power":"generator","seamark:landmark:category":"windmotor","seamark:type":"landmark"}}},{"type":"Feature","geometry":{"type":"Point","coordinates":[105.3922559,8.901648]},"properties":{"osm_id":12213520120,"osm_type":"node","seamark_type":"landmark","display_class":"OTHER","min_zoom":12,"importance":1,"name":null,"ref":null,"common":{"type":"landmark"},"children":{"landmark":{"category":"windmotor"}},"osm_tags":{"generator:method":"wind_turbine","generator:source":"wind","generator:type":"horizontal_axis","offshore":"yes","power":"generator","seamark:landmark:category":"windmotor","seamark:type":"landmark"}}},{"type":"Feature","geometry":{"type":"Point","coordinates":[105.4228577,8.9885746]},"properties":{"osm_id":12213520121,"osm_type":"node","seamark_type":"landmark","display_class":"OTHER","min_zoom":12,"importance":1,"name":null,"ref":null,"common":{"type":"landmark"},"children":{"landmark":{"category":"windmotor"}},"osm_tags":{"generator:method":"wind_turbine","generator:source":"wind","generator:type":"horizontal_axis","offshore":"yes","power":"generator","seamark:landmark:category":"windmotor","seamark:type":"landmark"}}},{"type":"Feature","geometry":{"type":"Point","coordinates":[105.4078018,8.9317796]},"properties":{"osm_id":12213520122,"osm_type":"node","seamark_type":"landmark","display_class":"OTHER","min_zoom":12,"importance":1,"name":null,"ref":null,"common":{"type":"landmark"},"children":{"landmark":{"category":"windmotor"}},"osm_tags":{"generator:method":"wind_turbine","generator:source":"wind","generator:type":"horizontal_axis","offshore":"yes","power":"generator","seamark:landmark:category":"windmotor","seamark:type":"landmark"}}},{"type":"Feature","geometry":{"type":"Point","coordinates":[105.3933876,8.9068267]},"properties":{"osm_id":12213520123,"osm_type":"node","seamark_type":"landmark","display_class":"OTHER","min_zoom":12,"importance":1,"name":null,"ref":null,"common":{"type":"landmark"},"children":{"landmark":{"category":"windmotor"}},"osm_tags":{"generator:method":"wind_turbine","generator:source":"wind","generator:type":"horizontal_axis","offshore":"yes","power":"generator","seamark:landmark:category":"windmotor","seamark:type":"landmark"}}},{"type":"Feature","geometry":{"type":"Point","coordinates":[105.431782,8.9454399]},"properties":{"osm_id":12213520124,"osm_type":"node","seamark_type":"landmark","display_class":"OTHER","min_zoom":12,"importance":1,"name":null,"ref":null,"common":{"type":"landmark"},"children":{"landmark":{"category":"windmotor"}},"osm_tags":{"generator:method":"wind_turbine","generator:source":"wind","generator:type":"horizontal_axis","offshore":"yes","power":"generator","seamark:landmark:category":"windmotor","seamark:type":"landmark"}}},{"type":"Feature","geometry":{"type":"Point","coordinates":[105.3943088,8.9119146]},"properties":{"osm_id":12213520125,"osm_type":"node","seamark_type":"landmark","display_class":"OTHER","min_zoom":12,"importance":1,"name":null,"ref":null,"common":{"type":"landmark"},"children":{"landmark":{"category":"windmotor"}},"osm_tags":{"generator:method":"wind_turbine","generator:source":"wind","generator:type":"horizontal_axis","offshore":"yes","power":"generator","seamark:landmark:category":"windmotor","seamark:type":"landmark"}}},{"type":"Feature","geometry":{"type":"Point","coordinates":[105.4270387,8.9689844]},"properties":{"osm_id":12213520126,"osm_type":"node","seamark_type":"landmark","display_class":"OTHER","min_zoom":12,"importance":1,"name":null,"ref":null,"common":{"type":"landmark"},"children":{"landmark":{"category":"windmotor"}},"osm_tags":{"generator:method":"wind_turbine","generator:source":"wind","generator:type":"horizontal_axis","offshore":"yes","power":"generator","seamark:landmark:category":"windmotor","seamark:type":"landmark"}}},{"type":"Feature","geometry":{"type":"Point","coordinates":[105.4302222,8.9532881]},"properties":{"osm_id":12213520127,"osm_type":"node","seamark_type":"landmark","display_class":"OTHER","min_zoom":12,"importance":1,"name":null,"ref":null,"common":{"type":"landmark"},"children":{"landmark":{"category":"windmotor"}},"osm_tags":{"generator:method":"wind_turbine","generator:source":"wind","generator:type":"horizontal_axis","offshore":"yes","power":"generator","seamark:landmark:category":"windmotor","seamark:type":"landmark"}}},{"type":"Feature","geometry":{"type":"Point","coordinates":[105.4218132,8.9924365]},"properties":{"osm_id":12213520128,"osm_type":"node","seamark_type":"landmark","display_class":"OTHER","min_zoom":12,"importance":1,"name":null,"ref":null,"common":{"type":"landmark"},"children":{"landmark":{"category":"windmotor"}},"osm_tags":{"generator:method":"wind_turbine","generator:source":"wind","generator:type":"horizontal_axis","offshore":"yes","power":"generator","seamark:landmark:category":"windmotor","seamark:type":"landmark"}}},{"type":"Feature","geometry":{"type":"Point","coordinates":[105.4262584,8.9728983]},"properties":{"osm_id":12213520129,"osm_type":"node","seamark_type":"landmark","display_class":"OTHER","min_zoom":12,"importance":1,"name":null,"ref":null,"common":{"type":"landmark"},"children":{"landmark":{"category":"windmotor"}},"osm_tags":{"generator:method":"wind_turbine","generator:source":"wind","generator:type":"horizontal_axis","offshore":"yes","power":"generator","seamark:landmark:category":"windmotor","seamark:type":"landmark"}}},{"type":"Feature","geometry":{"type":"Point","coordinates":[105.4255205,8.9768462]},"properties":{"osm_id":12213520130,"osm_type":"node","seamark_type":"landmark","display_class":"OTHER","min_zoom":12,"importance":1,"name":null,"ref":null,"common":{"type":"landmark"},"children":{"landmark":{"category":"windmotor"}},"osm_tags":{"generator:method":"wind_turbine","generator:source":"wind","generator:type":"horizontal_axis","offshore":"yes","power":"generator","seamark:landmark:category":"windmotor","seamark:type":"landmark"}}},{"type":"Feature","geometry":{"type":"Point","coordinates":[105.4294164,8.9572022]},"properties":{"osm_id":12213520131,"osm_type":"node","seamark_type":"landmark","display_class":"OTHER","min_zoom":12,"importance":1,"name":null,"ref":null,"common":{"type":"landmark"},"children":{"landmark":{"category":"windmotor"}},"osm_tags":{"generator:method":"wind_turbine","generator:source":"wind","generator:type":"horizontal_axis","offshore":"yes","power":"generator","seamark:landmark:category":"windmotor","seamark:type":"landmark"}}},{"type":"Feature","geometry":{"type":"Point","coordinates":[105.3964979,8.9274558]},"properties":{"osm_id":12213520132,"osm_type":"node","seamark_type":"landmark","display_class":"OTHER","min_zoom":12,"importance":1,"name":null,"ref":null,"common":{"type":"landmark"},"children":{"landmark":{"category":"windmotor"}},"osm_tags":{"generator:method":"wind_turbine","generator:source":"wind","generator:type":"horizontal_axis","offshore":"yes","power":"generator","seamark:landmark:category":"windmotor","seamark:type":"landmark"}}},{"type":"Feature","geometry":{"type":"Point","coordinates":[105.4101416,8.94469]},"properties":{"osm_id":12213520133,"osm_type":"node","seamark_type":"landmark","display_class":"OTHER","min_zoom":12,"importance":1,"name":null,"ref":null,"common":{"type":"landmark"},"children":{"landmark":{"category":"windmotor"}},"osm_tags":{"generator:method":"wind_turbine","generator:source":"wind","generator:type":"horizontal_axis","offshore":"yes","power":"generator","seamark:landmark:category":"windmotor","seamark:type":"landmark"}}},{"type":"Feature","geometry":{"type":"Point","coordinates":[105.3955584,8.9196505]},"properties":{"osm_id":12213520134,"osm_type":"node","seamark_type":"landmark","display_class":"OTHER","min_zoom":12,"importance":1,"name":null,"ref":null,"common":{"type":"landmark"},"children":{"landmark":{"category":"windmotor"}},"osm_tags":{"generator:method":"wind_turbine","generator:source":"wind","generator:type":"horizontal_axis","offshore":"yes","power":"generator","seamark:landmark:category":"windmotor","seamark:type":"landmark"}}},{"type":"Feature","geometry":{"type":"Point","coordinates":[105.4093192,8.9395085]},"properties":{"osm_id":12213520136,"osm_type":"node","seamark_type":"landmark","display_class":"OTHER","min_zoom":12,"importance":1,"name":null,"ref":null,"common":{"type":"landmark"},"children":{"landmark":{"category":"windmotor"}},"osm_tags":{"generator:method":"wind_turbine","generator:source":"wind","generator:type":"horizontal_axis","offshore":"yes","power":"generator","seamark:landmark:category":"windmotor","seamark:type":"landmark"}}},{"type":"Feature","geometry":{"type":"Point","coordinates":[105.409743,8.9420941]},"properties":{"osm_id":12213520137,"osm_type":"node","seamark_type":"landmark","display_class":"OTHER","min_zoom":12,"importance":1,"name":null,"ref":null,"common":{"type":"landmark"},"children":{"landmark":{"category":"windmotor"}},"osm_tags":{"generator:method":"wind_turbine","generator:source":"wind","generator:type":"horizontal_axis","offshore":"yes","power":"generator","seamark:landmark:category":"windmotor","seamark:type":"landmark"}}},{"type":"Feature","geometry":{"type":"Point","coordinates":[105.3962074,8.9248596]},"properties":{"osm_id":12213520138,"osm_type":"node","seamark_type":"landmark","display_class":"OTHER","min_zoom":12,"importance":1,"name":null,"ref":null,"common":{"type":"landmark"},"children":{"landmark":{"category":"windmotor"}},"osm_tags":{"generator:method":"wind_turbine","generator:source":"wind","generator:type":"horizontal_axis","offshore":"yes","power":"generator","seamark:landmark:category":"windmotor","seamark:type":"landmark"}}}],"type":"FeatureCollection"}