{"type":"FeatureCollection","features":[{"type":"Feature","geometry":{"type":"Point","coordinates":[98.2451,8.6426622]},"properties":{"osm_id":3426572682,"osm_type":"node","seamark_type":"light_major","display_class":"LIGHTHOUSE","min_zoom":7,"importance":5,"name":null,"ref":null,"common":{"type":"light_major"},"children":{"light":{"character":"Fl","colour":"white"},"topmark":{"colour":"white"}},"osm_tags":{"man_made":"lighthouse","seamark:light:character":"Fl","seamark:light:colour":"white","seamark:topmark:colour":"white","seamark:type":"light_major"}}},{"type":"Feature","geometry":{"type":"Point","coordinates":[98.9074498,8.0445193]},"properties":{"osm_id":6179458245,"osm_type":"node","seamark_type":"light_major","display_class":"LIGHTHOUSE","min_zoom":7,"importance":5,"name":null,"ref":null,"common":{"type":"light_major"},"children":{"light":{"character":"Iso","colour":"white","period":"3"}},"osm_tags":{"seamark:light:character":"Iso","seamark:light:colour":"white","seamark:light:period":"3","seamark:type":"light_major"}}},{"type":"Feature","geometry":{"type":"Point","coordinates":[98.8992464,8.038317]},"properties":{"osm_id":6179458246,"osm_type":"node","seamark_type":"light_major","display_class":"LIGHTHOUSE","min_zoom":7,"importance":5,"name":null,"ref":null,"common":{"type":"light_major"},"children":{"light":{"character":"Iso","colour":"white","period":"3"}},"osm_tags":{"fixme":"position approximate","seamark:light:character":"Iso","seamark:light:colour":"white","seamark:light:period":"3","seamark:type":"light_major"}}},{"type":"Feature","geometry":{"type":"Point","coordinates":[98.8995226,8.0315056]},"properties":{"osm_id":6179458247,"osm_type":"node","seamark_type":"light_major","display_class":"LIGHTHOUSE","min_zoom":7,"importance":5,"name":null,"ref":null,"common":{"type":"light_major"},"children":{"light":{"character":"Fl","colour":"red","period":"3"}},"osm_tags":{"seamark:light:character":"Fl","seamark:light:colour":"red","seamark:light:period":"3","seamark:type":"light_major"}}},{"type":"Feature","geometry":{"type":"Point","coordinates":[98.9069858,8.0305123]},"properties":{"osm_id":6179458248,"osm_type":"node","seamark_type":"light_major","display_class":"LIGHTHOUSE","min_zoom":7,"importance":5,"name":null,"ref":null,"common":{"type":"light_major"},"children":{"light":{"character":"Fl","colour":"white","height":"24","period":"3","range":"7"}},"osm_tags":{"man_made":"lighthouse","seamark:light:character":"Fl","seamark:light:colour":"white","seamark:light:height":"24","seamark:light:period":"3","seamark:light:range":"7","seamark:type":"light_major"}}},{"type":"Feature","geometry":{"type":"Point","coordinates":[98.9614883,8.0119923]},"properties":{"osm_id":6084674778,"osm_type":"node","seamark_type":"harbour","display_class":"OTHER","min_zoom":12,"importance":1,"name":null,"ref":null,"common":{"type":"harbour"},"children":{"harbour":{"category":"marina"}},"osm_tags":{"harbour":"yes","leisure":"marina","seamark:harbour:category":"marina","seamark:type":"harbour"}}},{"type":"Feature","geometry":{"type":"Point","coordinates":[98.7554527,8.1120651]},"properties":{"osm_id":7151817849,"osm_type":"node","seamark_type":"gate","display_class":"OTHER","min_zoom":12,"importance":1,"name":null,"ref":null,"common":{"type":"gate"},"children":{},"osm_tags":{"seamark:type":"gate","waterway":"lock_gate"}}},{"type":"Feature","geometry":{"type":"Point","coordinates":[98.5572847,8.0352293]},"properties":{"osm_id":11552972023,"osm_type":"node","seamark_type":"harbour","display_class":"OTHER","min_zoom":12,"importance":1,"name":null,"ref":null,"common":{"type":"harbour"},"children":{"harbour":{"category":"marina"}},"osm_tags":{"leisure":"marina","seamark:harbour:category":"marina","seamark:type":"harbour"}}},{"type":"Feature","geometry":{"type":"Point","coordinates":[98.4450625,8.0681045]},"properties":{"osm_id":13482414694,"osm_type":"node","seamark_type":"small_craft_facility","display_class":"OTHER","min_zoom":12,"importance":1,"name":null,"ref":null,"common":{"type":"small_craft_facility"},"children":{"small_craft_facility":{"category":"fuel_station"}},"osm_tags":{"seamark:small_craft_facility:category":"fuel_station","seamark:type":"small_craft_facility","waterway":"fuel"}}},{"type":"Feature","geometry":{"type":"Polygon","coordinates":[[[98.5071702,8.3371319],[98.5072184,8.3372442],[98.5072255,8.337366],[98.5071905,8.3374831],[98.5071177,8.3375815],[98.5070154,8.3376498],[98.5068959,8.3376798],[98.5067731,8.3376681],[98.5066696,8.3376214],[98.5065859,8.3375451],[98.5065306,8.3374466],[98.5065092,8.337336],[98.5065238,8.3372244],[98.5065729,8.3371228],[98.5066517,8.3370415],[98.5067522,8.3369887],[98.5068644,8.3369696],[98.5069769,8.3369861],[98.5070864,8.3370424],[98.5071702,8.3371319]]]},"properties":{"osm_id":1470100721,"osm_type":"way","seamark_type":"anchorage","display_class":"OTHER","min_zoom":12,"importance":1,"name":null,"ref":null,"common":{"type":"anchorage"},"children":{},"osm_tags":{"area":"yes","seamark:type":"anchorage"}}},{"type":"Feature","geometry":{"type":"Point","coordinates":[98.2194852,8.5865652]},"properties":{"osm_id":1293085236,"osm_type":"node","seamark_type":"light_minor","display_class":"OTHER","min_zoom":12,"importance":1,"name":"Ban Tablamu","ref":null,"common":{"name":"Ban Tablamu","type":"light_minor"},"children":{"light":{"character":"Fl","colour":"white","height":"80","period":"4","range":"10","reference":"F 1167"}},"osm_tags":{"seamark:light:character":"Fl","seamark:light:colour":"white","seamark:light:height":"80","seamark:light:period":"4","seamark:light:range":"10","seamark:light:reference":"F 1167","seamark:name":"Ban Tablamu","seamark:type":"light_minor","source":"US NGA Pub. 112. 2009-11-12."}}},{"type":"Feature","geometry":{"type":"Point","coordinates":[98.2909571,8.0835832]},"properties":{"osm_id":6424656749,"osm_type":"node","seamark_type":"small_craft_facility","display_class":"OTHER","min_zoom":12,"importance":1,"name":"Furt Übergang","ref":null,"common":{"type":"small_craft_facility"},"children":{"small_craft_facility":{"category":"fuel_station"}},"osm_tags":{"description":"Wasserdurchgang Kanal um zu Fuß auf die andere Seite zu gelangen","name":"Furt Übergang","seamark:small_craft_facility:category":"fuel_station","seamark:type":"small_craft_facility","waterway":"fuel"}}},{"type":"Feature","geometry":{"type":"Point","coordinates":[98.2399981,8.6001727]},"properties":{"osm_id":1293085255,"osm_type":"node","seamark_type":"light_minor","display_class":"OTHER","min_zoom":12,"importance":1,"name":"Hin Khi Nok","ref":null,"common":{"name":"Hin Khi Nok","type":"light_minor"},"children":{"light":{"character":"Fl","colour":"white","group":"3","height":"9","period":"10","range":"8","sequence":"0.5+(1.5)+0.5+(1.5)+0.5+(5.5)"}},"osm_tags":{"seamark:light:character":"Fl","seamark:light:colour":"white","seamark:light:group":"3","seamark:light:height":"9","seamark:light:period":"10","seamark:light:range":"8","seamark:light:sequence":"0.5+(1.5)+0.5+(1.5)+0.5+(5.5)","seamark:name":"Hin Khi Nok","seamark:type":"light_minor","source":"US NGA Pub. 112. 2009-11-12."}}},{"type":"Feature","geometry":{"type":"Point","coordinates":[98.5166034,8.3115228]},"properties":{"osm_id":1293085189,"osm_type":"node","seamark_type":"light_minor","display_class":"OTHER","min_zoom":12,"importance":1,"name":"Ko Nom Sao Noi","ref":null,"common":{"name":"Ko Nom Sao Noi","type":"light_minor"},"children":{"light":{"character":"Fl","colour":"white","height":"26","period":"3","range":"7","reference":"F 1178","sequence":"0.3+(2.7)"}},"osm_tags":{"seamark:light:character":"Fl","seamark:light:colour":"white","seamark:light:height":"26","seamark:light:period":"3","seamark:light:range":"7","seamark:light:reference":"F 1178","seamark:light:sequence":"0.3+(2.7)","seamark:name":"Ko Nom Sao Noi","seamark:type":"light_minor","source":"US NGA Pub. 112. 2025-06-22."}}},{"type":"Feature","geometry":{"type":"Polygon","coordinates":[[[98.7046988,8.1066127],[98.7050124,8.1059256],[98.7051543,8.1052078],[98.7055244,8.1046883],[98.706055,8.1046961],[98.7064018,8.1045712],[98.7071954,8.1045173],[98.7073724,8.1045259],[98.7077021,8.1044581],[98.7083501,8.1045058],[98.7100766,8.1052364],[98.710135,8.1058866],[98.7100896,8.1063359],[98.7093863,8.10662],[98.7091635,8.1068537],[98.7085574,8.1074849],[98.7084475,8.1078305],[98.7082962,8.1080841],[98.708086,8.1081109],[98.7080331,8.1083553],[98.7079464,8.1085113],[98.7077927,8.1084918],[98.7075957,8.1082773],[98.7073081,8.1080315],[98.7071662,8.1082968],[98.7070244,8.1082499],[98.7068352,8.1079847],[98.7064727,8.1078559],[98.7061978,8.1078405],[98.705949,8.1079861],[98.7057926,8.1079541],[98.7045711,8.1071037],[98.7045143,8.1069782],[98.7045261,8.1068339],[98.7046988,8.1066127]]]},"properties":{"osm_id":57840314,"osm_type":"way","seamark_type":"restricted_area","display_class":"OTHER","min_zoom":12,"importance":1,"name":"เกาะกายา","ref":null,"common":{"type":"restricted_area"},"children":{},"osm_tags":{"name":"เกาะกายา","name:en":"Ko Ka Ya","natural":"coastline","note":"manually traced","place":"islet","seamark:type":"restricted_area","source":"LandSat"}}},{"type":"Feature","geometry":{"type":"Polygon","coordinates":[[[98.6908387,8.20944],[98.6905681,8.2090493],[98.6903961,8.2086585],[98.6904399,8.2084698],[98.690496,8.2081591],[98.6907664,8.2081487],[98.6908986,8.2081405],[98.691006,8.2079859],[98.690872,8.2078717],[98.6908489,8.2077454],[98.6910628,8.2075732],[98.6913803,8.2072959],[98.6913174,8.2067902],[98.6914301,8.2065265],[98.6916006,8.20644],[98.6917384,8.2067641],[98.6919565,8.2068471],[98.6920929,8.2072461],[98.692026,8.2074072],[98.6919415,8.2076318],[98.6919382,8.2079785],[98.6920766,8.2083434],[98.6920169,8.2086729],[98.6917538,8.2089964],[98.691329,8.2094082],[98.6911239,8.2094729],[98.6908387,8.20944]]]},"properties":{"osm_id":241997764,"osm_type":"way","seamark_type":"restricted_area","display_class":"OTHER","min_zoom":12,"importance":1,"name":"เกาะทะลุ","ref":null,"common":{"type":"restricted_area"},"children":{},"osm_tags":{"name":"เกาะทะลุ","name:en":"Ko Thalu","name:th":"เกาะทะลุ","natural":"coastline","place":"island","seamark:type":"restricted_area"}}},{"type":"Feature","geometry":{"type":"Polygon","coordinates":[[[98.6885222,8.0998547],[98.6884475,8.0995706],[98.6884233,8.0994777],[98.6885226,8.0991139],[98.6885762,8.0988245],[98.6887586,8.0986173],[98.6892727,8.0984186],[98.6900005,8.0983358],[98.6909588,8.0986209],[98.6919186,8.0987442],[98.6925389,8.099403],[98.6930698,8.0998125],[98.6940792,8.100319],[98.6947248,8.1003938],[98.6949352,8.1009554],[98.6951154,8.1010922],[98.6951235,8.1012356],[98.6951168,8.1013498],[98.6951315,8.1014812],[98.6952308,8.1015609],[98.6952066,8.101626],[98.6952066,8.101683],[98.6952388,8.1017229],[98.6953367,8.1018105],[98.6955057,8.1018782],[98.6955513,8.101926],[98.6955526,8.1020017],[98.695388,8.1020934],[98.6950832,8.1022041],[98.6951856,8.1024806],[98.6950457,8.1026297],[98.6947577,8.1027643],[98.6943798,8.1028164],[98.6941055,8.1029599],[98.6937796,8.1029231],[98.6935934,8.1024898],[98.6933398,8.1019234],[98.6930126,8.1017348],[98.692653,8.1016971],[98.6923354,8.1014576],[98.6922619,8.1014021],[98.6915729,8.1015874],[98.691429,8.1016385],[98.6914228,8.1017003],[98.691304,8.1020721],[98.6912531,8.1022394],[98.6912048,8.1024067],[98.6911243,8.1025447],[98.6908025,8.1028023],[98.6906093,8.1029882],[98.6904001,8.1030838],[98.6902821,8.1031289],[98.6901802,8.1030918],[98.6900353,8.1029616],[98.6898234,8.1025102],[98.6894315,8.102163],[98.6890573,8.1019017],[98.6886318,8.1011736],[98.6884904,8.100747],[98.6885933,8.1002184],[98.6885222,8.0998547]]]},"properties":{"osm_id":57840309,"osm_type":"way","seamark_type":"restricted_area","display_class":"OTHER","min_zoom":12,"importance":1,"name":"เกาะปากกะ","ref":null,"common":{"type":"restricted_area"},"children":{},"osm_tags":{"name":"เกาะปากกะ","name:en":"Ko Pak Ka","natural":"coastline","note":"manually traced","place":"islet","seamark:type":"restricted_area","source":"LandSat"}}},{"type":"Feature","geometry":{"type":"Polygon","coordinates":[[[98.6871857,8.1051169],[98.6881315,8.1048506],[98.6890857,8.1047586],[98.6898355,8.1059568],[98.6903006,8.1064462],[98.6902269,8.1068299],[98.690151,8.1071483],[98.6893015,8.1077054],[98.6889416,8.107776],[98.6885534,8.1077094],[98.6881926,8.1080076],[98.6876964,8.1082239],[98.6873773,8.1077635],[98.687242,8.1071078],[98.6869631,8.1066573],[98.6866013,8.1062333],[98.6867063,8.1055694],[98.6871857,8.1051169]]]},"properties":{"osm_id":57840312,"osm_type":"way","seamark_type":"restricted_area","display_class":"OTHER","min_zoom":12,"importance":1,"name":"เกาะยะลาฮุตัง","ref":null,"common":{"type":"restricted_area"},"children":{},"osm_tags":{"name":"เกาะยะลาฮุตัง","name:en":"Ko Ya La Hu Tang","name:th":"เกาะยะลาฮุตัง","natural":"coastline","note":"manually traced","place":"islet","seamark:type":"restricted_area","source":"LandSat"}}},{"type":"Feature","geometry":{"type":"Polygon","coordinates":[[[98.7066205,8.1117264],[98.7072216,8.1117079],[98.7075649,8.1116149],[98.7080021,8.1115937],[98.7087327,8.1116708],[98.7088779,8.1117211],[98.7089664,8.1118526],[98.7089932,8.1120929],[98.7090949,8.112241],[98.709429,8.1125244],[98.7096222,8.11292],[98.7096731,8.1134783],[98.709522,8.1137533],[98.7090509,8.1141548],[98.7083654,8.1142241],[98.707227,8.1141169],[98.7067032,8.1139636],[98.7063378,8.1136987],[98.7061521,8.1132797],[98.7060645,8.1123322],[98.7062251,8.1119668],[98.7066205,8.1117264]]]},"properties":{"osm_id":57840308,"osm_type":"way","seamark_type":"restricted_area","display_class":"OTHER","min_zoom":12,"importance":1,"name":"เกาะสะยาตาลิง","ref":null,"common":{"type":"restricted_area"},"children":{},"osm_tags":{"name":"เกาะสะยาตาลิง","name:en":"Ko Sa Ya Ta Ling","name:th":"เกาะสะยาตาลิง","natural":"coastline","note":"manually traced","place":"islet","seamark:type":"restricted_area","source":"LandSat"}}},{"type":"Feature","geometry":{"type":"Polygon","coordinates":[[[98.6123213,8.2457006],[98.6121596,8.2457241],[98.6118799,8.2454257],[98.6117361,8.2452098],[98.6116721,8.2450969],[98.6117017,8.2449519],[98.6119912,8.244599],[98.6122394,8.2443885],[98.6121866,8.2443174],[98.6122761,8.2442276],[98.6123635,8.2442651],[98.612451,8.2442202],[98.6124333,8.2440094],[98.6125647,8.2438698],[98.6128011,8.2437939],[98.6129481,8.2435572],[98.6130429,8.2433638],[98.6132223,8.2433335],[98.6134381,8.2432238],[98.6134545,8.2431528],[98.6133062,8.2431013],[98.6133164,8.2429753],[98.6134256,8.2428199],[98.6135672,8.2427168],[98.61375,8.2426967],[98.6138311,8.2423708],[98.6139053,8.242197],[98.6139709,8.241933],[98.6139346,8.2417126],[98.6140303,8.241542],[98.6141066,8.2415371],[98.6141813,8.2416715],[98.6141293,8.2419278],[98.6140382,8.2422732],[98.6141146,8.2424178],[98.6142561,8.2425382],[98.6141758,8.2427366],[98.6141499,8.2429129],[98.6141708,8.2429906],[98.6140921,8.2431724],[98.6140601,8.2433743],[98.6141112,8.243511],[98.6141184,8.2436799],[98.6139594,8.2437925],[98.6137923,8.2437241],[98.6137232,8.2437916],[98.6137172,8.2438833],[98.6138311,8.2439725],[98.6136827,8.2442001],[98.613455,8.244295],[98.6132555,8.2443123],[98.6131098,8.2444032],[98.6131286,8.2445727],[98.6130644,8.2446516],[98.612908,8.2447173],[98.6128644,8.2448467],[98.6129488,8.244946],[98.6129062,8.2452137],[98.6127934,8.2453707],[98.6128264,8.2455015],[98.6127413,8.2456092],[98.6125992,8.2456887],[98.6123213,8.2457006]]]},"properties":{"osm_id":663180070,"osm_type":"way","seamark_type":"restricted_area","display_class":"OTHER","min_zoom":12,"importance":1,"name":"เกาะเหลาไป","ref":null,"common":{"type":"restricted_area"},"children":{},"osm_tags":{"name":"เกาะเหลาไป","name:en":"Ko Lao Pai","name:th":"เกาะเหลาไป","natural":"coastline","place":"island","seamark:type":"restricted_area","wikidata":"Q49646927"}}},{"type":"Feature","geometry":{"type":"Polygon","coordinates":[[[98.6877577,8.2130908],[98.6878832,8.2128098],[98.6878106,8.2123785],[98.6876389,8.2121367],[98.6874665,8.2120704],[98.6873518,8.2119829],[98.6872873,8.2119291],[98.6872391,8.2118471],[98.6872383,8.2117595],[98.6873497,8.2117196],[98.6873587,8.2116414],[98.6873758,8.2115692],[98.6875188,8.2115888],[98.6875868,8.2116205],[98.6876091,8.2116942],[98.6876121,8.2118119],[98.6876697,8.2119112],[98.6877609,8.2119059],[98.68781,8.2118798],[98.6878205,8.211839],[98.6877797,8.2118259],[98.6877254,8.2116825],[98.6877112,8.2115645],[98.6876186,8.2115506],[98.6875046,8.2115301],[98.6873999,8.2113895],[98.6874039,8.2112506],[98.6874566,8.2112186],[98.6874538,8.2111403],[98.68738,8.2111484],[98.6873022,8.2110196],[98.6872347,8.2109212],[98.6872046,8.2108157],[98.6872468,8.210699],[98.6872421,8.2106025],[98.6872422,8.2105129],[98.6872703,8.210407],[98.6873463,8.210369],[98.6874292,8.2103518],[98.6875426,8.2104098],[98.6875923,8.2104098],[98.68767,8.2104653],[98.6879212,8.210429],[98.6880854,8.2104015],[98.6882075,8.2104284],[98.6881644,8.2105335],[98.6881102,8.2106566],[98.688182,8.2107739],[98.6881602,8.2108734],[98.6882707,8.2110815],[98.688278,8.2111809],[98.6882656,8.2112746],[98.6882211,8.2113467],[98.688256,8.2115203],[98.688277,8.2117134],[98.6883529,8.2118931],[98.6884568,8.211955],[98.6884857,8.2120068],[98.6884866,8.2121094],[98.6883453,8.2125941],[98.6882661,8.2130516],[98.6881737,8.2133979],[98.6879426,8.2136266],[98.6877577,8.2135874],[98.6876455,8.2132476],[98.6877577,8.2130908]]]},"properties":{"osm_id":241997767,"osm_type":"way","seamark_type":"restricted_area","display_class":"OTHER","min_zoom":12,"importance":1,"name":"เกาะแดง","ref":null,"common":{"type":"restricted_area"},"children":{},"osm_tags":{"access":"private","name":"เกาะแดง","name:en":"Ko Daeng","name:th":"เกาะแดง","natural":"coastline","place":"island","seamark:type":"restricted_area"}}}],"type":"FeatureCollection"}