{"type":"FeatureCollection","features":[{"type":"Feature","geometry":{"type":"Point","coordinates":[-82.8752348,8.2149043]},"properties":{"osm_id":12065296083,"osm_type":"node","seamark_type":"beacon_isolated_danger","display_class":"BEACON","min_zoom":9,"importance":4,"name":null,"ref":null,"common":{"type":"beacon_isolated_danger"},"children":{},"osm_tags":{"man_made":"beacon","seamark:type":"beacon_isolated_danger"}}},{"type":"Feature","geometry":{"type":"Point","coordinates":[-82.8756613,8.2175218]},"properties":{"osm_id":12065296084,"osm_type":"node","seamark_type":"beacon_isolated_danger","display_class":"BEACON","min_zoom":9,"importance":4,"name":null,"ref":null,"common":{"type":"beacon_isolated_danger"},"children":{},"osm_tags":{"man_made":"beacon","seamark:type":"beacon_isolated_danger"}}},{"type":"Feature","geometry":{"type":"Point","coordinates":[-82.8755486,8.2166484]},"properties":{"osm_id":12065296085,"osm_type":"node","seamark_type":"beacon_isolated_danger","display_class":"BEACON","min_zoom":9,"importance":4,"name":null,"ref":null,"common":{"type":"beacon_isolated_danger"},"children":{},"osm_tags":{"man_made":"beacon","seamark:type":"beacon_isolated_danger"}}},{"type":"Feature","geometry":{"type":"Point","coordinates":[-82.8744194,8.2114744]},"properties":{"osm_id":12065296086,"osm_type":"node","seamark_type":"beacon_isolated_danger","display_class":"BEACON","min_zoom":9,"importance":4,"name":null,"ref":null,"common":{"type":"beacon_isolated_danger"},"children":{},"osm_tags":{"man_made":"beacon","seamark:type":"beacon_isolated_danger"}}},{"type":"Feature","geometry":{"type":"Point","coordinates":[-82.8742611,8.2112461]},"properties":{"osm_id":12065296087,"osm_type":"node","seamark_type":"beacon_isolated_danger","display_class":"BEACON","min_zoom":9,"importance":4,"name":null,"ref":null,"common":{"type":"beacon_isolated_danger"},"children":{},"osm_tags":{"man_made":"beacon","seamark:type":"beacon_isolated_danger"}}},{"type":"Feature","geometry":{"type":"Point","coordinates":[-82.8739473,8.2108081]},"properties":{"osm_id":12065296088,"osm_type":"node","seamark_type":"beacon_isolated_danger","display_class":"BEACON","min_zoom":9,"importance":4,"name":null,"ref":null,"common":{"type":"beacon_isolated_danger"},"children":{},"osm_tags":{"man_made":"beacon","seamark:type":"beacon_isolated_danger"}}},{"type":"Feature","geometry":{"type":"Point","coordinates":[-82.8730917,8.2096851]},"properties":{"osm_id":12065296089,"osm_type":"node","seamark_type":"beacon_isolated_danger","display_class":"BEACON","min_zoom":9,"importance":4,"name":null,"ref":null,"common":{"type":"beacon_isolated_danger"},"children":{},"osm_tags":{"man_made":"beacon","seamark:type":"beacon_isolated_danger"}}},{"type":"Feature","geometry":{"type":"Point","coordinates":[-82.8727698,8.2091648]},"properties":{"osm_id":12065296090,"osm_type":"node","seamark_type":"beacon_isolated_danger","display_class":"BEACON","min_zoom":9,"importance":4,"name":null,"ref":null,"common":{"type":"beacon_isolated_danger"},"children":{},"osm_tags":{"man_made":"beacon","seamark:type":"beacon_isolated_danger"}}},{"type":"Feature","geometry":{"type":"Point","coordinates":[-82.8725821,8.2065101]},"properties":{"osm_id":12065296091,"osm_type":"node","seamark_type":"beacon_isolated_danger","display_class":"BEACON","min_zoom":9,"importance":4,"name":null,"ref":null,"common":{"type":"beacon_isolated_danger"},"children":{},"osm_tags":{"man_made":"beacon","seamark:type":"beacon_isolated_danger"}}},{"type":"Feature","geometry":{"type":"Point","coordinates":[-82.8725418,8.2070914]},"properties":{"osm_id":12065296092,"osm_type":"node","seamark_type":"beacon_isolated_danger","display_class":"BEACON","min_zoom":9,"importance":4,"name":null,"ref":null,"common":{"type":"beacon_isolated_danger"},"children":{},"osm_tags":{"man_made":"beacon","seamark:type":"beacon_isolated_danger"}}},{"type":"Feature","geometry":{"type":"Point","coordinates":[-82.8725526,8.2082091]},"properties":{"osm_id":12065296093,"osm_type":"node","seamark_type":"beacon_isolated_danger","display_class":"BEACON","min_zoom":9,"importance":4,"name":null,"ref":null,"common":{"type":"beacon_isolated_danger"},"children":{},"osm_tags":{"man_made":"beacon","seamark:type":"beacon_isolated_danger"}}},{"type":"Feature","geometry":{"type":"Point","coordinates":[-82.8726652,8.2090427]},"properties":{"osm_id":12065296094,"osm_type":"node","seamark_type":"beacon_isolated_danger","display_class":"BEACON","min_zoom":9,"importance":4,"name":null,"ref":null,"common":{"type":"beacon_isolated_danger"},"children":{},"osm_tags":{"man_made":"beacon","seamark:type":"beacon_isolated_danger"}}},{"type":"Feature","geometry":{"type":"Point","coordinates":[-82.8726652,8.2088436]},"properties":{"osm_id":12065296095,"osm_type":"node","seamark_type":"beacon_isolated_danger","display_class":"BEACON","min_zoom":9,"importance":4,"name":null,"ref":null,"common":{"type":"beacon_isolated_danger"},"children":{},"osm_tags":{"man_made":"beacon","seamark:type":"beacon_isolated_danger"}}},{"type":"Feature","geometry":{"type":"Point","coordinates":[-82.1055803,8.9721543]},"properties":{"osm_id":12876423050,"osm_type":"node","seamark_type":"buoy_lateral","display_class":"OTHER","min_zoom":12,"importance":1,"name":null,"ref":null,"common":{"type":"buoy_lateral"},"children":{"buoy_lateral":{"category":"starboard","colour":"yellow","shape":"pillar","system":"iala-b"},"light":{"character":"Oc","colour":"yellow","group":"1"}},"osm_tags":{"seamark:buoy_lateral:category":"starboard","seamark:buoy_lateral:colour":"yellow","seamark:buoy_lateral:shape":"pillar","seamark:buoy_lateral:system":"iala-b","seamark:light:character":"Oc","seamark:light:colour":"yellow","seamark:light:group":"1","seamark:type":"buoy_lateral"}}},{"type":"Feature","geometry":{"type":"Point","coordinates":[-82.1044323,8.9711422]},"properties":{"osm_id":12876423051,"osm_type":"node","seamark_type":"buoy_lateral","display_class":"OTHER","min_zoom":12,"importance":1,"name":null,"ref":null,"common":{"type":"buoy_lateral"},"children":{"buoy_lateral":{"category":"starboard","colour":"yellow","shape":"pillar","system":"iala-b"},"light":{"character":"Oc","colour":"yellow","group":"1"}},"osm_tags":{"seamark:buoy_lateral:category":"starboard","seamark:buoy_lateral:colour":"yellow","seamark:buoy_lateral:shape":"pillar","seamark:buoy_lateral:system":"iala-b","seamark:light:character":"Oc","seamark:light:colour":"yellow","seamark:light:group":"1","seamark:type":"buoy_lateral"}}},{"type":"Feature","geometry":{"type":"Point","coordinates":[-82.2789464,8.3426655]},"properties":{"osm_id":13526776118,"osm_type":"node","seamark_type":"mooring","display_class":"OTHER","min_zoom":12,"importance":1,"name":null,"ref":null,"common":{"type":"mooring"},"children":{},"osm_tags":{"seamark:type":"mooring"}}},{"type":"Feature","geometry":{"type":"Point","coordinates":[-82.1079839,8.9686528]},"properties":{"osm_id":11704834347,"osm_type":"node","seamark_type":"buoy_installation","display_class":"OTHER","min_zoom":12,"importance":1,"name":"Boya PTP","ref":null,"common":{"name":"Boya PTP","type":"buoy_installation"},"children":{},"osm_tags":{"operator":"Petroterminal de Panamá","seamark:name":"Boya PTP","seamark:type":"buoy_installation"}}},{"type":"Feature","geometry":{"type":"Point","coordinates":[-82.1020156,8.959127]},"properties":{"osm_id":12876429094,"osm_type":"node","seamark_type":"buoy_installation","display_class":"OTHER","min_zoom":12,"importance":1,"name":"Boya PTP","ref":null,"common":{"name":"Boya PTP","type":"buoy_installation"},"children":{},"osm_tags":{"operator":"Petroterminal de Panamá","seamark:name":"Boya PTP","seamark:type":"buoy_installation"}}},{"type":"Feature","geometry":{"type":"Point","coordinates":[-82.8773055,8.0176254]},"properties":{"osm_id":1199790779,"osm_type":"node","seamark_type":"light_minor","display_class":"OTHER","min_zoom":12,"importance":1,"name":"Isla Burica","ref":null,"common":{"name":"Isla Burica","type":"light_minor"},"children":{"light":{"character":"Fl","colour":"white","height":"34","period":"10","range":"12","reference":"G 3280","sequence":"1+(9)"}},"osm_tags":{"man_made":"lighthouse","seamark:light:character":"Fl","seamark:light:colour":"white","seamark:light:height":"34","seamark:light:period":"10","seamark:light:range":"12","seamark:light:reference":"G 3280","seamark:light:sequence":"1+(9)","seamark:name":"Isla Burica","seamark:type":"light_minor","source":"US NGA Pub. 111. 2010-09-02.","wikidata":"Q60684259"}}}],"type":"FeatureCollection"}