{"type":"FeatureCollection","features":[{"type":"Feature","geometry":{"type":"Point","coordinates":[124.7202695,9.2537333]},"properties":{"osm_id":6717938473,"osm_type":"node","seamark_type":"light_major","display_class":"LIGHTHOUSE","min_zoom":7,"importance":5,"name":null,"ref":null,"common":{"type":"light_major"},"children":{},"osm_tags":{"fixme":"name","man_made":"lighthouse","seamark:type":"light_major"}}},{"type":"Feature","geometry":{"type":"Point","coordinates":[124.8457092,9.0056993]},"properties":{"osm_id":9596399161,"osm_type":"node","seamark_type":"light_major","display_class":"LIGHTHOUSE","min_zoom":7,"importance":5,"name":null,"ref":null,"common":{"type":"light_major"},"children":{"light":{"reference":"F2264(admiralty);15100(nga)"}},"osm_tags":{"addr:place":"Bauk-bauk","addr:province":"Misamis Occidental","addr:town":"Salay","building:material":"steel","fixme":"name","int_ref":"F2264","man_made":"lighthouse","seamark:light:reference":"F2264(admiralty);15100(nga)","seamark:type":"light_major","source":"Philippine Coast Guard, 2019 lighthouse masterlist","start_date":"2005-12-15"}}},{"type":"Feature","geometry":{"type":"Point","coordinates":[124.797361,9.1463679]},"properties":{"osm_id":9462088357,"osm_type":"node","seamark_type":"light_minor","display_class":"LIGHTHOUSE","min_zoom":7,"importance":5,"name":"Binoni","ref":null,"common":{"name":"Binoni","type":"light_minor"},"children":{"light":{"character":"Fl","colour":"white","period":"3"}},"osm_tags":{"addr:place":"San Roque","addr:province":"Camiguin","addr:town":"Mahilog","building:material":"concrete","man_made":"lighthouse","name":"Benoni Lighthouse","operator":"Cagayan de Oro Station, Philippine Coast Guard","ref:pcg":"NM-003","seamark:light:character":"Fl","seamark:light:colour":"white","seamark:light:period":"3","seamark:name":"Binoni","seamark:type":"light_minor","source":"Philippine Coast Guard, 2019 lighthouse masterlist"}}},{"type":"Feature","geometry":{"type":"Point","coordinates":[124.6342487,9.2019288]},"properties":{"osm_id":2181967132,"osm_type":"node","seamark_type":"light_major","display_class":"LIGHTHOUSE","min_zoom":7,"importance":5,"name":"Catarman","ref":null,"common":{"name":"Catarman","type":"light_major"},"children":{"light":{"character":"Fl","colour":"white","group":"3","period":"10"}},"osm_tags":{"addr:postcode":"9104","addr:province":"Camiguin","addr:town":"Catarman","addr:village":"Bonbon","building:material":"glass_reinforced_plastic","man_made":"lighthouse","name":"Catarman Lighthouse","operator":"Cagayan de Oro Station, Philippine Coast Guard","ref:pcg":"NM-012","seamark:light:character":"Fl","seamark:light:colour":"white","seamark:light:group":"3","seamark:light:period":"10","seamark:name":"Catarman","seamark:type":"light_major","source":"Philippine Coast Guard, 2019 lighthouse masterlist"}}},{"type":"Feature","geometry":{"type":"Point","coordinates":[124.7816983,9.0840949]},"properties":{"osm_id":7115905601,"osm_type":"node","seamark_type":"light_minor","display_class":"LIGHTHOUSE","min_zoom":7,"importance":5,"name":"Farol","ref":null,"common":{"name":"Farol","type":"light_minor"},"children":{"light":{"character":"Fl","colour":"white","group":"2","period":"7"}},"osm_tags":{"addr:place":"Liong","addr:province":"Camiguin","addr:town":"Guinsilaban","building:material":"steel;glass_reinforced_plastic","man_made":"lighthouse","name":"Farol Lighthouse","operator":"Cagayan de Oro Station, Philippine Coast Guard","ref:pcg":"NM-005","seamark:light:character":"Fl","seamark:light:colour":"white","seamark:light:group":"2","seamark:light:period":"7","seamark:name":"Farol","seamark:type":"light_minor","source":"Philippine Coast Guard, 2019 lighthouse masterlist"}}},{"type":"Feature","geometry":{"type":"Point","coordinates":[124.2408858,9.5988788]},"properties":{"osm_id":9622802230,"osm_type":"node","seamark_type":"light_major","display_class":"LIGHTHOUSE","min_zoom":7,"importance":5,"name":"Gorda","ref":null,"common":{"name":"Gorda","type":"light_major"},"children":{"light":{"character":"Fl","colour":"white","group":"2","period":"4"}},"osm_tags":{"addr:place":"Anas","addr:province":"Bohol","addr:town":"Valencia","building:material":"glass_reinforced_plastic","man_made":"lighthouse","name":"Gorda Lighthouse","operator":"Tagbilaran Station, Philippine Coast Guard","ref:pcg":"CV-036","seamark:light:character":"Fl","seamark:light:colour":"white","seamark:light:group":"2","seamark:light:period":"4","seamark:name":"Gorda","seamark:type":"light_major","source":"Philippine Coast Guard, 2019 lighthouse masterlist","start_date":"1994-02-12"}}},{"type":"Feature","geometry":{"type":"Point","coordinates":[124.3668115,9.6491837]},"properties":{"osm_id":7103617900,"osm_type":"node","seamark_type":"light_minor","display_class":"LIGHTHOUSE","min_zoom":7,"importance":5,"name":"Jagna","ref":null,"common":{"name":"Jagna","type":"light_minor"},"children":{"light":{"character":"Fl","colour":"red","period":"5"}},"osm_tags":{"addr:municipality":"Jagna","addr:province":"Bohol","building:material":"concrete","image":"https://www.bing.com/maps?cp=9.649317%7E124.366798&lvl=11.0&v=2&sV=1&pi=5&style=x&dir=167.2","man_made":"lighthouse","name":"Jagna Lighthouse","operator":"Tagbilaran Station, Philippine Coast Guard","ref:pcg":"CV-037","seamark:light:character":"Fl","seamark:light:colour":"red","seamark:light:period":"5","seamark:name":"Jagna","seamark:type":"light_minor","source":"Philippine Coast Guard, 2019 lighthouse masterlist","start_date":"1989-08-16"}}},{"type":"Feature","geometry":{"type":"Point","coordinates":[124.00943,9.5996768]},"properties":{"osm_id":7081954392,"osm_type":"node","seamark_type":"light_minor","display_class":"LIGHTHOUSE","min_zoom":7,"importance":5,"name":"Loay","ref":null,"common":{"name":"Loay","type":"light_minor"},"children":{"light":{"character":"Fl","colour":"red","period":"5"}},"osm_tags":{"addr:place":"Poblacion Ubos","addr:province":"Bohol","addr:town":"Loay","building:material":"concrete","man_made":"lighthouse","name":"Loay Lighthouse","operator":"Tagbilaran Station, Philippine Coast Guard","ref:pcg":"CV-039","seamark:light:character":"Fl","seamark:light:colour":"red","seamark:light:period":"5","seamark:name":"Loay","seamark:type":"light_minor","source":"Philippine Coast Guard, 2019 lighthouse masterlist","start_date":"1989-08-16"}}},{"type":"Feature","geometry":{"type":"Point","coordinates":[124.71642,9.2553214]},"properties":{"osm_id":6965818267,"osm_type":"node","seamark_type":"light_major","display_class":"LIGHTHOUSE","min_zoom":7,"importance":5,"name":"Mambajao","ref":null,"common":{"name":"Mambajao","type":"light_major"},"children":{"light":{"character":"Fl","colour":"red","period":"5"}},"osm_tags":{"addr:city":"Mambajao","addr:postcode":"9100","addr:province":"Camiguin","building:material":"glass_reinforced_plastic","man_made":"lighthouse","name":"Mambajao Lighthouse","name:es":"Faro de Mambajao","operator":"Cagayan de Oro Station, Philippine Coast Guard","ref:pcg":"NM-008","seamark:light:character":"Fl","seamark:light:colour":"red","seamark:light:period":"5","seamark:name":"Mambajao","seamark:type":"light_major","source":"Philippine Coast Guard, 2019 lighthouse masterlist"}}},{"type":"Feature","geometry":{"type":"Point","coordinates":[124.5948013,9.7635815]},"properties":{"osm_id":9462123722,"osm_type":"node","seamark_type":"light_minor","display_class":"LIGHTHOUSE","min_zoom":7,"importance":5,"name":"Talisay","ref":null,"common":{"name":"Talisay","type":"light_minor"},"children":{"light":{"character":"Fl","colour":"white","group":"3","period":"8"}},"osm_tags":{"addr:place":"Talisay","addr:province":"Bohol","addr:town":"Anda","building:material":"glass_reinforced_plastic","man_made":"lighthouse","name":"Talisay Lighthouse","operator":"Tagbilaran Station, Philippine Coast Guard","ref:pcg":"CV-043","seamark:light:character":"Fl","seamark:light:colour":"white","seamark:light:group":"3","seamark:light:period":"8","seamark:name":"Talisay","seamark:type":"light_minor","source":"Philippine Coast Guard, 2019 lighthouse masterlist","start_date":"1994-02-13"}}}],"type":"FeatureCollection"}