{"type":"FeatureCollection","features":[{"type":"Feature","geometry":{"type":"Polygon","coordinates":[[[-82.0039702,9.1131141],[-82.0097637,9.1056139],[-82.0133579,9.0994165],[-82.0126605,9.0991093],[-82.0087981,9.1051054],[-82.0024682,9.1120548],[-81.9943572,9.1189193],[-81.976204,9.1384527],[-81.9689942,9.167433],[-81.9658185,9.1848879],[-81.9635011,9.2024266],[-81.9632436,9.2153894],[-81.9667626,9.215813],[-81.9671918,9.2018335],[-81.9699384,9.1843795],[-81.9728566,9.1705682],[-81.9804955,9.1410797],[-82.0039702,9.1131141]]]},"properties":{"osm_id":1391083213,"osm_type":"way","seamark_type":"separation_zone","display_class":"TSS","min_zoom":6,"importance":5,"name":"Canal del Tigre","ref":null,"common":{"type":"separation_zone"},"children":{},"osm_tags":{"name":"Canal del Tigre","seamark:type":"separation_zone"}}},{"type":"Feature","geometry":{"type":"LineString","coordinates":[[-82.0103646,9.1004442],[-82.0077467,9.1039613],[-81.9971466,9.1132412],[-81.9910956,9.1181565],[-81.9733716,9.1371392],[-81.9659902,9.1646791],[-81.961012,9.2007744],[-81.9605828,9.2129748]]},"properties":{"osm_id":1391083209,"osm_type":"way","seamark_type":"separation_boundary","display_class":"OTHER","min_zoom":12,"importance":1,"name":null,"ref":null,"common":{"type":"separation_boundary"},"children":{},"osm_tags":{"seamark:type":"separation_boundary"}}},{"type":"Feature","geometry":{"type":"LineString","coordinates":[[-81.9709468,9.2153046],[-81.9715906,9.2010709],[-81.9765688,9.1720086],[-81.984551,9.1414186],[-82.0035625,9.1181566],[-82.0097638,9.1076055],[-82.013197,9.102012]]},"properties":{"osm_id":1391083210,"osm_type":"way","seamark_type":"separation_boundary","display_class":"OTHER","min_zoom":12,"importance":1,"name":null,"ref":null,"common":{"type":"separation_boundary"},"children":{},"osm_tags":{"seamark:type":"separation_boundary"}}},{"type":"Feature","geometry":{"type":"LineString","coordinates":[[-82.0113945,9.1001475],[-82.0083046,9.1044698],[-81.999507,9.1129446],[-81.9925547,9.1181142],[-81.9745732,9.138029],[-81.9671918,9.1655689],[-81.9622136,9.2016641],[-81.9617844,9.2138644]]},"properties":{"osm_id":1391083211,"osm_type":"way","seamark_type":"separation_lane","display_class":"OTHER","min_zoom":12,"importance":1,"name":null,"ref":null,"common":{"type":"separation_lane"},"children":{},"osm_tags":{"seamark:type":"separation_lane"}}},{"type":"Feature","geometry":{"type":"LineString","coordinates":[[-81.9685221,9.215813],[-81.9691659,9.2015793],[-81.9741441,9.172517],[-81.9821263,9.1419271],[-82.0032407,9.1162074],[-82.0099354,9.1063343],[-82.0133686,9.1007408]]},"properties":{"osm_id":1391083212,"osm_type":"way","seamark_type":"separation_lane","display_class":"OTHER","min_zoom":12,"importance":1,"name":null,"ref":null,"common":{"type":"separation_lane"},"children":{},"osm_tags":{"seamark:type":"separation_lane"}}}],"type":"FeatureCollection"}