{"type":"FeatureCollection","features":[{"type":"Feature","geometry":{"type":"Point","coordinates":[119.5015553,11.4365471]},"properties":{"osm_id":6919308906,"osm_type":"node","seamark_type":"light_major","display_class":"LIGHTHOUSE","min_zoom":7,"importance":5,"name":"Cabuli","ref":null,"common":{"name":"Cabuli","type":"light_major"},"children":{"light":{"character":"Fl","colour":"white","group":"2","period":"10"}},"osm_tags":{"addr:place":"Cabuli","addr:province":"Palawan","addr:town":"El Nido","building:material":"fiberglass","man_made":"lighthouse","name":"Cabuli Lighthouse","operator":"El Nido Station, Philippine Coast Guard","ref:pcg":"PAL-016","seamark:light:character":"Fl","seamark:light:colour":"white","seamark:light:group":"2","seamark:light:period":"10","seamark:name":"Cabuli","seamark:type":"light_major","source":"Philippine Coast Guard, 2019 lighthouse masterlist"}}},{"type":"Feature","geometry":{"type":"Point","coordinates":[119.9748648,11.6321459]},"properties":{"osm_id":6914840707,"osm_type":"node","seamark_type":"light_major","display_class":"LIGHTHOUSE","min_zoom":7,"importance":5,"name":"Decabaito","ref":null,"common":{"name":"Decabaito","type":"light_major"},"children":{"light":{"character":"Fl","colour":"white","group":"2","period":"5"}},"osm_tags":{"addr:island":"Decabaito Island","building:material":"glass_reinforced_plastic","man_made":"lighthouse","name":"Decabaito Lighthouse","operator":"Coron Station, Philippine Coast Guard","ref:pcg":"PAL-023","seamark:light:character":"Fl","seamark:light:colour":"white","seamark:light:group":"2","seamark:light:period":"5","seamark:name":"Decabaito","seamark:type":"light_major","source":"Philippine Coast Guard, 2019 lighthouse masterlist","start_date":"1994-03-01"}}},{"type":"Feature","geometry":{"type":"Point","coordinates":[119.4109549,11.362132]},"properties":{"osm_id":6919637491,"osm_type":"node","seamark_type":"light_minor","display_class":"LIGHTHOUSE","min_zoom":7,"importance":5,"name":"Lalutaya","ref":null,"common":{"name":"Lalutaya","type":"light_minor"},"children":{"light":{"character":"Fl","colour":"white","group":"3","period":"5"}},"osm_tags":{"addr:municipality":"El Nido","addr:province":"Palawan","addr:village":"Bucana","building:material":"fiberglass","man_made":"lighthouse","name":"Lalutaya Lighthouse","operator":"El Nido Station, Philippine Coast Guard","ref:pcg":"PAL-017","seamark:light:character":"Fl","seamark:light:colour":"white","seamark:light:group":"3","seamark:light:period":"5","seamark:name":"Lalutaya","seamark:type":"light_minor","source":"Philippine Coast Guard, 2019 lighthouse masterlist","start_date":"1997-04-30"}}},{"type":"Feature","geometry":{"type":"Point","coordinates":[119.928561,11.7201604]},"properties":{"osm_id":4021082858,"osm_type":"node","seamark_type":"rock","display_class":"OTHER","min_zoom":12,"importance":1,"name":null,"ref":null,"common":{"type":"rock"},"children":{"rock":{"water_level":"covers"}},"osm_tags":{"seamark:rock:water_level":"covers","seamark:type":"rock"}}},{"type":"Feature","geometry":{"type":"Point","coordinates":[119.9288782,11.720857]},"properties":{"osm_id":4021082859,"osm_type":"node","seamark_type":"rock","display_class":"OTHER","min_zoom":12,"importance":1,"name":null,"ref":null,"common":{"type":"rock"},"children":{"rock":{"water_level":"covers"}},"osm_tags":{"seamark:rock:water_level":"covers","seamark:type":"rock"}}},{"type":"Feature","geometry":{"type":"Point","coordinates":[119.9288696,11.7211465]},"properties":{"osm_id":4021082860,"osm_type":"node","seamark_type":"rock","display_class":"OTHER","min_zoom":12,"importance":1,"name":null,"ref":null,"common":{"type":"rock"},"children":{"rock":{"water_level":"covers"}},"osm_tags":{"seamark:rock:water_level":"covers","seamark:type":"rock"}}},{"type":"Feature","geometry":{"type":"Point","coordinates":[119.9286682,11.7213647]},"properties":{"osm_id":4021082861,"osm_type":"node","seamark_type":"rock","display_class":"OTHER","min_zoom":12,"importance":1,"name":null,"ref":null,"common":{"type":"rock"},"children":{"rock":{"water_level":"covers"}},"osm_tags":{"seamark:rock:water_level":"covers","seamark:type":"rock"}}},{"type":"Feature","geometry":{"type":"Point","coordinates":[119.9282696,11.7216375]},"properties":{"osm_id":4021082862,"osm_type":"node","seamark_type":"rock","display_class":"OTHER","min_zoom":12,"importance":1,"name":null,"ref":null,"common":{"type":"rock"},"children":{"rock":{"water_level":"covers"}},"osm_tags":{"seamark:rock:water_level":"covers","seamark:type":"rock"}}},{"type":"Feature","geometry":{"type":"Point","coordinates":[119.9291739,11.7218221]},"properties":{"osm_id":4021082863,"osm_type":"node","seamark_type":"rock","display_class":"OTHER","min_zoom":12,"importance":1,"name":null,"ref":null,"common":{"type":"rock"},"children":{"rock":{"water_level":"covers"}},"osm_tags":{"seamark:rock:water_level":"covers","seamark:type":"rock"}}},{"type":"Feature","geometry":{"type":"Point","coordinates":[119.9290839,11.7219187]},"properties":{"osm_id":4021082864,"osm_type":"node","seamark_type":"rock","display_class":"OTHER","min_zoom":12,"importance":1,"name":null,"ref":null,"common":{"type":"rock"},"children":{"rock":{"water_level":"covers"}},"osm_tags":{"seamark:rock:water_level":"covers","seamark:type":"rock"}}},{"type":"Feature","geometry":{"type":"Point","coordinates":[119.9292853,11.7221411]},"properties":{"osm_id":4021082865,"osm_type":"node","seamark_type":"rock","display_class":"OTHER","min_zoom":12,"importance":1,"name":null,"ref":null,"common":{"type":"rock"},"children":{"rock":{"water_level":"covers"}},"osm_tags":{"seamark:rock:water_level":"covers","seamark:type":"rock"}}},{"type":"Feature","geometry":{"type":"Point","coordinates":[119.9287882,11.7236685]},"properties":{"osm_id":4021082866,"osm_type":"node","seamark_type":"rock","display_class":"OTHER","min_zoom":12,"importance":1,"name":null,"ref":null,"common":{"type":"rock"},"children":{"rock":{"water_level":"covers"}},"osm_tags":{"seamark:rock:water_level":"covers","seamark:type":"rock"}}},{"type":"Feature","geometry":{"type":"Point","coordinates":[119.9293967,11.7237063]},"properties":{"osm_id":4021082867,"osm_type":"node","seamark_type":"rock","display_class":"OTHER","min_zoom":12,"importance":1,"name":null,"ref":null,"common":{"type":"rock"},"children":{"rock":{"water_level":"covers"}},"osm_tags":{"seamark:rock:water_level":"covers","seamark:type":"rock"}}},{"type":"Feature","geometry":{"type":"Point","coordinates":[119.9300867,11.7237566]},"properties":{"osm_id":4021082868,"osm_type":"node","seamark_type":"rock","display_class":"OTHER","min_zoom":12,"importance":1,"name":null,"ref":null,"common":{"type":"rock"},"children":{"rock":{"water_level":"covers"}},"osm_tags":{"seamark:rock:water_level":"covers","seamark:type":"rock"}}},{"type":"Feature","geometry":{"type":"Point","coordinates":[119.9370278,11.7244611]},"properties":{"osm_id":4021082869,"osm_type":"node","seamark_type":"rock","display_class":"OTHER","min_zoom":12,"importance":1,"name":null,"ref":null,"common":{"type":"rock"},"children":{"rock":{"water_level":"covers"}},"osm_tags":{"seamark:rock:water_level":"covers","seamark:type":"rock"}}},{"type":"Feature","geometry":{"type":"Point","coordinates":[119.928771,11.726459]},"properties":{"osm_id":4021082870,"osm_type":"node","seamark_type":"rock","display_class":"OTHER","min_zoom":12,"importance":1,"name":null,"ref":null,"common":{"type":"rock"},"children":{"rock":{"water_level":"covers"}},"osm_tags":{"seamark:rock:water_level":"covers","seamark:type":"rock"}}},{"type":"Feature","geometry":{"type":"Point","coordinates":[119.9282139,11.7287417]},"properties":{"osm_id":4021082871,"osm_type":"node","seamark_type":"rock","display_class":"OTHER","min_zoom":12,"importance":1,"name":null,"ref":null,"common":{"type":"rock"},"children":{"rock":{"water_level":"covers"}},"osm_tags":{"seamark:rock:water_level":"covers","seamark:type":"rock"}}},{"type":"Feature","geometry":{"type":"Point","coordinates":[119.9279696,11.7290354]},"properties":{"osm_id":4021082872,"osm_type":"node","seamark_type":"rock","display_class":"OTHER","min_zoom":12,"importance":1,"name":null,"ref":null,"common":{"type":"rock"},"children":{"rock":{"water_level":"covers"}},"osm_tags":{"seamark:rock:water_level":"covers","seamark:type":"rock"}}},{"type":"Feature","geometry":{"type":"Point","coordinates":[119.9277253,11.7299838]},"properties":{"osm_id":4021082873,"osm_type":"node","seamark_type":"rock","display_class":"OTHER","min_zoom":12,"importance":1,"name":null,"ref":null,"common":{"type":"rock"},"children":{"rock":{"water_level":"covers"}},"osm_tags":{"seamark:rock:water_level":"covers","seamark:type":"rock"}}},{"type":"Feature","geometry":{"type":"Point","coordinates":[119.9268682,11.7346792]},"properties":{"osm_id":4021082874,"osm_type":"node","seamark_type":"rock","display_class":"OTHER","min_zoom":12,"importance":1,"name":null,"ref":null,"common":{"type":"rock"},"children":{"rock":{"water_level":"covers"}},"osm_tags":{"seamark:rock:water_level":"covers","seamark:type":"rock"}}},{"type":"Feature","geometry":{"type":"Point","coordinates":[119.9266325,11.7349016]},"properties":{"osm_id":4021082875,"osm_type":"node","seamark_type":"rock","display_class":"OTHER","min_zoom":12,"importance":1,"name":null,"ref":null,"common":{"type":"rock"},"children":{"rock":{"water_level":"covers"}},"osm_tags":{"seamark:rock:water_level":"covers","seamark:type":"rock"}}},{"type":"Feature","geometry":{"type":"Point","coordinates":[119.9266368,11.7350904]},"properties":{"osm_id":4021082876,"osm_type":"node","seamark_type":"rock","display_class":"OTHER","min_zoom":12,"importance":1,"name":null,"ref":null,"common":{"type":"rock"},"children":{"rock":{"water_level":"covers"}},"osm_tags":{"seamark:rock:water_level":"covers","seamark:type":"rock"}}},{"type":"Feature","geometry":{"type":"Point","coordinates":[119.9265296,11.7372724]},"properties":{"osm_id":4021082877,"osm_type":"node","seamark_type":"rock","display_class":"OTHER","min_zoom":12,"importance":1,"name":null,"ref":null,"common":{"type":"rock"},"children":{"rock":{"water_level":"covers"}},"osm_tags":{"seamark:rock:water_level":"covers","seamark:type":"rock"}}},{"type":"Feature","geometry":{"type":"Point","coordinates":[119.9266368,11.7379647]},"properties":{"osm_id":4021082878,"osm_type":"node","seamark_type":"rock","display_class":"OTHER","min_zoom":12,"importance":1,"name":null,"ref":null,"common":{"type":"rock"},"children":{"rock":{"water_level":"covers"}},"osm_tags":{"seamark:rock:water_level":"covers","seamark:type":"rock"}}},{"type":"Feature","geometry":{"type":"Point","coordinates":[119.9255954,11.7404823]},"properties":{"osm_id":4021082879,"osm_type":"node","seamark_type":"rock","display_class":"OTHER","min_zoom":12,"importance":1,"name":null,"ref":null,"common":{"type":"rock"},"children":{"rock":{"water_level":"covers"}},"osm_tags":{"seamark:rock:water_level":"covers","seamark:type":"rock"}}},{"type":"Feature","geometry":{"type":"Point","coordinates":[119.9234954,11.7450979]},"properties":{"osm_id":4021082880,"osm_type":"node","seamark_type":"rock","display_class":"OTHER","min_zoom":12,"importance":1,"name":null,"ref":null,"common":{"type":"rock"},"children":{"rock":{"water_level":"covers"}},"osm_tags":{"seamark:rock:water_level":"covers","seamark:type":"rock"}}},{"type":"Feature","geometry":{"type":"Point","coordinates":[119.9315524,11.7479049]},"properties":{"osm_id":4021082881,"osm_type":"node","seamark_type":"rock","display_class":"OTHER","min_zoom":12,"importance":1,"name":null,"ref":null,"common":{"type":"rock"},"children":{"rock":{"water_level":"covers"}},"osm_tags":{"seamark:rock:water_level":"covers","seamark:type":"rock"}}},{"type":"Feature","geometry":{"type":"Point","coordinates":[119.931501,11.7481861]},"properties":{"osm_id":4021082882,"osm_type":"node","seamark_type":"rock","display_class":"OTHER","min_zoom":12,"importance":1,"name":null,"ref":null,"common":{"type":"rock"},"children":{"rock":{"water_level":"covers"}},"osm_tags":{"seamark:rock:water_level":"covers","seamark:type":"rock"}}},{"type":"Feature","geometry":{"type":"Point","coordinates":[119.9684806,11.7568154]},"properties":{"osm_id":4023255668,"osm_type":"node","seamark_type":"rock","display_class":"OTHER","min_zoom":12,"importance":1,"name":null,"ref":null,"common":{"type":"rock"},"children":{"rock":{"water_level":"covers"}},"osm_tags":{"seamark:rock:water_level":"covers","seamark:type":"rock"}}},{"type":"Feature","geometry":{"type":"Point","coordinates":[119.9693173,11.757035]},"properties":{"osm_id":4023255670,"osm_type":"node","seamark_type":"rock","display_class":"OTHER","min_zoom":12,"importance":1,"name":null,"ref":null,"common":{"type":"rock"},"children":{"rock":{"water_level":"covers"}},"osm_tags":{"seamark:rock:water_level":"covers","seamark:type":"rock"}}},{"type":"Feature","geometry":{"type":"Point","coordinates":[119.954652,11.7607153]},"properties":{"osm_id":4023255682,"osm_type":"node","seamark_type":"rock","display_class":"OTHER","min_zoom":12,"importance":1,"name":null,"ref":null,"common":{"type":"rock"},"children":{"rock":{"water_level":"covers"}},"osm_tags":{"seamark:rock:water_level":"covers","seamark:type":"rock"}}},{"type":"Feature","geometry":{"type":"Point","coordinates":[119.9313624,11.7598162]},"properties":{"osm_id":4032388962,"osm_type":"node","seamark_type":"rock","display_class":"OTHER","min_zoom":12,"importance":1,"name":null,"ref":null,"common":{"type":"rock"},"children":{"rock":{"water_level":"covers"}},"osm_tags":{"seamark:rock:water_level":"covers","seamark:type":"rock"}}},{"type":"Feature","geometry":{"type":"Point","coordinates":[119.9303432,11.7599632]},"properties":{"osm_id":4032388963,"osm_type":"node","seamark_type":"rock","display_class":"OTHER","min_zoom":12,"importance":1,"name":null,"ref":null,"common":{"type":"rock"},"children":{"rock":{"water_level":"covers"}},"osm_tags":{"seamark:rock:water_level":"covers","seamark:type":"rock"}}},{"type":"Feature","geometry":{"type":"Point","coordinates":[119.9290772,11.7600577]},"properties":{"osm_id":4032388964,"osm_type":"node","seamark_type":"rock","display_class":"OTHER","min_zoom":12,"importance":1,"name":null,"ref":null,"common":{"type":"rock"},"children":{"rock":{"water_level":"covers"}},"osm_tags":{"seamark:rock:water_level":"covers","seamark:type":"rock"}}},{"type":"Feature","geometry":{"type":"Point","coordinates":[119.926513,11.7614652]},"properties":{"osm_id":4032388969,"osm_type":"node","seamark_type":"rock","display_class":"OTHER","min_zoom":12,"importance":1,"name":null,"ref":null,"common":{"type":"rock"},"children":{"rock":{"water_level":"covers"}},"osm_tags":{"seamark:rock:water_level":"covers","seamark:type":"rock"}}},{"type":"Feature","geometry":{"type":"Point","coordinates":[119.9256225,11.762148]},"properties":{"osm_id":4032388971,"osm_type":"node","seamark_type":"rock","display_class":"OTHER","min_zoom":12,"importance":1,"name":null,"ref":null,"common":{"type":"rock"},"children":{"rock":{"water_level":"covers"}},"osm_tags":{"seamark:rock:water_level":"covers","seamark:type":"rock"}}},{"type":"Feature","geometry":{"type":"Point","coordinates":[119.9248607,11.7635449]},"properties":{"osm_id":4032388982,"osm_type":"node","seamark_type":"rock","display_class":"OTHER","min_zoom":12,"importance":1,"name":null,"ref":null,"common":{"type":"rock"},"children":{"rock":{"water_level":"covers"}},"osm_tags":{"seamark:rock:water_level":"covers","seamark:type":"rock"}}},{"type":"Feature","geometry":{"type":"Point","coordinates":[119.923702,11.7661078]},"properties":{"osm_id":4032388988,"osm_type":"node","seamark_type":"rock","display_class":"OTHER","min_zoom":12,"importance":1,"name":null,"ref":null,"common":{"type":"rock"},"children":{"rock":{"water_level":"covers"}},"osm_tags":{"seamark:rock:water_level":"covers","seamark:type":"rock"}}},{"type":"Feature","geometry":{"type":"Point","coordinates":[119.922951,11.7666119]},"properties":{"osm_id":4032389290,"osm_type":"node","seamark_type":"rock","display_class":"OTHER","min_zoom":12,"importance":1,"name":null,"ref":null,"common":{"type":"rock"},"children":{"rock":{"water_level":"covers"}},"osm_tags":{"seamark:rock:water_level":"covers","seamark:type":"rock"}}},{"type":"Feature","geometry":{"type":"Point","coordinates":[119.921685,11.7673682]},"properties":{"osm_id":4032389291,"osm_type":"node","seamark_type":"rock","display_class":"OTHER","min_zoom":12,"importance":1,"name":null,"ref":null,"common":{"type":"rock"},"children":{"rock":{"water_level":"covers"}},"osm_tags":{"seamark:rock:water_level":"covers","seamark:type":"rock"}}},{"type":"Feature","geometry":{"type":"Point","coordinates":[119.9233694,11.7706872]},"properties":{"osm_id":4032389293,"osm_type":"node","seamark_type":"rock","display_class":"OTHER","min_zoom":12,"importance":1,"name":null,"ref":null,"common":{"type":"rock"},"children":{"rock":{"water_level":"covers"}},"osm_tags":{"seamark:rock:water_level":"covers","seamark:type":"rock"}}},{"type":"Feature","geometry":{"type":"Point","coordinates":[119.9245711,11.7735126]},"properties":{"osm_id":4032389296,"osm_type":"node","seamark_type":"rock","display_class":"OTHER","min_zoom":12,"importance":1,"name":null,"ref":null,"common":{"type":"rock"},"children":{"rock":{"water_level":"covers"}},"osm_tags":{"seamark:rock:water_level":"covers","seamark:type":"rock"}}},{"type":"Feature","geometry":{"type":"Point","coordinates":[119.9200006,11.7813478]},"properties":{"osm_id":4032389299,"osm_type":"node","seamark_type":"rock","display_class":"OTHER","min_zoom":12,"importance":1,"name":null,"ref":null,"common":{"type":"rock"},"children":{"rock":{"water_level":"covers"}},"osm_tags":{"seamark:rock:water_level":"covers","seamark:type":"rock"}}},{"type":"Feature","geometry":{"type":"Point","coordinates":[119.9137027,11.7871033]},"properties":{"osm_id":4032389300,"osm_type":"node","seamark_type":"rock","display_class":"OTHER","min_zoom":12,"importance":1,"name":null,"ref":null,"common":{"type":"rock"},"children":{"rock":{"water_level":"covers"}},"osm_tags":{"seamark:rock:water_level":"covers","seamark:type":"rock"}}},{"type":"Feature","geometry":{"type":"Point","coordinates":[119.9129946,11.7877964]},"properties":{"osm_id":4032389301,"osm_type":"node","seamark_type":"rock","display_class":"OTHER","min_zoom":12,"importance":1,"name":null,"ref":null,"common":{"type":"rock"},"children":{"rock":{"water_level":"covers"}},"osm_tags":{"seamark:rock:water_level":"covers","seamark:type":"rock"}}},{"type":"Feature","geometry":{"type":"Point","coordinates":[119.912705,11.7882376]},"properties":{"osm_id":4032389302,"osm_type":"node","seamark_type":"rock","display_class":"OTHER","min_zoom":12,"importance":1,"name":null,"ref":null,"common":{"type":"rock"},"children":{"rock":{"water_level":"covers"}},"osm_tags":{"seamark:rock:water_level":"covers","seamark:type":"rock"}}},{"type":"Feature","geometry":{"type":"Point","coordinates":[119.9076624,11.7916929]},"properties":{"osm_id":4032389303,"osm_type":"node","seamark_type":"rock","display_class":"OTHER","min_zoom":12,"importance":1,"name":null,"ref":null,"common":{"type":"rock"},"children":{"rock":{"water_level":"covers"}},"osm_tags":{"seamark:rock:water_level":"covers","seamark:type":"rock"}}},{"type":"Feature","geometry":{"type":"Point","coordinates":[119.906847,11.7919974]},"properties":{"osm_id":4032389304,"osm_type":"node","seamark_type":"rock","display_class":"OTHER","min_zoom":12,"importance":1,"name":null,"ref":null,"common":{"type":"rock"},"children":{"rock":{"water_level":"covers"}},"osm_tags":{"seamark:rock:water_level":"covers","seamark:type":"rock"}}},{"type":"Feature","geometry":{"type":"Point","coordinates":[119.9072333,11.7940664]},"properties":{"osm_id":4032389308,"osm_type":"node","seamark_type":"rock","display_class":"OTHER","min_zoom":12,"importance":1,"name":null,"ref":null,"common":{"type":"rock"},"children":{"rock":{"water_level":"covers"}},"osm_tags":{"seamark:rock:water_level":"covers","seamark:type":"rock"}}},{"type":"Feature","geometry":{"type":"Point","coordinates":[119.9069758,11.7942134]},"properties":{"osm_id":4032389309,"osm_type":"node","seamark_type":"rock","display_class":"OTHER","min_zoom":12,"importance":1,"name":null,"ref":null,"common":{"type":"rock"},"children":{"rock":{"water_level":"covers"}},"osm_tags":{"seamark:rock:water_level":"covers","seamark:type":"rock"}}},{"type":"Feature","geometry":{"type":"Point","coordinates":[119.9066324,11.7943185]},"properties":{"osm_id":4032389310,"osm_type":"node","seamark_type":"rock","display_class":"OTHER","min_zoom":12,"importance":1,"name":null,"ref":null,"common":{"type":"rock"},"children":{"rock":{"water_level":"covers"}},"osm_tags":{"seamark:rock:water_level":"covers","seamark:type":"rock"}}},{"type":"Feature","geometry":{"type":"Point","coordinates":[119.9084993,11.7957153]},"properties":{"osm_id":4032389311,"osm_type":"node","seamark_type":"rock","display_class":"OTHER","min_zoom":12,"importance":1,"name":null,"ref":null,"common":{"type":"rock"},"children":{"rock":{"water_level":"covers"}},"osm_tags":{"seamark:rock:water_level":"covers","seamark:type":"rock"}}},{"type":"Feature","geometry":{"type":"Point","coordinates":[119.9080594,11.7960303]},"properties":{"osm_id":4032389313,"osm_type":"node","seamark_type":"rock","display_class":"OTHER","min_zoom":12,"importance":1,"name":null,"ref":null,"common":{"type":"rock"},"children":{"rock":{"water_level":"covers"}},"osm_tags":{"seamark:rock:water_level":"covers","seamark:type":"rock"}}},{"type":"Feature","geometry":{"type":"Point","coordinates":[119.9076624,11.7963454]},"properties":{"osm_id":4032389314,"osm_type":"node","seamark_type":"rock","display_class":"OTHER","min_zoom":12,"importance":1,"name":null,"ref":null,"common":{"type":"rock"},"children":{"rock":{"water_level":"covers"}},"osm_tags":{"seamark:rock:water_level":"covers","seamark:type":"rock"}}},{"type":"Feature","geometry":{"type":"Point","coordinates":[119.9046476,11.7987399]},"properties":{"osm_id":4032389315,"osm_type":"node","seamark_type":"rock","display_class":"OTHER","min_zoom":12,"importance":1,"name":null,"ref":null,"common":{"type":"rock"},"children":{"rock":{"water_level":"covers"}},"osm_tags":{"seamark:rock:water_level":"covers","seamark:type":"rock"}}},{"type":"Feature","geometry":{"type":"Point","coordinates":[119.9025662,11.8183362]},"properties":{"osm_id":4032389351,"osm_type":"node","seamark_type":"rock","display_class":"OTHER","min_zoom":12,"importance":1,"name":null,"ref":null,"common":{"type":"rock"},"children":{"rock":{"water_level":"covers"}},"osm_tags":{"seamark:rock:water_level":"covers","seamark:type":"rock"}}},{"type":"Feature","geometry":{"type":"Point","coordinates":[119.8976631,11.8247105]},"properties":{"osm_id":4032389358,"osm_type":"node","seamark_type":"rock","display_class":"OTHER","min_zoom":12,"importance":1,"name":null,"ref":null,"common":{"type":"rock"},"children":{"rock":{"water_level":"covers"}},"osm_tags":{"seamark:rock:water_level":"covers","seamark:type":"rock"}}},{"type":"Feature","geometry":{"type":"Point","coordinates":[119.8986824,11.8249625]},"properties":{"osm_id":4032389360,"osm_type":"node","seamark_type":"rock","display_class":"OTHER","min_zoom":12,"importance":1,"name":null,"ref":null,"common":{"type":"rock"},"children":{"rock":{"water_level":"covers"}},"osm_tags":{"seamark:rock:water_level":"covers","seamark:type":"rock"}}},{"type":"Feature","geometry":{"type":"Point","coordinates":[119.8936506,11.8298455]},"properties":{"osm_id":4032389378,"osm_type":"node","seamark_type":"rock","display_class":"OTHER","min_zoom":12,"importance":1,"name":null,"ref":null,"common":{"type":"rock"},"children":{"rock":{"water_level":"covers"}},"osm_tags":{"seamark:rock:water_level":"covers","seamark:type":"rock"}}},{"type":"Feature","geometry":{"type":"Point","coordinates":[119.8931999,11.8302131]},"properties":{"osm_id":4032389380,"osm_type":"node","seamark_type":"rock","display_class":"OTHER","min_zoom":12,"importance":1,"name":null,"ref":null,"common":{"type":"rock"},"children":{"rock":{"water_level":"covers"}},"osm_tags":{"seamark:rock:water_level":"covers","seamark:type":"rock"}}},{"type":"Feature","geometry":{"type":"Point","coordinates":[119.8938759,11.8310216]},"properties":{"osm_id":4032389381,"osm_type":"node","seamark_type":"rock","display_class":"OTHER","min_zoom":12,"importance":1,"name":null,"ref":null,"common":{"type":"rock"},"children":{"rock":{"water_level":"covers"}},"osm_tags":{"seamark:rock:water_level":"covers","seamark:type":"rock"}}},{"type":"Feature","geometry":{"type":"Point","coordinates":[119.8933823,11.8312527]},"properties":{"osm_id":4032389382,"osm_type":"node","seamark_type":"rock","display_class":"OTHER","min_zoom":12,"importance":1,"name":null,"ref":null,"common":{"type":"rock"},"children":{"rock":{"water_level":"covers"}},"osm_tags":{"seamark:rock:water_level":"covers","seamark:type":"rock"}}},{"type":"Feature","geometry":{"type":"Point","coordinates":[119.8941119,11.8327018]},"properties":{"osm_id":4032389389,"osm_type":"node","seamark_type":"rock","display_class":"OTHER","min_zoom":12,"importance":1,"name":null,"ref":null,"common":{"type":"rock"},"children":{"rock":{"water_level":"covers"}},"osm_tags":{"seamark:rock:water_level":"covers","seamark:type":"rock"}}},{"type":"Feature","geometry":{"type":"Point","coordinates":[119.89585,11.8389812]},"properties":{"osm_id":4032389411,"osm_type":"node","seamark_type":"rock","display_class":"OTHER","min_zoom":12,"importance":1,"name":null,"ref":null,"common":{"type":"rock"},"children":{"rock":{"water_level":"covers"}},"osm_tags":{"seamark:rock:water_level":"covers","seamark:type":"rock"}}},{"type":"Feature","geometry":{"type":"Point","coordinates":[119.3888935,11.1836135]},"properties":{"osm_id":14073858248,"osm_type":"node","seamark_type":"buoy_lateral","display_class":"OTHER","min_zoom":12,"importance":1,"name":null,"ref":null,"common":{"type":"buoy_lateral"},"children":{"buoy_lateral":{"category":"channel_left","colour":"green"}},"osm_tags":{"seamark:buoy_lateral:category":"channel_left","seamark:buoy_lateral:colour":"green","seamark:type":"buoy_lateral"}}},{"type":"Feature","geometry":{"type":"Point","coordinates":[119.3875517,11.183833]},"properties":{"osm_id":14073858249,"osm_type":"node","seamark_type":"buoy_lateral","display_class":"OTHER","min_zoom":12,"importance":1,"name":null,"ref":null,"common":{"type":"buoy_lateral"},"children":{"buoy_lateral":{"category":"channel_right","colour":"red"}},"osm_tags":{"seamark:buoy_lateral:category":"channel_right","seamark:buoy_lateral:colour":"red","seamark:type":"buoy_lateral"}}},{"type":"Feature","geometry":{"type":"Point","coordinates":[119.3884528,11.1825785]},"properties":{"osm_id":14073858250,"osm_type":"node","seamark_type":"buoy_lateral","display_class":"OTHER","min_zoom":12,"importance":1,"name":null,"ref":null,"common":{"type":"buoy_lateral"},"children":{"buoy_lateral":{"category":"channel_left","colour":"green","shape":"spar"}},"osm_tags":{"seamark:buoy_lateral:category":"channel_left","seamark:buoy_lateral:colour":"green","seamark:buoy_lateral:shape":"spar","seamark:type":"buoy_lateral"}}},{"type":"Feature","geometry":{"type":"Point","coordinates":[119.527117,11.3637328]},"properties":{"osm_id":13835126535,"osm_type":"node","seamark_type":"wreck","display_class":"OTHER","min_zoom":12,"importance":1,"name":"Sunken Shipwreck","ref":null,"common":{"type":"wreck"},"children":{"wreck":{"category":"distributed_remains"}},"osm_tags":{"access":"permissive","historic":"wreck","name":"Sunken Shipwreck","seamark:type":"wreck","seamark:wreck:category":"distributed_remains","wreck:visible_at_high_tide":"no","wreck:visible_at_low_tide":"yes"}}}],"type":"FeatureCollection"}