{"type":"FeatureCollection","features":[{"type":"Feature","geometry":{"type":"Polygon","coordinates":[[[120.4145758,12.6614545],[120.4145427,12.6614312],[120.414546,12.661389],[120.4145857,12.6613748],[120.4146185,12.6613996],[120.4146135,12.6614375],[120.4145758,12.6614545]]]},"properties":{"osm_id":261806218,"osm_type":"way","seamark_type":"light_major","display_class":"LIGHTHOUSE","min_zoom":7,"importance":5,"name":"Apo Island","ref":null,"common":{"name":"Apo Island","type":"light_major"},"children":{"light":{"character":"Fl","colour":"white","height":"35","period":"10","range":"17","reference":"F 2574"}},"osm_tags":{"addr:city":"Sablayan","building:material":"aluminum","man_made":"lighthouse","name":"Apo Island Lighthouse;Apo Reef Lighthouse","operator":"San Jose Station, Philippine Coast Guard","seamark:light:character":"Fl","seamark:light:colour":"white","seamark:light:height":"35","seamark:light:period":"10","seamark:light:range":"17","seamark:light:reference":"F 2574","seamark:name":"Apo Island","seamark:type":"light_major","source":"US NGA Pub. 112. 2009-11-12.","wikidata":"Q4780050","wikipedia":"en:Apo Reef Lighthouse"}}},{"type":"Feature","geometry":{"type":"Point","coordinates":[120.3925277,12.2210118]},"properties":{"osm_id":6911037629,"osm_type":"node","seamark_type":"light_minor","display_class":"LIGHTHOUSE","min_zoom":7,"importance":5,"name":"Bantac","ref":null,"common":{"name":"Bantac","type":"light_minor"},"children":{"light":{"character":"Fl","colour":"white","group":"3","period":"10"}},"osm_tags":{"addr:municipality":"Coron","addr:province":"Palawan","building:material":"glass_reinforced_plastic","man_made":"lighthouse","name":"Bantac Lighthouse","operator":"Coron Station, Philippine Coast Guard","ref:pcg":"PAL-019","seamark:light:character":"Fl","seamark:light:colour":"white","seamark:light:group":"3","seamark:light:period":"10","seamark:name":"Bantac","seamark:type":"light_minor","source":"Philippine Coast Guard, 2019 lighthouse masterlist","start_date":"1994-04-20"}}},{"type":"Feature","geometry":{"type":"Point","coordinates":[120.7660702,12.8297954]},"properties":{"osm_id":2671173470,"osm_type":"node","seamark_type":"light_major","display_class":"LIGHTHOUSE","min_zoom":7,"importance":5,"name":"Sablayan","ref":null,"common":{"name":"Sablayan","type":"light_major"},"children":{"light":{"character":"Fl","colour":"white","group":"3","period":"0"}},"osm_tags":{"addr:municipality":"Sablayan","addr:province":"Occidental Mindoro","building:material":"glass_reinforced_plastic","man_made":"lighthouse","name":"Sablayan Lighthouse","operator":"San Jose Station, Philippine Coast Guard","ref:pcg":"STL-058","seamark:light:character":"Fl","seamark:light:colour":"white","seamark:light:group":"3","seamark:light:period":"0","seamark:name":"Sablayan","seamark:type":"light_major","source":"Philippine Coast Guard, 2019 lighthouse masterlist"}}},{"type":"Feature","geometry":{"type":"Point","coordinates":[120.0784635,12.1987067]},"properties":{"osm_id":4053219427,"osm_type":"node","seamark_type":"rock","display_class":"OTHER","min_zoom":12,"importance":1,"name":null,"ref":null,"common":{"type":"rock"},"children":{"rock":{"water_level":"covers"}},"osm_tags":{"seamark:rock:water_level":"covers","seamark:type":"rock"}}},{"type":"Feature","geometry":{"type":"Point","coordinates":[120.0789034,12.1988692]},"properties":{"osm_id":4053219428,"osm_type":"node","seamark_type":"rock","display_class":"OTHER","min_zoom":12,"importance":1,"name":null,"ref":null,"common":{"type":"rock"},"children":{"rock":{"water_level":"covers"}},"osm_tags":{"seamark:rock:water_level":"covers","seamark:type":"rock"}}},{"type":"Feature","geometry":{"type":"Point","coordinates":[120.0628021,12.2082886]},"properties":{"osm_id":4053219429,"osm_type":"node","seamark_type":"rock","display_class":"OTHER","min_zoom":12,"importance":1,"name":null,"ref":null,"common":{"type":"rock"},"children":{"rock":{"water_level":"covers"}},"osm_tags":{"seamark:rock:water_level":"covers","seamark:type":"rock"}}},{"type":"Feature","geometry":{"type":"Point","coordinates":[120.0613899,12.2107122]},"properties":{"osm_id":4053219430,"osm_type":"node","seamark_type":"rock","display_class":"OTHER","min_zoom":12,"importance":1,"name":null,"ref":null,"common":{"type":"rock"},"children":{"rock":{"water_level":"covers"}},"osm_tags":{"seamark:rock:water_level":"covers","seamark:type":"rock"}}},{"type":"Feature","geometry":{"type":"Point","coordinates":[120.0601937,12.213162]},"properties":{"osm_id":4053219431,"osm_type":"node","seamark_type":"rock","display_class":"OTHER","min_zoom":12,"importance":1,"name":null,"ref":null,"common":{"type":"rock"},"children":{"rock":{"water_level":"covers"}},"osm_tags":{"seamark:rock:water_level":"covers","seamark:type":"rock"}}},{"type":"Feature","geometry":{"type":"Point","coordinates":[120.0529061,12.2272784]},"properties":{"osm_id":4053219432,"osm_type":"node","seamark_type":"rock","display_class":"OTHER","min_zoom":12,"importance":1,"name":null,"ref":null,"common":{"type":"rock"},"children":{"rock":{"water_level":"covers"}},"osm_tags":{"seamark:rock:water_level":"covers","seamark:type":"rock"}}},{"type":"Feature","geometry":{"type":"Point","coordinates":[120.051691,12.2316299]},"properties":{"osm_id":4053219433,"osm_type":"node","seamark_type":"rock","display_class":"OTHER","min_zoom":12,"importance":1,"name":null,"ref":null,"common":{"type":"rock"},"children":{"rock":{"water_level":"covers"}},"osm_tags":{"seamark:rock:water_level":"covers","seamark:type":"rock"}}},{"type":"Feature","geometry":{"type":"Point","coordinates":[120.0508327,12.2325683]},"properties":{"osm_id":4053219434,"osm_type":"node","seamark_type":"rock","display_class":"OTHER","min_zoom":12,"importance":1,"name":null,"ref":null,"common":{"type":"rock"},"children":{"rock":{"water_level":"covers"}},"osm_tags":{"seamark:rock:water_level":"covers","seamark:type":"rock"}}},{"type":"Feature","geometry":{"type":"Point","coordinates":[120.0507791,12.2330978]},"properties":{"osm_id":4053219435,"osm_type":"node","seamark_type":"rock","display_class":"OTHER","min_zoom":12,"importance":1,"name":null,"ref":null,"common":{"type":"rock"},"children":{"rock":{"water_level":"covers"}},"osm_tags":{"seamark:rock:water_level":"covers","seamark:type":"rock"}}},{"type":"Feature","geometry":{"type":"Point","coordinates":[120.0839218,12.2366221]},"properties":{"osm_id":4053219436,"osm_type":"node","seamark_type":"rock","display_class":"OTHER","min_zoom":12,"importance":1,"name":null,"ref":null,"common":{"type":"rock"},"children":{"rock":{"water_level":"covers"}},"osm_tags":{"seamark:rock:water_level":"covers","seamark:type":"rock"}}},{"type":"Feature","geometry":{"type":"Point","coordinates":[120.0835973,12.2371464]},"properties":{"osm_id":4053219437,"osm_type":"node","seamark_type":"rock","display_class":"OTHER","min_zoom":12,"importance":1,"name":null,"ref":null,"common":{"type":"rock"},"children":{"rock":{"water_level":"covers"}},"osm_tags":{"seamark:rock:water_level":"covers","seamark:type":"rock"}}},{"type":"Feature","geometry":{"type":"Point","coordinates":[120.049041,12.2376012]},"properties":{"osm_id":4053219438,"osm_type":"node","seamark_type":"rock","display_class":"OTHER","min_zoom":12,"importance":1,"name":null,"ref":null,"common":{"type":"rock"},"children":{"rock":{"water_level":"covers"}},"osm_tags":{"seamark:rock:water_level":"covers","seamark:type":"rock"}}},{"type":"Feature","geometry":{"type":"Point","coordinates":[120.0487513,12.2394623]},"properties":{"osm_id":4053219439,"osm_type":"node","seamark_type":"rock","display_class":"OTHER","min_zoom":12,"importance":1,"name":null,"ref":null,"common":{"type":"rock"},"children":{"rock":{"water_level":"covers"}},"osm_tags":{"seamark:rock:water_level":"covers","seamark:type":"rock"}}},{"type":"Feature","geometry":{"type":"Point","coordinates":[120.0475014,12.2413338]},"properties":{"osm_id":4053219440,"osm_type":"node","seamark_type":"rock","display_class":"OTHER","min_zoom":12,"importance":1,"name":null,"ref":null,"common":{"type":"rock"},"children":{"rock":{"water_level":"covers"}},"osm_tags":{"seamark:rock:water_level":"covers","seamark:type":"rock"}}},{"type":"Feature","geometry":{"type":"Point","coordinates":[120.0456561,12.2429747]},"properties":{"osm_id":4053219441,"osm_type":"node","seamark_type":"rock","display_class":"OTHER","min_zoom":12,"importance":1,"name":null,"ref":null,"common":{"type":"rock"},"children":{"rock":{"water_level":"covers"}},"osm_tags":{"seamark:rock:water_level":"covers","seamark:type":"rock"}}},{"type":"Feature","geometry":{"type":"Point","coordinates":[120.0454576,12.243326]},"properties":{"osm_id":4053219442,"osm_type":"node","seamark_type":"rock","display_class":"OTHER","min_zoom":12,"importance":1,"name":null,"ref":null,"common":{"type":"rock"},"children":{"rock":{"water_level":"covers"}},"osm_tags":{"seamark:rock:water_level":"covers","seamark:type":"rock"}}},{"type":"Feature","geometry":{"type":"Point","coordinates":[120.0449533,12.2433522]},"properties":{"osm_id":4053219443,"osm_type":"node","seamark_type":"rock","display_class":"OTHER","min_zoom":12,"importance":1,"name":null,"ref":null,"common":{"type":"rock"},"children":{"rock":{"water_level":"covers"}},"osm_tags":{"seamark:rock:water_level":"covers","seamark:type":"rock"}}},{"type":"Feature","geometry":{"type":"Point","coordinates":[120.0453664,12.2436405]},"properties":{"osm_id":4053219444,"osm_type":"node","seamark_type":"rock","display_class":"OTHER","min_zoom":12,"importance":1,"name":null,"ref":null,"common":{"type":"rock"},"children":{"rock":{"water_level":"covers"}},"osm_tags":{"seamark:rock:water_level":"covers","seamark:type":"rock"}}},{"type":"Feature","geometry":{"type":"Point","coordinates":[120.099071,12.2655607]},"properties":{"osm_id":4053219445,"osm_type":"node","seamark_type":"rock","display_class":"OTHER","min_zoom":12,"importance":1,"name":null,"ref":null,"common":{"type":"rock"},"children":{"rock":{"water_level":"covers"}},"osm_tags":{"seamark:rock:water_level":"covers","seamark:type":"rock"}}},{"type":"Feature","geometry":{"type":"Point","coordinates":[120.0963297,12.2688592]},"properties":{"osm_id":4053219446,"osm_type":"node","seamark_type":"rock","display_class":"OTHER","min_zoom":12,"importance":1,"name":null,"ref":null,"common":{"type":"rock"},"children":{"rock":{"water_level":"covers"}},"osm_tags":{"seamark:rock:water_level":"covers","seamark:type":"rock"}}},{"type":"Feature","geometry":{"type":"Point","coordinates":[120.088782,12.2721052]},"properties":{"osm_id":4053219448,"osm_type":"node","seamark_type":"rock","display_class":"OTHER","min_zoom":12,"importance":1,"name":null,"ref":null,"common":{"type":"rock"},"children":{"rock":{"water_level":"covers"}},"osm_tags":{"seamark:rock:water_level":"covers","seamark:type":"rock"}}},{"type":"Feature","geometry":{"type":"Point","coordinates":[120.0892755,12.2722677]},"properties":{"osm_id":4053219450,"osm_type":"node","seamark_type":"rock","display_class":"OTHER","min_zoom":12,"importance":1,"name":null,"ref":null,"common":{"type":"rock"},"children":{"rock":{"water_level":"covers"}},"osm_tags":{"seamark:rock:water_level":"covers","seamark:type":"rock"}}},{"type":"Feature","geometry":{"type":"Point","coordinates":[120.2124627,12.1734262]},"properties":{"osm_id":4053238983,"osm_type":"node","seamark_type":"rock","display_class":"OTHER","min_zoom":12,"importance":1,"name":null,"ref":null,"common":{"type":"rock"},"children":{"rock":{"water_level":"covers"}},"osm_tags":{"seamark:rock:water_level":"covers","seamark:type":"rock"}}},{"type":"Feature","geometry":{"type":"Point","coordinates":[120.2153675,12.1854814]},"properties":{"osm_id":4053239392,"osm_type":"node","seamark_type":"rock","display_class":"OTHER","min_zoom":12,"importance":1,"name":null,"ref":null,"common":{"type":"rock"},"children":{"rock":{"water_level":"covers"}},"osm_tags":{"seamark:rock:water_level":"covers","seamark:type":"rock"}}},{"type":"Feature","geometry":{"type":"Point","coordinates":[120.2156813,12.1856545]},"properties":{"osm_id":4053239394,"osm_type":"node","seamark_type":"rock","display_class":"OTHER","min_zoom":12,"importance":1,"name":null,"ref":null,"common":{"type":"rock"},"children":{"rock":{"water_level":"covers"}},"osm_tags":{"seamark:rock:water_level":"covers","seamark:type":"rock"}}},{"type":"Feature","geometry":{"type":"Point","coordinates":[120.2236046,12.2081025]},"properties":{"osm_id":4053239419,"osm_type":"node","seamark_type":"rock","display_class":"OTHER","min_zoom":12,"importance":1,"name":null,"ref":null,"common":{"type":"rock"},"children":{"rock":{"water_level":"covers"}},"osm_tags":{"seamark:rock:water_level":"covers","seamark:type":"rock"}}},{"type":"Feature","geometry":{"type":"Point","coordinates":[120.2236743,12.2084485]},"properties":{"osm_id":4053239420,"osm_type":"node","seamark_type":"rock","display_class":"OTHER","min_zoom":12,"importance":1,"name":null,"ref":null,"common":{"type":"rock"},"children":{"rock":{"water_level":"covers"}},"osm_tags":{"seamark:rock:water_level":"covers","seamark:type":"rock"}}},{"type":"Feature","geometry":{"type":"Point","coordinates":[120.2183394,12.2109573]},"properties":{"osm_id":4053239429,"osm_type":"node","seamark_type":"rock","display_class":"OTHER","min_zoom":12,"importance":1,"name":null,"ref":null,"common":{"type":"rock"},"children":{"rock":{"water_level":"covers"}},"osm_tags":{"seamark:rock:water_level":"covers","seamark:type":"rock"}}},{"type":"Feature","geometry":{"type":"Point","coordinates":[120.2127376,12.2256807]},"properties":{"osm_id":4053239445,"osm_type":"node","seamark_type":"rock","display_class":"OTHER","min_zoom":12,"importance":1,"name":null,"ref":null,"common":{"type":"rock"},"children":{"rock":{"water_level":"covers"}},"osm_tags":{"seamark:rock:water_level":"covers","seamark:type":"rock"}}},{"type":"Feature","geometry":{"type":"Point","coordinates":[120.2170654,12.2264187]},"properties":{"osm_id":4053239453,"osm_type":"node","seamark_type":"rock","display_class":"OTHER","min_zoom":12,"importance":1,"name":null,"ref":null,"common":{"type":"rock"},"children":{"rock":{"water_level":"covers"}},"osm_tags":{"seamark:rock:water_level":"covers","seamark:type":"rock"}}},{"type":"Feature","geometry":{"type":"Point","coordinates":[120.2173014,12.2267542]},"properties":{"osm_id":4053239454,"osm_type":"node","seamark_type":"rock","display_class":"OTHER","min_zoom":12,"importance":1,"name":null,"ref":null,"common":{"type":"rock"},"children":{"rock":{"water_level":"covers"}},"osm_tags":{"seamark:rock:water_level":"covers","seamark:type":"rock"}}},{"type":"Feature","geometry":{"type":"Point","coordinates":[120.2604219,12.2973355]},"properties":{"osm_id":4054210042,"osm_type":"node","seamark_type":"rock","display_class":"OTHER","min_zoom":12,"importance":1,"name":null,"ref":null,"common":{"type":"rock"},"children":{"rock":{"water_level":"covers"}},"osm_tags":{"seamark:rock:water_level":"covers","seamark:type":"rock"}}},{"type":"Feature","geometry":{"type":"Point","coordinates":[120.259176,12.2975976]},"properties":{"osm_id":4054210046,"osm_type":"node","seamark_type":"rock","display_class":"OTHER","min_zoom":12,"importance":1,"name":null,"ref":null,"common":{"type":"rock"},"children":{"rock":{"water_level":"covers"}},"osm_tags":{"seamark:rock:water_level":"covers","seamark:type":"rock"}}},{"type":"Feature","geometry":{"type":"Point","coordinates":[120.2589038,12.297802]},"properties":{"osm_id":4054210049,"osm_type":"node","seamark_type":"rock","display_class":"OTHER","min_zoom":12,"importance":1,"name":null,"ref":null,"common":{"type":"rock"},"children":{"rock":{"water_level":"covers"}},"osm_tags":{"seamark:rock:water_level":"covers","seamark:type":"rock"}}},{"type":"Feature","geometry":{"type":"Point","coordinates":[120.2583848,12.2982515]},"properties":{"osm_id":4054210055,"osm_type":"node","seamark_type":"rock","display_class":"OTHER","min_zoom":12,"importance":1,"name":null,"ref":null,"common":{"type":"rock"},"children":{"rock":{"water_level":"covers"}},"osm_tags":{"seamark:rock:water_level":"covers","seamark:type":"rock"}}},{"type":"Feature","geometry":{"type":"Point","coordinates":[120.2580723,12.2984716]},"properties":{"osm_id":4054210061,"osm_type":"node","seamark_type":"rock","display_class":"OTHER","min_zoom":12,"importance":1,"name":null,"ref":null,"common":{"type":"rock"},"children":{"rock":{"water_level":"covers"}},"osm_tags":{"seamark:rock:water_level":"covers","seamark:type":"rock"}}},{"type":"Feature","geometry":{"type":"Point","coordinates":[120.2542327,12.2988306]},"properties":{"osm_id":4054210063,"osm_type":"node","seamark_type":"rock","display_class":"OTHER","min_zoom":12,"importance":1,"name":null,"ref":null,"common":{"type":"rock"},"children":{"rock":{"water_level":"covers"}},"osm_tags":{"seamark:rock:water_level":"covers","seamark:type":"rock"}}},{"type":"Feature","geometry":{"type":"Point","coordinates":[120.2637666,12.2991176]},"properties":{"osm_id":4054210064,"osm_type":"node","seamark_type":"rock","display_class":"OTHER","min_zoom":12,"importance":1,"name":null,"ref":null,"common":{"type":"rock"},"children":{"rock":{"water_level":"covers"}},"osm_tags":{"seamark:rock:water_level":"covers","seamark:type":"rock"}}},{"type":"Feature","geometry":{"type":"Point","coordinates":[120.2632516,12.2991517]},"properties":{"osm_id":4054210065,"osm_type":"node","seamark_type":"rock","display_class":"OTHER","min_zoom":12,"importance":1,"name":null,"ref":null,"common":{"type":"rock"},"children":{"rock":{"water_level":"covers"}},"osm_tags":{"seamark:rock:water_level":"covers","seamark:type":"rock"}}},{"type":"Feature","geometry":{"type":"Point","coordinates":[120.2634179,12.2991988]},"properties":{"osm_id":4054210066,"osm_type":"node","seamark_type":"rock","display_class":"OTHER","min_zoom":12,"importance":1,"name":null,"ref":null,"common":{"type":"rock"},"children":{"rock":{"water_level":"covers"}},"osm_tags":{"seamark:rock:water_level":"covers","seamark:type":"rock"}}},{"type":"Feature","geometry":{"type":"Point","coordinates":[120.2519662,12.3001278]},"properties":{"osm_id":4054210070,"osm_type":"node","seamark_type":"rock","display_class":"OTHER","min_zoom":12,"importance":1,"name":null,"ref":null,"common":{"type":"rock"},"children":{"rock":{"water_level":"covers"}},"osm_tags":{"seamark:rock:water_level":"covers","seamark:type":"rock"}}},{"type":"Feature","geometry":{"type":"Point","coordinates":[120.2727534,12.3285301]},"properties":{"osm_id":4054210071,"osm_type":"node","seamark_type":"rock","display_class":"OTHER","min_zoom":12,"importance":1,"name":null,"ref":null,"common":{"type":"rock"},"children":{"rock":{"water_level":"covers"}},"osm_tags":{"seamark:rock:water_level":"covers","seamark:type":"rock"}}},{"type":"Feature","geometry":{"type":"Point","coordinates":[120.2719862,12.3294525]},"properties":{"osm_id":4054210893,"osm_type":"node","seamark_type":"rock","display_class":"OTHER","min_zoom":12,"importance":1,"name":null,"ref":null,"common":{"type":"rock"},"children":{"rock":{"water_level":"covers"}},"osm_tags":{"seamark:rock:water_level":"covers","seamark:type":"rock"}}},{"type":"Feature","geometry":{"type":"Point","coordinates":[120.2720828,12.3359299]},"properties":{"osm_id":4054211105,"osm_type":"node","seamark_type":"rock","display_class":"OTHER","min_zoom":12,"importance":1,"name":null,"ref":null,"common":{"type":"rock"},"children":{"rock":{"water_level":"covers"}},"osm_tags":{"seamark:rock:water_level":"covers","seamark:type":"rock"}}},{"type":"Feature","geometry":{"type":"Point","coordinates":[120.2719031,12.3360688]},"properties":{"osm_id":4054211106,"osm_type":"node","seamark_type":"rock","display_class":"OTHER","min_zoom":12,"importance":1,"name":null,"ref":null,"common":{"type":"rock"},"children":{"rock":{"water_level":"covers"}},"osm_tags":{"seamark:rock:water_level":"covers","seamark:type":"rock"}}},{"type":"Feature","geometry":{"type":"Point","coordinates":[120.2708235,12.3388921]},"properties":{"osm_id":4054211107,"osm_type":"node","seamark_type":"rock","display_class":"OTHER","min_zoom":12,"importance":1,"name":null,"ref":null,"common":{"type":"rock"},"children":{"rock":{"water_level":"covers"}},"osm_tags":{"seamark:rock:water_level":"covers","seamark:type":"rock"}}},{"type":"Feature","geometry":{"type":"Point","coordinates":[120.2716121,12.3403542]},"properties":{"osm_id":4054211129,"osm_type":"node","seamark_type":"rock","display_class":"OTHER","min_zoom":12,"importance":1,"name":null,"ref":null,"common":{"type":"rock"},"children":{"rock":{"water_level":"covers"}},"osm_tags":{"seamark:rock:water_level":"covers","seamark:type":"rock"}}},{"type":"Feature","geometry":{"type":"Point","coordinates":[120.2715611,12.3455789]},"properties":{"osm_id":4054211150,"osm_type":"node","seamark_type":"rock","display_class":"OTHER","min_zoom":12,"importance":1,"name":null,"ref":null,"common":{"type":"rock"},"children":{"rock":{"water_level":"covers"}},"osm_tags":{"seamark:rock:water_level":"covers","seamark:type":"rock"}}},{"type":"Feature","geometry":{"type":"Point","coordinates":[120.2714994,12.3464907]},"properties":{"osm_id":4054211156,"osm_type":"node","seamark_type":"rock","display_class":"OTHER","min_zoom":12,"importance":1,"name":null,"ref":null,"common":{"type":"rock"},"children":{"rock":{"water_level":"covers"}},"osm_tags":{"seamark:rock:water_level":"covers","seamark:type":"rock"}}},{"type":"Feature","geometry":{"type":"Point","coordinates":[120.2716309,12.3466348]},"properties":{"osm_id":4054211158,"osm_type":"node","seamark_type":"rock","display_class":"OTHER","min_zoom":12,"importance":1,"name":null,"ref":null,"common":{"type":"rock"},"children":{"rock":{"water_level":"covers"}},"osm_tags":{"seamark:rock:water_level":"covers","seamark:type":"rock"}}},{"type":"Feature","geometry":{"type":"Point","coordinates":[120.2724194,12.3466741]},"properties":{"osm_id":4054211159,"osm_type":"node","seamark_type":"rock","display_class":"OTHER","min_zoom":12,"importance":1,"name":null,"ref":null,"common":{"type":"rock"},"children":{"rock":{"water_level":"covers"}},"osm_tags":{"seamark:rock:water_level":"covers","seamark:type":"rock"}}},{"type":"Feature","geometry":{"type":"Point","coordinates":[120.2722639,12.3479344]},"properties":{"osm_id":4054211167,"osm_type":"node","seamark_type":"rock","display_class":"OTHER","min_zoom":12,"importance":1,"name":null,"ref":null,"common":{"type":"rock"},"children":{"rock":{"water_level":"covers"}},"osm_tags":{"seamark:rock:water_level":"covers","seamark:type":"rock"}}},{"type":"Feature","geometry":{"type":"Point","coordinates":[120.2698016,12.34871]},"properties":{"osm_id":4054211173,"osm_type":"node","seamark_type":"rock","display_class":"OTHER","min_zoom":12,"importance":1,"name":null,"ref":null,"common":{"type":"rock"},"children":{"rock":{"water_level":"covers"}},"osm_tags":{"seamark:rock:water_level":"covers","seamark:type":"rock"}}},{"type":"Feature","geometry":{"type":"Point","coordinates":[120.2609208,12.3499965]},"properties":{"osm_id":4054211180,"osm_type":"node","seamark_type":"rock","display_class":"OTHER","min_zoom":12,"importance":1,"name":null,"ref":null,"common":{"type":"rock"},"children":{"rock":{"water_level":"covers"}},"osm_tags":{"seamark:rock:water_level":"covers","seamark:type":"rock"}}},{"type":"Feature","geometry":{"type":"Point","coordinates":[120.2634729,12.3524293]},"properties":{"osm_id":4054211390,"osm_type":"node","seamark_type":"rock","display_class":"OTHER","min_zoom":12,"importance":1,"name":null,"ref":null,"common":{"type":"rock"},"children":{"rock":{"water_level":"covers"}},"osm_tags":{"seamark:rock:water_level":"covers","seamark:type":"rock"}}},{"type":"Feature","geometry":{"type":"Point","coordinates":[120.2612024,12.3526035]},"properties":{"osm_id":4054211391,"osm_type":"node","seamark_type":"rock","display_class":"OTHER","min_zoom":12,"importance":1,"name":null,"ref":null,"common":{"type":"rock"},"children":{"rock":{"water_level":"covers"}},"osm_tags":{"seamark:rock:water_level":"covers","seamark:type":"rock"}}},{"type":"Feature","geometry":{"type":"Point","coordinates":[120.2628265,12.3526441]},"properties":{"osm_id":4054211392,"osm_type":"node","seamark_type":"rock","display_class":"OTHER","min_zoom":12,"importance":1,"name":null,"ref":null,"common":{"type":"rock"},"children":{"rock":{"water_level":"covers"}},"osm_tags":{"seamark:rock:water_level":"covers","seamark:type":"rock"}}},{"type":"Feature","geometry":{"type":"Point","coordinates":[120.260497,12.3528184]},"properties":{"osm_id":4054211393,"osm_type":"node","seamark_type":"rock","display_class":"OTHER","min_zoom":12,"importance":1,"name":null,"ref":null,"common":{"type":"rock"},"children":{"rock":{"water_level":"covers"}},"osm_tags":{"seamark:rock:water_level":"covers","seamark:type":"rock"}}},{"type":"Feature","geometry":{"type":"Point","coordinates":[120.2609583,12.3529258]},"properties":{"osm_id":4054211394,"osm_type":"node","seamark_type":"rock","display_class":"OTHER","min_zoom":12,"importance":1,"name":null,"ref":null,"common":{"type":"rock"},"children":{"rock":{"water_level":"covers"}},"osm_tags":{"seamark:rock:water_level":"covers","seamark:type":"rock"}}},{"type":"Feature","geometry":{"type":"Point","coordinates":[120.2601684,12.3529795]},"properties":{"osm_id":4054211395,"osm_type":"node","seamark_type":"rock","display_class":"OTHER","min_zoom":12,"importance":1,"name":null,"ref":null,"common":{"type":"rock"},"children":{"rock":{"water_level":"covers"}},"osm_tags":{"seamark:rock:water_level":"covers","seamark:type":"rock"}}},{"type":"Feature","geometry":{"type":"Point","coordinates":[120.2614599,12.353793]},"properties":{"osm_id":4054211398,"osm_type":"node","seamark_type":"rock","display_class":"OTHER","min_zoom":12,"importance":1,"name":null,"ref":null,"common":{"type":"rock"},"children":{"rock":{"water_level":"covers"}},"osm_tags":{"seamark:rock:water_level":"covers","seamark:type":"rock"}}},{"type":"Feature","geometry":{"type":"Point","coordinates":[120.2624161,12.3538887]},"properties":{"osm_id":4054211399,"osm_type":"node","seamark_type":"rock","display_class":"OTHER","min_zoom":12,"importance":1,"name":null,"ref":null,"common":{"type":"rock"},"children":{"rock":{"water_level":"covers"}},"osm_tags":{"seamark:rock:water_level":"covers","seamark:type":"rock"}}},{"type":"Feature","geometry":{"type":"Point","coordinates":[120.2619078,12.3539345]},"properties":{"osm_id":4054211400,"osm_type":"node","seamark_type":"rock","display_class":"OTHER","min_zoom":12,"importance":1,"name":null,"ref":null,"common":{"type":"rock"},"children":{"rock":{"water_level":"covers"}},"osm_tags":{"seamark:rock:water_level":"covers","seamark:type":"rock"}}},{"type":"Feature","geometry":{"type":"Point","coordinates":[120.2389946,12.186076]},"properties":{"osm_id":4084336972,"osm_type":"node","seamark_type":"rock","display_class":"OTHER","min_zoom":12,"importance":1,"name":null,"ref":null,"common":{"type":"rock"},"children":{},"osm_tags":{"seamark:type":"rock"}}},{"type":"Feature","geometry":{"type":"Point","coordinates":[120.2389132,12.1861303]},"properties":{"osm_id":4084336973,"osm_type":"node","seamark_type":"rock","display_class":"OTHER","min_zoom":12,"importance":1,"name":null,"ref":null,"common":{"type":"rock"},"children":{},"osm_tags":{"seamark:type":"rock"}}},{"type":"Feature","geometry":{"type":"Point","coordinates":[120.2405084,12.1894797]},"properties":{"osm_id":4084337002,"osm_type":"node","seamark_type":"rock","display_class":"OTHER","min_zoom":12,"importance":1,"name":null,"ref":null,"common":{"type":"rock"},"children":{},"osm_tags":{"seamark:type":"rock"}}},{"type":"Feature","geometry":{"type":"Point","coordinates":[120.2407389,12.1906104]},"properties":{"osm_id":4084337009,"osm_type":"node","seamark_type":"rock","display_class":"OTHER","min_zoom":12,"importance":1,"name":null,"ref":null,"common":{"type":"rock"},"children":{"rock":{"water_level":"covers"}},"osm_tags":{"seamark:rock:water_level":"covers","seamark:type":"rock"}}},{"type":"Feature","geometry":{"type":"Point","coordinates":[120.2408029,12.19063]},"properties":{"osm_id":4084337010,"osm_type":"node","seamark_type":"rock","display_class":"OTHER","min_zoom":12,"importance":1,"name":null,"ref":null,"common":{"type":"rock"},"children":{"rock":{"water_level":"covers"}},"osm_tags":{"seamark:rock:water_level":"covers","seamark:type":"rock"}}},{"type":"Feature","geometry":{"type":"Point","coordinates":[120.2418481,12.1970519]},"properties":{"osm_id":4084337076,"osm_type":"node","seamark_type":"rock","display_class":"OTHER","min_zoom":12,"importance":1,"name":null,"ref":null,"common":{"type":"rock"},"children":{"rock":{"water_level":"covers"}},"osm_tags":{"seamark:rock:water_level":"covers","seamark:type":"rock"}}},{"type":"Feature","geometry":{"type":"Point","coordinates":[120.2418175,12.1972734]},"properties":{"osm_id":4084337097,"osm_type":"node","seamark_type":"rock","display_class":"OTHER","min_zoom":12,"importance":1,"name":null,"ref":null,"common":{"type":"rock"},"children":{"rock":{"water_level":"covers"}},"osm_tags":{"seamark:rock:water_level":"covers","seamark:type":"rock"}}},{"type":"Feature","geometry":{"type":"Point","coordinates":[120.242777,12.2002068]},"properties":{"osm_id":4084337204,"osm_type":"node","seamark_type":"rock","display_class":"OTHER","min_zoom":12,"importance":1,"name":null,"ref":null,"common":{"type":"rock"},"children":{"rock":{"water_level":"covers"}},"osm_tags":{"seamark:rock:water_level":"covers","seamark:type":"rock"}}},{"type":"Feature","geometry":{"type":"Point","coordinates":[120.2426643,12.2004453]},"properties":{"osm_id":4084337205,"osm_type":"node","seamark_type":"rock","display_class":"OTHER","min_zoom":12,"importance":1,"name":null,"ref":null,"common":{"type":"rock"},"children":{},"osm_tags":{"seamark:type":"rock"}}},{"type":"Feature","geometry":{"type":"Point","coordinates":[120.242632,12.2019437]},"properties":{"osm_id":4084337206,"osm_type":"node","seamark_type":"rock","display_class":"OTHER","min_zoom":12,"importance":1,"name":null,"ref":null,"common":{"type":"rock"},"children":{"rock":{"water_level":"covers"}},"osm_tags":{"seamark:rock:water_level":"covers","seamark:type":"rock"}}},{"type":"Feature","geometry":{"type":"Point","coordinates":[120.2425245,12.2021088]},"properties":{"osm_id":4084337207,"osm_type":"node","seamark_type":"rock","display_class":"OTHER","min_zoom":12,"importance":1,"name":null,"ref":null,"common":{"type":"rock"},"children":{"rock":{"water_level":"covers"}},"osm_tags":{"seamark:rock:water_level":"covers","seamark:type":"rock"}}},{"type":"Feature","geometry":{"type":"Point","coordinates":[120.1573626,12.0208209]},"properties":{"osm_id":13103088129,"osm_type":"node","seamark_type":"mooring","display_class":"OTHER","min_zoom":12,"importance":1,"name":null,"ref":null,"common":{"type":"mooring"},"children":{},"osm_tags":{"seamark:type":"mooring"}}},{"type":"Feature","geometry":{"type":"Point","coordinates":[120.4521667,12.6757776]},"properties":{"osm_id":2674038370,"osm_type":"node","seamark_type":"anchorage","display_class":"OTHER","min_zoom":12,"importance":1,"name":"Apo Reef Anchorage","ref":null,"common":{"type":"anchorage"},"children":{},"osm_tags":{"leisure":"marina","name":"Apo Reef Anchorage","seamark:type":"anchorage","source":"Schadow1 Expeditions"}}},{"type":"Feature","geometry":{"type":"Point","coordinates":[120.4699995,12.6758336]},"properties":{"osm_id":2674038371,"osm_type":"node","seamark_type":"anchorage","display_class":"OTHER","min_zoom":12,"importance":1,"name":"Apo Reef Anchorage","ref":null,"common":{"type":"anchorage"},"children":{},"osm_tags":{"leisure":"marina","name":"Apo Reef Anchorage","seamark:type":"anchorage","source":"Schadow1 Expeditions"}}},{"type":"Feature","geometry":{"type":"Point","coordinates":[120.4608341,12.6758341]},"properties":{"osm_id":2674038372,"osm_type":"node","seamark_type":"anchorage","display_class":"OTHER","min_zoom":12,"importance":1,"name":"Apo Reef Anchorage","ref":null,"common":{"type":"anchorage"},"children":{},"osm_tags":{"leisure":"marina","name":"Apo Reef Anchorage","seamark:type":"anchorage","source":"Schadow1 Expeditions"}}},{"type":"Feature","geometry":{"type":"Point","coordinates":[120.15415,12.1635]},"properties":{"osm_id":663871202,"osm_type":"node","seamark_type":"wreck","display_class":"OTHER","min_zoom":12,"importance":1,"name":"Kyokuzan Maru","ref":null,"common":{"type":"wreck"},"children":{},"osm_tags":{"historic":"wreck","name":"Kyokuzan Maru","seamark:type":"wreck","source":"www.dive-links.com","sport":"scuba_diving","verified":"no, please check and del this tag","website":"http://www.dive-links.com/tauchplatz.php?id=1280"}}},{"type":"Feature","geometry":{"type":"Point","coordinates":[120.1650303,12.1627013]},"properties":{"osm_id":5765336653,"osm_type":"node","seamark_type":"wreck","display_class":"OTHER","min_zoom":12,"importance":1,"name":"Kyokuzan wreck","ref":null,"common":{"type":"wreck"},"children":{},"osm_tags":{"historic":"wreck","name":"Kyokuzan wreck","seamark:type":"wreck"}}}],"type":"FeatureCollection"}