{"type":"FeatureCollection","features":[{"type":"Feature","geometry":{"type":"Point","coordinates":[102.1528178,12.8069402]},"properties":{"osm_id":10864195946,"osm_type":"node","seamark_type":"gate","display_class":"OTHER","min_zoom":12,"importance":1,"name":null,"ref":null,"common":{"type":"gate"},"children":{},"osm_tags":{"seamark:type":"gate","waterway":"lock_gate"}}},{"type":"Feature","geometry":{"type":"Point","coordinates":[102.0581224,12.4696322]},"properties":{"osm_id":1293081657,"osm_type":"node","seamark_type":"light_minor","display_class":"OTHER","min_zoom":12,"importance":1,"name":"Laem Sing","ref":null,"common":{"name":"Laem Sing","type":"light_minor"},"children":{"light":{"character":"Fl","colour":"white","group":"3","height":"87","period":"15","range":"10","reference":"F 2996","sequence":"0.5+(1.5)+0.5+(1.5)+0.5+(10.5)"}},"osm_tags":{"man_made":"lighthouse","name:en":"Laem Sing Lighthouse","seamark:light:character":"Fl","seamark:light:colour":"white","seamark:light:group":"3","seamark:light:height":"87","seamark:light:period":"15","seamark:light:range":"10","seamark:light:reference":"F 2996","seamark:light:sequence":"0.5+(1.5)+0.5+(1.5)+0.5+(10.5)","seamark:name":"Laem Sing","seamark:type":"light_minor","source":"US NGA Pub. 112. 2009-11-12."}}}],"type":"FeatureCollection"}