{"type":"FeatureCollection","features":[{"type":"Feature","geometry":{"type":"Point","coordinates":[101.7007044,12.6970603]},"properties":{"osm_id":1293081658,"osm_type":"node","seamark_type":"light_major","display_class":"LIGHTHOUSE","min_zoom":7,"importance":5,"name":"Mae Nam Prasae","ref":null,"common":{"name":"Mae Nam Prasae","type":"light_major"},"children":{"light":{"character":"Fl","colour":"white","height":"15","period":"3","range":"21","reference":"F 2992","sequence":"0.3+(2.7)"}},"osm_tags":{"man_made":"lighthouse","name:en":"Mae Nam Prasae Lighthouse","seamark:light:character":"Fl","seamark:light:colour":"white","seamark:light:height":"15","seamark:light:period":"3","seamark:light:range":"21","seamark:light:reference":"F 2992","seamark:light:sequence":"0.3+(2.7)","seamark:name":"Mae Nam Prasae","seamark:type":"light_major","source":"US NGA Pub. 112. 2009-11-12."}}},{"type":"Feature","geometry":{"type":"Point","coordinates":[101.3041469,12.6464968]},"properties":{"osm_id":1293081680,"osm_type":"node","seamark_type":"light_minor","display_class":"OTHER","min_zoom":12,"importance":1,"name":null,"ref":null,"common":{"type":"light_minor"},"children":{"light":{"category":"lower","character":"Q","colour":"green","height":"30","range":"12","reference":"F 2987.6"}},"osm_tags":{"fixme":"position","seamark:light:category":"lower","seamark:light:character":"Q","seamark:light:colour":"green","seamark:light:height":"30","seamark:light:range":"12","seamark:light:reference":"F 2987.6","seamark:type":"light_minor","source":"US NGA Pub. 112. 2009-11-12."}}},{"type":"Feature","geometry":{"type":"Point","coordinates":[101.3109502,12.6600272]},"properties":{"osm_id":1293081685,"osm_type":"node","seamark_type":"light_minor","display_class":"OTHER","min_zoom":12,"importance":1,"name":null,"ref":null,"common":{"type":"light_minor"},"children":{"light":{"category":"upper","character":"Iso","colour":"green","height":"50","period":"6","range":"12","reference":"F 2987.61"}},"osm_tags":{"seamark:light:category":"upper","seamark:light:character":"Iso","seamark:light:colour":"green","seamark:light:height":"50","seamark:light:period":"6","seamark:light:range":"12","seamark:light:reference":"F 2987.61","seamark:type":"light_minor","source":"US NGA Pub. 112. 2009-11-12."}}},{"type":"Feature","geometry":{"type":"Point","coordinates":[101.1392432,12.6894825]},"properties":{"osm_id":1293081714,"osm_type":"node","seamark_type":"light_minor","display_class":"OTHER","min_zoom":12,"importance":1,"name":null,"ref":null,"common":{"type":"light_minor"},"children":{"light":{"category":"upper","character":"Q","colour":"green","height":"53","range":"8","reference":"F 2986.11"}},"osm_tags":{"seamark:light:category":"upper","seamark:light:character":"Q","seamark:light:colour":"green","seamark:light:height":"53","seamark:light:range":"8","seamark:light:reference":"F 2986.11","seamark:type":"light_minor","source":"US NGA Pub. 112. 2009-11-12."}}},{"type":"Feature","geometry":{"type":"Point","coordinates":[101.147873,12.6469311]},"properties":{"osm_id":1293081717,"osm_type":"node","seamark_type":"light_minor","display_class":"OTHER","min_zoom":12,"importance":1,"name":null,"ref":null,"common":{"type":"light_minor"},"children":{"light":{"character":"Fl","colour":"white","height":"2","period":"4","range":"8","reference":"F 2986.5"}},"osm_tags":{"seamark:light:character":"Fl","seamark:light:colour":"white","seamark:light:height":"2","seamark:light:period":"4","seamark:light:range":"8","seamark:light:reference":"F 2986.5","seamark:type":"light_minor","source":"US NGA Pub. 112. 2009-11-12."}}},{"type":"Feature","geometry":{"type":"Point","coordinates":[101.0290155,12.7240815]},"properties":{"osm_id":1293081719,"osm_type":"node","seamark_type":"light_minor","display_class":"OTHER","min_zoom":12,"importance":1,"name":null,"ref":null,"common":{"type":"light_minor"},"children":{"light":{"character":"F","colour":"red","height":"274","range":"10","reference":"F 2985"}},"osm_tags":{"seamark:light:character":"F","seamark:light:colour":"red","seamark:light:height":"274","seamark:light:range":"10","seamark:light:reference":"F 2985","seamark:type":"light_minor","source":"US NGA Pub. 112. 2009-11-12."}}},{"type":"Feature","geometry":{"type":"Point","coordinates":[101.1564342,12.6402738]},"properties":{"osm_id":2498822586,"osm_type":"node","seamark_type":"crane","display_class":"OTHER","min_zoom":12,"importance":1,"name":null,"ref":null,"common":{"type":"crane"},"children":{"crane":{"category":"sheerlegs"}},"osm_tags":{"seamark:crane:category":"sheerlegs","seamark:type":"crane"}}},{"type":"Feature","geometry":{"type":"Point","coordinates":[101.1564919,12.6420538]},"properties":{"osm_id":2498822629,"osm_type":"node","seamark_type":"crane","display_class":"OTHER","min_zoom":12,"importance":1,"name":null,"ref":null,"common":{"type":"crane"},"children":{"crane":{"category":"sheerlegs"}},"osm_tags":{"seamark:crane:category":"sheerlegs","seamark:type":"crane"}}},{"type":"Feature","geometry":{"type":"Point","coordinates":[101.556498,12.6271316]},"properties":{"osm_id":3540709382,"osm_type":"node","seamark_type":"rock","display_class":"OTHER","min_zoom":12,"importance":1,"name":null,"ref":null,"common":{"type":"rock"},"children":{"rock":{"water_level":"awash"}},"osm_tags":{"seamark:rock:water_level":"awash","seamark:type":"rock"}}},{"type":"Feature","geometry":{"type":"Point","coordinates":[101.4632793,12.5742756]},"properties":{"osm_id":3969044993,"osm_type":"node","seamark_type":"harbour","display_class":"OTHER","min_zoom":12,"importance":1,"name":null,"ref":null,"common":{"type":"harbour"},"children":{},"osm_tags":{"harbour":"yes","name:en":"samed port Rayong Pao","seamark:type":"harbour"}}},{"type":"Feature","geometry":{"type":"Point","coordinates":[101.1611639,12.6286222]},"properties":{"osm_id":10938593326,"osm_type":"node","seamark_type":"buoy_special_purpose","display_class":"OTHER","min_zoom":12,"importance":1,"name":null,"ref":null,"common":{"type":"buoy_special_purpose"},"children":{"buoy_special_purpose":{"colour":"yellow","shape":"pillar"},"light":{"character":"Fl","colour":"yellow","period":"6","range":"6"},"topmark":{"colour":"yellow","shape":"x-shape"}},"osm_tags":{"seamark:buoy_special_purpose:colour":"yellow","seamark:buoy_special_purpose:shape":"pillar","seamark:light:character":"Fl","seamark:light:colour":"yellow","seamark:light:period":"6","seamark:light:range":"6","seamark:topmark:colour":"yellow","seamark:topmark:shape":"x-shape","seamark:type":"buoy_special_purpose","source":"https://www.hydro.navy.mi.th/ntms/466-1.pdf"}}},{"type":"Feature","geometry":{"type":"Point","coordinates":[101.1598806,12.6334278]},"properties":{"osm_id":10938593327,"osm_type":"node","seamark_type":"buoy_special_purpose","display_class":"OTHER","min_zoom":12,"importance":1,"name":null,"ref":null,"common":{"type":"buoy_special_purpose"},"children":{"buoy_special_purpose":{"colour":"yellow","shape":"pillar"},"light":{"character":"Fl","colour":"yellow","period":"6","range":"6"},"topmark":{"colour":"yellow","shape":"x-shape"}},"osm_tags":{"seamark:buoy_special_purpose:colour":"yellow","seamark:buoy_special_purpose:shape":"pillar","seamark:light:character":"Fl","seamark:light:colour":"yellow","seamark:light:period":"6","seamark:light:range":"6","seamark:topmark:colour":"yellow","seamark:topmark:shape":"x-shape","seamark:type":"buoy_special_purpose","source":"https://www.hydro.navy.mi.th/ntms/466-1.pdf"}}},{"type":"Feature","geometry":{"type":"Point","coordinates":[101.1596056,12.6383917]},"properties":{"osm_id":10938593328,"osm_type":"node","seamark_type":"buoy_special_purpose","display_class":"OTHER","min_zoom":12,"importance":1,"name":null,"ref":null,"common":{"type":"buoy_special_purpose"},"children":{"buoy_special_purpose":{"colour":"yellow","shape":"pillar"},"light":{"character":"Fl","colour":"yellow","period":"6","range":"6"},"topmark":{"colour":"yellow","shape":"x-shape"}},"osm_tags":{"seamark:buoy_special_purpose:colour":"yellow","seamark:buoy_special_purpose:shape":"pillar","seamark:light:character":"Fl","seamark:light:colour":"yellow","seamark:light:period":"6","seamark:light:range":"6","seamark:topmark:colour":"yellow","seamark:topmark:shape":"x-shape","seamark:type":"buoy_special_purpose","source":"https://www.hydro.navy.mi.th/ntms/466-1.pdf"}}},{"type":"Feature","geometry":{"type":"Point","coordinates":[101.4480736,12.5785907]},"properties":{"osm_id":1293081670,"osm_type":"node","seamark_type":"light_minor","display_class":"OTHER","min_zoom":12,"importance":1,"name":"Ko Samet","ref":null,"common":{"name":"Ko Samet","type":"light_minor"},"children":{"light":{"1:character":"Fl","1:colour":"white","1:height":"79","1:period":"5","1:range":"10","1:sector_end":"78","1:sector_start":"8","2:character":"Fl","2:colour":"green","2:height":"79","2:period":"5","2:range":"5","2:sector_end":"83.5","2:sector_start":"78","3:character":"Fl","3:colour":"white","3:height":"79","3:period":"5","3:range":"10","3:sector_end":"86.5","3:sector_start":"83.5","4:character":"Fl","4:colour":"red","4:height":"79","4:period":"5","4:range":"6","4:sector_end":"90","4:sector_start":"86.5","5:character":"Fl","5:colour":"white","5:height":"79","5:period":"5","5:range":"10","5:sector_end":"99","5:sector_start":"90","6:character":"Fl","6:colour":"red","6:height":"79","6:period":"5","6:range":"6","6:sector_end":"102.5","6:sector_start":"99","7:character":"Fl","7:colour":"white","7:height":"79","7:period":"5","7:range":"10","7:sector_end":"292","7:sector_start":"102.5","reference":"F 2990"}},"osm_tags":{"seamark:light:1:character":"Fl","seamark:light:1:colour":"white","seamark:light:1:height":"79","seamark:light:1:period":"5","seamark:light:1:range":"10","seamark:light:1:sector_end":"78","seamark:light:1:sector_start":"8","seamark:light:2:character":"Fl","seamark:light:2:colour":"green","seamark:light:2:height":"79","seamark:light:2:period":"5","seamark:light:2:range":"5","seamark:light:2:sector_end":"83.5","seamark:light:2:sector_start":"78","seamark:light:3:character":"Fl","seamark:light:3:colour":"white","seamark:light:3:height":"79","seamark:light:3:period":"5","seamark:light:3:range":"10","seamark:light:3:sector_end":"86.5","seamark:light:3:sector_start":"83.5","seamark:light:4:character":"Fl","seamark:light:4:colour":"red","seamark:light:4:height":"79","seamark:light:4:period":"5","seamark:light:4:range":"6","seamark:light:4:sector_end":"90","seamark:light:4:sector_start":"86.5","seamark:light:5:character":"Fl","seamark:light:5:colour":"white","seamark:light:5:height":"79","seamark:light:5:period":"5","seamark:light:5:range":"10","seamark:light:5:sector_end":"99","seamark:light:5:sector_start":"90","seamark:light:6:character":"Fl","seamark:light:6:colour":"red","seamark:light:6:height":"79","seamark:light:6:period":"5","seamark:light:6:range":"6","seamark:light:6:sector_end":"102.5","seamark:light:6:sector_start":"99","seamark:light:7:character":"Fl","seamark:light:7:colour":"white","seamark:light:7:height":"79","seamark:light:7:period":"5","seamark:light:7:range":"10","seamark:light:7:sector_end":"292","seamark:light:7:sector_start":"102.5","seamark:light:reference":"F 2990","seamark:name":"Ko Samet","seamark:type":"light_minor","source":"US NGA Pub. 112. 2009-11-12."}}},{"type":"Feature","geometry":{"type":"Point","coordinates":[101.7000202,12.5690058]},"properties":{"osm_id":1293081667,"osm_type":"node","seamark_type":"light_minor","display_class":"OTHER","min_zoom":12,"importance":1,"name":"Ko-Man Nok","ref":null,"common":{"name":"Ko-Man Nok","type":"light_minor"},"children":{"light":{"character":"Fl","colour":"white","height":"38","period":"6","range":"10","reference":"F 2994","sequence":"0.5+(5.5)"}},"osm_tags":{"seamark:light:character":"Fl","seamark:light:colour":"white","seamark:light:height":"38","seamark:light:period":"6","seamark:light:range":"10","seamark:light:reference":"F 2994","seamark:light:sequence":"0.5+(5.5)","seamark:name":"Ko-Man Nok","seamark:type":"light_minor","source":"US NGA Pub. 112. 2009-11-12."}}},{"type":"Feature","geometry":{"type":"Point","coordinates":[101.1429862,12.6754777]},"properties":{"osm_id":1293081706,"osm_type":"node","seamark_type":"light_minor","display_class":"OTHER","min_zoom":12,"importance":1,"name":"Map Ta Phut","ref":null,"common":{"name":"Map Ta Phut","type":"light_minor"},"children":{"light":{"category":"lower","character":"Iso","colour":"green","height":"27","period":"6","range":"7","reference":"F 2986.1"}},"osm_tags":{"seamark:light:category":"lower","seamark:light:character":"Iso","seamark:light:colour":"green","seamark:light:height":"27","seamark:light:period":"6","seamark:light:range":"7","seamark:light:reference":"F 2986.1","seamark:name":"Map Ta Phut","seamark:type":"light_minor","source":"US NGA Pub. 112. 2009-11-12."}}}],"type":"FeatureCollection"}