{"type":"FeatureCollection","features":[{"type":"Feature","geometry":{"type":"Point","coordinates":[123.7917453,12.832261]},"properties":{"osm_id":6879999145,"osm_type":"node","seamark_type":"light_major","display_class":"LIGHTHOUSE","min_zoom":7,"importance":5,"name":"Bagatao","ref":null,"common":{"name":"Bagatao","type":"light_major"},"children":{"light":{"character":"Fl","colour":"white","period":"5"}},"osm_tags":{"addr:city":"Magallanes","addr:place":"Bagatao Island","addr:province":"Sorsogon","addr:village":"Behia","man_made":"lighthouse","name":"Bagatao Lighthouse","operator":"Sorsogon Station, Philippine Coast Guard","seamark:light:character":"Fl","seamark:light:colour":"white","seamark:light:period":"5","seamark:name":"Bagatao","seamark:type":"light_major","source":"Philippine Coast Guard, 2019 lighthouse masterlist"}}},{"type":"Feature","geometry":{"type":"Point","coordinates":[123.2379435,12.6003143]},"properties":{"osm_id":6900311196,"osm_type":"node","seamark_type":"light_major","display_class":"LIGHTHOUSE","min_zoom":7,"importance":5,"name":"Bugui Point","ref":null,"common":{"name":"Bugui Point","type":"light_major"},"children":{"light":{"character":"Fl","group":"2","period":"10"}},"osm_tags":{"addr:city":"Aroroy","building:material":"glass_reinforced_plastic","man_made":"lighthouse","name":"Bugui Point Lighthouse","name:en":"Bugui Point Lighthouse","name:tl":"Parola ng Punta Bugui","operator":"Masbate Station, Philippine Coast Guard","ref:pcg":"BCL-030","seamark:light:character":"Fl","seamark:light:group":"2","seamark:light:period":"10","seamark:name":"Bugui Point","seamark:type":"light_major","source":"Philippine Coast Guard, 2019 lighthouse masterlist","wikidata":"Q109314347"}}},{"type":"Feature","geometry":{"type":"Point","coordinates":[123.8732072,12.6648185]},"properties":{"osm_id":6879956335,"osm_type":"node","seamark_type":"light_major","display_class":"LIGHTHOUSE","min_zoom":7,"importance":5,"name":"Bulan","ref":null,"common":{"name":"Bulan","type":"light_major"},"children":{"light":{"character":"Fl","colour":"red","period":"5"}},"osm_tags":{"addr:province":"Sorsogon","addr:town":"Bulan","man_made":"lighthouse","name":"Bulan Lighthouse","operator":"Sorsogon Station, Philippine Coast Guard","seamark:light:character":"Fl","seamark:light:colour":"red","seamark:light:period":"5","seamark:name":"Bulan","seamark:type":"light_major","source":"Philippine Coast Guard, 2019 lighthouse masterlist"}}},{"type":"Feature","geometry":{"type":"Point","coordinates":[123.5412745,12.2058571]},"properties":{"osm_id":6899944042,"osm_type":"node","seamark_type":"light_minor","display_class":"LIGHTHOUSE","min_zoom":7,"importance":5,"name":"Calasuche","ref":null,"common":{"name":"Calasuche","type":"light_minor"},"children":{"light":{"character":"Fl","colour":"white","group":"2","period":"4"}},"osm_tags":{"addr:municipality":"Milagros","addr:place":"Capaclan","addr:province":"Masbate","building:material":"glass_reinforced_plastic","man_made":"lighthouse","name":"Calasuche Lighthouse","operator":"Masbate Station, Philippine Coast Guard","ref:pcg":"BCL-032","seamark:light:character":"Fl","seamark:light:colour":"white","seamark:light:group":"2","seamark:light:period":"4","seamark:name":"Calasuche","seamark:type":"light_minor","source":"Philippine Coast Guard, 2019 lighthouse masterlist"}}},{"type":"Feature","geometry":{"type":"Point","coordinates":[123.88,12.948611]},"properties":{"osm_id":8808083354,"osm_type":"node","seamark_type":"light_minor","display_class":"LIGHTHOUSE","min_zoom":7,"importance":5,"name":"Castilla","ref":null,"common":{"name":"Castilla","type":"light_minor"},"children":{"light":{"character":"Fl","colour":"white","period":"5"}},"osm_tags":{"addr:municipality":"Castilla","addr:province":"Sorsogon","building:material":"concrete","man_made":"lighthouse","name":"Castilla Lighthouse","operator":"Sorsogon Station, Philippine Coast Guard","ref:pcg":"BCL-054","seamark:light:character":"Fl","seamark:light:colour":"white","seamark:light:period":"5","seamark:name":"Castilla","seamark:type":"light_minor","source":"Philippine Coast Guard, 2019 lighthouse masterlist"}}},{"type":"Feature","geometry":{"type":"Point","coordinates":[123.3788654,12.5415959]},"properties":{"osm_id":6899835147,"osm_type":"node","seamark_type":"light_minor","display_class":"LIGHTHOUSE","min_zoom":7,"importance":5,"name":"Colorada","ref":null,"common":{"name":"Colorada","type":"light_minor"},"children":{"light":{"character":"Fl","colour":"red","group":"2","period":"5"}},"osm_tags":{"addr:province":"Masbate","addr:town":"Aroroy","building:material":"concrete","man_made":"lighthouse","name":"Colorada Lighthouse","operator":"Masbate Station, Philippine Coast Guard","ref:pcg":"BCL-033","seamark:light:character":"Fl","seamark:light:colour":"red","seamark:light:group":"2","seamark:light:period":"5","seamark:name":"Colorada","seamark:type":"light_minor","source":"Philippine Coast Guard, 2019 lighthouse masterlist"}}},{"type":"Feature","geometry":{"type":"Point","coordinates":[123.5921212,12.905551]},"properties":{"osm_id":7103958092,"osm_type":"node","seamark_type":"light_major","display_class":"LIGHTHOUSE","min_zoom":7,"importance":5,"name":"Donsol","ref":null,"common":{"name":"Donsol","type":"light_major"},"children":{"light":{"character":"Fl","colour":"red","group":"3","period":"10"}},"osm_tags":{"addr:municipality":"Donsol","addr:province":"Sorsogon","addr:village":"Waling-waling","man_made":"lighthouse","name":"Donsol Lighthouse","operator":"Sorsogon Station, Philippine Coast Guard","ref:pcg":"BCL-056","seamark:light:character":"Fl","seamark:light:colour":"red","seamark:light:group":"3","seamark:light:period":"10","seamark:name":"Donsol","seamark:type":"light_major","source":"Philippine Coast Guard, 2019 lighthouse masterlist"}}},{"type":"Feature","geometry":{"type":"Point","coordinates":[123.7729264,12.8752792]},"properties":{"osm_id":6880030839,"osm_type":"node","seamark_type":"light_minor","display_class":"LIGHTHOUSE","min_zoom":7,"importance":5,"name":"Macalaya","ref":null,"common":{"name":"Macalaya","type":"light_minor"},"children":{"light":{"character":"Fl","colour":"white","group":"2","period":"10"}},"osm_tags":{"addr:municipality":"Castilla","addr:province":"Sorsogon","man_made":"lighthouse","name":"Macalaya Lighthouse","operator":"Sorsogon Station, Philippine Coast Guard","seamark:light:character":"Fl","seamark:light:colour":"white","seamark:light:group":"2","seamark:light:period":"10","seamark:name":"Macalaya","seamark:type":"light_minor","source":"Philippine Coast Guard, 2019 lighthouse masterlist","start_date":"1994-06-12"}}},{"type":"Feature","geometry":{"type":"Point","coordinates":[123.1995358,12.8441603]},"properties":{"osm_id":7103842102,"osm_type":"node","seamark_type":"light_major","display_class":"LIGHTHOUSE","min_zoom":7,"importance":5,"name":"Malapingan","ref":null,"common":{"name":"Malapingan","type":"light_major"},"children":{"light":{"colour":"white","group":"2","period":"10"}},"osm_tags":{"addr:city":"Claveria","addr:province":"Masbate","man_made":"lighthouse","operator":"Masbate Station, Philippine Coast Guard","ref:pcg":"BCL-034","seamark:light:colour":"white","seamark:light:group":"2","seamark:light:period":"10","seamark:name":"Malapingan","seamark:type":"light_major","source":"Philippine Coast Guard"}}},{"type":"Feature","geometry":{"type":"Point","coordinates":[123.6098036,12.3786639]},"properties":{"osm_id":6899883666,"osm_type":"node","seamark_type":"light_minor","display_class":"LIGHTHOUSE","min_zoom":7,"importance":5,"name":"Masbate","ref":null,"common":{"name":"Masbate","type":"light_minor"},"children":{"light":{"character":"Fl","colour":"red","period":"5"}},"osm_tags":{"addr:municipality":"Masbate","addr:province":"Masbate","building:material":"glass_reinforced_plastic","man_made":"lighthouse","name":"Masbate Lighthouse","operator":"Masbate Station, Philippine Coast Guard","ref:pcg":"BCL-035","seamark:light:character":"Fl","seamark:light:colour":"red","seamark:light:period":"5","seamark:name":"Masbate","seamark:type":"light_minor","source":"Philippine Coast Guard, 2019 lighthouse masterlist","start_date":"2008-04-27"}}},{"type":"Feature","geometry":{"type":"Point","coordinates":[123.8091218,12.3091111]},"properties":{"osm_id":1271040546,"osm_type":"node","seamark_type":"light_minor","display_class":"LIGHTHOUSE","min_zoom":7,"importance":5,"name":"Matabao","ref":null,"common":{"name":"Matabao","type":"light_minor"},"children":{"light":{"character":"Fl","colour":"white","height":"32","period":"5","range":"10","reference":"F 2498"}},"osm_tags":{"addr:province":"Masbate","addr:town":"Matabao","building:material":"concrete","man_made":"lighthouse","name":"Matabao Lighthouse","operator":"Masbate Station, Philippine Coast Guard","ref:pcg":"BCL-036","seamark:light:character":"Fl","seamark:light:colour":"white","seamark:light:height":"32","seamark:light:period":"5","seamark:light:range":"10","seamark:light:reference":"F 2498","seamark:name":"Matabao","seamark:type":"light_minor","source":"Philippine Coast Guard, 2019 lighthouse masterlist"}}},{"type":"Feature","geometry":{"type":"Point","coordinates":[123.2269109,12.2196777]},"properties":{"osm_id":6900271844,"osm_type":"node","seamark_type":"light_minor","display_class":"LIGHTHOUSE","min_zoom":7,"importance":5,"name":"Pagbulungan","ref":null,"common":{"name":"Pagbulungan","type":"light_minor"},"children":{"light":{"character":"Fl","colour":"white","group":"2","period":"4"}},"osm_tags":{"addr:province":"Masbate","addr:town":"Mandaon","building:material":"glass_reinforced_plastic","man_made":"lighthouse","name":"Pagbulungan Lighthouse","operator":"Masbate Station, Philippine Coast Guard","ref:pcg":"BCL-038","seamark:light:character":"Fl","seamark:light:colour":"white","seamark:light:group":"2","seamark:light:period":"4","seamark:name":"Pagbulungan","seamark:type":"light_minor","source":"Philippine Coast Guard, 2019 lighthouse masterlist"}}},{"type":"Feature","geometry":{"type":"Point","coordinates":[123.6616341,12.8894967]},"properties":{"osm_id":1271040127,"osm_type":"node","seamark_type":"light_minor","display_class":"LIGHTHOUSE","min_zoom":7,"importance":5,"name":"Pilar","ref":null,"common":{"name":"Pilar","type":"light_minor"},"children":{"light":{"character":"Fl","colour":"green","group":"3","period":"3","reference":"F 2535"}},"osm_tags":{"addr:province":"Sorsogon","addr:town":"Pilar","man_made":"lighthouse","name":"Pilar Lighthouse","operator":"Sorsogon Station, Philippine Coast Guard","seamark:light:character":"Fl","seamark:light:colour":"green","seamark:light:group":"3","seamark:light:period":"3","seamark:light:reference":"F 2535","seamark:name":"Pilar","seamark:type":"light_minor","source":"Philippine Coast Guard, 2019 lighthouse masterlist"}}},{"type":"Feature","geometry":{"type":"Point","coordinates":[123.3758287,12.6998768]},"properties":{"osm_id":6884934155,"osm_type":"node","seamark_type":"light_minor","display_class":"LIGHTHOUSE","min_zoom":7,"importance":5,"name":"Punta Aguja","ref":null,"common":{"name":"Punta Aguja","type":"light_minor"},"children":{"light":{"character":"Fl","colour":"white","group":"1","period":"10"}},"osm_tags":{"addr:province":"Masbate","addr:town":"Claveria","man_made":"lighthouse","name":"Punta Aguja Lighthouse","operator":"Masbate Station, Philippine Coast Guard","seamark:light:character":"Fl","seamark:light:colour":"white","seamark:light:group":"1","seamark:light:period":"10","seamark:name":"Punta Aguja","seamark:type":"light_minor","source":"Philippine Coast Guard, 2019 lighthouse masterlist"}}},{"type":"Feature","geometry":{"type":"Point","coordinates":[123.7326944,12.5711551]},"properties":{"osm_id":6899519900,"osm_type":"node","seamark_type":"light_minor","display_class":"LIGHTHOUSE","min_zoom":7,"importance":5,"name":"San Jacinto","ref":null,"common":{"name":"San Jacinto","type":"light_minor"},"children":{"light":{"character":"Fl","colour":"red","period":"5"}},"osm_tags":{"addr:province":"Masbate","addr:town":"San Jacinto","building:material":"concrete","man_made":"lighthouse","name":"San Jacinto Lighthouse","operator":"Masbate Station, Philippine Coast Guard","ref:pcg":"BCL-042","seamark:light:character":"Fl","seamark:light:colour":"red","seamark:light:period":"5","seamark:name":"San Jacinto","seamark:type":"light_minor","source":"Philippine Coast Guard, 2019 lighthouse masterlist"}}},{"type":"Feature","geometry":{"type":"Point","coordinates":[123.5897136,12.7171248]},"properties":{"osm_id":5007051656,"osm_type":"node","seamark_type":"light_major","display_class":"LIGHTHOUSE","min_zoom":7,"importance":5,"name":"San Miguel","ref":null,"common":{"name":"San Miguel","type":"light_major"},"children":{"light":{"character":"Fl","colour":"white","group":"2","period":"5"}},"osm_tags":{"addr:municipality":"Monreal","addr:province":"Masbate","man_made":"lighthouse","name":"San Miguel Lighthouse","operator":"Masbate Station, Philippine Coast Guard","ref:pcg":"BCL-043","seamark:light:character":"Fl","seamark:light:colour":"white","seamark:light:group":"2","seamark:light:period":"5","seamark:name":"San Miguel","seamark:type":"light_major","source":"Philippine Coast Guard, 2019 lighthouse masterlist","start_date":"1991-06-30"}}},{"type":"Feature","geometry":{"type":"Point","coordinates":[123.7916225,12.8360884]},"properties":{"osm_id":6880042167,"osm_type":"node","seamark_type":"light_minor","display_class":"LIGHTHOUSE","min_zoom":7,"importance":5,"name":"Sorsogon Bay","ref":null,"common":{"name":"Sorsogon Bay","type":"light_minor"},"children":{"light":{"character":"Fl","colour":"red","period":"5"}},"osm_tags":{"addr:city":"Magallanes","addr:place":"Bagatao Island","addr:province":"Sorsogon","addr:village":"Behia","man_made":"lighthouse","name":"Sorsogon Bay Lighthouse","operator":"Sorsogon Station, Philippine Coast Guard","seamark:light:character":"Fl","seamark:light:colour":"red","seamark:light:period":"5","seamark:name":"Sorsogon Bay","seamark:type":"light_minor","source":"Philippine Coast Guard, 2019 lighthouse masterlist"}}},{"type":"Feature","geometry":{"type":"Point","coordinates":[123.2646945,12.810512]},"properties":{"osm_id":4054211416,"osm_type":"node","seamark_type":"rock","display_class":"OTHER","min_zoom":12,"importance":1,"name":null,"ref":null,"common":{"type":"rock"},"children":{"rock":{"water_level":"covers"}},"osm_tags":{"seamark:rock:water_level":"covers","seamark:type":"rock"}}},{"type":"Feature","geometry":{"type":"Point","coordinates":[123.385807,12.6946361]},"properties":{"osm_id":4054862977,"osm_type":"node","seamark_type":"rock","display_class":"OTHER","min_zoom":12,"importance":1,"name":null,"ref":null,"common":{"type":"rock"},"children":{"rock":{"water_level":"covers"}},"osm_tags":{"seamark:rock:water_level":"covers","seamark:type":"rock"}}},{"type":"Feature","geometry":{"type":"Point","coordinates":[123.374366,12.6952942]},"properties":{"osm_id":4054862988,"osm_type":"node","seamark_type":"rock","display_class":"OTHER","min_zoom":12,"importance":1,"name":null,"ref":null,"common":{"type":"rock"},"children":{"rock":{"water_level":"covers"}},"osm_tags":{"seamark:rock:water_level":"covers","seamark:type":"rock"}}},{"type":"Feature","geometry":{"type":"Point","coordinates":[123.3612473,12.6954617]},"properties":{"osm_id":4054864990,"osm_type":"node","seamark_type":"rock","display_class":"OTHER","min_zoom":12,"importance":1,"name":null,"ref":null,"common":{"type":"rock"},"children":{"rock":{"water_level":"covers"}},"osm_tags":{"seamark:rock:water_level":"covers","seamark:type":"rock"}}},{"type":"Feature","geometry":{"type":"Point","coordinates":[123.3490915,12.7082646]},"properties":{"osm_id":4054865037,"osm_type":"node","seamark_type":"rock","display_class":"OTHER","min_zoom":12,"importance":1,"name":null,"ref":null,"common":{"type":"rock"},"children":{"rock":{"water_level":"covers"}},"osm_tags":{"seamark:rock:water_level":"covers","seamark:type":"rock"}}},{"type":"Feature","geometry":{"type":"Point","coordinates":[123.3490942,12.7088271]},"properties":{"osm_id":4054865038,"osm_type":"node","seamark_type":"rock","display_class":"OTHER","min_zoom":12,"importance":1,"name":null,"ref":null,"common":{"type":"rock"},"children":{"rock":{"water_level":"covers"}},"osm_tags":{"seamark:rock:water_level":"covers","seamark:type":"rock"}}},{"type":"Feature","geometry":{"type":"Point","coordinates":[123.3457736,12.7131338]},"properties":{"osm_id":4054865044,"osm_type":"node","seamark_type":"rock","display_class":"OTHER","min_zoom":12,"importance":1,"name":null,"ref":null,"common":{"type":"rock"},"children":{"rock":{"water_level":"covers"}},"osm_tags":{"seamark:rock:water_level":"covers","seamark:type":"rock"}}},{"type":"Feature","geometry":{"type":"Point","coordinates":[123.3454545,12.7134426]},"properties":{"osm_id":4054865046,"osm_type":"node","seamark_type":"rock","display_class":"OTHER","min_zoom":12,"importance":1,"name":null,"ref":null,"common":{"type":"rock"},"children":{"rock":{"water_level":"covers"}},"osm_tags":{"seamark:rock:water_level":"covers","seamark:type":"rock"}}},{"type":"Feature","geometry":{"type":"Point","coordinates":[123.3454464,12.7138769]},"properties":{"osm_id":4054865047,"osm_type":"node","seamark_type":"rock","display_class":"OTHER","min_zoom":12,"importance":1,"name":null,"ref":null,"common":{"type":"rock"},"children":{"rock":{"water_level":"covers"}},"osm_tags":{"seamark:rock:water_level":"covers","seamark:type":"rock"}}},{"type":"Feature","geometry":{"type":"Point","coordinates":[123.3429949,12.7151145]},"properties":{"osm_id":4054865052,"osm_type":"node","seamark_type":"rock","display_class":"OTHER","min_zoom":12,"importance":1,"name":null,"ref":null,"common":{"type":"rock"},"children":{"rock":{"water_level":"covers"}},"osm_tags":{"seamark:rock:water_level":"covers","seamark:type":"rock"}}},{"type":"Feature","geometry":{"type":"Point","coordinates":[123.3433436,12.716127]},"properties":{"osm_id":4054865054,"osm_type":"node","seamark_type":"rock","display_class":"OTHER","min_zoom":12,"importance":1,"name":null,"ref":null,"common":{"type":"rock"},"children":{"rock":{"water_level":"covers"}},"osm_tags":{"seamark:rock:water_level":"covers","seamark:type":"rock"}}},{"type":"Feature","geometry":{"type":"Point","coordinates":[123.3434991,12.7163311]},"properties":{"osm_id":4054865055,"osm_type":"node","seamark_type":"rock","display_class":"OTHER","min_zoom":12,"importance":1,"name":null,"ref":null,"common":{"type":"rock"},"children":{"rock":{"water_level":"covers"}},"osm_tags":{"seamark:rock:water_level":"covers","seamark:type":"rock"}}},{"type":"Feature","geometry":{"type":"Point","coordinates":[123.3365616,12.7209831]},"properties":{"osm_id":4054865088,"osm_type":"node","seamark_type":"rock","display_class":"OTHER","min_zoom":12,"importance":1,"name":null,"ref":null,"common":{"type":"rock"},"children":{"rock":{"water_level":"covers"}},"osm_tags":{"seamark:rock:water_level":"covers","seamark:type":"rock"}}},{"type":"Feature","geometry":{"type":"Point","coordinates":[123.320459,12.7432415]},"properties":{"osm_id":4054865275,"osm_type":"node","seamark_type":"rock","display_class":"OTHER","min_zoom":12,"importance":1,"name":null,"ref":null,"common":{"type":"rock"},"children":{"rock":{"water_level":"covers"}},"osm_tags":{"seamark:rock:water_level":"covers","seamark:type":"rock"}}},{"type":"Feature","geometry":{"type":"Point","coordinates":[123.3313963,12.7659571]},"properties":{"osm_id":4054865346,"osm_type":"node","seamark_type":"rock","display_class":"OTHER","min_zoom":12,"importance":1,"name":null,"ref":null,"common":{"type":"rock"},"children":{"rock":{"water_level":"covers"}},"osm_tags":{"seamark:rock:water_level":"covers","seamark:type":"rock"}}},{"type":"Feature","geometry":{"type":"Point","coordinates":[123.3277646,12.7722352]},"properties":{"osm_id":4054865363,"osm_type":"node","seamark_type":"rock","display_class":"OTHER","min_zoom":12,"importance":1,"name":null,"ref":null,"common":{"type":"rock"},"children":{"rock":{"water_level":"covers"}},"osm_tags":{"seamark:rock:water_level":"covers","seamark:type":"rock"}}},{"type":"Feature","geometry":{"type":"Point","coordinates":[123.3170867,12.7854854]},"properties":{"osm_id":4054865424,"osm_type":"node","seamark_type":"rock","display_class":"OTHER","min_zoom":12,"importance":1,"name":null,"ref":null,"common":{"type":"rock"},"children":{"rock":{"water_level":"covers"}},"osm_tags":{"seamark:rock:water_level":"covers","seamark:type":"rock"}}},{"type":"Feature","geometry":{"type":"Point","coordinates":[123.3128556,12.7859589]},"properties":{"osm_id":4054865433,"osm_type":"node","seamark_type":"rock","display_class":"OTHER","min_zoom":12,"importance":1,"name":null,"ref":null,"common":{"type":"rock"},"children":{"rock":{"water_level":"covers"}},"osm_tags":{"seamark:rock:water_level":"covers","seamark:type":"rock"}}},{"type":"Feature","geometry":{"type":"Point","coordinates":[123.316333,12.7870417]},"properties":{"osm_id":4054865436,"osm_type":"node","seamark_type":"rock","display_class":"OTHER","min_zoom":12,"importance":1,"name":null,"ref":null,"common":{"type":"rock"},"children":{"rock":{"water_level":"covers"}},"osm_tags":{"seamark:rock:water_level":"covers","seamark:type":"rock"}}},{"type":"Feature","geometry":{"type":"Point","coordinates":[123.316097,12.7877166]},"properties":{"osm_id":4054865440,"osm_type":"node","seamark_type":"rock","display_class":"OTHER","min_zoom":12,"importance":1,"name":null,"ref":null,"common":{"type":"rock"},"children":{"rock":{"water_level":"covers"}},"osm_tags":{"seamark:rock:water_level":"covers","seamark:type":"rock"}}},{"type":"Feature","geometry":{"type":"Point","coordinates":[123.3157403,12.7886373]},"properties":{"osm_id":4054865448,"osm_type":"node","seamark_type":"rock","display_class":"OTHER","min_zoom":12,"importance":1,"name":null,"ref":null,"common":{"type":"rock"},"children":{"rock":{"water_level":"covers"}},"osm_tags":{"seamark:rock:water_level":"covers","seamark:type":"rock"}}},{"type":"Feature","geometry":{"type":"Point","coordinates":[123.3154747,12.7891081]},"properties":{"osm_id":4054865451,"osm_type":"node","seamark_type":"rock","display_class":"OTHER","min_zoom":12,"importance":1,"name":null,"ref":null,"common":{"type":"rock"},"children":{"rock":{"water_level":"covers"}},"osm_tags":{"seamark:rock:water_level":"covers","seamark:type":"rock"}}},{"type":"Feature","geometry":{"type":"Point","coordinates":[123.3068434,12.7893854]},"properties":{"osm_id":4054865453,"osm_type":"node","seamark_type":"rock","display_class":"OTHER","min_zoom":12,"importance":1,"name":null,"ref":null,"common":{"type":"rock"},"children":{"rock":{"water_level":"covers"}},"osm_tags":{"seamark:rock:water_level":"covers","seamark:type":"rock"}}},{"type":"Feature","geometry":{"type":"Point","coordinates":[123.3152588,12.7897189]},"properties":{"osm_id":4054865456,"osm_type":"node","seamark_type":"rock","display_class":"OTHER","min_zoom":12,"importance":1,"name":null,"ref":null,"common":{"type":"rock"},"children":{"rock":{"water_level":"covers"}},"osm_tags":{"seamark:rock:water_level":"covers","seamark:type":"rock"}}},{"type":"Feature","geometry":{"type":"Point","coordinates":[123.2833204,12.8543625]},"properties":{"osm_id":4054865552,"osm_type":"node","seamark_type":"rock","display_class":"OTHER","min_zoom":12,"importance":1,"name":null,"ref":null,"common":{"type":"rock"},"children":{"rock":{"water_level":"covers"}},"osm_tags":{"seamark:rock:water_level":"covers","seamark:type":"rock"}}},{"type":"Feature","geometry":{"type":"Point","coordinates":[123.2830469,12.8561146]},"properties":{"osm_id":4054865555,"osm_type":"node","seamark_type":"rock","display_class":"OTHER","min_zoom":12,"importance":1,"name":null,"ref":null,"common":{"type":"rock"},"children":{"rock":{"water_level":"covers"}},"osm_tags":{"seamark:rock:water_level":"covers","seamark:type":"rock"}}},{"type":"Feature","geometry":{"type":"Point","coordinates":[123.282961,12.8563813]},"properties":{"osm_id":4054865557,"osm_type":"node","seamark_type":"rock","display_class":"OTHER","min_zoom":12,"importance":1,"name":null,"ref":null,"common":{"type":"rock"},"children":{"rock":{"water_level":"covers"}},"osm_tags":{"seamark:rock:water_level":"covers","seamark:type":"rock"}}},{"type":"Feature","geometry":{"type":"Point","coordinates":[123.2813048,12.8793985]},"properties":{"osm_id":4054865580,"osm_type":"node","seamark_type":"rock","display_class":"OTHER","min_zoom":12,"importance":1,"name":null,"ref":null,"common":{"type":"rock"},"children":{"rock":{"water_level":"covers"}},"osm_tags":{"seamark:rock:water_level":"covers","seamark:type":"rock"}}},{"type":"Feature","geometry":{"type":"Point","coordinates":[123.2814872,12.8795946]},"properties":{"osm_id":4054865581,"osm_type":"node","seamark_type":"rock","display_class":"OTHER","min_zoom":12,"importance":1,"name":null,"ref":null,"common":{"type":"rock"},"children":{"rock":{"water_level":"covers"}},"osm_tags":{"seamark:rock:water_level":"covers","seamark:type":"rock"}}},{"type":"Feature","geometry":{"type":"Point","coordinates":[123.2820156,12.880264]},"properties":{"osm_id":4054865584,"osm_type":"node","seamark_type":"rock","display_class":"OTHER","min_zoom":12,"importance":1,"name":null,"ref":null,"common":{"type":"rock"},"children":{"rock":{"water_level":"covers"}},"osm_tags":{"seamark:rock:water_level":"covers","seamark:type":"rock"}}},{"type":"Feature","geometry":{"type":"Point","coordinates":[123.0660541,12.9757653]},"properties":{"osm_id":4059253871,"osm_type":"node","seamark_type":"rock","display_class":"OTHER","min_zoom":12,"importance":1,"name":null,"ref":null,"common":{"type":"rock"},"children":{"rock":{"water_level":"covers"}},"osm_tags":{"seamark:rock:water_level":"covers","seamark:type":"rock"}}},{"type":"Feature","geometry":{"type":"Point","coordinates":[123.3850778,12.6939851]},"properties":{"osm_id":1271040503,"osm_type":"node","seamark_type":"light_minor","display_class":"OTHER","min_zoom":12,"importance":1,"name":"Aguja Point","ref":null,"common":{"name":"Aguja Point","type":"light_minor"},"children":{"light":{"character":"Fl","colour":"white","period":"5","reference":"F 2503"}},"osm_tags":{"seamark:light:character":"Fl","seamark:light:colour":"white","seamark:light:period":"5","seamark:light:reference":"F 2503","seamark:name":"Aguja Point","seamark:type":"light_minor","source":"US NGA Pub. 112. 2009-11-12."}}},{"type":"Feature","geometry":{"type":"Point","coordinates":[123.4043337,12.5259872]},"properties":{"osm_id":302226608,"osm_type":"node","seamark_type":"rock","display_class":"OTHER","min_zoom":12,"importance":1,"name":"Catbatan Rock","ref":null,"common":{"type":"rock"},"children":{"rock":{"water_level":"awash"}},"osm_tags":{"name":"Catbatan Rock","seamark:rock:water_level":"awash","seamark:type":"rock","wikidata":"Q31497160"}}}],"type":"FeatureCollection"}