{"type":"FeatureCollection","features":[{"type":"Feature","geometry":{"type":"Point","coordinates":[-87.27218,12.5822881]},"properties":{"osm_id":13414925587,"osm_type":"node","seamark_type":"harbour","display_class":"OTHER","min_zoom":12,"importance":1,"name":"Puerto El Zapote","ref":null,"common":{"type":"harbour"},"children":{"harbour":{"category":"marina"}},"osm_tags":{"alt_name":"Puerto Zapote","geonames:id":"3617140","leisure":"marina","name":"Puerto El Zapote","note":"Approximate location and elevation based on satellite imagery (primary BingSat), OpenSRTM and OpenTopo map.","seamark:harbour:category":"marina","seamark:type":"harbour","source:id":"2753iv Isla de Aserradores - USGS OpenTopo map no E751X27534 (1986)","source:imagery":"BingSat, ESRI, and other open satellite imagery available to OSM as of 2026","source:url":"https://maps.lib.utexas.edu/maps/topo/nicaragua/","wikidata":"Q138761602"}}}],"type":"FeatureCollection"}