{"type":"FeatureCollection","features":[{"type":"Feature","geometry":{"type":"Point","coordinates":[-61.7245256,12.0036171]},"properties":{"osm_id":1888338603,"osm_type":"node","seamark_type":"harbour","display_class":"LIGHTHOUSE","min_zoom":7,"importance":5,"name":"Le Phare Bleu","ref":null,"common":{"type":"harbour"},"children":{"harbour":{"category":"marina"}},"osm_tags":{"leisure":"marina","name":"Le Phare Bleu","seamark:harbour:category":"marina","seamark:type":"harbour"}}},{"type":"Feature","geometry":{"type":"Point","coordinates":[-61.775145,12.0162929]},"properties":{"osm_id":1920867562,"osm_type":"node","seamark_type":"light_major","display_class":"LIGHTHOUSE","min_zoom":7,"importance":5,"name":"Petit Cabrits","ref":null,"common":{"name":"Petit Cabrits","type":"light_major"},"children":{"light":{"character":"Fl","colour":"white","group":"2+1","height":"108","period":"20","range":"18","reference":"J 5830.2","sequence":"0.4+(2.9)+0.4+(7.9)+0.4+(8)"}},"osm_tags":{"seamark:light:character":"Fl","seamark:light:colour":"white","seamark:light:group":"2+1","seamark:light:height":"108","seamark:light:period":"20","seamark:light:range":"18","seamark:light:reference":"J 5830.2","seamark:light:sequence":"0.4+(2.9)+0.4+(7.9)+0.4+(8)","seamark:name":"Petit Cabrits","seamark:type":"light_major","source":"US NGA Pub. 110. 2012-05-10."}}},{"type":"Feature","geometry":{"type":"Point","coordinates":[-61.7542263,12.0496458]},"properties":{"osm_id":1920867422,"osm_type":"node","seamark_type":"light_major","display_class":"LIGHTHOUSE","min_zoom":7,"importance":5,"name":"St. George's Harbor","ref":null,"common":{"information":"Visible 056° 30? -151° .R. light on tower 1 mile E.","name":"St. George's Harbor","type":"light_major"},"children":{"light":{"1:character":"F","1:colour":"red","1:height":"57","1:range":"15","1:sector_end":"151","1:sector_start":"56.5","reference":"J 5834"}},"osm_tags":{"seamark:information":"Visible 056° 30? -151° .R. light on tower 1 mile E.","seamark:light:1:character":"F","seamark:light:1:colour":"red","seamark:light:1:height":"57","seamark:light:1:range":"15","seamark:light:1:sector_end":"151","seamark:light:1:sector_start":"56.5","seamark:light:reference":"J 5834","seamark:name":"St. George's Harbor","seamark:type":"light_major","source":"US NGA Pub. 110. 2012-05-10."}}},{"type":"Feature","geometry":{"type":"Point","coordinates":[-61.4157475,12.5926924]},"properties":{"osm_id":1920867929,"osm_type":"node","seamark_type":"beacon_lateral","display_class":"BEACON","min_zoom":9,"importance":4,"name":null,"ref":null,"common":{"type":"beacon_lateral"},"children":{"beacon_lateral":{"category":"port","colour":"green","system":"iala-b"},"light":{"character":"Fl","colour":"green","reference":"J 5825.2"},"topmark":{"colour":"green","shape":"cylinder"}},"osm_tags":{"seamark:beacon_lateral:category":"port","seamark:beacon_lateral:colour":"green","seamark:beacon_lateral:system":"iala-b","seamark:light:character":"Fl","seamark:light:colour":"green","seamark:light:reference":"J 5825.2","seamark:topmark:colour":"green","seamark:topmark:shape":"cylinder","seamark:type":"beacon_lateral","source":"US NGA Pub. 110. 2012-05-10."}}},{"type":"Feature","geometry":{"type":"Point","coordinates":[-61.406147,12.5931123]},"properties":{"osm_id":1920867947,"osm_type":"node","seamark_type":"beacon_lateral","display_class":"BEACON","min_zoom":9,"importance":4,"name":null,"ref":null,"common":{"type":"beacon_lateral"},"children":{"beacon_lateral":{"category":"starboard","colour":"red","system":"iala-b"},"light":{"character":"Fl","colour":"red","reference":"J 5824.2"},"topmark":{"colour":"red","shape":"cone, point up"}},"osm_tags":{"seamark:beacon_lateral:category":"starboard","seamark:beacon_lateral:colour":"red","seamark:beacon_lateral:system":"iala-b","seamark:light:character":"Fl","seamark:light:colour":"red","seamark:light:reference":"J 5824.2","seamark:topmark:colour":"red","seamark:topmark:shape":"cone, point up","seamark:type":"beacon_lateral","source":"US NGA Pub. 110. 2012-05-10."}}},{"type":"Feature","geometry":{"type":"Point","coordinates":[-61.3343663,12.7073152]},"properties":{"osm_id":1920867974,"osm_type":"node","seamark_type":"beacon_lateral","display_class":"BEACON","min_zoom":9,"importance":4,"name":null,"ref":null,"common":{"type":"beacon_lateral"},"children":{"beacon_lateral":{"category":"starboard","colour":"red","system":"iala-b"},"light":{"character":"Fl","colour":"red","period":"4","reference":"J 5820.5"}},"osm_tags":{"seamark:beacon_lateral:category":"starboard","seamark:beacon_lateral:colour":"red","seamark:beacon_lateral:system":"iala-b","seamark:light:character":"Fl","seamark:light:colour":"red","seamark:light:period":"4","seamark:light:reference":"J 5820.5","seamark:type":"beacon_lateral","source":"US NGA Pub. 110. 2012-05-10."}}},{"type":"Feature","geometry":{"type":"Point","coordinates":[-61.3324195,12.7110355]},"properties":{"osm_id":1920867992,"osm_type":"node","seamark_type":"beacon_lateral","display_class":"BEACON","min_zoom":9,"importance":4,"name":"Grand Bay","ref":null,"common":{"name":"Grand Bay","type":"beacon_lateral"},"children":{"beacon_lateral":{"category":"port","colour":"green","system":"iala-b"},"light":{"character":"Fl","colour":"green","period":"4","reference":"J 5820.4"}},"osm_tags":{"seamark:beacon_lateral:category":"port","seamark:beacon_lateral:colour":"green","seamark:beacon_lateral:system":"iala-b","seamark:light:character":"Fl","seamark:light:colour":"green","seamark:light:period":"4","seamark:light:reference":"J 5820.4","seamark:name":"Grand Bay","seamark:type":"beacon_lateral","source":"US NGA Pub. 110. 2012-05-10."}}},{"type":"Feature","geometry":{"type":"Point","coordinates":[-61.4106886,12.5840582]},"properties":{"osm_id":1920867787,"osm_type":"node","seamark_type":"beacon_cardinal","display_class":"BEACON","min_zoom":9,"importance":4,"name":"Grand de Coi","ref":null,"common":{"name":"Grand de Coi","type":"beacon_cardinal"},"children":{"beacon_cardinal":{"category":"west","colour":"yellow;black;yellow","colour_pattern":"horizontal","shape":"pillar"},"light":{"character":"VQ","colour":"white","group":"9","period":"10","reference":"J 5823"}},"osm_tags":{"seamark:beacon_cardinal:category":"west","seamark:beacon_cardinal:colour":"yellow;black;yellow","seamark:beacon_cardinal:colour_pattern":"horizontal","seamark:beacon_cardinal:shape":"pillar","seamark:light:character":"VQ","seamark:light:colour":"white","seamark:light:group":"9","seamark:light:period":"10","seamark:light:reference":"J 5823","seamark:name":"Grand de Coi","seamark:type":"beacon_cardinal","source":"US NGA Pub. 110. 2012-05-10."}}},{"type":"Feature","geometry":{"type":"Point","coordinates":[-61.3944507,12.658763]},"properties":{"osm_id":1920868004,"osm_type":"node","seamark_type":"beacon_cardinal","display_class":"BEACON","min_zoom":9,"importance":4,"name":"Jondell","ref":null,"common":{"information":"J 5821.85","name":"Jondell","type":"beacon_cardinal"},"children":{"beacon_cardinal":{"category":"east","colour":"black;yellow;black","colour_pattern":"horizontal"},"light":{"character":"VQ","colour":"white","group":"3","period":"5","reference":"J 5821.85"}},"osm_tags":{"seamark:beacon_cardinal:category":"east","seamark:beacon_cardinal:colour":"black;yellow;black","seamark:beacon_cardinal:colour_pattern":"horizontal","seamark:information":"J 5821.85","seamark:light:character":"VQ","seamark:light:colour":"white","seamark:light:group":"3","seamark:light:period":"5","seamark:light:reference":"J 5821.85","seamark:name":"Jondell","seamark:type":"beacon_cardinal","source":"US NGA Pub. 110. 2012-05-10."}}},{"type":"Feature","geometry":{"type":"Point","coordinates":[-61.2003315,12.8812001]},"properties":{"osm_id":1920867897,"osm_type":"node","seamark_type":"beacon_isolated_danger","display_class":"BEACON","min_zoom":9,"importance":4,"name":"Montezuma Shoal","ref":null,"common":{"name":"Montezuma Shoal","type":"beacon_isolated_danger"},"children":{"beacon_isolated_danger":{"colour":"black;red;black","colour_pattern":"horizontal"},"light":{"character":"Fl","colour":"white","group":"2","reference":"J 5819.5"},"topmark":{"colour":"black","shape":"2 spheres"}},"osm_tags":{"seamark:beacon_isolated_danger:colour":"black;red;black","seamark:beacon_isolated_danger:colour_pattern":"horizontal","seamark:light:character":"Fl","seamark:light:colour":"white","seamark:light:group":"2","seamark:light:reference":"J 5819.5","seamark:name":"Montezuma Shoal","seamark:topmark:colour":"black","seamark:topmark:shape":"2 spheres","seamark:type":"beacon_isolated_danger","source":"US NGA Pub. 110. 2012-05-10."}}},{"type":"Feature","geometry":{"type":"Point","coordinates":[-61.4138092,12.5933474]},"properties":{"osm_id":1920867953,"osm_type":"node","seamark_type":"beacon_lateral","display_class":"BEACON","min_zoom":9,"importance":4,"name":"Roundabout Reef","ref":null,"common":{"name":"Roundabout Reef","type":"beacon_lateral"},"children":{"beacon_lateral":{"category":"starboard","colour":"red","system":"iala-b"},"light":{"character":"Fl","colour":"red","reference":"J 5825"},"topmark":{"colour":"red","shape":"cone, point up"}},"osm_tags":{"seamark:beacon_lateral:category":"starboard","seamark:beacon_lateral:colour":"red","seamark:beacon_lateral:system":"iala-b","seamark:light:character":"Fl","seamark:light:colour":"red","seamark:light:reference":"J 5825","seamark:name":"Roundabout Reef","seamark:topmark:colour":"red","seamark:topmark:shape":"cone, point up","seamark:type":"beacon_lateral","source":"US NGA Pub. 110. 2012-05-10."}}},{"type":"Feature","geometry":{"type":"Point","coordinates":[-61.4109615,12.5922397]},"properties":{"osm_id":1920867942,"osm_type":"node","seamark_type":"beacon_lateral","display_class":"BEACON","min_zoom":9,"importance":4,"name":"Thompson reef","ref":null,"common":{"name":"Thompson reef","type":"beacon_lateral"},"children":{"beacon_lateral":{"category":"starboard","colour":"red","system":"iala-b"},"light":{"character":"Fl","colour":"red","reference":"J 5824"},"topmark":{"colour":"red","shape":"cone, point up"}},"osm_tags":{"seamark:beacon_lateral:category":"starboard","seamark:beacon_lateral:colour":"red","seamark:beacon_lateral:system":"iala-b","seamark:light:character":"Fl","seamark:light:colour":"red","seamark:light:reference":"J 5824","seamark:name":"Thompson reef","seamark:topmark:colour":"red","seamark:topmark:shape":"cone, point up","seamark:type":"beacon_lateral","source":"US NGA Pub. 110. 2012-05-10."}}},{"type":"Feature","geometry":{"type":"Point","coordinates":[-61.7455011,12.049645]},"properties":{"osm_id":1920866937,"osm_type":"node","seamark_type":"light_minor","display_class":"OTHER","min_zoom":12,"importance":1,"name":null,"ref":null,"common":{"type":"light_minor"},"children":{"light":{"category":"lower","character":"F","colour":"red","height":"31","reference":"J 5834.4"}},"osm_tags":{"seamark:light:category":"lower","seamark:light:character":"F","seamark:light:colour":"red","seamark:light:height":"31","seamark:light:reference":"J 5834.4","seamark:type":"light_minor","source":"US NGA Pub. 110. 2012-05-10."}}},{"type":"Feature","geometry":{"type":"Point","coordinates":[-61.7410412,12.0512863]},"properties":{"osm_id":1920867062,"osm_type":"node","seamark_type":"light_minor","display_class":"OTHER","min_zoom":12,"importance":1,"name":null,"ref":null,"common":{"information":"stripe.","type":"light_minor"},"children":{"light":{"category":"upper","character":"F","colour":"red","height":"91","reference":"J 5834.5"}},"osm_tags":{"seamark:information":"stripe.","seamark:light:category":"upper","seamark:light:character":"F","seamark:light:colour":"red","seamark:light:height":"91","seamark:light:reference":"J 5834.5","seamark:type":"light_minor","source":"US NGA Pub. 110. 2012-05-10."}}},{"type":"Feature","geometry":{"type":"Point","coordinates":[-61.7524654,12.0409514]},"properties":{"osm_id":1920867214,"osm_type":"node","seamark_type":"light_minor","display_class":"OTHER","min_zoom":12,"importance":1,"name":null,"ref":null,"common":{"information":"stripe.","type":"light_minor"},"children":{"light":{"category":"upper","character":"F","colour":"red","height":"28","reference":"J 5834.3"}},"osm_tags":{"seamark:information":"stripe.","seamark:light:category":"upper","seamark:light:character":"F","seamark:light:colour":"red","seamark:light:height":"28","seamark:light:reference":"J 5834.3","seamark:type":"light_minor","source":"US NGA Pub. 110. 2012-05-10."}}},{"type":"Feature","geometry":{"type":"Point","coordinates":[-61.7531014,12.0414576]},"properties":{"osm_id":1920867297,"osm_type":"node","seamark_type":"light_minor","display_class":"OTHER","min_zoom":12,"importance":1,"name":null,"ref":null,"common":{"information":"R. lights on radio masts 1.7 miles SW.","type":"light_minor"},"children":{"light":{"category":"lower","character":"F","colour":"red","height":"14","reference":"J 5834.2"}},"osm_tags":{"seamark:information":"R. lights on radio masts 1.7 miles SW.","seamark:light:category":"lower","seamark:light:character":"F","seamark:light:colour":"red","seamark:light:height":"14","seamark:light:reference":"J 5834.2","seamark:type":"light_minor","source":"US NGA Pub. 110. 2012-05-10."}}},{"type":"Feature","geometry":{"type":"Point","coordinates":[-61.3292319,12.7044125]},"properties":{"osm_id":1920867937,"osm_type":"node","seamark_type":"light_minor","display_class":"OTHER","min_zoom":12,"importance":1,"name":null,"ref":null,"common":{"type":"light_minor"},"children":{"light":{"character":"F","colour":"white","reference":"J 5821.3"}},"osm_tags":{"seamark:light:character":"F","seamark:light:colour":"white","seamark:light:reference":"J 5821.3","seamark:type":"light_minor","source":"US NGA Pub. 110. 2012-05-10."}}},{"type":"Feature","geometry":{"type":"Point","coordinates":[-61.3256975,12.7128303]},"properties":{"osm_id":1920867961,"osm_type":"node","seamark_type":"light_minor","display_class":"OTHER","min_zoom":12,"importance":1,"name":null,"ref":null,"common":{"information":"Visible on range line only.","type":"light_minor"},"children":{"light":{"category":"upper","character":"Fl","colour":"white","height":"28","period":"5","range":"5","reference":"J 5820.1"}},"osm_tags":{"seamark:information":"Visible on range line only.","seamark:light:category":"upper","seamark:light:character":"Fl","seamark:light:colour":"white","seamark:light:height":"28","seamark:light:period":"5","seamark:light:range":"5","seamark:light:reference":"J 5820.1","seamark:type":"light_minor","source":"US NGA Pub. 110. 2012-05-10."}}},{"type":"Feature","geometry":{"type":"Point","coordinates":[-61.7549166,12.0549991]},"properties":{"osm_id":2014282631,"osm_type":"node","seamark_type":"harbour","display_class":"OTHER","min_zoom":12,"importance":1,"name":null,"ref":null,"common":{"type":"harbour"},"children":{"harbour":{"category":"marina"}},"osm_tags":{"leisure":"marina","seamark:harbour:category":"marina","seamark:type":"harbour","source":"KG Ground Survey 2015"}}},{"type":"Feature","geometry":{"type":"Point","coordinates":[-61.7480751,12.0464212]},"properties":{"osm_id":4781481499,"osm_type":"node","seamark_type":"small_craft_facility","display_class":"OTHER","min_zoom":12,"importance":1,"name":null,"ref":null,"common":{"type":"small_craft_facility"},"children":{"small_craft_facility":{"category":"fuel_station"}},"osm_tags":{"fuel:diesel":"yes","fuel:octane_95":"yes","payment:american_express":"yes","payment:cash":"yes","payment:mastercard":"yes","payment:visa":"yes","seamark:small_craft_facility:category":"fuel_station","seamark:type":"small_craft_facility","waterway":"fuel"}}},{"type":"Feature","geometry":{"type":"Point","coordinates":[-61.3972449,12.6346537]},"properties":{"osm_id":7353824458,"osm_type":"node","seamark_type":"anchorage","display_class":"OTHER","min_zoom":12,"importance":1,"name":null,"ref":null,"common":{"type":"anchorage"},"children":{},"osm_tags":{"amenity":"Anchorage","seamark:type":"anchorage"}}},{"type":"Feature","geometry":{"type":"Point","coordinates":[-61.4742653,12.4788335]},"properties":{"osm_id":10245698981,"osm_type":"node","seamark_type":"wreck","display_class":"OTHER","min_zoom":12,"importance":1,"name":null,"ref":null,"common":{"type":"wreck"},"children":{},"osm_tags":{"historic":"wreck","seamark:type":"wreck"}}},{"type":"Feature","geometry":{"type":"Point","coordinates":[-61.5066667,12.4566667]},"properties":{"osm_id":10259428757,"osm_type":"node","seamark_type":"pilot_boarding","display_class":"OTHER","min_zoom":12,"importance":1,"name":null,"ref":null,"common":{"type":"pilot_boarding"},"children":{},"osm_tags":{"seamark:type":"pilot_boarding"}}},{"type":"Feature","geometry":{"type":"Point","coordinates":[-61.76,12.075]},"properties":{"osm_id":10259439848,"osm_type":"node","seamark_type":"mooring","display_class":"OTHER","min_zoom":12,"importance":1,"name":null,"ref":null,"common":{"type":"mooring"},"children":{"mooring":{"category":"buoy","shape":"barrel"}},"osm_tags":{"seamark:mooring:category":"buoy","seamark:mooring:shape":"barrel","seamark:type":"mooring"}}},{"type":"Feature","geometry":{"type":"Point","coordinates":[-61.7549768,12.0549921]},"properties":{"osm_id":11212421119,"osm_type":"node","seamark_type":"harbour","display_class":"OTHER","min_zoom":12,"importance":1,"name":null,"ref":null,"common":{"type":"harbour"},"children":{"harbour":{"category":"marina"}},"osm_tags":{"leisure":"marina","seamark:harbour:category":"marina","seamark:type":"harbour","source":"KG Ground Survey 2015"}}},{"type":"Feature","geometry":{"type":"Point","coordinates":[-61.4023304,12.6395283]},"properties":{"osm_id":13709704966,"osm_type":"node","seamark_type":"wreck","display_class":"OTHER","min_zoom":12,"importance":1,"name":null,"ref":null,"common":{"type":"wreck"},"children":{"wreck":{"marked":"no"}},"osm_tags":{"depth":"8","historic":"shipwreck","seamark:type":"wreck","seamark:wreck:marked":"no","wreck":"yes"}}},{"type":"Feature","geometry":{"type":"Polygon","coordinates":[[[-61.3535625,12.6701879],[-61.3537109,12.6701414],[-61.3534989,12.6697899],[-61.3534512,12.6696245],[-61.3533029,12.6695056],[-61.3533347,12.6693557],[-61.353144,12.6692058],[-61.3532658,12.6691386],[-61.3534406,12.6691593],[-61.3533665,12.6689784],[-61.3529479,12.6691851],[-61.3531228,12.6694746],[-61.3532605,12.6696607],[-61.353393,12.6698261],[-61.3535466,12.6700122],[-61.3535625,12.6701879]]]},"properties":{"osm_id":1496626246,"osm_type":"way","seamark_type":"rock","display_class":"OTHER","min_zoom":12,"importance":1,"name":null,"ref":null,"common":{"type":"rock"},"children":{},"osm_tags":{"natural":"coastline","place":"islet","seamark:type":"rock"}}},{"type":"Feature","geometry":{"type":"Polygon","coordinates":[[[-61.395868,12.6588888],[-61.3958884,12.6587247],[-61.3959292,12.6585655],[-61.3959495,12.6584686],[-61.3958221,12.6586849],[-61.3958094,12.6587893],[-61.395868,12.6588888]]]},"properties":{"osm_id":1496626247,"osm_type":"way","seamark_type":"rock","display_class":"OTHER","min_zoom":12,"importance":1,"name":null,"ref":null,"common":{"type":"rock"},"children":{},"osm_tags":{"natural":"bare_rock","seamark:type":"rock"}}},{"type":"Feature","geometry":{"type":"Point","coordinates":[-61.4353017,12.5916578]},"properties":{"osm_id":2356449041,"osm_type":"node","seamark_type":"harbour","display_class":"OTHER","min_zoom":12,"importance":1,"name":"Ashton Harbour","ref":null,"common":{"type":"harbour"},"children":{},"osm_tags":{"harbour":"yes","name":"Ashton Harbour","place":"locality","seamark:type":"harbour"}}},{"type":"Feature","geometry":{"type":"Point","coordinates":[-61.4340916,12.5881743]},"properties":{"osm_id":2387719461,"osm_type":"node","seamark_type":"harbour","display_class":"OTHER","min_zoom":12,"importance":1,"name":"Ashton Marina (Abandoned)","ref":null,"common":{"type":"harbour"},"children":{"harbour":{"category":"marina"}},"osm_tags":{"leisure":"marina","name":"Ashton Marina (Abandoned)","seamark:harbour:category":"marina","seamark:type":"harbour"}}},{"type":"Feature","geometry":{"type":"Point","coordinates":[-61.1302669,12.9647557]},"properties":{"osm_id":1920867838,"osm_type":"node","seamark_type":"light_minor","display_class":"OTHER","min_zoom":12,"importance":1,"name":"Battowia Island","ref":null,"common":{"name":"Battowia Island","type":"light_minor"},"children":{"light":{"character":"Fl","colour":"white","group":"2","height":"216","period":"20","range":"8","reference":"J 5819.4"}},"osm_tags":{"seamark:light:character":"Fl","seamark:light:colour":"white","seamark:light:group":"2","seamark:light:height":"216","seamark:light:period":"20","seamark:light:range":"8","seamark:light:reference":"J 5819.4","seamark:name":"Battowia Island","seamark:type":"light_minor","source":"US NGA Pub. 110. 2012-05-10."}}},{"type":"Feature","geometry":{"type":"Point","coordinates":[-61.3510069,12.7018955]},"properties":{"osm_id":5473687291,"osm_type":"node","seamark_type":"harbour","display_class":"OTHER","min_zoom":12,"importance":1,"name":"Beach Club (Glossy Bay Marina)","ref":null,"common":{"type":"harbour"},"children":{"harbour":{"category":"marina"}},"osm_tags":{"leisure":"marina","name":"Beach Club (Glossy Bay Marina)","seamark:harbour:category":"marina","seamark:type":"harbour"}}},{"type":"Feature","geometry":{"type":"Point","coordinates":[-61.4672668,12.4946782]},"properties":{"osm_id":1920868053,"osm_type":"node","seamark_type":"light_minor","display_class":"OTHER","min_zoom":12,"importance":1,"name":"Carriacou Island","ref":null,"common":{"information":"Visible 243° -182° .","name":"Carriacou Island","type":"light_minor"},"children":{"light":{"1:character":"Fl","1:colour":"green","1:height":"4","1:period":"5","1:range":"3","1:sector_end":"182","1:sector_start":"243","reference":"J 5827"}},"osm_tags":{"seamark:information":"Visible 243° -182° .","seamark:light:1:character":"Fl","seamark:light:1:colour":"green","seamark:light:1:height":"4","seamark:light:1:period":"5","seamark:light:1:range":"3","seamark:light:1:sector_end":"182","seamark:light:1:sector_start":"243","seamark:light:reference":"J 5827","seamark:name":"Carriacou Island","seamark:type":"light_minor","source":"US NGA Pub. 110. 2012-05-10."}}},{"type":"Feature","geometry":{"type":"Point","coordinates":[-61.40142,12.6607025]},"properties":{"osm_id":1920868090,"osm_type":"node","seamark_type":"light_minor","display_class":"OTHER","min_zoom":12,"importance":1,"name":"Catholic Island","ref":null,"common":{"name":"Catholic Island","type":"light_minor"},"children":{"light":{"character":"Fl","colour":"white","group":"2","height":"44","period":"20","range":"8","reference":"J 5821.8"}},"osm_tags":{"seamark:light:character":"Fl","seamark:light:colour":"white","seamark:light:group":"2","seamark:light:height":"44","seamark:light:period":"20","seamark:light:range":"8","seamark:light:reference":"J 5821.8","seamark:name":"Catholic Island","seamark:type":"light_minor","source":"US NGA Pub. 110. 2012-05-10."}}},{"type":"Feature","geometry":{"type":"Point","coordinates":[-61.33071,12.7024133]},"properties":{"osm_id":1920868002,"osm_type":"node","seamark_type":"light_minor","display_class":"OTHER","min_zoom":12,"importance":1,"name":"Charlestown Bay","ref":null,"common":{"name":"Charlestown Bay","type":"light_minor"},"children":{"light":{"category":"lower","character":"F","colour":"white","height":"5","reference":"J 5821"}},"osm_tags":{"seamark:light:category":"lower","seamark:light:character":"F","seamark:light:colour":"white","seamark:light:height":"5","seamark:light:reference":"J 5821","seamark:name":"Charlestown Bay","seamark:type":"light_minor","source":"US NGA Pub. 110. 2012-05-10."}}},{"type":"Feature","geometry":{"type":"Point","coordinates":[-61.7390243,12.0107885]},"properties":{"osm_id":5941014280,"osm_type":"node","seamark_type":"harbour","display_class":"OTHER","min_zoom":12,"importance":1,"name":"Clarkes Court Boatyard and Marina","ref":null,"common":{"type":"harbour"},"children":{"harbour":{"category":"marina"}},"osm_tags":{"leisure":"marina","name":"Clarkes Court Boatyard and Marina","seamark:harbour:category":"marina","seamark:type":"harbour"}}},{"type":"Feature","geometry":{"type":"Point","coordinates":[-61.413293,12.5959388]},"properties":{"osm_id":2356449046,"osm_type":"node","seamark_type":"harbour","display_class":"OTHER","min_zoom":12,"importance":1,"name":"Clifton Harbour","ref":null,"common":{"type":"harbour"},"children":{},"osm_tags":{"harbour":"yes","name":"Clifton Harbour","place":"locality","seamark:type":"harbour"}}},{"type":"Feature","geometry":{"type":"Point","coordinates":[-61.3265384,12.7109638]},"properties":{"osm_id":4001267392,"osm_type":"node","seamark_type":"harbour","display_class":"OTHER","min_zoom":12,"importance":1,"name":"Grand Bay","ref":null,"common":{"type":"harbour"},"children":{"harbour":{"category":"marina"}},"osm_tags":{"leisure":"marina","name":"Grand Bay","seamark:harbour:category":"marina","seamark:type":"harbour"}}},{"type":"Feature","geometry":{"type":"Point","coordinates":[-61.3286006,12.7060468]},"properties":{"osm_id":4001267393,"osm_type":"node","seamark_type":"harbour","display_class":"OTHER","min_zoom":12,"importance":1,"name":"Grand Bay","ref":null,"common":{"type":"harbour"},"children":{"harbour":{"category":"marina"}},"osm_tags":{"leisure":"marina","mooring":"yes","name":"Grand Bay","seamark:harbour:category":"marina","seamark:type":"harbour"}}},{"type":"Feature","geometry":{"type":"Point","coordinates":[-61.3320228,12.7037006]},"properties":{"osm_id":4001267394,"osm_type":"node","seamark_type":"harbour","display_class":"OTHER","min_zoom":12,"importance":1,"name":"Grand Bay","ref":null,"common":{"type":"harbour"},"children":{"harbour":{"category":"marina"}},"osm_tags":{"leisure":"marina","name":"Grand Bay","seamark:harbour:category":"marina","seamark:type":"harbour"}}},{"type":"Feature","geometry":{"type":"Point","coordinates":[-61.7477792,12.0464112]},"properties":{"osm_id":290287247,"osm_type":"node","seamark_type":"harbour","display_class":"OTHER","min_zoom":12,"importance":1,"name":"Grenada Yacht Club","ref":null,"common":{"type":"harbour"},"children":{"harbour":{"category":"marina"}},"osm_tags":{"fee":"yes","leisure":"marina","name":"Grenada Yacht Club","phone":"+1 473 440 6826","power_supply":"yes","sanitary_dump_station":"yes","seamark:harbour:category":"marina","seamark:type":"harbour","website":"https://www.grenadayachtclub.com"}}},{"type":"Feature","geometry":{"type":"Point","coordinates":[-61.3809888,12.5339641]},"properties":{"osm_id":8671614313,"osm_type":"node","seamark_type":"harbour","display_class":"OTHER","min_zoom":12,"importance":1,"name":"Harbour","ref":null,"common":{"type":"harbour"},"children":{"harbour":{"category":"marina"}},"osm_tags":{"leisure":"marina","name":"Harbour","seamark:harbour:category":"marina","seamark:type":"harbour"}}},{"type":"Feature","geometry":{"type":"Polygon","coordinates":[[[-61.2894419,12.9905411],[-61.2894441,12.9904901],[-61.2894223,12.9904178],[-61.2893983,12.9903327],[-61.2893678,12.9901882],[-61.2893394,12.9901308],[-61.2893176,12.9901265],[-61.2892958,12.990135],[-61.2892739,12.9901584],[-61.2892761,12.9902498],[-61.289311,12.9903944],[-61.2893525,12.9904837],[-61.2893939,12.990539],[-61.2894157,12.9905496],[-61.2894419,12.9905411]]]},"properties":{"osm_id":522759114,"osm_type":"way","seamark_type":"wreck","display_class":"OTHER","min_zoom":12,"importance":1,"name":"Love Divine","ref":null,"common":{"type":"wreck"},"children":{},"osm_tags":{"historic":"wreck","inscription":"\"Love Divine\" on the Rocks, in Bequia","name":"Love Divine","seamark:type":"wreck","wreck:date_sunk":"2012"}}},{"type":"Feature","geometry":{"type":"Point","coordinates":[-61.2800666,12.792303]},"properties":{"osm_id":1920867994,"osm_type":"node","seamark_type":"light_minor","display_class":"OTHER","min_zoom":12,"importance":1,"name":"Petit Cannouan Island","ref":null,"common":{"name":"Petit Cannouan Island","type":"light_minor"},"children":{"light":{"character":"Fl","colour":"white","group":"4","height":"77","period":"40","range":"8","reference":"J 5819.6"}},"osm_tags":{"seamark:light:character":"Fl","seamark:light:colour":"white","seamark:light:group":"4","seamark:light:height":"77","seamark:light:period":"40","seamark:light:range":"8","seamark:light:reference":"J 5819.6","seamark:name":"Petit Cannouan Island","seamark:type":"light_minor","source":"US NGA Pub. 110. 2012-05-10."}}},{"type":"Feature","geometry":{"type":"Point","coordinates":[-61.80155,12.0031122]},"properties":{"osm_id":1920867572,"osm_type":"node","seamark_type":"light_minor","display_class":"OTHER","min_zoom":12,"importance":1,"name":"Point Salines","ref":null,"common":{"name":"Point Salines","type":"light_minor"},"children":{"light":{"character":"Q","colour":"white","group":"9","period":"15","range":"7","reference":"J 5830.7"}},"osm_tags":{"seamark:light:character":"Q","seamark:light:colour":"white","seamark:light:group":"9","seamark:light:period":"15","seamark:light:range":"7","seamark:light:reference":"J 5830.7","seamark:name":"Point Salines","seamark:type":"light_minor","source":"US NGA Pub. 110. 2012-05-10."}}},{"type":"Feature","geometry":{"type":"Point","coordinates":[-61.7492008,12.0445657]},"properties":{"osm_id":1671392415,"osm_type":"node","seamark_type":"harbour","display_class":"OTHER","min_zoom":12,"importance":1,"name":"Port Louis Marina","ref":null,"common":{"type":"harbour"},"children":{"harbour":{"category":"marina"}},"osm_tags":{"designation":"Harbour","fee":"yes","leisure":"marina","name":"Port Louis Marina","operator":"Camper & Nicholsons Marinas","phone":"+1 473 435 7431","power_supply":"yes","sanitary_dump_station":"yes","seamark:harbour:category":"marina","seamark:type":"harbour","source":"Local Knowledge","vhf":"14","website":"https://cnmarinas.com/marinas/port-louis-marina/"}}},{"type":"Feature","geometry":{"type":"Point","coordinates":[-61.3906451,12.6475162]},"properties":{"osm_id":280047067,"osm_type":"node","seamark_type":"anchorage","display_class":"OTHER","min_zoom":12,"importance":1,"name":"Salt Whistle Anchorage","ref":null,"common":{"type":"anchorage"},"children":{},"osm_tags":{"amenity":"Anchorage","mooring":"yes","name":"Salt Whistle Anchorage","seamark:type":"anchorage"}}},{"type":"Feature","geometry":{"type":"Point","coordinates":[-61.4782234,12.486306]},"properties":{"osm_id":1920868074,"osm_type":"node","seamark_type":"light_minor","display_class":"OTHER","min_zoom":12,"importance":1,"name":"Sandy Island","ref":null,"common":{"name":"Sandy Island","type":"light_minor"},"children":{"light":{"character":"Q","colour":"red","reference":"J 5827.4"}},"osm_tags":{"seamark:light:character":"Q","seamark:light:colour":"red","seamark:light:reference":"J 5827.4","seamark:name":"Sandy Island","seamark:type":"light_minor","source":"US NGA Pub. 110. 2012-05-10."}}},{"type":"Feature","geometry":{"type":"Point","coordinates":[-61.7500225,12.0513709]},"properties":{"osm_id":288869612,"osm_type":"node","seamark_type":"harbour","display_class":"OTHER","min_zoom":12,"importance":1,"name":"The Carenage","ref":null,"common":{"type":"harbour"},"children":{"harbour":{"category":"marina"}},"osm_tags":{"leisure":"marina","name":"The Carenage","seamark:harbour:category":"marina","seamark:type":"harbour"}}},{"type":"Feature","geometry":{"type":"Polygon","coordinates":[[[-61.7505449,12.0454556],[-61.7502967,12.045366],[-61.7499948,12.0452722],[-61.7496906,12.0451697],[-61.749355,12.0450371],[-61.7493967,12.0448803],[-61.7490912,12.0447622],[-61.7490743,12.0447528],[-61.7490342,12.0447327],[-61.7489816,12.0446592],[-61.7491047,12.0443792],[-61.7495461,12.0443426],[-61.7499282,12.0430183],[-61.7497285,12.0427824],[-61.7496748,12.0427124],[-61.7495166,12.0427945],[-61.7493968,12.0428485],[-61.7492399,12.0428766],[-61.748869,12.0428732],[-61.7485984,12.0428598],[-61.7483421,12.0427688],[-61.7480884,12.0426658],[-61.7476418,12.0425079],[-61.7475305,12.0424906],[-61.7474917,12.0425335],[-61.7475233,12.0426191],[-61.7475904,12.0427107],[-61.747547,12.042795],[-61.7474823,12.0428468],[-61.7473793,12.0428862],[-61.7472952,12.0429364],[-61.7472044,12.0428775],[-61.7471276,12.0428116],[-61.7470017,12.0428206],[-61.7467259,12.0428595],[-61.7465721,12.0429774],[-61.7464505,12.0430955],[-61.7463062,12.0432813],[-61.7461312,12.0435067],[-61.7459343,12.0438285],[-61.7458404,12.0440336],[-61.7457784,12.0441965],[-61.7457112,12.0444145],[-61.7456535,12.0446456],[-61.7455664,12.0449667],[-61.7455659,12.0450864],[-61.7455657,12.0451361],[-61.7456183,12.0452083],[-61.74568,12.0452896],[-61.7457378,12.0453947],[-61.7458055,12.0455733],[-61.7459088,12.0458249],[-61.7460303,12.0461302],[-61.7462531,12.0463235],[-61.7463507,12.0463658],[-61.7465137,12.0464246],[-61.7466142,12.0464587],[-61.7466193,12.0464391],[-61.7471335,12.046466],[-61.7472082,12.0464847],[-61.7472574,12.0465185],[-61.7473941,12.0466485],[-61.7474448,12.0467252],[-61.7476669,12.0468789],[-61.7477777,12.0468947],[-61.7478389,12.0468673],[-61.7483967,12.0467864],[-61.7485055,12.0467771],[-61.7485022,12.0468247],[-61.7488173,12.0468264],[-61.7488064,12.0467329],[-61.7492698,12.0466773],[-61.7495919,12.0466387],[-61.750396,12.0458712],[-61.7505449,12.0454556]]]},"properties":{"osm_id":178505095,"osm_type":"way","seamark_type":"harbour","display_class":"OTHER","min_zoom":12,"importance":1,"name":"The Lagoon","ref":null,"common":{"type":"harbour"},"children":{"harbour":{"category":"marina"}},"osm_tags":{"harbour":"yes","landuse":"harbour","leisure":"marina","name":"The Lagoon","seamark:harbour:category":"marina","seamark:type":"harbour"}}},{"type":"Feature","geometry":{"type":"Point","coordinates":[-61.2905681,12.9904109]},"properties":{"osm_id":6126153099,"osm_type":"node","seamark_type":"light_minor","display_class":"OTHER","min_zoom":12,"importance":1,"name":"West Cay","ref":null,"common":{"name":"West Cay","type":"light_minor"},"children":{"light":{"character":"Fl","colour":"white","height":"13","period":"10","range":"8","reference":"J 5819"}},"osm_tags":{"seamark:light:character":"Fl","seamark:light:colour":"white","seamark:light:height":"13","seamark:light:period":"10","seamark:light:range":"8","seamark:light:reference":"J 5819","seamark:name":"West Cay","seamark:type":"light_minor"}}}],"type":"FeatureCollection"}