{"type":"FeatureCollection","features":[{"type":"Feature","geometry":{"type":"Point","coordinates":[124.3768376,13.6548363]},"properties":{"osm_id":6875032998,"osm_type":"node","seamark_type":"light_major","display_class":"LIGHTHOUSE","min_zoom":7,"importance":5,"name":"Baras","ref":null,"common":{"name":"Baras","type":"light_major"},"children":{"light":{"character":"Fl","colour":"red","group":"2","period":"10"}},"osm_tags":{"addr:city":"Baras","addr:place":"Putsan","addr:province":"Catanduanes","man_made":"beacon","name":"Baras Lighthouse","operator":"Catanduanes Station, Philippine Coast Guard","seamark:light:character":"Fl","seamark:light:colour":"red","seamark:light:group":"2","seamark:light:period":"10","seamark:name":"Baras","seamark:type":"light_major","source":"Philippine Coast Guard, 2019 lighthouse masterlist"}}},{"type":"Feature","geometry":{"type":"Point","coordinates":[124.3252045,13.5595715]},"properties":{"osm_id":5263805923,"osm_type":"node","seamark_type":"light_major","display_class":"LIGHTHOUSE","min_zoom":7,"importance":5,"name":"Bato","ref":null,"common":{"name":"Bato","type":"light_major"},"children":{"light":{"character":"Fl","colour":"white","group":"2","period":"10"}},"osm_tags":{"addr:province":"Catanduanes","addr:town":"Bato","addr:village":"Bote","man_made":"lighthouse","name":"Bato Lighthouse","operator":"Catanduanes Station, Philippine Coast Guard","seamark:light:character":"Fl","seamark:light:colour":"white","seamark:light:group":"2","seamark:light:period":"10","seamark:name":"Bato","seamark:type":"light_major","source":"Philippine Coast Guard, 2019 lighthouse masterlist"}}},{"type":"Feature","geometry":{"type":"Point","coordinates":[124.097041,13.597911]},"properties":{"osm_id":6875065822,"osm_type":"node","seamark_type":"light_major","display_class":"LIGHTHOUSE","min_zoom":7,"importance":5,"name":"Calolbon","ref":null,"common":{"name":"Calolbon","type":"light_major"},"children":{"light":{"character":"Fl","colour":"red","period":"10"}},"osm_tags":{"addr:province":"Catanduanes","addr:town":"Calolbon","man_made":"lighthouse","name":"Calolbon Lighthouse","operator":"Catanduanes Station, Philippine Coast Guard","seamark:light:character":"Fl","seamark:light:colour":"red","seamark:light:period":"10","seamark:name":"Calolbon","seamark:type":"light_major","source":"Philippine Coast Guard, 2019 lighthouse masterlist"}}},{"type":"Feature","geometry":{"type":"Point","coordinates":[124.1962321,13.0386642]},"properties":{"osm_id":8808008538,"osm_type":"node","seamark_type":"light_minor","display_class":"LIGHTHOUSE","min_zoom":7,"importance":5,"name":"Diamante","ref":null,"common":{"name":"Diamante","type":"light_minor"},"children":{"light":{"character":"Fl","colour":"white","period":"6"}},"osm_tags":{"addr:place":"Diamante","addr:province":"Sorsogon","addr:town":"Prieto Diaz","building:material":"glass_reinforced_plastic","man_made":"lighthouse","name":"Diamante Lighthouse","operator":"Sorsogon Station, Philippine Coast Guard","ref:pcg":"BCL-055","seamark:light:character":"Fl","seamark:light:colour":"white","seamark:light:period":"6","seamark:name":"Diamante","seamark:type":"light_minor","source":"Philippine Coast Guard, 2019 lighthouse masterlist","start_date":"1994-05-18"}}},{"type":"Feature","geometry":{"type":"Point","coordinates":[124.3541821,13.9464215]},"properties":{"osm_id":6874966334,"osm_type":"node","seamark_type":"light_major","display_class":"LIGHTHOUSE","min_zoom":7,"importance":5,"name":"Lolong Point","ref":null,"common":{"name":"Lolong Point","type":"light_major"},"children":{"light":{"character":"Fl","colour":"white","period":"5"}},"osm_tags":{"addr:city":"Panganiban","addr:province":"Catanduanes","man_made":"lighthouse","name":"Lolong Point Lighthouse","operator":"Catanduanes Station, Philippine Coast Guard","seamark:light:character":"Fl","seamark:light:colour":"white","seamark:light:period":"5","seamark:name":"Lolong Point","seamark:type":"light_major","source":"Philippine Coast Guard, 2019 lighthouse masterlist"}}},{"type":"Feature","geometry":{"type":"Point","coordinates":[124.0261012,13.6628046]},"properties":{"osm_id":6875077551,"osm_type":"node","seamark_type":"light_major","display_class":"LIGHTHOUSE","min_zoom":7,"importance":5,"name":"Sialat","ref":null,"common":{"name":"Sialat","type":"light_major"},"children":{"light":{"character":"Fl","colour":"white","period":"5"}},"osm_tags":{"addr:province":"Catanduanes","addr:town":"Calolbon","man_made":"lighthouse","name":"Sialat Lighthouse","operator":"Catanduanes Station, Philippine Coast Guard","seamark:light:character":"Fl","seamark:light:colour":"white","seamark:light:period":"5","seamark:name":"Sialat","seamark:type":"light_major","source":"Philippine Coast Guard, 2019 lighthouse masterlist"}}},{"type":"Feature","geometry":{"type":"Point","coordinates":[124.2150794,13.1775111]},"properties":{"osm_id":6876524006,"osm_type":"node","seamark_type":"light_major","display_class":"LIGHTHOUSE","min_zoom":7,"importance":5,"name":"Ungay","ref":null,"common":{"name":"Ungay","type":"light_major"},"children":{"light":{"character":"Fl","colour":"white","period":"5"}},"osm_tags":{"addr:province":"Albay","addr:town":"Rapu-Rapu","disused:man_made":"lighthouse","man_made":"tower","name":"Ungay Lighthouse","operator":"Albay Station, Philippine Coast Guard","seamark:light:character":"Fl","seamark:light:colour":"white","seamark:light:period":"5","seamark:name":"Ungay","seamark:type":"light_major","source":"Philippine Coast Guard, 2019 lighthouse masterlist"}}}],"type":"FeatureCollection"}