{"type":"FeatureCollection","features":[{"type":"Feature","geometry":{"type":"Point","coordinates":[-83.4843416,13.9225078]},"properties":{"osm_id":11062793031,"osm_type":"node","seamark_type":"harbour","display_class":"OTHER","min_zoom":12,"importance":1,"name":null,"ref":null,"common":{"type":"harbour"},"children":{"harbour":{"category":"marina"}},"osm_tags":{"leisure":"marina","seamark:harbour:category":"marina","seamark:type":"harbour"}}},{"type":"Feature","geometry":{"type":"Point","coordinates":[-83.4828556,13.9239308]},"properties":{"osm_id":11062799970,"osm_type":"node","seamark_type":"harbour","display_class":"OTHER","min_zoom":12,"importance":1,"name":null,"ref":null,"common":{"type":"harbour"},"children":{"harbour":{"category":"marina"}},"osm_tags":{"leisure":"marina","seamark:harbour:category":"marina","seamark:type":"harbour"}}},{"type":"Feature","geometry":{"type":"Point","coordinates":[-83.4826209,13.9241716]},"properties":{"osm_id":11062799975,"osm_type":"node","seamark_type":"harbour","display_class":"OTHER","min_zoom":12,"importance":1,"name":null,"ref":null,"common":{"type":"harbour"},"children":{"harbour":{"category":"marina"}},"osm_tags":{"leisure":"marina","seamark:harbour:category":"marina","seamark:type":"harbour"}}},{"type":"Feature","geometry":{"type":"Point","coordinates":[-83.4821625,13.9248193]},"properties":{"osm_id":11062799976,"osm_type":"node","seamark_type":"harbour","display_class":"OTHER","min_zoom":12,"importance":1,"name":null,"ref":null,"common":{"type":"harbour"},"children":{"harbour":{"category":"marina"}},"osm_tags":{"leisure":"marina","seamark:harbour:category":"marina","seamark:type":"harbour"}}},{"type":"Feature","geometry":{"type":"Point","coordinates":[-83.5350421,13.5585957]},"properties":{"osm_id":11211168138,"osm_type":"node","seamark_type":"harbour","display_class":"OTHER","min_zoom":12,"importance":1,"name":"Wounta","ref":null,"common":{"type":"harbour"},"children":{"harbour":{"category":"marina"}},"osm_tags":{"leisure":"marina","name":"Wounta","note":"Approximate location and elevation based on satellite imagery (primary BingSat), OpenSRTM and OpenTopo map.","seamark:harbour:category":"marina","seamark:type":"harbour","source:id":"3456i Wounta - USGS OpenTopo map Series E751 Nicaragua 1:50k Nº E751X34561 (1967)","source:imagery":"BingSat, ESRI, and other open satellite imagery available to OSM as of 2024","source:url":"https://maps.lib.utexas.edu/maps/topo/nicaragua/"}}}],"type":"FeatureCollection"}