{"type":"FeatureCollection","features":[{"type":"Feature","geometry":{"type":"Point","coordinates":[-60.9415958,13.7110957]},"properties":{"osm_id":1920869459,"osm_type":"node","seamark_type":"light_major","display_class":"LIGHTHOUSE","min_zoom":7,"importance":5,"name":"Cape Moule-à-Chique","ref":null,"common":{"information":"Visible 197° -123° .Reported temporarily extinguished (2004).","name":"Cape Moule-à-Chique","type":"light_major"},"children":{"light":{"1:character":"Fl","1:colour":"white","1:height":"227","1:period":"5","1:range":"22","1:sector_end":"123","1:sector_start":"197","1:sequence":"0.5+(4.5)","reference":"J 5798"}},"osm_tags":{"seamark:information":"Visible 197° -123° .Reported temporarily extinguished (2004).","seamark:light:1:character":"Fl","seamark:light:1:colour":"white","seamark:light:1:height":"227","seamark:light:1:period":"5","seamark:light:1:range":"22","seamark:light:1:sector_end":"123","seamark:light:1:sector_start":"197","seamark:light:1:sequence":"0.5+(4.5)","seamark:light:reference":"J 5798","seamark:name":"Cape Moule-à-Chique","seamark:type":"light_major","source":"US NGA Pub. 110. 2012-05-10."}}},{"type":"Feature","geometry":{"type":"Point","coordinates":[-60.9521136,13.7202119]},"properties":{"osm_id":1920869374,"osm_type":"node","seamark_type":"light_minor","display_class":"OTHER","min_zoom":12,"importance":1,"name":null,"ref":null,"common":{"type":"light_minor"},"children":{"light":{"character":"Fl","colour":"yellow","height":"4","period":"2.5","range":"5","reference":"J 5800.7","sequence":"0.3+(2.2)"}},"osm_tags":{"seamark:light:character":"Fl","seamark:light:colour":"yellow","seamark:light:height":"4","seamark:light:period":"2.5","seamark:light:range":"5","seamark:light:reference":"J 5800.7","seamark:light:sequence":"0.3+(2.2)","seamark:type":"light_minor","source":"US NGA Pub. 110. 2012-05-10."}}},{"type":"Feature","geometry":{"type":"Point","coordinates":[-60.9527836,13.7192356]},"properties":{"osm_id":1920869637,"osm_type":"node","seamark_type":"light_minor","display_class":"OTHER","min_zoom":12,"importance":1,"name":null,"ref":null,"common":{"type":"light_minor"},"children":{"light":{"character":"Q","colour":"red","height":"4","range":"5","reference":"J 5800.4"}},"osm_tags":{"seamark:light:character":"Q","seamark:light:colour":"red","seamark:light:height":"4","seamark:light:range":"5","seamark:light:reference":"J 5800.4","seamark:type":"light_minor","source":"US NGA Pub. 110. 2012-05-10."}}},{"type":"Feature","geometry":{"type":"Point","coordinates":[-60.9502443,13.7224051]},"properties":{"osm_id":1920869800,"osm_type":"node","seamark_type":"light_minor","display_class":"OTHER","min_zoom":12,"importance":1,"name":null,"ref":null,"common":{"type":"light_minor"},"children":{"light":{"category":"upper","character":"Iso","colour":"red","height":"20","period":"6","range":"9","reference":"J 5800.1"}},"osm_tags":{"seamark:light:category":"upper","seamark:light:character":"Iso","seamark:light:colour":"red","seamark:light:height":"20","seamark:light:period":"6","seamark:light:range":"9","seamark:light:reference":"J 5800.1","seamark:type":"light_minor","source":"US NGA Pub. 110. 2012-05-10."}}},{"type":"Feature","geometry":{"type":"Point","coordinates":[-60.9721116,13.7296327]},"properties":{"osm_id":9385639518,"osm_type":"node","seamark_type":"wreck","display_class":"OTHER","min_zoom":12,"importance":1,"name":"El Pirata Shipwreck","ref":null,"common":{"type":"wreck"},"children":{"wreck":{"category":"non-dangerous"}},"osm_tags":{"access":"yes","historic":"wreck","name":"El Pirata Shipwreck","seamark:type":"wreck","seamark:wreck:category":"non-dangerous","wreck:visible_at_high_tide":"yes","wreck:visible_at_low_tide":"yes"}}},{"type":"Feature","geometry":{"type":"Point","coordinates":[-60.9583,13.7130699]},"properties":{"osm_id":1920870014,"osm_type":"node","seamark_type":"light_minor","display_class":"OTHER","min_zoom":12,"importance":1,"name":"Mathurin Point","ref":null,"common":{"information":"Visible 003° -shore.","name":"Mathurin Point","type":"light_minor"},"children":{"light":{"1:character":"VQ","1:colour":"white","1:group":"2","1:height":"5","1:period":"5","1:range":"2","1:sector_start":"3","reference":"J 5799"}},"osm_tags":{"seamark:information":"Visible 003° -shore.","seamark:light:1:character":"VQ","seamark:light:1:colour":"white","seamark:light:1:group":"2","seamark:light:1:height":"5","seamark:light:1:period":"5","seamark:light:1:range":"2","seamark:light:1:sector_start":"3","seamark:light:reference":"J 5799","seamark:name":"Mathurin Point","seamark:type":"light_minor","source":"US NGA Pub. 110. 2012-05-10."}}},{"type":"Feature","geometry":{"type":"Point","coordinates":[-60.944741,13.7409443]},"properties":{"osm_id":1920869179,"osm_type":"node","seamark_type":"light_minor","display_class":"OTHER","min_zoom":12,"importance":1,"name":"Mount Bellevue","ref":null,"common":{"name":"Mount Bellevue","type":"light_minor"},"children":{"light":{"character":"Al.Fl","colour":"white;green","height":"107","period":"5","reference":"J 5802"}},"osm_tags":{"aeroway":"navigationaid","ele":"107","fixme":"Needs ground survey to verify position and accuracy","man_made":"beacon","navigationaid":"beacon","note":"Pub 110 shows light is an aviation (aeroway) beacon (and not a seamark/lighthouse). Moved feature to a visible structure that's within toleracne of published coords,","seamark:light:character":"Al.Fl","seamark:light:colour":"white;green","seamark:light:height":"107","seamark:light:period":"5","seamark:light:reference":"J 5802","seamark:name":"Mount Bellevue","seamark:type":"light_minor","source":"US NGA Pub. 110. 2012-05-10."}}},{"type":"Feature","geometry":{"type":"Point","coordinates":[-60.9539949,13.7202818]},"properties":{"osm_id":1920869889,"osm_type":"node","seamark_type":"light_minor","display_class":"OTHER","min_zoom":12,"importance":1,"name":"Vieux Fort Bay","ref":null,"common":{"name":"Vieux Fort Bay","type":"light_minor"},"children":{"light":{"category":"lower","character":"Q","colour":"red","height":"8","range":"8","reference":"J 5800"}},"osm_tags":{"seamark:light:category":"lower","seamark:light:character":"Q","seamark:light:colour":"red","seamark:light:height":"8","seamark:light:range":"8","seamark:light:reference":"J 5800","seamark:name":"Vieux Fort Bay","seamark:type":"light_minor","source":"US NGA Pub. 110. 2012-05-10."}}}],"type":"FeatureCollection"}