{"type":"FeatureCollection","features":[{"type":"Feature","geometry":{"type":"Point","coordinates":[-17.1283333,13.6033333]},"properties":{"osm_id":10142674647,"osm_type":"node","seamark_type":"wreck","display_class":"OTHER","min_zoom":12,"importance":1,"name":null,"ref":null,"common":{"type":"wreck"},"children":{"wreck":{"category":"dangerous"}},"osm_tags":{"seamark:type":"wreck","seamark:wreck:category":"dangerous"}}},{"type":"Feature","geometry":{"type":"Polygon","coordinates":[[[-17.2666667,13.5866667],[-17.2216667,13.5783333],[-17.0933333,13.55],[-17.0166667,13.53],[-17.0083333,13.5283333],[-17.0116667,13.5116667],[-17.0216667,13.5133333],[-17.1233333,13.5383333],[-17.2266667,13.5633333],[-17.2683333,13.57],[-17.2666667,13.5866667]]]},"properties":{"osm_id":1085221725,"osm_type":"way","seamark_type":"restricted_area","display_class":"OTHER","min_zoom":12,"importance":1,"name":null,"ref":null,"common":{"type":"restricted_area"},"children":{"restricted_area":{"restriction":"no_anchoring;no_fishing"}},"osm_tags":{"seamark:restricted_area:restriction":"no_anchoring;no_fishing","seamark:type":"restricted_area"}}}],"type":"FeatureCollection"}