{"type":"FeatureCollection","features":[{"type":"Feature","geometry":{"type":"Point","coordinates":[145.7316631,15.2117646]},"properties":{"osm_id":5526308198,"osm_type":"node","seamark_type":"light_major","display_class":"LIGHTHOUSE","min_zoom":7,"importance":5,"name":"Japanese Lighthouse","ref":null,"common":{"type":"light_major"},"children":{},"osm_tags":{"heritage":"2","heritage:operator":"nrhp","historic":"yes","man_made":"lighthouse","name":"Japanese Lighthouse","seamark:type":"light_major","wikidata":"Q15229363","wikipedia":"en:Japanese Lighthouse (Garapan, Saipan)"}}},{"type":"Feature","geometry":{"type":"Point","coordinates":[145.7507442,15.2298751]},"properties":{"osm_id":11834059726,"osm_type":"node","seamark_type":"beacon_special_purpose","display_class":"BEACON","min_zoom":9,"importance":4,"name":null,"ref":null,"common":{"type":"beacon_special_purpose"},"children":{"beacon_special_purpose":{"construction":"framework","shape":"tower"},"light":{"1:category":"rear","1:character":"Iso","1:colour":"green","1:height":"38","1:period":"6","1:sector_end":"92.1","1:sector_start":"84.1","reference":"M 8366.10"},"topmark":{"colour":"red;white","colour_pattern":"horizontal","shape":"board"}},"osm_tags":{"seamark:beacon_special_purpose:construction":"framework","seamark:beacon_special_purpose:shape":"tower","seamark:light:1:category":"rear","seamark:light:1:character":"Iso","seamark:light:1:colour":"green","seamark:light:1:height":"38","seamark:light:1:period":"6","seamark:light:1:sector_end":"92.1","seamark:light:1:sector_start":"84.1","seamark:light:reference":"M 8366.10","seamark:topmark:colour":"red;white","seamark:topmark:colour_pattern":"horizontal","seamark:topmark:shape":"board","seamark:type":"beacon_special_purpose","source":"US NGA Pub. 111. 2024-04-13."}}},{"type":"Feature","geometry":{"type":"Point","coordinates":[145.7125799,15.2411436]},"properties":{"osm_id":11834059724,"osm_type":"node","seamark_type":"beacon_special_purpose","display_class":"BEACON","min_zoom":9,"importance":4,"name":"Mañagaha Island","ref":null,"common":{"name":"Mañagaha Island","type":"beacon_special_purpose"},"children":{"beacon_special_purpose":{"shape":"pole"},"light":{"1:character":"Fl","1:colour":"green","1:height":"23","1:period":"6","1:range":"5","1:sector_end":"40","1:sector_start":"30","1:sequence":"0.6+(5.4)","2:character":"Fl","2:colour":"white","2:height":"23","2:period":"6","2:range":"5","2:sector_end":"47","2:sector_start":"40","2:sequence":"0.6+(5.4)","3:character":"Fl","3:colour":"red","3:height":"23","3:period":"6","3:range":"5","3:sector_end":"57","3:sector_start":"47","3:sequence":"0.6+(5.4)","reference":"M 8364"},"topmark":{"colour":"black;white","colour_pattern":"squared","shape":"rhombus"}},"osm_tags":{"seamark:beacon_special_purpose:shape":"pole","seamark:light:1:character":"Fl","seamark:light:1:colour":"green","seamark:light:1:height":"23","seamark:light:1:period":"6","seamark:light:1:range":"5","seamark:light:1:sector_end":"40","seamark:light:1:sector_start":"30","seamark:light:1:sequence":"0.6+(5.4)","seamark:light:2:character":"Fl","seamark:light:2:colour":"white","seamark:light:2:height":"23","seamark:light:2:period":"6","seamark:light:2:range":"5","seamark:light:2:sector_end":"47","seamark:light:2:sector_start":"40","seamark:light:2:sequence":"0.6+(5.4)","seamark:light:3:character":"Fl","seamark:light:3:colour":"red","seamark:light:3:height":"23","seamark:light:3:period":"6","seamark:light:3:range":"5","seamark:light:3:sector_end":"57","seamark:light:3:sector_start":"47","seamark:light:3:sequence":"0.6+(5.4)","seamark:light:reference":"M 8364","seamark:name":"Mañagaha Island","seamark:topmark:colour":"black;white","seamark:topmark:colour_pattern":"squared","seamark:topmark:shape":"rhombus","seamark:type":"beacon_special_purpose","source":"US NGA Pub. 111. 2024-04-13."}}},{"type":"Feature","geometry":{"type":"Point","coordinates":[145.7400904,15.2283755]},"properties":{"osm_id":11834059725,"osm_type":"node","seamark_type":"beacon_special_purpose","display_class":"BEACON","min_zoom":9,"importance":4,"name":"Puetton Tanapag","ref":null,"common":{"information":"F.R. on radio masts 1.2 miles SW","name":"Puetton Tanapag","type":"beacon_special_purpose"},"children":{"beacon_special_purpose":{"construction":"framework","shape":"tower"},"light":{"1:category":"front","1:character":"Q","1:colour":"green","1:height":"16","1:sector_end":"92.1","1:sector_start":"84.1","reference":"M 8366"},"topmark":{"colour":"red;white","colour_pattern":"horizontal","shape":"board"}},"osm_tags":{"seamark:beacon_special_purpose:construction":"framework","seamark:beacon_special_purpose:shape":"tower","seamark:information":"F.R. on radio masts 1.2 miles SW","seamark:light:1:category":"front","seamark:light:1:character":"Q","seamark:light:1:colour":"green","seamark:light:1:height":"16","seamark:light:1:sector_end":"92.1","seamark:light:1:sector_start":"84.1","seamark:light:reference":"M 8366","seamark:name":"Puetton Tanapag","seamark:topmark:colour":"red;white","seamark:topmark:colour_pattern":"horizontal","seamark:topmark:shape":"board","seamark:type":"beacon_special_purpose","source":"US NGA Pub. 111. 2024-04-13."}}},{"type":"Feature","geometry":{"type":"Point","coordinates":[145.644306,15.1006688]},"properties":{"osm_id":11834059727,"osm_type":"node","seamark_type":"beacon_special_purpose","display_class":"BEACON","min_zoom":9,"importance":4,"name":"Ushi Point","ref":null,"common":{"name":"Ushi Point","type":"beacon_special_purpose"},"children":{"beacon_special_purpose":{"shape":"pile"},"light":{"character":"Fl","colour":"white","height":"5","period":"2.5","range":"6","reference":"M 8371"},"topmark":{"colour":"black;white","colour_pattern":"squared","shape":"rhombus"}},"osm_tags":{"name":"Ushi Point","seamark:beacon_special_purpose:shape":"pile","seamark:light:character":"Fl","seamark:light:colour":"white","seamark:light:height":"5","seamark:light:period":"2.5","seamark:light:range":"6","seamark:light:reference":"M 8371","seamark:name":"Ushi Point","seamark:topmark:colour":"black;white","seamark:topmark:colour_pattern":"squared","seamark:topmark:shape":"rhombus","seamark:type":"beacon_special_purpose","source":"US NGA Pub. 111. 2024-04-13."}}},{"type":"Feature","geometry":{"type":"Point","coordinates":[145.7376513,15.2244417]},"properties":{"osm_id":3168485844,"osm_type":"node","seamark_type":"landmark","display_class":"OTHER","min_zoom":12,"importance":1,"name":null,"ref":null,"common":{"type":"landmark"},"children":{"landmark":{"category":"tower"}},"osm_tags":{"seamark:landmark:category":"tower","seamark:type":"landmark"}}},{"type":"Feature","geometry":{"type":"Polygon","coordinates":[[[145.7256001,15.2228858],[145.7255018,15.2229329],[145.7253703,15.2230327],[145.7252117,15.2231376],[145.7250641,15.2232056],[145.7249821,15.2232528],[145.7248891,15.2232946],[145.7247909,15.2233205],[145.7247097,15.2233132],[145.7246166,15.2232807],[145.7245595,15.2232094],[145.7245251,15.2231073],[145.7245476,15.2229857],[145.7245975,15.222859],[145.7246467,15.2227803],[145.7247488,15.2227063],[145.7248178,15.2226159],[145.7248797,15.2225731],[145.7250153,15.2225231],[145.7250744,15.222521],[145.7251801,15.2225295],[145.7252135,15.2225356],[145.7253056,15.2225398],[145.7253603,15.2225255],[145.7254055,15.222497],[145.725484,15.2224613],[145.7255245,15.2224568],[145.7255906,15.2224673],[145.7256237,15.2224997],[145.7256679,15.2225107],[145.7257568,15.222479],[145.7259129,15.2223292],[145.7259445,15.2222807],[145.7259691,15.2221982],[145.7259695,15.2221358],[145.7259921,15.2220606],[145.7260622,15.2219592],[145.7261006,15.2219308],[145.7261193,15.2219627],[145.7261577,15.2220073],[145.7261922,15.2220206],[145.7262517,15.2219946],[145.7262878,15.2218835],[145.7263426,15.2217827],[145.7263979,15.221678],[145.7264519,15.2216187],[145.7264889,15.2215897],[145.7264989,15.2215567],[145.7265074,15.2215285],[145.7265313,15.2215535],[145.726551,15.2216267],[145.7265505,15.2217069],[145.7264876,15.221862],[145.7264872,15.2219322],[145.7264988,15.2220625],[145.7265083,15.2222362],[145.726478,15.2225076],[145.7264634,15.2225388],[145.7264028,15.222639],[145.7263205,15.2227285],[145.726249,15.2228392],[145.7261941,15.2229077],[145.7261285,15.2229391],[145.7260468,15.222928],[145.7259272,15.2228745],[145.7257965,15.2228578],[145.7256001,15.2228858]]]},"properties":{"osm_id":832684714,"osm_type":"way","seamark_type":"obstruction","display_class":"OTHER","min_zoom":12,"importance":1,"name":null,"ref":null,"common":{"type":"obstruction"},"children":{"obstruction":{"category":"reef","water_level":"submerged"}},"osm_tags":{"natural":"reef","reef":"coral","seamark:obstruction:category":"reef","seamark:obstruction:water_level":"submerged","seamark:type":"obstruction","source":"NHD"}}},{"type":"Feature","geometry":{"type":"Polygon","coordinates":[[[145.711317,15.2258245],[145.7108129,15.2258819],[145.7102688,15.2258146],[145.7096807,15.2256649],[145.7090986,15.2252677],[145.7075873,15.224723],[145.7070787,15.2239132],[145.7071672,15.2232901],[145.7087142,15.223624],[145.7098663,15.2247193],[145.7098683,15.2244279],[145.7103191,15.2246162],[145.7104976,15.224634],[145.7106582,15.2246756],[145.7107653,15.224753],[145.7108902,15.2248779],[145.7111103,15.224985],[145.7112768,15.2251396],[145.7113839,15.2253419],[145.711487,15.2256329],[145.711317,15.2258245]]]},"properties":{"osm_id":832684715,"osm_type":"way","seamark_type":"obstruction","display_class":"OTHER","min_zoom":12,"importance":1,"name":null,"ref":null,"common":{"type":"obstruction"},"children":{"obstruction":{"category":"reef","water_level":"submerged"}},"osm_tags":{"natural":"reef","reef":"coral","seamark:obstruction:category":"reef","seamark:obstruction:water_level":"submerged","seamark:type":"obstruction"}}},{"type":"Feature","geometry":{"type":"Polygon","coordinates":[[[145.7098894,15.2201846],[145.70978,15.2202393],[145.7096705,15.2202679],[145.7095087,15.2202607],[145.7094159,15.2202322],[145.7091755,15.2201775],[145.7091303,15.2198816],[145.7093778,15.2198491],[145.7094492,15.2198301],[145.7095777,15.2198301],[145.7096967,15.2198372],[145.7098704,15.2198729],[145.7099299,15.2199205],[145.7099703,15.2200061],[145.7099641,15.2200867],[145.7099204,15.2201609],[145.7098894,15.2201846]]]},"properties":{"osm_id":832684716,"osm_type":"way","seamark_type":"obstruction","display_class":"OTHER","min_zoom":12,"importance":1,"name":null,"ref":null,"common":{"type":"obstruction"},"children":{"obstruction":{"category":"reef","water_level":"submerged"}},"osm_tags":{"natural":"reef","reef":"coral","seamark:obstruction:category":"reef","seamark:obstruction:water_level":"submerged","seamark:type":"obstruction"}}},{"type":"Feature","geometry":{"type":"Polygon","coordinates":[[[145.706342,15.2057597],[145.7061167,15.2056971],[145.7060054,15.2056548],[145.7047482,15.2052192],[145.7047429,15.2050564],[145.7044135,15.204984],[145.7045783,15.2047447],[145.7047323,15.2047284],[145.7048776,15.2049633],[145.7050056,15.2049366],[145.7051917,15.2046062],[145.7057175,15.2041895],[145.7064248,15.2051068],[145.7066612,15.2051273],[145.7068337,15.2051749],[145.7069378,15.2052344],[145.7069824,15.2053474],[145.7069646,15.2054604],[145.7069468,15.2055348],[145.7068694,15.2055913],[145.7066493,15.2057311],[145.706342,15.2057597]]]},"properties":{"osm_id":832684717,"osm_type":"way","seamark_type":"obstruction","display_class":"OTHER","min_zoom":12,"importance":1,"name":null,"ref":null,"common":{"type":"obstruction"},"children":{"obstruction":{"category":"reef","water_level":"submerged"}},"osm_tags":{"natural":"reef","reef":"coral","seamark:obstruction:category":"reef","seamark:obstruction:water_level":"submerged","seamark:type":"obstruction"}}},{"type":"Feature","geometry":{"type":"Polygon","coordinates":[[[145.6972738,15.2368283],[145.6958785,15.2355546],[145.6933965,15.2315116],[145.6934235,15.2304126],[145.6944273,15.2309664],[145.6978239,15.2341352],[145.6994036,15.2349368],[145.7004021,15.23523],[145.700032,15.2363402],[145.7005033,15.23699],[145.701032,15.2367342],[145.7015463,15.2355011],[145.7016087,15.2356022],[145.7017764,15.2357246],[145.7018713,15.2357652],[145.7020308,15.2357661],[145.7020655,15.2373137],[145.7043613,15.2392821],[145.7066937,15.2412748],[145.708856,15.2431246],[145.7114414,15.2453456],[145.7143672,15.2473855],[145.7161184,15.2480045],[145.71738,15.2503364],[145.7203134,15.2517477],[145.7219102,15.252414],[145.7240055,15.2522713],[145.7292747,15.2523532],[145.7340862,15.2525232],[145.7370039,15.2522329],[145.7398077,15.251858],[145.741789,15.2525236],[145.7465091,15.2525978],[145.7518687,15.2523908],[145.7526175,15.2483076],[145.7536431,15.2424889],[145.7544501,15.2430715],[145.7557078,15.2436566],[145.7571362,15.2438493],[145.759184,15.244261],[145.7609379,15.2448776],[145.7616538,15.2450951],[145.7627232,15.2451522],[145.7638239,15.2456507],[145.7659997,15.2466173],[145.767411,15.247423],[145.7686455,15.2481617],[145.7689638,15.2494595],[145.7694021,15.2501784],[145.770238,15.250453],[145.7719377,15.2509769],[145.7739258,15.2515515],[145.7757062,15.2522077],[145.7771361,15.2530062],[145.7793239,15.2549966],[145.7807459,15.2563987],[145.7817313,15.2575993],[145.7820912,15.2584451],[145.782313,15.259138],[145.7823135,15.2602138],[145.782281,15.260666],[145.782585,15.261621],[145.7840448,15.2627125],[145.7844865,15.2632477],[145.7848718,15.2635532],[145.7848865,15.2638305],[145.785146,15.2641893],[145.7853641,15.2648492],[145.7854958,15.2654602],[145.7861354,15.2667542],[145.7864196,15.2670876],[145.786698,15.267216],[145.787452,15.267878],[145.788758,15.269113],[145.789529,15.269961],[145.790595,15.270875],[145.791107,15.271353],[145.791535,15.271642],[145.7924938,15.2721553],[145.793348,15.2724888],[145.7934229,15.2725471],[145.793483,15.272662],[145.793587,15.272709],[145.793637,15.272775],[145.793738,15.272915],[145.793796,15.273079],[145.7939056,15.2736076],[145.7938779,15.2738587],[145.793892,15.27393],[145.7939054,15.2741092],[145.7938986,15.2742197],[145.7938737,15.2742704],[145.7938243,15.2743],[145.7938055,15.2743538],[145.7938104,15.2744288],[145.793828,15.274683],[145.793904,15.274741],[145.793895,15.274921],[145.793928,15.275009],[145.793868,15.275137],[145.7933404,15.2750521],[145.7926125,15.2747901],[145.7907034,15.273861],[145.7893526,15.2726868],[145.7881753,15.2710878],[145.7868129,15.2691561],[145.7849163,15.2676199],[145.7831877,15.2661971],[145.7809129,15.2644266],[145.7768426,15.2623102],[145.7743544,15.2607453],[145.7723287,15.2581807],[145.7683943,15.2565262],[145.764826,15.2548902],[145.7626144,15.2533253],[145.7603076,15.2527666],[145.756675,15.2533904],[145.754612,15.2540842],[145.7526845,15.2544126],[145.7486151,15.2544333],[145.7463572,15.2545077],[145.7439105,15.2543797],[145.7417119,15.2543797],[145.7371589,15.2543776],[145.7325151,15.2547735],[145.7309988,15.2547753],[145.7262662,15.2548651],[145.7221823,15.2543619],[145.7204538,15.2540928],[145.7178248,15.2529299],[145.7159188,15.2519059],[145.713777,15.2507906],[145.7099949,15.2492091],[145.7077988,15.2472349],[145.7044978,15.2437404],[145.7031296,15.2422795],[145.7000773,15.239708],[145.698973,15.2389306],[145.6968078,15.2375212],[145.6972738,15.2368283]]]},"properties":{"osm_id":832684718,"osm_type":"way","seamark_type":"obstruction","display_class":"OTHER","min_zoom":12,"importance":1,"name":null,"ref":null,"common":{"type":"obstruction"},"children":{"obstruction":{"category":"reef","water_level":"submerged"}},"osm_tags":{"natural":"reef","reef":"coral","seamark:obstruction:category":"reef","seamark:obstruction:water_level":"submerged","seamark:type":"obstruction"}}},{"type":"Feature","geometry":{"type":"Polygon","coordinates":[[[145.7077388,15.216246],[145.7080602,15.2162033],[145.7083206,15.2163574],[145.7083098,15.2164609],[145.7082206,15.2165787],[145.7080636,15.2167679],[145.7079958,15.2168571],[145.7079422,15.2169142],[145.7078316,15.2169928],[145.7077352,15.2169928],[145.7074884,15.2170611],[145.707353,15.216821],[145.7073887,15.2166083],[145.7073852,15.2163718],[145.7074584,15.216292],[145.7077388,15.216246]]]},"properties":{"osm_id":832684720,"osm_type":"way","seamark_type":"obstruction","display_class":"OTHER","min_zoom":12,"importance":1,"name":null,"ref":null,"common":{"type":"obstruction"},"children":{"obstruction":{"category":"reef","water_level":"submerged"}},"osm_tags":{"natural":"reef","reef":"coral","seamark:obstruction:category":"reef","seamark:obstruction:water_level":"submerged","seamark:type":"obstruction"}}},{"type":"Feature","geometry":{"type":"Polygon","coordinates":[[[145.7041802,15.2041065],[145.7041207,15.2040946],[145.7040701,15.204059],[145.7040344,15.2040262],[145.7040314,15.2039727],[145.7040552,15.2039221],[145.7040969,15.2038924],[145.704195,15.2038627],[145.7042843,15.2038716],[145.7043438,15.2039043],[145.7043735,15.2039638],[145.7043675,15.2040233],[145.7043319,15.2040738],[145.7042664,15.2041036],[145.7041802,15.2041065]]]},"properties":{"osm_id":832684721,"osm_type":"way","seamark_type":"obstruction","display_class":"OTHER","min_zoom":12,"importance":1,"name":null,"ref":null,"common":{"type":"obstruction"},"children":{"obstruction":{"category":"reef","water_level":"submerged"}},"osm_tags":{"natural":"reef","reef":"coral","seamark:obstruction:category":"reef","seamark:obstruction:water_level":"submerged","seamark:type":"obstruction","source":"NHD"}}},{"type":"Feature","geometry":{"type":"Polygon","coordinates":[[[145.7114052,15.2406242],[145.7113508,15.2406751],[145.7113363,15.2406887],[145.7113278,15.2407386],[145.710657,15.2406465],[145.7107182,15.2406288],[145.7107654,15.2406089],[145.7108896,15.2406074],[145.7109395,15.2405803],[145.7109736,15.240517],[145.7109707,15.2404528],[145.710935,15.2404014],[145.7108808,15.2403643],[145.7107437,15.2403443],[145.7107237,15.2402971],[145.7106966,15.2402515],[145.7106609,15.2402372],[145.7106038,15.2402386],[145.7105281,15.2402343],[145.7104853,15.2402072],[145.7102812,15.2399717],[145.7101262,15.2398446],[145.7101108,15.2395543],[145.7099814,15.2393485],[145.7100935,15.2390769],[145.7104428,15.2388687],[145.710649,15.2389912],[145.7107905,15.2389513],[145.7112868,15.239331],[145.7110503,15.2388779],[145.7116586,15.2387241],[145.7119184,15.2388897],[145.7123571,15.2389302],[145.7127511,15.2391936],[145.7129891,15.2392828],[145.7132092,15.2392887],[145.7133638,15.2393006],[145.7134947,15.2393185],[145.7136018,15.2393601],[145.7136314,15.2393838],[145.7136848,15.2394657],[145.7136937,15.2395311],[145.7136744,15.2395946],[145.7136303,15.2396236],[145.7135066,15.2396695],[145.7133519,15.2396635],[145.7133055,15.239649],[145.7130758,15.239743],[145.7128641,15.2397884],[145.7125849,15.2398575],[145.712364,15.2396738],[145.7123237,15.2395667],[145.7121904,15.2395238],[145.7120899,15.2394629],[145.7120993,15.2396862],[145.7121409,15.2399755],[145.7125453,15.2399447],[145.7124361,15.2399943],[145.7121685,15.2400678],[145.7119736,15.2401756],[145.7116033,15.2404388],[145.7115081,15.2405279],[145.7114052,15.2406242]]]},"properties":{"osm_id":832684724,"osm_type":"way","seamark_type":"obstruction","display_class":"OTHER","min_zoom":12,"importance":1,"name":null,"ref":null,"common":{"type":"obstruction"},"children":{"obstruction":{"category":"reef","water_level":"submerged"}},"osm_tags":{"natural":"reef","reef":"coral","seamark:obstruction:category":"reef","seamark:obstruction:water_level":"submerged","seamark:type":"obstruction"}}},{"type":"Feature","geometry":{"type":"Polygon","coordinates":[[[145.704665,15.2030745],[145.7045358,15.2030898],[145.7042265,15.2030257],[145.704158,15.2028335],[145.7042873,15.2027022],[145.7044371,15.2026982],[145.704552,15.2027413],[145.7047602,15.2026491],[145.7048553,15.2026105],[145.7049327,15.2026224],[145.7049951,15.202658],[145.705074,15.202749],[145.7050754,15.2028573],[145.7050159,15.2029763],[145.7049029,15.2030388],[145.7047512,15.2030715],[145.704665,15.2030745]]]},"properties":{"osm_id":832684725,"osm_type":"way","seamark_type":"obstruction","display_class":"OTHER","min_zoom":12,"importance":1,"name":null,"ref":null,"common":{"type":"obstruction"},"children":{"obstruction":{"category":"reef","water_level":"submerged"}},"osm_tags":{"natural":"reef","reef":"coral","seamark:obstruction:category":"reef","seamark:obstruction:water_level":"submerged","seamark:type":"obstruction","source":"NHD"}}},{"type":"Feature","geometry":{"type":"Polygon","coordinates":[[[145.7110445,15.1991229],[145.7118019,15.1987787],[145.7119047,15.1994995],[145.7118822,15.2002362],[145.711339,15.1997468],[145.7111724,15.1996137],[145.7109871,15.1992491],[145.7110445,15.1991229]]]},"properties":{"osm_id":832684726,"osm_type":"way","seamark_type":"obstruction","display_class":"OTHER","min_zoom":12,"importance":1,"name":null,"ref":null,"common":{"type":"obstruction"},"children":{"obstruction":{"category":"reef","water_level":"submerged"}},"osm_tags":{"natural":"reef","reef":"coral","seamark:obstruction:category":"reef","seamark:obstruction:water_level":"submerged","seamark:type":"obstruction","source":"NHD"}}},{"type":"Feature","geometry":{"type":"Polygon","coordinates":[[[145.7087235,15.204652],[145.7070304,15.2043137],[145.7069618,15.2043496],[145.7068472,15.204376],[145.7067133,15.2043671],[145.7066209,15.2043363],[145.7065919,15.2043233],[145.7064372,15.2042471],[145.7063225,15.2042005],[145.7060242,15.204153],[145.705384,15.2037542],[145.7059398,15.2035835],[145.7060439,15.2033085],[145.7060669,15.2031688],[145.7061452,15.2030616],[145.7062576,15.2028039],[145.7063138,15.2026644],[145.7063587,15.2025678],[145.7064041,15.2023958],[145.7064046,15.2023205],[145.7063944,15.2021805],[145.7062989,15.2019813],[145.7066092,15.2016725],[145.7067591,15.2014298],[145.7055972,15.2006804],[145.7057793,15.2003926],[145.7073342,15.2007223],[145.7073577,15.2005072],[145.7073431,15.2004415],[145.7072633,15.2003575],[145.7071479,15.2001968],[145.7070686,15.2001577],[145.7070366,15.2001537],[145.7069881,15.200158],[145.706921,15.2001894],[145.7068566,15.2001917],[145.7068264,15.2001785],[145.7067993,15.2001337],[145.7067997,15.2000724],[145.7068394,15.1999125],[145.7069371,15.1997907],[145.7070931,15.1996504],[145.7071245,15.1990991],[145.7069324,15.1990246],[145.7069077,15.1993031],[145.7066906,15.1993284],[145.7065211,15.1992237],[145.7064581,15.1990914],[145.706395,15.1988716],[145.7072285,15.198875],[145.7074666,15.1987311],[145.7077286,15.1982082],[145.708006,15.1980583],[145.7083386,15.1989138],[145.7085902,15.1989811],[145.7086866,15.1990758],[145.7087728,15.1992552],[145.7087722,15.1993493],[145.7106864,15.2006864],[145.7109812,15.2014017],[145.7106547,15.2020341],[145.7100436,15.2027209],[145.7095423,15.2034695],[145.7087235,15.204652]]]},"properties":{"osm_id":832684728,"osm_type":"way","seamark_type":"obstruction","display_class":"OTHER","min_zoom":12,"importance":1,"name":null,"ref":null,"common":{"type":"obstruction"},"children":{"obstruction":{"category":"reef","water_level":"submerged"}},"osm_tags":{"area":"yes","natural":"reef","reef":"coral","seamark:obstruction:category":"reef","seamark:obstruction:water_level":"submerged","seamark:type":"obstruction","source":"NHD"}}},{"type":"Feature","geometry":{"type":"Polygon","coordinates":[[[145.7140814,15.2246484],[145.7141861,15.2246389],[145.7142813,15.2246103],[145.7143568,15.224596],[145.7145253,15.2245227],[145.7146477,15.2244247],[145.7147785,15.2233994],[145.7153243,15.2233934],[145.7158791,15.2234953],[145.7164313,15.2238506],[145.7155722,15.2247786],[145.7157445,15.2249875],[145.7157729,15.2250762],[145.7157551,15.2251505],[145.7157025,15.2252401],[145.7156731,15.2253186],[145.7156146,15.2254138],[145.7155275,15.2254751],[145.7153594,15.2255078],[145.7151338,15.2254953],[145.714908,15.2255109],[145.7147287,15.2255042],[145.7145782,15.2255034],[145.7144509,15.2255083],[145.7141861,15.2255067],[145.7139815,15.2254735],[145.7139101,15.2254526],[145.7136067,15.2253854],[145.7133232,15.2253838],[145.713109,15.2253994],[145.7129412,15.2253872],[145.7127619,15.2253637],[145.712635,15.2253129],[145.7125824,15.2252718],[145.712474,15.2251317],[145.7123967,15.2250079],[145.7123709,15.2249569],[145.7123485,15.2248388],[145.7123548,15.2247546],[145.7123957,15.224693],[145.7124538,15.224654],[145.7126565,15.224627],[145.7127109,15.2246274],[145.7129585,15.2247055],[145.7131624,15.2247252],[145.7133101,15.2247122],[145.7133767,15.2246866],[145.7135294,15.2246436],[145.713596,15.2246103],[145.7136817,15.2246056],[145.713853,15.2246531],[145.7139291,15.2246579],[145.7140814,15.2246484]]]},"properties":{"osm_id":832684733,"osm_type":"way","seamark_type":"obstruction","display_class":"OTHER","min_zoom":12,"importance":1,"name":null,"ref":null,"common":{"type":"obstruction"},"children":{"obstruction":{"category":"reef","water_level":"submerged"}},"osm_tags":{"natural":"reef","reef":"coral","seamark:obstruction:category":"reef","seamark:obstruction:water_level":"submerged","seamark:type":"obstruction","source":"NHD"}}},{"type":"Feature","geometry":{"type":"Polygon","coordinates":[[[145.7110986,15.2212205],[145.7111509,15.2212109],[145.7112223,15.2212347],[145.7112723,15.2212847],[145.7113841,15.2214441],[145.7115055,15.2215988],[145.7116078,15.2217558],[145.7117053,15.2219819],[145.7117172,15.2220866],[145.7117077,15.222158],[145.7116645,15.2222366],[145.7115761,15.2222662],[145.7115078,15.2222793],[145.7114079,15.2222793],[145.7113151,15.2222698],[145.7112247,15.2222555],[145.7110694,15.2222113],[145.7109273,15.222127],[145.7108833,15.222095],[145.7107943,15.2219975],[145.710522,15.2218376],[145.7105141,15.2215694],[145.7108409,15.2211843],[145.7110986,15.2212205]]]},"properties":{"osm_id":832684734,"osm_type":"way","seamark_type":"obstruction","display_class":"OTHER","min_zoom":12,"importance":1,"name":null,"ref":null,"common":{"type":"obstruction"},"children":{"obstruction":{"category":"reef","water_level":"submerged"}},"osm_tags":{"natural":"reef","reef":"coral","seamark:obstruction:category":"reef","seamark:obstruction:water_level":"submerged","seamark:type":"obstruction","source":"NHD"}}},{"type":"Feature","geometry":{"type":"Polygon","coordinates":[[[145.7067257,15.2113835],[145.706474,15.2115955],[145.7052483,15.2118968],[145.7049093,15.2114657],[145.7047793,15.2109038],[145.7050805,15.2103334],[145.706771,15.2110527],[145.7068733,15.2110646],[145.7069542,15.2111193],[145.7070232,15.2111693],[145.7071041,15.2112288],[145.707116,15.2113168],[145.707085,15.2113763],[145.706997,15.2114168],[145.7068566,15.2114287],[145.7067257,15.2113835]]]},"properties":{"osm_id":832684735,"osm_type":"way","seamark_type":"obstruction","display_class":"OTHER","min_zoom":12,"importance":1,"name":null,"ref":null,"common":{"type":"obstruction"},"children":{"obstruction":{"category":"reef","water_level":"submerged"}},"osm_tags":{"natural":"reef","reef":"coral","seamark:obstruction:category":"reef","seamark:obstruction:water_level":"submerged","seamark:type":"obstruction"}}},{"type":"Feature","geometry":{"type":"Polygon","coordinates":[[[145.7046376,15.2056371],[145.7048006,15.2056502],[145.7049027,15.2056708],[145.704974,15.2057429],[145.7058603,15.2061212],[145.7067797,15.2065383],[145.706971,15.2070275],[145.7069666,15.2075536],[145.7066801,15.2079299],[145.7059208,15.2082111],[145.7053834,15.2080847],[145.7049792,15.20777],[145.7047803,15.207672],[145.7046481,15.2075528],[145.7045385,15.2073477],[145.7043732,15.2071853],[145.7041415,15.2070226],[145.7039873,15.2068602],[145.7039336,15.2065801],[145.7039252,15.2061496],[145.703982,15.2059239],[145.7042271,15.2057101],[145.704427,15.2056359],[145.7046376,15.2056371]]]},"properties":{"osm_id":832684740,"osm_type":"way","seamark_type":"obstruction","display_class":"OTHER","min_zoom":12,"importance":1,"name":null,"ref":null,"common":{"type":"obstruction"},"children":{"obstruction":{"category":"reef","water_level":"submerged"}},"osm_tags":{"natural":"reef","reef":"coral","seamark:obstruction:category":"reef","seamark:obstruction:water_level":"submerged","seamark:type":"obstruction"}}},{"type":"Feature","geometry":{"type":"Polygon","coordinates":[[[145.7075181,15.209939],[145.7076666,15.2099161],[145.7077732,15.2099294],[145.7078131,15.2099618],[145.7078341,15.2100151],[145.7078303,15.2100665],[145.7077979,15.2101217],[145.7076723,15.2101921],[145.7075371,15.2102359],[145.7072116,15.2102816],[145.7069489,15.2103254],[145.7066405,15.2104453],[145.706593,15.2104567],[145.7065339,15.2104529],[145.7064635,15.2104263],[145.7064235,15.2103863],[145.7063969,15.2103425],[145.7063798,15.2102454],[145.7063931,15.2101902],[145.706473,15.2101103],[145.706513,15.2100646],[145.7065701,15.2100303],[145.7066405,15.2100265],[145.7067471,15.2100303],[145.7068233,15.2100475],[145.7069013,15.2100532],[145.7070022,15.2100437],[145.7075181,15.209939]]]},"properties":{"osm_id":832684742,"osm_type":"way","seamark_type":"obstruction","display_class":"OTHER","min_zoom":12,"importance":1,"name":null,"ref":null,"common":{"type":"obstruction"},"children":{"obstruction":{"category":"reef","water_level":"submerged"}},"osm_tags":{"natural":"reef","reef":"coral","seamark:obstruction:category":"reef","seamark:obstruction:water_level":"submerged","seamark:type":"obstruction","source":"NHD"}}},{"type":"Feature","geometry":{"type":"Polygon","coordinates":[[[145.7073968,15.2117665],[145.7078608,15.2119439],[145.7079415,15.212182],[145.7078279,15.2125701],[145.7073356,15.2128308],[145.7065521,15.2131357],[145.706127,15.2131834],[145.7060436,15.2128535],[145.7057538,15.2126629],[145.7056945,15.2124676],[145.7055582,15.2122356],[145.7052483,15.2118968],[145.706474,15.2115955],[145.7069351,15.2117309],[145.7071017,15.2116904],[145.7072421,15.2117094],[145.7073968,15.2117665]]]},"properties":{"osm_id":832684745,"osm_type":"way","seamark_type":"obstruction","display_class":"OTHER","min_zoom":12,"importance":1,"name":null,"ref":null,"common":{"type":"obstruction"},"children":{"obstruction":{"category":"reef","water_level":"submerged"}},"osm_tags":{"natural":"reef","reef":"coral","seamark:obstruction:category":"reef","seamark:obstruction:water_level":"submerged","seamark:type":"obstruction"}}},{"type":"Feature","geometry":{"type":"Polygon","coordinates":[[[145.7026499,15.2073195],[145.7030328,15.2073735],[145.703117,15.207565],[145.703023,15.2077867],[145.702798,15.207882],[145.7026273,15.207881],[145.7024636,15.2077085],[145.7024778,15.2073937],[145.7026499,15.2073195]]]},"properties":{"osm_id":832684748,"osm_type":"way","seamark_type":"obstruction","display_class":"OTHER","min_zoom":12,"importance":1,"name":null,"ref":null,"common":{"type":"obstruction"},"children":{"obstruction":{"category":"reef","water_level":"submerged"}},"osm_tags":{"natural":"reef","reef":"coral","seamark:obstruction:category":"reef","seamark:obstruction:water_level":"submerged","seamark:type":"obstruction","source":"NHD"}}},{"type":"Feature","geometry":{"type":"Polygon","coordinates":[[[145.7144829,15.2419035],[145.7144444,15.2419335],[145.7144273,15.2419606],[145.7144082,15.2420561],[145.7144106,15.2422251],[145.7143892,15.2423512],[145.7143535,15.2424487],[145.7142726,15.2425106],[145.7141114,15.2425459],[145.7139805,15.2425399],[145.7138258,15.2424983],[145.7136652,15.2424626],[145.7134987,15.242415],[145.7134035,15.2423674],[145.71335,15.2423258],[145.7132726,15.2422247],[145.7130259,15.2420983],[145.7131431,15.2420277],[145.7133093,15.2419381],[145.7134397,15.2418231],[145.713557,15.2416329],[145.7138535,15.2417143],[145.7139916,15.2417095],[145.7140573,15.2416876],[145.714153,15.2416417],[145.714239,15.2414859],[145.7143233,15.241125],[145.714344,15.2408498],[145.7142771,15.2402438],[145.7141919,15.2398039],[145.7141405,15.2396611],[145.714082,15.2395869],[145.7140249,15.2395312],[145.714002,15.2394898],[145.7139892,15.2394284],[145.7140134,15.239377],[145.7140506,15.2393228],[145.7140934,15.2392856],[145.7141591,15.2392599],[145.7142376,15.2392542],[145.714319,15.2392585],[145.7144273,15.2392769],[145.7145343,15.2392793],[145.7146533,15.2392674],[145.7148175,15.2392436],[145.7149031,15.2392365],[145.7149793,15.239246],[145.7150459,15.2392864],[145.7151673,15.2394197],[145.7152601,15.2394934],[145.7153338,15.2395767],[145.7154052,15.2396767],[145.7154933,15.239748],[145.7155908,15.2398052],[145.7156622,15.2398765],[145.7156884,15.2399693],[145.7156884,15.2400764],[145.7156574,15.2401526],[145.7155099,15.2402537],[145.7153433,15.2403322],[145.7152648,15.2403869],[145.7151839,15.2404536],[145.7151578,15.2404988],[145.7151578,15.2405678],[145.7151863,15.2406201],[145.7152244,15.240663],[145.7152815,15.2407177],[145.7153386,15.2408105],[145.7153624,15.2408938],[145.7153767,15.2409651],[145.7153719,15.2410318],[145.7153529,15.2410627],[145.7152886,15.2410746],[145.7151582,15.241039],[145.715134,15.241039],[145.7151083,15.2410504],[145.7150897,15.2410719],[145.7150869,15.2411147],[145.715094,15.2411347],[145.7151168,15.2411518],[145.7151356,15.241186],[145.7151411,15.2412617],[145.7151554,15.2413331],[145.7151825,15.2413717],[145.7152196,15.2413902],[145.7153081,15.2414159],[145.7153324,15.2414331],[145.715341,15.2414545],[145.7153367,15.2414916],[145.7153139,15.2415116],[145.7152767,15.2415244],[145.7152211,15.2415159],[145.715134,15.2414788],[145.7150854,15.2414488],[145.7150583,15.2414102],[145.715044,15.2413574],[145.7150355,15.2412989],[145.7150255,15.241286],[145.7150069,15.2412832],[145.7149557,15.2413254],[145.714939,15.2413564],[145.7149319,15.2413968],[145.7149247,15.2414872],[145.7148938,15.241561],[145.7148105,15.2416133],[145.714782,15.2416467],[145.7147724,15.2416966],[145.7147724,15.241749],[145.7147456,15.2418692],[145.7147828,15.2419463],[145.7147742,15.2419877],[145.7147571,15.2420206],[145.7147285,15.2420377],[145.7146885,15.2420405],[145.7146557,15.2420163],[145.7146329,15.2419863],[145.7146186,15.2419178],[145.7145929,15.2418992],[145.7145129,15.2418935],[145.7144829,15.2419035]]]},"properties":{"osm_id":832684752,"osm_type":"way","seamark_type":"obstruction","display_class":"OTHER","min_zoom":12,"importance":1,"name":null,"ref":null,"common":{"type":"obstruction"},"children":{"obstruction":{"category":"reef","water_level":"submerged"}},"osm_tags":{"natural":"reef","reef":"coral","seamark:obstruction:category":"reef","seamark:obstruction:water_level":"submerged","seamark:type":"obstruction"}}},{"type":"Feature","geometry":{"type":"Polygon","coordinates":[[[145.7060118,15.2143086],[145.7059701,15.2141688],[145.7059731,15.2140379],[145.7059939,15.2139695],[145.7060683,15.2137998],[145.7065542,15.2137673],[145.7068609,15.2141407],[145.7065828,15.2142908],[145.7065263,15.2143919],[145.7064609,15.2144424],[145.7063657,15.2144722],[145.7061846,15.2144787],[145.7061129,15.2144603],[145.7060534,15.2144008],[145.7060118,15.2143086]]]},"properties":{"osm_id":832684757,"osm_type":"way","seamark_type":"obstruction","display_class":"OTHER","min_zoom":12,"importance":1,"name":null,"ref":null,"common":{"type":"obstruction"},"children":{"obstruction":{"category":"reef","water_level":"submerged"}},"osm_tags":{"natural":"reef","reef":"coral","seamark:obstruction:category":"reef","seamark:obstruction:water_level":"submerged","seamark:type":"obstruction"}}},{"type":"Feature","geometry":{"type":"Polygon","coordinates":[[[145.7077316,15.2151511],[145.7081642,15.2151026],[145.70836,15.2152324],[145.7083302,15.2154659],[145.7080886,15.2157328],[145.7080136,15.2157721],[145.7078851,15.2157757],[145.7077531,15.2157721],[145.7076103,15.2157507],[145.7074818,15.2157078],[145.7073997,15.2155972],[145.7073819,15.2154866],[145.707414,15.2153866],[145.7074711,15.2152867],[145.7075425,15.215201],[145.7076424,15.2151653],[145.7077316,15.2151511]]]},"properties":{"osm_id":832684761,"osm_type":"way","seamark_type":"obstruction","display_class":"OTHER","min_zoom":12,"importance":1,"name":null,"ref":null,"common":{"type":"obstruction"},"children":{"obstruction":{"category":"reef","water_level":"submerged"}},"osm_tags":{"natural":"reef","reef":"coral","seamark:obstruction:category":"reef","seamark:obstruction:water_level":"submerged","seamark:type":"obstruction"}}},{"type":"Feature","geometry":{"type":"Polygon","coordinates":[[[145.7004361,15.1763068],[145.7020589,15.1771026],[145.7028423,15.177132],[145.7043819,15.1776315],[145.7071037,15.1786837],[145.7087289,15.1790443],[145.7128869,15.1785228],[145.7131629,15.1798753],[145.7134109,15.1811128],[145.7135319,15.1820638],[145.7120011,15.1823171],[145.7088561,15.1827055],[145.7058616,15.1835293],[145.7071217,15.1853193],[145.7084132,15.1874491],[145.7098665,15.1903037],[145.7109298,15.192197],[145.7109752,15.1939893],[145.7111062,15.1951681],[145.7112811,15.1962187],[145.7099997,15.195145],[145.7090817,15.1949921],[145.708362,15.1959833],[145.7088681,15.1964561],[145.7094373,15.1964932],[145.7094029,15.1967745],[145.7090336,15.1974591],[145.7082483,15.197267],[145.7080516,15.1969021],[145.707355,15.1965912],[145.70673,15.1958932],[145.7060185,15.1952255],[145.705518,15.1947741],[145.7053293,15.1944485],[145.7051379,15.1941509],[145.7051703,15.1938219],[145.7048154,15.1929538],[145.7041113,15.1915522],[145.7033328,15.189989],[145.7029437,15.1882694],[145.7028705,15.1871984],[145.7021036,15.1860564],[145.7013809,15.1848706],[145.7008158,15.1842999],[145.699683,15.1832771],[145.6990739,15.1823592],[145.6988209,15.1811716],[145.6989207,15.1803549],[145.6989745,15.1791523],[145.6992487,15.1782794],[145.699353,15.1776612],[145.6994711,15.1769652],[145.6996952,15.1764595],[145.699958,15.176531],[145.7000247,15.176512],[145.7000913,15.1765024],[145.7004361,15.1763068]]]},"properties":{"osm_id":832684762,"osm_type":"way","seamark_type":"obstruction","display_class":"OTHER","min_zoom":12,"importance":1,"name":null,"ref":null,"common":{"type":"obstruction"},"children":{"obstruction":{"category":"reef","water_level":"submerged"}},"osm_tags":{"natural":"reef","reef":"coral","seamark:obstruction:category":"reef","seamark:obstruction:water_level":"submerged","seamark:type":"obstruction","source":"NHD"}}},{"type":"Feature","geometry":{"type":"Polygon","coordinates":[[[145.725415,15.2220425],[145.725377,15.2220758],[145.7253294,15.2220924],[145.7252699,15.2220924],[145.7252271,15.2220829],[145.7251587,15.2220395],[145.7249957,15.2218612],[145.7249487,15.221795],[145.7248916,15.2216475],[145.7248487,15.2215999],[145.7248368,15.2215523],[145.7248392,15.2214952],[145.7248541,15.2214514],[145.7248772,15.2212901],[145.7249199,15.2212216],[145.7249986,15.2211883],[145.7250586,15.2211837],[145.72512,15.2211978],[145.7251743,15.2212157],[145.7252321,15.2212599],[145.7253533,15.2213789],[145.7254392,15.2214549],[145.7254674,15.2215142],[145.7254436,15.221638],[145.725446,15.2216737],[145.7254555,15.2217213],[145.7254562,15.2218039],[145.7254387,15.2219175],[145.7254365,15.2219853],[145.725415,15.2220425]]]},"properties":{"osm_id":832684764,"osm_type":"way","seamark_type":"obstruction","display_class":"OTHER","min_zoom":12,"importance":1,"name":null,"ref":null,"common":{"type":"obstruction"},"children":{"obstruction":{"category":"reef","water_level":"submerged"}},"osm_tags":{"natural":"reef","reef":"coral","seamark:obstruction:category":"reef","seamark:obstruction:water_level":"submerged","seamark:type":"obstruction","source":"NHD"}}},{"type":"Feature","geometry":{"type":"Polygon","coordinates":[[[145.7068328,15.2091284],[145.7069699,15.2091608],[145.7070593,15.209157],[145.7072554,15.2091322],[145.7072897,15.2091398],[145.7073106,15.2091665],[145.7073106,15.2092179],[145.7072402,15.2093664],[145.707086,15.2095129],[145.7069089,15.2096119],[145.7068081,15.2096272],[145.7066634,15.2096214],[145.706612,15.2095986],[145.7065663,15.2095529],[145.7065225,15.2094787],[145.7064921,15.2093892],[145.7064864,15.2093245],[145.7064997,15.2092502],[145.7065339,15.2091874],[145.7065701,15.2091475],[145.7066196,15.2091265],[145.7066919,15.2091113],[145.7067681,15.209117],[145.7068328,15.2091284]]]},"properties":{"osm_id":832684765,"osm_type":"way","seamark_type":"obstruction","display_class":"OTHER","min_zoom":12,"importance":1,"name":null,"ref":null,"common":{"type":"obstruction"},"children":{"obstruction":{"category":"reef","water_level":"submerged"}},"osm_tags":{"natural":"reef","reef":"coral","seamark:obstruction:category":"reef","seamark:obstruction:water_level":"submerged","seamark:type":"obstruction","source":"NHD"}}},{"type":"Feature","geometry":{"type":"Polygon","coordinates":[[[145.709693,15.1994739],[145.7095788,15.1995381],[145.7094788,15.1995096],[145.7093632,15.1994186],[145.7092963,15.1992488],[145.7092488,15.1990885],[145.7091332,15.1989654],[145.7089106,15.1989076],[145.7087462,15.1988408],[145.7085049,15.1986699],[145.7083605,15.1984902],[145.7082551,15.1982919],[145.70814,15.1980936],[145.7081117,15.1979616],[145.7081413,15.1978676],[145.7082289,15.1978116],[145.7084226,15.197841],[145.7085482,15.197917],[145.7086543,15.1980118],[145.7088379,15.198107],[145.7090506,15.1982023],[145.7092535,15.1983165],[145.7094466,15.1984588],[145.7097796,15.1988866],[145.7098181,15.1990303],[145.7098286,15.1992098],[145.7097929,15.1993811],[145.709693,15.1994739]]]},"properties":{"osm_id":832684766,"osm_type":"way","seamark_type":"obstruction","display_class":"OTHER","min_zoom":12,"importance":1,"name":null,"ref":null,"common":{"type":"obstruction"},"children":{"obstruction":{"category":"reef","water_level":"submerged"}},"osm_tags":{"natural":"reef","reef":"coral","seamark:obstruction:category":"reef","seamark:obstruction:water_level":"submerged","seamark:type":"obstruction","source":"NHD"}}},{"type":"Feature","geometry":{"type":"Polygon","coordinates":[[[145.6954671,15.1488749],[145.6975269,15.1498168],[145.6984236,15.1508845],[145.6989939,15.1515026],[145.6994818,15.151592],[145.6996015,15.1516187],[145.6998256,15.1517242],[145.6999755,15.1518321],[145.7001276,15.1518789],[145.7002759,15.1519615],[145.7003027,15.1520599],[145.7003671,15.1523292],[145.7003725,15.1524379],[145.7003561,15.1525662],[145.7002652,15.1532042],[145.7001847,15.1536185],[145.6999379,15.1542295],[145.6998467,15.1550683],[145.6998467,15.1560003],[145.6998762,15.1563472],[145.7000828,15.1567821],[145.7002813,15.1568805],[145.7006836,15.1574656],[145.7010591,15.1580093],[145.7016116,15.1583821],[145.7020193,15.1587601],[145.7025558,15.1591898],[145.7030386,15.1596351],[145.7042715,15.1605432],[145.7058299,15.1620088],[145.7071277,15.1635425],[145.7075209,15.1640328],[145.7087554,15.1663032],[145.7096303,15.1686007],[145.7100639,15.1700408],[145.7107399,15.1725258],[145.7110539,15.1735918],[145.7114429,15.1747068],[145.7128869,15.1785228],[145.7087289,15.1790443],[145.7071037,15.1786837],[145.7043819,15.1776315],[145.7028423,15.177132],[145.7020589,15.1771026],[145.7004361,15.1763068],[145.6999054,15.1762548],[145.6997131,15.176252],[145.6995618,15.1762092],[145.6994419,15.1761053],[145.6990797,15.1756259],[145.698662,15.1748159],[145.6984298,15.1740273],[145.6982059,15.1727539],[145.6976103,15.1721047],[145.6971446,15.1714185],[145.6969596,15.170214],[145.6966068,15.1693266],[145.6961562,15.1685293],[145.6955073,15.167097],[145.6948356,15.1652952],[145.6942591,15.1640981],[145.6939296,15.1632214],[145.6935784,15.1625292],[145.693495,15.1618017],[145.6934391,15.1606635],[145.6932067,15.1602159],[145.6929289,15.159149],[145.6926254,15.1584275],[145.6926643,15.1575648],[145.6922348,15.1569506],[145.691809,15.1563923],[145.6918728,15.156061],[145.6924423,15.1553003],[145.6926162,15.1546973],[145.6928894,15.1538562],[145.6931487,15.1532838],[145.6935091,15.1526547],[145.6938183,15.1520107],[145.6937758,15.1515092],[145.6938643,15.151015],[145.6937624,15.1502065],[145.6947992,15.1509002],[145.6951312,15.1506169],[145.6952977,15.1504065],[145.6953299,15.1503101],[145.6953427,15.1502032],[145.6953406,15.1501315],[145.6952835,15.1496794],[145.6952115,15.1495913],[145.6951042,15.1493364],[145.6951425,15.1489177],[145.6954671,15.1488749]]]},"properties":{"osm_id":832684767,"osm_type":"way","seamark_type":"obstruction","display_class":"OTHER","min_zoom":12,"importance":1,"name":null,"ref":null,"common":{"type":"obstruction"},"children":{"obstruction":{"category":"reef","water_level":"submerged"}},"osm_tags":{"natural":"reef","reef":"coral","seamark:obstruction:category":"reef","seamark:obstruction:water_level":"submerged","seamark:type":"obstruction","source":"NHD"}}},{"type":"Feature","geometry":{"type":"Polygon","coordinates":[[[145.71228,15.222762],[145.7124632,15.2227548],[145.7126464,15.2227453],[145.7127487,15.222762],[145.7128152,15.2227868],[145.7128701,15.2228262],[145.7128986,15.2228904],[145.7128915,15.2229357],[145.7128629,15.2229618],[145.7127797,15.2230118],[145.7125774,15.2231665],[145.7124513,15.223314],[145.7123918,15.2233687],[145.7123126,15.2233765],[145.7122229,15.2233592],[145.7121206,15.2233306],[145.7119944,15.2232854],[145.7116093,15.2232508],[145.7113958,15.2229452],[145.7113216,15.2226392],[145.711665,15.222585],[145.7121182,15.2227429],[145.71228,15.222762]]]},"properties":{"osm_id":832684769,"osm_type":"way","seamark_type":"obstruction","display_class":"OTHER","min_zoom":12,"importance":1,"name":null,"ref":null,"common":{"type":"obstruction"},"children":{"obstruction":{"category":"reef","water_level":"submerged"}},"osm_tags":{"natural":"reef","reef":"coral","seamark:obstruction:category":"reef","seamark:obstruction:water_level":"submerged","seamark:type":"obstruction","source":"NHD"}}},{"type":"Feature","geometry":{"type":"Polygon","coordinates":[[[145.7409303,15.2329956],[145.7408765,15.2328069],[145.7411251,15.2327409],[145.7411788,15.2329297],[145.7409303,15.2329956]]]},"properties":{"osm_id":1239039580,"osm_type":"way","seamark_type":"obstruction","display_class":"OTHER","min_zoom":12,"importance":1,"name":null,"ref":null,"common":{"type":"obstruction"},"children":{"obstruction":{"category":"foul_area","water_level":"submerged"}},"osm_tags":{"area":"yes","natural":"reef","reef":"pilings","seamark:obstruction:category":"foul_area","seamark:obstruction:water_level":"submerged","seamark:type":"obstruction"}}},{"type":"Feature","geometry":{"type":"Polygon","coordinates":[[[145.7413388,15.232467],[145.7415048,15.2322868],[145.7416515,15.2324126],[145.7414856,15.2325929],[145.7413388,15.232467]]]},"properties":{"osm_id":1239039581,"osm_type":"way","seamark_type":"obstruction","display_class":"OTHER","min_zoom":12,"importance":1,"name":null,"ref":null,"common":{"type":"obstruction"},"children":{"obstruction":{"category":"foul_area","water_level":"submerged"}},"osm_tags":{"area":"yes","natural":"reef","reef":"pilings","seamark:obstruction:category":"foul_area","seamark:obstruction:water_level":"submerged","seamark:type":"obstruction"}}},{"type":"Feature","geometry":{"type":"Polygon","coordinates":[[[145.7385052,15.2315849],[145.7388643,15.2315868],[145.7393993,15.2316009],[145.7395148,15.2315018],[145.739687,15.2315054],[145.7397801,15.231571],[145.739838,15.231615],[145.739929,15.231649],[145.7400383,15.2316234],[145.7401194,15.2316093],[145.740189,15.231633],[145.740265,15.231651],[145.740383,15.231774],[145.7404607,15.2318063],[145.740542,15.23184],[145.7408079,15.2318657],[145.7409242,15.2318941],[145.7410584,15.2319269],[145.7411918,15.2319595],[145.7414959,15.2319073],[145.7415906,15.2318713],[145.741773,15.231904],[145.7419437,15.2319633],[145.742103,15.2319939],[145.742369,15.2320766],[145.7424462,15.2321071],[145.7426044,15.2321697],[145.742691,15.232204],[145.742833,15.232303],[145.7429108,15.2323528],[145.7430651,15.2324139],[145.7432328,15.232494],[145.7435594,15.232584],[145.743703,15.2325991],[145.7438832,15.2326702],[145.744297,15.232909],[145.744612,15.2331114],[145.7448318,15.2332463],[145.7449266,15.2333447],[145.7450958,15.2334223],[145.7450941,15.2334626],[145.745089,15.2335791],[145.7451225,15.2336246],[145.7451596,15.233675],[145.7453038,15.233817],[145.7454438,15.234019],[145.7454091,15.2340709],[145.7454569,15.2341111],[145.7455091,15.2341716],[145.7455904,15.2342107],[145.7456629,15.2342398],[145.7457278,15.2342744],[145.7457933,15.2343898],[145.745864,15.23458],[145.7459191,15.2346509],[145.745999,15.2347538],[145.7461236,15.234847],[145.746132,15.234925],[145.746208,15.234967],[145.746275,15.235033],[145.7463108,15.2351003],[145.74637,15.2352113],[145.7464283,15.2353602],[145.7465362,15.2354789],[145.7466813,15.2356383],[145.7467112,15.2357704],[145.7466971,15.2359207],[145.7466822,15.236081],[145.7467236,15.2361715],[145.7468443,15.2363544],[145.7468528,15.236456],[145.7467741,15.2366873],[145.7467277,15.2367816],[145.7467294,15.2368661],[145.746745,15.2369275],[145.7467987,15.2370528],[145.7471073,15.2372415],[145.7475942,15.2374447],[145.74798,15.2377137],[145.7480534,15.2377992],[145.7481996,15.2379017],[145.7484329,15.2380419],[145.7486334,15.2381975],[145.7487464,15.2382852],[145.7489401,15.238395],[145.7489434,15.2384818],[145.7491115,15.2385785],[145.7494157,15.2387759],[145.7505811,15.2393011],[145.750794,15.239397],[145.7508744,15.2394034],[145.7509618,15.2394104],[145.7510177,15.2394148],[145.7510491,15.2394173],[145.7513611,15.2396662],[145.7524675,15.2404855],[145.7525175,15.2406855],[145.7525581,15.2410424],[145.7527776,15.2413444],[145.7531273,15.2417014],[145.7533867,15.2421166],[145.7535497,15.2423777],[145.7536431,15.2424889],[145.7526175,15.2483076],[145.7519692,15.2475183],[145.7512374,15.2467103],[145.7512943,15.2461769],[145.7517252,15.2457846],[145.7520342,15.2455101],[145.7520667,15.2451335],[145.7517334,15.2449609],[145.7513106,15.2450629],[145.7508877,15.2451492],[145.7502129,15.245008],[145.7498145,15.2441843],[145.7476435,15.2437214],[145.7465946,15.2431488],[145.7392453,15.2411606],[145.7374899,15.2406688],[145.7356778,15.2399586],[145.7338099,15.2384331],[145.7341034,15.2383473],[145.7345616,15.238259],[145.7345348,15.2379351],[145.7341715,15.2378195],[145.7342058,15.2375541],[145.7345625,15.2375366],[145.7358815,15.2380586],[145.7366786,15.2374996],[145.7377458,15.2371255],[145.7369955,15.2360955],[145.7361875,15.234891],[145.7360742,15.2342217],[145.736775,15.2329378],[145.7373342,15.2320431],[145.7385052,15.2315849]]]},"properties":{"osm_id":1239039583,"osm_type":"way","seamark_type":"obstruction","display_class":"OTHER","min_zoom":12,"importance":1,"name":null,"ref":null,"common":{"type":"obstruction"},"children":{"obstruction":{"category":"reef","water_level":"submerged"}},"osm_tags":{"area":"yes","natural":"reef","reef":"coral","seamark:obstruction:category":"reef","seamark:obstruction:water_level":"submerged","seamark:type":"obstruction"}}},{"type":"Feature","geometry":{"type":"Polygon","coordinates":[[[145.6997887,15.1510388],[145.6994806,15.1510467],[145.6994351,15.151144],[145.6995028,15.1512051],[145.699454,15.1512625],[145.6993005,15.1512757],[145.6991005,15.1510715],[145.6989392,15.1509053],[145.6982145,15.1500526],[145.6979947,15.1497972],[145.697612,15.1494356],[145.697384,15.1492431],[145.6977138,15.1489484],[145.6991875,15.1491488],[145.6997127,15.1493924],[145.7002646,15.149474],[145.7000439,15.1501623],[145.699992,15.1504077],[145.6997887,15.1510388]]]},"properties":{"osm_id":1239093129,"osm_type":"way","seamark_type":"obstruction","display_class":"OTHER","min_zoom":12,"importance":1,"name":null,"ref":null,"common":{"type":"obstruction"},"children":{"obstruction":{"category":"reef","water_level":"submerged"}},"osm_tags":{"area":"yes","natural":"reef","reef":"coral","seamark:obstruction:category":"reef","seamark:obstruction:water_level":"submerged","seamark:type":"obstruction"}}},{"type":"Feature","geometry":{"type":"Polygon","coordinates":[[[145.7135319,15.1820638],[145.7137389,15.1826298],[145.7139459,15.1833598],[145.7140729,15.1839518],[145.7142309,15.1848748],[145.7142547,15.1852622],[145.7143168,15.18555],[145.7144635,15.1859366],[145.7145759,15.1864908],[145.7146829,15.1867858],[145.714852,15.187583],[145.7149539,15.1880888],[145.7151179,15.1887618],[145.7152229,15.1895888],[145.7153779,15.1903768],[145.7154259,15.1908188],[145.7155262,15.1913115],[145.7156548,15.1915562],[145.7158419,15.1919614],[145.7161049,15.1928528],[145.7164689,15.1940908],[145.7166095,15.1946128],[145.7166399,15.1950168],[145.7167109,15.1958608],[145.7167739,15.1965408],[145.7168279,15.1974168],[145.7168599,15.1977778],[145.7168449,15.1980777],[145.7168511,15.1985578],[145.7168189,15.1989888],[145.7168064,15.1991501],[145.7167715,15.1994135],[145.7164579,15.2000098],[145.7163301,15.2000748],[145.7158499,15.2000894],[145.7157461,15.2001042],[145.7155874,15.2000337],[145.7148749,15.1999947],[145.7150253,15.1997838],[145.7156598,15.1996863],[145.7160466,15.1991265],[145.7156491,15.1969596],[145.7151549,15.1935071],[145.7143062,15.1904486],[145.7139087,15.1883335],[145.7135326,15.1870996],[145.7131244,15.1864879],[145.712931,15.1857725],[145.7126087,15.1844246],[145.7121145,15.183253],[145.7120011,15.1823171],[145.7135319,15.1820638]]]},"properties":{"osm_id":1239105261,"osm_type":"way","seamark_type":"obstruction","display_class":"OTHER","min_zoom":12,"importance":1,"name":null,"ref":null,"common":{"type":"obstruction"},"children":{"obstruction":{"category":"reef","water_level":"submerged"}},"osm_tags":{"natural":"reef","reef":"coral","seamark:obstruction:category":"reef","seamark:obstruction:water_level":"submerged","seamark:type":"obstruction"}}},{"type":"Feature","geometry":{"type":"Polygon","coordinates":[[[145.7245579,15.2364564],[145.7243625,15.2362797],[145.7242811,15.2361304],[145.7241793,15.235714],[145.7241223,15.2354941],[145.7241427,15.2354077],[145.7242689,15.2354116],[145.7243788,15.2354352],[145.7244969,15.2356787],[145.7245457,15.2359772],[145.7246271,15.236205],[145.7246556,15.2364211],[145.7245579,15.2364564]]]},"properties":{"osm_id":1239107320,"osm_type":"way","seamark_type":"wreck","display_class":"OTHER","min_zoom":12,"importance":1,"name":null,"ref":null,"common":{"type":"wreck"},"children":{"wreck":{"category":"dangerous","water_level":"submerged"}},"osm_tags":{"area":"yes","historic":"wreck","natural":"reef","reef":"wreck","seamark:type":"wreck","seamark:wreck:category":"dangerous","seamark:wreck:water_level":"submerged"}}},{"type":"Feature","geometry":{"type":"Polygon","coordinates":[[[145.7043147,15.2006697],[145.70429,15.2005393],[145.7042634,15.2004348],[145.7042546,15.2003322],[145.7042944,15.2002561],[145.7043717,15.2002115],[145.7044371,15.2001999],[145.7044895,15.2002345],[145.7045389,15.2003124],[145.7048694,15.2004819],[145.7048509,15.200728],[145.7048417,15.2007974],[145.7047863,15.2009033],[145.7046838,15.2009474],[145.704547,15.2009418],[145.7044428,15.2008664],[145.7043517,15.2007449],[145.7043147,15.2006697]]]},"properties":{"osm_id":1239118377,"osm_type":"way","seamark_type":"obstruction","display_class":"OTHER","min_zoom":12,"importance":1,"name":null,"ref":null,"common":{"type":"obstruction"},"children":{"obstruction":{"category":"reef","water_level":"submerged"}},"osm_tags":{"natural":"reef","reef":"coral","seamark:obstruction:category":"reef","seamark:obstruction:water_level":"submerged","seamark:type":"obstruction","source":"NHD"}}},{"type":"Feature","geometry":{"type":"Polygon","coordinates":[[[145.7039299,15.2053885],[145.7038704,15.2053766],[145.7038198,15.205341],[145.7037841,15.2053082],[145.7037811,15.2052547],[145.7038049,15.2052041],[145.7038466,15.2051744],[145.7039447,15.2051447],[145.704034,15.2051536],[145.7040935,15.2051863],[145.7041232,15.2052458],[145.7041172,15.2053053],[145.7040816,15.2053558],[145.7040161,15.2053856],[145.7039299,15.2053885]]]},"properties":{"osm_id":1239118378,"osm_type":"way","seamark_type":"obstruction","display_class":"OTHER","min_zoom":12,"importance":1,"name":null,"ref":null,"common":{"type":"obstruction"},"children":{"obstruction":{"category":"reef","water_level":"submerged"}},"osm_tags":{"natural":"reef","reef":"coral","seamark:obstruction:category":"reef","seamark:obstruction:water_level":"submerged","seamark:type":"obstruction"}}},{"type":"Feature","geometry":{"type":"Polygon","coordinates":[[[145.7028225,15.2044494],[145.702763,15.2044375],[145.7027124,15.2044019],[145.7026767,15.2043691],[145.7026737,15.2043156],[145.7026975,15.204265],[145.7027392,15.2042353],[145.7028373,15.204168],[145.7030866,15.2041801],[145.7030098,15.2043662],[145.7029742,15.2044167],[145.7029087,15.2044465],[145.7028225,15.2044494]]]},"properties":{"osm_id":1239118379,"osm_type":"way","seamark_type":"obstruction","display_class":"OTHER","min_zoom":12,"importance":1,"name":null,"ref":null,"common":{"type":"obstruction"},"children":{"obstruction":{"category":"reef","water_level":"submerged"}},"osm_tags":{"natural":"reef","reef":"coral","seamark:obstruction:category":"reef","seamark:obstruction:water_level":"submerged","seamark:type":"obstruction","source":"NHD"}}},{"type":"Feature","geometry":{"type":"Polygon","coordinates":[[[145.7155874,15.2000337],[145.7148749,15.1999947],[145.7148072,15.2000516],[145.7147747,15.2002638],[145.7147665,15.200527],[145.7144856,15.2015995],[145.7143269,15.2017606],[145.7139075,15.2019099],[145.7138017,15.2019845],[145.7141884,15.2020474],[145.7145793,15.2020316],[145.7148805,15.2019491],[145.715137,15.2019845],[145.7156546,15.2020518],[145.7158507,15.2021347],[145.7159581,15.2018367],[145.7159527,15.2015853],[145.716087,15.2013027],[145.7161719,15.2012778],[145.7162069,15.2011138],[145.7162235,15.2010611],[145.7163279,15.2009282],[145.7163338,15.2007807],[145.7163229,15.2007011],[145.7163326,15.2006501],[145.7163446,15.2006229],[145.716345,15.200556],[145.7163083,15.2005079],[145.7163039,15.200429],[145.7163115,15.2003932],[145.7163341,15.2003239],[145.7163196,15.2002736],[145.7162426,15.200243],[145.7159277,15.2002081],[145.7157284,15.2001902],[145.7156941,15.2001517],[145.7157066,15.2001231],[145.7157461,15.2001042],[145.7155874,15.2000337]]]},"properties":{"osm_id":1239118380,"osm_type":"way","seamark_type":"obstruction","display_class":"OTHER","min_zoom":12,"importance":1,"name":null,"ref":null,"common":{"type":"obstruction"},"children":{"obstruction":{"category":"reef","water_level":"submerged"}},"osm_tags":{"natural":"reef","reef":"coral","seamark:obstruction:category":"reef","seamark:obstruction:water_level":"submerged","seamark:type":"obstruction"}}},{"type":"Feature","geometry":{"type":"Polygon","coordinates":[[[145.7141969,15.2029986],[145.7147556,15.2029727],[145.7151477,15.2029727],[145.7155506,15.2028586],[145.7157923,15.2029623],[145.7157601,15.2032889],[145.7156741,15.2036258],[145.7156849,15.2038487],[145.715889,15.2038902],[145.7161642,15.2037404],[145.7161379,15.2042328],[145.7161474,15.2042719],[145.7162163,15.2042945],[145.7162421,15.2043402],[145.7162874,15.2046083],[145.7162702,15.2048125],[145.7162592,15.2050822],[145.7162272,15.2053528],[145.716231,15.2054787],[145.716197,15.2055532],[145.7161561,15.206074],[145.7161628,15.2063355],[145.7161148,15.2067772],[145.7160649,15.2071959],[145.7159912,15.2076528],[145.7159106,15.2079489],[145.7158139,15.2080854],[145.715771,15.208233],[145.7157053,15.2084882],[145.7157321,15.2086874],[145.7157963,15.208933],[145.7157481,15.2091611],[145.7156963,15.209959],[145.7156557,15.2104744],[145.7156289,15.2108368],[145.7156074,15.2110852],[145.7155913,15.211313],[145.7155913,15.2114683],[145.7155967,15.2116132],[145.7153849,15.211771],[145.7149533,15.2118496],[145.7145462,15.2116925],[145.7132679,15.2108282],[145.712527,15.210404],[145.7118349,15.2101447],[145.7120711,15.2098776],[145.7131214,15.2090526],[145.7141969,15.2029986]]]},"properties":{"osm_id":1239118381,"osm_type":"way","seamark_type":"obstruction","display_class":"OTHER","min_zoom":12,"importance":1,"name":null,"ref":null,"common":{"type":"obstruction"},"children":{"obstruction":{"category":"reef","water_level":"submerged"}},"osm_tags":{"area":"yes","natural":"reef","reef":"coral","seamark:obstruction:category":"reef","seamark:obstruction:water_level":"submerged","seamark:type":"obstruction"}}},{"type":"Feature","geometry":{"type":"Polygon","coordinates":[[[145.7123029,15.2109713],[145.7121739,15.2105359],[145.7150639,15.2121117],[145.7154102,15.2124653],[145.7153928,15.2128452],[145.7153891,15.2130825],[145.7149028,15.2125368],[145.7143119,15.2119666],[145.7123029,15.2109713]]]},"properties":{"osm_id":1239118382,"osm_type":"way","seamark_type":"obstruction","display_class":"OTHER","min_zoom":12,"importance":1,"name":null,"ref":null,"common":{"type":"obstruction"},"children":{"obstruction":{"category":"reef","water_level":"submerged"}},"osm_tags":{"area":"yes","natural":"reef","reef":"coral","seamark:obstruction:category":"reef","seamark:obstruction:water_level":"submerged","seamark:type":"obstruction"}}},{"type":"Feature","geometry":{"type":"Polygon","coordinates":[[[145.7075547,15.2143181],[145.7074952,15.2143062],[145.7074446,15.2142706],[145.7074089,15.2142378],[145.7074059,15.2141843],[145.7074297,15.2141337],[145.7074714,15.214104],[145.7075695,15.2140743],[145.7076588,15.2140832],[145.7077183,15.2141159],[145.707748,15.2141754],[145.707742,15.2142349],[145.7077064,15.2142854],[145.7076409,15.2143152],[145.7075547,15.2143181]]]},"properties":{"osm_id":1239118383,"osm_type":"way","seamark_type":"obstruction","display_class":"OTHER","min_zoom":12,"importance":1,"name":null,"ref":null,"common":{"type":"obstruction"},"children":{"obstruction":{"category":"reef","water_level":"submerged"}},"osm_tags":{"natural":"reef","reef":"rock","seamark:obstruction:category":"reef","seamark:obstruction:water_level":"submerged","seamark:type":"obstruction"}}},{"type":"Feature","geometry":{"type":"Polygon","coordinates":[[[145.7039117,15.2174244],[145.7038101,15.2173876],[145.7036565,15.2170779],[145.703778,15.2170179],[145.7040318,15.2172728],[145.7040858,15.2173873],[145.7042555,15.2175432],[145.7042457,15.2177069],[145.7040408,15.2176946],[145.703935,15.2174868],[145.7039117,15.2174244]]]},"properties":{"osm_id":1239118384,"osm_type":"way","seamark_type":"obstruction","display_class":"OTHER","min_zoom":12,"importance":1,"name":null,"ref":null,"common":{"type":"obstruction"},"children":{"obstruction":{"category":"reef","water_level":"submerged"}},"osm_tags":{"natural":"reef","reef":"coral","seamark:obstruction:category":"reef","seamark:obstruction:water_level":"submerged","seamark:type":"obstruction"}}},{"type":"Feature","geometry":{"type":"Polygon","coordinates":[[[145.7099821,15.2221296],[145.709949,15.2220804],[145.7099397,15.2220206],[145.7099387,15.2219731],[145.709976,15.2219334],[145.7100301,15.2219141],[145.7100813,15.2219219],[145.7101721,15.2219683],[145.7102284,15.2220358],[145.7102461,15.2220996],[145.7102231,15.2221619],[145.7101751,15.2221996],[145.7101128,15.2222106],[145.7100448,15.2221867],[145.7099821,15.2221296]]]},"properties":{"osm_id":1239124649,"osm_type":"way","seamark_type":"obstruction","display_class":"OTHER","min_zoom":12,"importance":1,"name":null,"ref":null,"common":{"type":"obstruction"},"children":{"obstruction":{"category":"reef","water_level":"submerged"}},"osm_tags":{"natural":"reef","reef":"rock","seamark:obstruction:category":"reef","seamark:obstruction:water_level":"submerged","seamark:type":"obstruction"}}},{"type":"Feature","geometry":{"type":"Polygon","coordinates":[[[145.7156288,15.2164283],[145.7153958,15.2165733],[145.7151245,15.216826],[145.7147457,15.2169298],[145.7143015,15.2168892],[145.7138619,15.217029],[145.7134177,15.2169568],[145.7130997,15.2165688],[145.7137216,15.2162123],[145.7146709,15.2159054],[145.7148533,15.2155174],[145.7137824,15.2148405],[145.713918,15.2144073],[145.7133662,15.2141862],[145.7128425,15.2138162],[145.7129266,15.2133785],[145.7137123,15.2134191],[145.714526,15.2137169],[145.7146055,15.2142719],[145.7153177,15.2143619],[145.7154733,15.215128],[145.7154992,15.2153676],[145.7155827,15.2158799],[145.7156288,15.2164283]]]},"properties":{"osm_id":1239124650,"osm_type":"way","seamark_type":"obstruction","display_class":"OTHER","min_zoom":12,"importance":1,"name":null,"ref":null,"common":{"type":"obstruction"},"children":{"obstruction":{"category":"reef","water_level":"submerged"}},"osm_tags":{"area":"yes","natural":"reef","reef":"coral","seamark:obstruction:category":"reef","seamark:obstruction:water_level":"submerged","seamark:type":"obstruction"}}},{"type":"Feature","geometry":{"type":"Polygon","coordinates":[[[145.7191932,15.2297627],[145.7190207,15.2297033],[145.718477,15.2297022],[145.7184783,15.2295093],[145.7190965,15.229539],[145.719622,15.2295519],[145.7195573,15.2296757],[145.7196462,15.2299033],[145.719486,15.2300684],[145.7192718,15.2298743],[145.7191932,15.2297627]]]},"properties":{"osm_id":1239124651,"osm_type":"way","seamark_type":"obstruction","display_class":"OTHER","min_zoom":12,"importance":1,"name":null,"ref":null,"common":{"type":"obstruction"},"children":{"obstruction":{"category":"reef","water_level":"submerged"}},"osm_tags":{"natural":"reef","reef":"rock","seamark:obstruction:category":"reef","seamark:obstruction:water_level":"submerged","seamark:type":"obstruction"}}},{"type":"Feature","geometry":{"type":"Polygon","coordinates":[[[145.7166347,15.2187476],[145.7162704,15.2185818],[145.715641,15.2184866],[145.7163074,15.2193499],[145.7160482,15.2197786],[145.7153139,15.2200048],[145.7143205,15.2202013],[145.7144316,15.2213028],[145.7153078,15.2216839],[145.7156163,15.2222733],[145.7159927,15.2219875],[145.7164987,15.2222674],[145.7172145,15.2228032],[145.7177204,15.2229878],[145.7182203,15.2223329],[145.7183375,15.2216779],[145.7189545,15.221154],[145.7194482,15.2216065],[145.720201,15.2212076],[145.7206329,15.2208801],[145.7211266,15.2211718],[145.7209538,15.2217851],[145.720417,15.2223507],[145.7202874,15.2227973],[145.720491,15.22322],[145.7210155,15.2236844],[145.7216819,15.2235356],[145.7225828,15.2235534],[145.7227371,15.2228866],[145.7229001,15.2224919],[145.7229923,15.222542],[145.7230888,15.2220352],[145.7233603,15.22063],[145.7235454,15.2193261],[145.7235532,15.2186066],[145.7234809,15.2186669],[145.7233783,15.2186472],[145.7233629,15.2185993],[145.7233534,15.2185304],[145.7233519,15.2184376],[145.7233491,15.2182721],[145.7233563,15.2180578],[145.7233139,15.2178988],[145.7232514,15.2178104],[145.7231356,15.2177275],[145.7230453,15.2176696],[145.7229332,15.2176364],[145.7227795,15.2176432],[145.7225745,15.217642],[145.7221506,15.2176817],[145.721981,15.217719],[145.7218824,15.217728],[145.7217876,15.2177696],[145.7217172,15.2178314],[145.7217264,15.2179732],[145.7216831,15.2180138],[145.7216188,15.2180049],[145.7215916,15.2179196],[145.7215167,15.2179249],[145.7213611,15.2179011],[145.7213218,15.2178894],[145.7212964,15.2178529],[145.7213402,15.2177881],[145.7212316,15.2177646],[145.7210606,15.2178975],[145.7211842,15.2181156],[145.7214588,15.2182239],[145.7217426,15.218237],[145.7218723,15.2182532],[145.7218009,15.2184138],[145.7216218,15.2184493],[145.7215539,15.2187586],[145.7217513,15.2186398],[145.7219418,15.21857],[145.7220243,15.2186469],[145.7220802,15.2187592],[145.7220729,15.2189274],[145.721985,15.2190776],[145.7218395,15.2192322],[145.7215259,15.2194283],[145.7213215,15.2195609],[145.7211388,15.2196605],[145.7208089,15.2197537],[145.7206435,15.2197603],[145.7192036,15.2196029],[145.7187192,15.2196176],[145.7184774,15.2196327],[145.7182951,15.2196523],[145.7179121,15.2197149],[145.7175007,15.2196384],[145.7171836,15.2195192],[145.7170075,15.2193558],[145.7166347,15.2187476]]]},"properties":{"osm_id":1239124652,"osm_type":"way","seamark_type":"obstruction","display_class":"OTHER","min_zoom":12,"importance":1,"name":null,"ref":null,"common":{"type":"obstruction"},"children":{"obstruction":{"category":"reef","water_level":"submerged"}},"osm_tags":{"area":"yes","natural":"reef","reef":"coral","seamark:obstruction:category":"reef","seamark:obstruction:water_level":"submerged","seamark:type":"obstruction"}}},{"type":"Feature","geometry":{"type":"Polygon","coordinates":[[[145.7220163,15.2179556],[145.7220163,15.2179308],[145.722049,15.2179082],[145.7220818,15.217871],[145.722118,15.2178935],[145.7221297,15.2179308],[145.7220876,15.2179465],[145.7220163,15.2179556]]]},"properties":{"osm_id":1239124654,"osm_type":"way","seamark_type":"obstruction","display_class":"OTHER","min_zoom":12,"importance":1,"name":null,"ref":null,"common":{"type":"obstruction"},"children":{"obstruction":{"category":"foul_area","water_level":"submerged"}},"osm_tags":{"area":"yes","natural":"reef","reef":"pilings","seamark:obstruction:category":"foul_area","seamark:obstruction:water_level":"submerged","seamark:type":"obstruction"}}},{"type":"Feature","geometry":{"type":"Polygon","coordinates":[[[145.6991318,15.1514275],[145.6990949,15.1514266],[145.6991003,15.1513203],[145.6991554,15.1513177],[145.6992225,15.1513242],[145.6993989,15.1513695],[145.6991402,15.151345],[145.6991318,15.1514275]]]},"properties":{"osm_id":1239134596,"osm_type":"way","seamark_type":"obstruction","display_class":"OTHER","min_zoom":12,"importance":1,"name":null,"ref":null,"common":{"type":"obstruction"},"children":{"obstruction":{"category":"foul_area","water_level":"submerged"}},"osm_tags":{"area":"yes","natural":"reef","reef":"debris","seamark:obstruction:category":"foul_area","seamark:obstruction:water_level":"submerged","seamark:type":"obstruction"}}},{"type":"Feature","geometry":{"type":"Polygon","coordinates":[[[145.7345718,15.2377374],[145.7346091,15.2376797],[145.7348181,15.2376995],[145.7348622,15.2377791],[145.7347857,15.2377696],[145.734767,15.2378264],[145.7347562,15.2378254],[145.7347641,15.2377677],[145.7347455,15.2377459],[145.7347111,15.2377412],[145.7346944,15.237763],[145.7347042,15.2377828],[145.7346621,15.2377857],[145.7346621,15.2377961],[145.7346356,15.2377961],[145.7346287,15.2377412],[145.7345718,15.2377374]]]},"properties":{"osm_id":1239391108,"osm_type":"way","seamark_type":"wreck","display_class":"OTHER","min_zoom":12,"importance":1,"name":null,"ref":null,"common":{"type":"wreck"},"children":{"wreck":{"category":"hull_showing","water_level":"dry"}},"osm_tags":{"building":"ship","seamark:type":"wreck","seamark:wreck:category":"hull_showing","seamark:wreck:water_level":"dry"}}},{"type":"Feature","geometry":{"type":"Polygon","coordinates":[[[145.7399552,15.2304251],[145.7397049,15.2304433],[145.739382,15.2304384],[145.7391377,15.2304301],[145.7389174,15.2304532],[145.7387243,15.2305125],[145.7386099,15.2305768],[145.7385706,15.2306263],[145.7386423,15.23074],[145.7387329,15.2308125],[145.7387978,15.2309361],[145.7392556,15.2309675],[145.7394589,15.2309839],[145.7396639,15.2309806],[145.7396449,15.2311486],[145.7397719,15.2311524],[145.7397737,15.2310817],[145.7397679,15.2308846],[145.7397204,15.2308129],[145.7397004,15.2307376],[145.7396611,15.2306877],[145.7396539,15.2306092],[145.7397621,15.2305381],[145.7398808,15.2304981],[145.7399563,15.2304913],[145.7399552,15.2304251]]]},"properties":{"osm_id":1239391109,"osm_type":"way","seamark_type":"obstruction","display_class":"OTHER","min_zoom":12,"importance":1,"name":null,"ref":null,"common":{"type":"obstruction"},"children":{"obstruction":{"category":"reef","water_level":"submerged"}},"osm_tags":{"area":"yes","natural":"reef","reef":"coral","seamark:obstruction:category":"reef","seamark:obstruction:water_level":"submerged","seamark:type":"obstruction"}}},{"type":"Feature","geometry":{"type":"Polygon","coordinates":[[[145.7402426,15.2297105],[145.7398791,15.2298104],[145.7397117,15.2298104],[145.7394742,15.2297033],[145.7393034,15.2296802],[145.739107,15.2296835],[145.7388678,15.229634],[145.7387944,15.2295285],[145.7387687,15.229395],[145.7387824,15.2291808],[145.73882,15.2290835],[145.738876,15.2288149],[145.7389618,15.2288628],[145.7390224,15.2289378],[145.7390675,15.2289744],[145.7390868,15.2289839],[145.7391328,15.2289524],[145.739178,15.2289267],[145.7392661,15.228909],[145.7392868,15.228885],[145.7392851,15.2288525],[145.7392571,15.2287856],[145.7392438,15.2287181],[145.7392339,15.2286499],[145.7393015,15.2285718],[145.739565,15.2283937],[145.7396752,15.2284107],[145.7397552,15.228491],[145.7397044,15.2285443],[145.7397002,15.2285898],[145.7397283,15.2286219],[145.7397778,15.2286366],[145.7398439,15.2286319],[145.7399755,15.2288407],[145.74004,15.2289856],[145.7401157,15.2291555],[145.7401459,15.2292234],[145.7401678,15.2293422],[145.7401472,15.2294932],[145.7400759,15.2295636],[145.7400699,15.2296324],[145.7401129,15.2297037],[145.7402426,15.2297105]]]},"properties":{"osm_id":1239391110,"osm_type":"way","seamark_type":"obstruction","display_class":"OTHER","min_zoom":12,"importance":1,"name":null,"ref":null,"common":{"type":"obstruction"},"children":{"obstruction":{"category":"reef","water_level":"submerged"}},"osm_tags":{"area":"yes","natural":"reef","reef":"coral","seamark:obstruction:category":"reef","seamark:obstruction:water_level":"submerged","seamark:type":"obstruction"}}},{"type":"Feature","geometry":{"type":"LineString","coordinates":[[145.7396962,15.2274175],[145.7393981,15.227588]]},"properties":{"osm_id":1239391112,"osm_type":"way","seamark_type":"small_craft_facility","display_class":"OTHER","min_zoom":12,"importance":1,"name":null,"ref":null,"common":{"type":"small_craft_facility"},"children":{"small_craft_facility":{"category":"slipway"}},"osm_tags":{"access":"yes","highway":"service","leisure":"slipway","seamark:small_craft_facility:category":"slipway","seamark:type":"small_craft_facility","service":"slipway","surface":"concrete"}}},{"type":"Feature","geometry":{"type":"Polygon","coordinates":[[[145.738718,15.2287463],[145.7386993,15.2286927],[145.7386863,15.2285986],[145.7386774,15.2284504],[145.7390977,15.2281285],[145.7392431,15.2280263],[145.7393265,15.2279045],[145.739304,15.2277936],[145.7392871,15.2276696],[145.7395097,15.2275567],[145.7395272,15.2275487],[145.7395867,15.2276617],[145.7396231,15.2277658],[145.739626,15.2278391],[145.7396251,15.2279845],[145.7395532,15.2281525],[145.7394123,15.2283058],[145.7391646,15.2284493],[145.73894,15.2285035],[145.7388385,15.2285956],[145.7388491,15.2286157],[145.7387774,15.2286618],[145.7387915,15.2286971],[145.738718,15.2287463]]]},"properties":{"osm_id":1239391119,"osm_type":"way","seamark_type":"obstruction","display_class":"OTHER","min_zoom":12,"importance":1,"name":null,"ref":null,"common":{"type":"obstruction"},"children":{"obstruction":{"category":"reef","water_level":"submerged"}},"osm_tags":{"area":"yes","natural":"reef","reef":"coral","seamark:obstruction:category":"reef","seamark:obstruction:water_level":"submerged","seamark:type":"obstruction"}}},{"type":"Feature","geometry":{"type":"Polygon","coordinates":[[[145.7388192,15.2285317],[145.738815,15.2285361],[145.7388095,15.2285388],[145.7388035,15.2285395],[145.7387975,15.2285382],[145.7387923,15.228535],[145.7387889,15.2285308],[145.7387869,15.2285257],[145.7387867,15.2285203],[145.7387882,15.2285152],[145.7387914,15.2285107],[145.7387958,15.2285074],[145.738801,15.2285056],[145.7388066,15.2285054],[145.738812,15.2285069],[145.7388165,15.22851],[145.7388202,15.2285147],[145.7388219,15.2285204],[145.7388216,15.2285263],[145.7388192,15.2285317]]]},"properties":{"osm_id":1239391120,"osm_type":"way","seamark_type":"obstruction","display_class":"OTHER","min_zoom":12,"importance":1,"name":null,"ref":null,"common":{"type":"obstruction"},"children":{"obstruction":{"category":"foul_area","water_level":"submerged"}},"osm_tags":{"area":"yes","natural":"reef","reef":"pilings","seamark:obstruction:category":"foul_area","seamark:obstruction:water_level":"submerged","seamark:type":"obstruction"}}},{"type":"Feature","geometry":{"type":"Polygon","coordinates":[[[145.7394816,15.2274555],[145.7392826,15.2273639],[145.7391271,15.2273867],[145.7389329,15.2274928],[145.7386624,15.2276603],[145.7384596,15.2277734],[145.7382883,15.2277886],[145.7381125,15.2277233],[145.7379028,15.227558],[145.7376975,15.2274815],[145.7377541,15.2273123],[145.7376369,15.2272971],[145.7376256,15.2270513],[145.7376436,15.2265391],[145.7378137,15.2264775],[145.7381203,15.2264279],[145.738363,15.2264758],[145.7386614,15.2265212],[145.7390459,15.226818],[145.7391896,15.2270005],[145.7394816,15.2274555]]]},"properties":{"osm_id":1239391121,"osm_type":"way","seamark_type":"obstruction","display_class":"OTHER","min_zoom":12,"importance":1,"name":null,"ref":null,"common":{"type":"obstruction"},"children":{"obstruction":{"category":"reef","water_level":"submerged"}},"osm_tags":{"area":"yes","natural":"reef","reef":"coral","seamark:obstruction:category":"reef","seamark:obstruction:water_level":"submerged","seamark:type":"obstruction"}}},{"type":"Feature","geometry":{"type":"Polygon","coordinates":[[[145.7256632,15.2181388],[145.725836,15.2179956],[145.7260901,15.218284],[145.7259031,15.2184311],[145.7256632,15.2181388]]]},"properties":{"osm_id":1239398289,"osm_type":"way","seamark_type":"obstruction","display_class":"OTHER","min_zoom":12,"importance":1,"name":null,"ref":null,"common":{"type":"obstruction"},"children":{"obstruction":{"category":"foul_area","water_level":"submerged"}},"osm_tags":{"area":"yes","natural":"reef","reef":"pilings","seamark:obstruction:category":"foul_area","seamark:obstruction:water_level":"submerged","seamark:type":"obstruction"}}},{"type":"Feature","geometry":{"type":"Polygon","coordinates":[[[145.7263219,15.2188763],[145.7261999,15.2187371],[145.7264093,15.2185704],[145.7265516,15.2187292],[145.7263219,15.2188763]]]},"properties":{"osm_id":1239398290,"osm_type":"way","seamark_type":"obstruction","display_class":"OTHER","min_zoom":12,"importance":1,"name":null,"ref":null,"common":{"type":"obstruction"},"children":{"obstruction":{"category":"foul_area","water_level":"submerged"}},"osm_tags":{"area":"yes","natural":"reef","reef":"pilings","seamark:obstruction:category":"foul_area","seamark:obstruction:water_level":"submerged","seamark:type":"obstruction"}}},{"type":"Feature","geometry":{"type":"Polygon","coordinates":[[[145.7268666,15.2189783],[145.7271065,15.2189234],[145.7270353,15.2186625],[145.7269256,15.21869],[145.7268727,15.2185115],[145.7267487,15.2185449],[145.7267447,15.2184586],[145.7266877,15.2184527],[145.7266857,15.2186331],[145.726767,15.2186135],[145.7268666,15.2189783]]]},"properties":{"osm_id":1239398291,"osm_type":"way","seamark_type":"obstruction","display_class":"OTHER","min_zoom":12,"importance":1,"name":null,"ref":null,"common":{"type":"obstruction"},"children":{"obstruction":{"category":"foul_area","water_level":"submerged"}},"osm_tags":{"area":"yes","natural":"reef","reef":"pilings","seamark:obstruction:category":"foul_area","seamark:obstruction:water_level":"submerged","seamark:type":"obstruction"}}},{"type":"Feature","geometry":{"type":"Polygon","coordinates":[[[145.7255108,15.2191964],[145.72561,15.2191407],[145.7257173,15.2193102],[145.7258984,15.2194371],[145.7257804,15.2195445],[145.7256944,15.2194619],[145.7256548,15.2194245],[145.7256342,15.2193969],[145.7255108,15.2191964]]]},"properties":{"osm_id":1239398292,"osm_type":"way","seamark_type":"obstruction","display_class":"OTHER","min_zoom":12,"importance":1,"name":null,"ref":null,"common":{"type":"obstruction"},"children":{"obstruction":{"category":"foul_area","water_level":"submerged"}},"osm_tags":{"area":"yes","natural":"reef","reef":"pilings","seamark:obstruction:category":"foul_area","seamark:obstruction:water_level":"submerged","seamark:type":"obstruction"}}},{"type":"Feature","geometry":{"type":"Polygon","coordinates":[[[145.7265083,15.2222362],[145.7267773,15.2222514],[145.7268636,15.2219273],[145.7271871,15.2220938],[145.727372,15.2222127],[145.7273658,15.2223971],[145.7275106,15.2227568],[145.7275599,15.2230541],[145.7275907,15.2233484],[145.7277201,15.2235357],[145.7279759,15.2236041],[145.7284257,15.2230481],[145.7286506,15.22295],[145.7290727,15.2225189],[145.7293254,15.2222157],[145.7294671,15.2221354],[145.7296951,15.2223108],[145.7298923,15.2224625],[145.729997,15.2223703],[145.7299748,15.222053],[145.7300013,15.2219514],[145.7300764,15.2219501],[145.7300822,15.2218986],[145.7300853,15.2218714],[145.7300896,15.2217525],[145.7301516,15.2215333],[145.7303495,15.2212604],[145.730599,15.22091],[145.7308186,15.2206673],[145.7306429,15.2204916],[145.7304141,15.2203159],[145.730288,15.2201266],[145.7302413,15.220068],[145.7299961,15.2197346],[145.7296832,15.2194552],[145.7293656,15.2191803],[145.7292139,15.2191037],[145.7286278,15.218991],[145.7281516,15.2188723],[145.7280943,15.218982],[145.7279651,15.2189526],[145.7279567,15.218925],[145.7271065,15.2189234],[145.7268666,15.2189783],[145.726767,15.2186135],[145.7266857,15.2186331],[145.7265516,15.2187292],[145.7263219,15.2188763],[145.72561,15.2191407],[145.7255108,15.2191964],[145.7254964,15.2192006],[145.725469,15.219212],[145.7255629,15.219348],[145.7256294,15.2194047],[145.7256944,15.2194619],[145.7257037,15.2194769],[145.7257283,15.2195167],[145.725753,15.2195393],[145.7256695,15.2195512],[145.7256478,15.2195827],[145.7256798,15.2196531],[145.725741,15.219745],[145.7257743,15.2198016],[145.7258394,15.2198967],[145.7259034,15.2201538],[145.7259604,15.2202639],[145.7259707,15.2202861],[145.7260155,15.2203202],[145.7260723,15.2204048],[145.726119,15.2205118],[145.7263482,15.2204932],[145.7263171,15.2204386],[145.7263332,15.2203871],[145.726388,15.2203752],[145.7264197,15.2204064],[145.7265013,15.2204931],[145.7264921,15.2205499],[145.7264825,15.2206342],[145.7265174,15.220617],[145.7265572,15.220546],[145.7266165,15.2205425],[145.726612,15.2206178],[145.7265888,15.2206997],[145.726571,15.2207747],[145.7265343,15.220876],[145.7264786,15.2209541],[145.726468,15.2209876],[145.7264684,15.2210952],[145.7264622,15.2211634],[145.726449,15.2212118],[145.726449,15.2212448],[145.7264842,15.2213293],[145.7264706,15.2214313],[145.7264603,15.2215084],[145.7264496,15.2215544],[145.7264268,15.221601],[145.7263979,15.221678],[145.7264519,15.2216187],[145.7264889,15.2215897],[145.7264989,15.2215567],[145.7265074,15.2215285],[145.7265313,15.2215535],[145.726551,15.2216267],[145.7265505,15.2217069],[145.7264876,15.221862],[145.7264872,15.2219322],[145.7265083,15.2222362]]]},"properties":{"osm_id":1239402773,"osm_type":"way","seamark_type":"obstruction","display_class":"OTHER","min_zoom":12,"importance":1,"name":null,"ref":null,"common":{"type":"obstruction"},"children":{"obstruction":{"category":"reef","water_level":"submerged"}},"osm_tags":{"natural":"reef","reef":"coral","seamark:obstruction:category":"reef","seamark:obstruction:water_level":"submerged","seamark:type":"obstruction"}}},{"type":"Feature","geometry":{"type":"Polygon","coordinates":[[[145.7304141,15.2203159],[145.7305644,15.2202314],[145.7304424,15.2200399],[145.730288,15.2201266],[145.7304141,15.2203159]]]},"properties":{"osm_id":1239402774,"osm_type":"way","seamark_type":"obstruction","display_class":"OTHER","min_zoom":12,"importance":1,"name":null,"ref":null,"common":{"type":"obstruction"},"children":{"obstruction":{"category":"foul_area","water_level":"submerged"}},"osm_tags":{"area":"yes","natural":"reef","reef":"pilings","seamark:obstruction:category":"foul_area","seamark:obstruction:water_level":"submerged","seamark:type":"obstruction"}}},{"type":"Feature","geometry":{"type":"Polygon","coordinates":[[[145.726119,15.2205118],[145.7263482,15.2204932],[145.726368,15.220561],[145.7262926,15.2205682],[145.7262956,15.2206217],[145.7261715,15.2206226],[145.726119,15.2205118]]]},"properties":{"osm_id":1239402775,"osm_type":"way","seamark_type":"obstruction","display_class":"OTHER","min_zoom":12,"importance":1,"name":null,"ref":null,"common":{"type":"obstruction"},"children":{"obstruction":{"category":"foul_area","water_level":"submerged"}},"osm_tags":{"area":"yes","natural":"reef","reef":"pilings","seamark:obstruction:category":"foul_area","seamark:obstruction:water_level":"submerged","seamark:type":"obstruction"}}},{"type":"Feature","geometry":{"type":"Polygon","coordinates":[[[145.7270353,15.2186625],[145.7269538,15.2181787],[145.7268505,15.2181827],[145.726732,15.2181978],[145.7266947,15.2181644],[145.7266692,15.2180873],[145.7266002,15.2179905],[145.7265829,15.2178891],[145.7265394,15.2178543],[145.7264018,15.217809],[145.7263602,15.2177408],[145.7262454,15.2177023],[145.7260159,15.2177025],[145.7259353,15.2176769],[145.7258197,15.2177063],[145.7256706,15.2177406],[145.7255371,15.2177635],[145.7253055,15.2177391],[145.72509,15.2176777],[145.7249402,15.2176078],[145.7248637,15.2176728],[145.7247612,15.2177677],[145.7248402,15.2178448],[145.7248482,15.2178589],[145.7249003,15.2178901],[145.7249055,15.2179357],[145.7248643,15.2179383],[145.7248173,15.2179317],[145.7248137,15.2179159],[145.7247607,15.2178714],[145.724731,15.2178653],[145.7247196,15.2178711],[145.7247002,15.217901],[145.7246905,15.2179195],[145.7246972,15.2179701],[145.7247047,15.2180106],[145.724736,15.2180445],[145.7247984,15.218061],[145.7248552,15.2180627],[145.7248898,15.218072],[145.72486,15.2181072],[145.724821,15.2181094],[145.7247906,15.2181112],[145.7247638,15.218129],[145.7247461,15.2181529],[145.724753,15.2181878],[145.7247815,15.2182697],[145.7247851,15.218298],[145.7247984,15.2183186],[145.7248307,15.2183686],[145.7248999,15.2184492],[145.7249258,15.2184833],[145.7250286,15.2186311],[145.7251337,15.2187512],[145.7251614,15.2187934],[145.725155,15.2188396],[145.725207,15.2188663],[145.7253283,15.2190033],[145.7253714,15.2190683],[145.725469,15.219212],[145.7254964,15.2192006],[145.72561,15.2191407],[145.7263219,15.2188763],[145.7265516,15.2187292],[145.7266857,15.2186331],[145.726767,15.2186135],[145.7268666,15.2189783],[145.7271065,15.2189234],[145.7270353,15.2186625]]]},"properties":{"osm_id":1239402776,"osm_type":"way","seamark_type":"obstruction","display_class":"OTHER","min_zoom":12,"importance":1,"name":null,"ref":null,"common":{"type":"obstruction"},"children":{"obstruction":{"category":"reef","water_level":"submerged"}},"osm_tags":{"area":"yes","natural":"reef","reef":"coral","seamark:obstruction:category":"reef","seamark:obstruction:water_level":"submerged","seamark:type":"obstruction"}}},{"type":"Feature","geometry":{"type":"Polygon","coordinates":[[[145.7259034,15.2201538],[145.7258445,15.2201099],[145.7258025,15.220151],[145.7256932,15.2201663],[145.7256183,15.2202422],[145.7254782,15.2202415],[145.7253751,15.2202993],[145.7252599,15.2203213],[145.7251492,15.2203149],[145.7249798,15.2202713],[145.7248198,15.2202535],[145.7247662,15.2202358],[145.7246899,15.2201834],[145.7245493,15.2201046],[145.7244815,15.2200301],[145.724445,15.2200072],[145.7243885,15.2199913],[145.7242967,15.2199606],[145.7242178,15.219923],[145.7241847,15.2198691],[145.7241967,15.2197183],[145.7242196,15.2195497],[145.7242397,15.2194233],[145.7242378,15.2192594],[145.7242451,15.2191624],[145.7243093,15.2189613],[145.7243531,15.218863],[145.7243681,15.218797],[145.7243754,15.218734],[145.7244106,15.2186491],[145.7244419,15.2186179],[145.7244141,15.2185431],[145.7244381,15.218524],[145.7245306,15.2184903],[145.7245324,15.2184553],[145.7245336,15.2183932],[145.7245255,15.2182659],[145.7245296,15.2182006],[145.7245742,15.2182576],[145.7246156,15.2182981],[145.7246552,15.218375],[145.7247257,15.2184095],[145.7247957,15.2184858],[145.7249887,15.2187086],[145.7250918,15.2188328],[145.7251325,15.2188574],[145.72514,15.218903],[145.7252438,15.2190569],[145.7253033,15.219164],[145.725404,15.2193006],[145.7254238,15.2193846],[145.7255088,15.2194971],[145.7255482,15.2195792],[145.7256357,15.2197328],[145.7256745,15.2198187],[145.7257448,15.219909],[145.7258015,15.2199398],[145.725821,15.2199266],[145.7258394,15.2198967],[145.7259034,15.2201538]]]},"properties":{"osm_id":1239402778,"osm_type":"way","seamark_type":"obstruction","display_class":"OTHER","min_zoom":12,"importance":1,"name":null,"ref":null,"common":{"type":"obstruction"},"children":{"obstruction":{"category":"reef","water_level":"submerged"}},"osm_tags":{"area":"yes","natural":"reef","reef":"coral","seamark:obstruction:category":"reef","seamark:obstruction:water_level":"submerged","seamark:type":"obstruction"}}},{"type":"Feature","geometry":{"type":"Polygon","coordinates":[[[145.7232735,15.2224377],[145.7232524,15.222534],[145.7232863,15.2227213],[145.723351,15.2227703],[145.7235035,15.2227941],[145.7236252,15.222754],[145.7237222,15.2223586],[145.7237253,15.2221341],[145.7237346,15.2219409],[145.7237931,15.2216109],[145.7238686,15.2212348],[145.7239194,15.220939],[145.723941,15.2207948],[145.7239395,15.220713],[145.7239687,15.2205347],[145.7240303,15.220441],[145.7241366,15.2203607],[145.7242537,15.2203414],[145.7244648,15.2203934],[145.7247005,15.2205332],[145.7250194,15.2207145],[145.7252766,15.2208602],[145.7257711,15.2211397],[145.7259591,15.2212437],[145.726107,15.2213166],[145.7262256,15.2213953],[145.7262795,15.2214801],[145.7262579,15.2215603],[145.7261362,15.2217238],[145.7260022,15.2219394],[145.7259729,15.2220018],[145.725822,15.2219974],[145.7257881,15.2220434],[145.7258358,15.2221193],[145.7259695,15.2221358],[145.7259921,15.2220606],[145.7260622,15.2219592],[145.7261006,15.2219308],[145.7261102,15.2218778],[145.7261741,15.2217839],[145.7263015,15.2215948],[145.7263233,15.2215187],[145.7263258,15.2214674],[145.7262849,15.2213844],[145.7261994,15.2213121],[145.7256314,15.2209652],[145.7254569,15.2208536],[145.7253076,15.2207935],[145.7251152,15.2206932],[145.7249571,15.2206],[145.7248773,15.2205593],[145.7248644,15.2205127],[145.7247102,15.2204214],[145.7245948,15.2203613],[145.7245418,15.2203419],[145.7244528,15.2203042],[145.7243606,15.2202811],[145.724273,15.2202733],[145.7242146,15.2202707],[145.7241409,15.2202859],[145.7240731,15.220303],[145.7240122,15.2203306],[145.7239292,15.2204233],[145.7238627,15.2205576],[145.7238341,15.220765],[145.7238177,15.2209644],[145.7237888,15.2210556],[145.7237559,15.2212343],[145.7237229,15.2214061],[145.7237184,15.2214496],[145.7237092,15.2215183],[145.7236916,15.2215919],[145.7236534,15.2217032],[145.7236188,15.2217721],[145.7235934,15.2219027],[145.7235908,15.2220262],[145.7235433,15.2221864],[145.7235028,15.2223002],[145.7234594,15.2224264],[145.7234222,15.2224857],[145.7233986,15.2224965],[145.7233711,15.2224997],[145.7232735,15.2224377]]]},"properties":{"osm_id":1239406560,"osm_type":"way","seamark_type":"obstruction","display_class":"OTHER","min_zoom":12,"importance":1,"name":null,"ref":null,"common":{"type":"obstruction"},"children":{"obstruction":{"category":"reef","water_level":"submerged"}},"osm_tags":{"area":"yes","natural":"reef","reef":"coral","seamark:obstruction:category":"reef","seamark:obstruction:water_level":"submerged","seamark:type":"obstruction"}}},{"type":"Feature","geometry":{"type":"Point","coordinates":[145.7245843,15.2210554]},"properties":{"osm_id":3920585377,"osm_type":"node","seamark_type":"harbour","display_class":"OTHER","min_zoom":12,"importance":1,"name":"Outer Cover Marina","ref":null,"common":{"type":"harbour"},"children":{"harbour":{"category":"marina"}},"osm_tags":{"leisure":"marina","name":"Outer Cover Marina","operator":"Commonwealth of Northern Mariana Islands","seamark:harbour:category":"marina","seamark:type":"harbour"}}},{"type":"Feature","geometry":{"type":"Point","coordinates":[145.722677,15.2172777]},"properties":{"osm_id":3921267594,"osm_type":"node","seamark_type":"harbour","display_class":"OTHER","min_zoom":12,"importance":1,"name":"Smiling Cove Marina","ref":null,"common":{"type":"harbour"},"children":{"harbour":{"category":"marina"}},"osm_tags":{"leisure":"marina","name":"Smiling Cove Marina","operator":"Commonwealth of Northern Mariana Islands","seamark:harbour:category":"marina","seamark:type":"harbour"}}},{"type":"Feature","geometry":{"type":"Polygon","coordinates":[[[145.7035975,15.2170037],[145.7035706,15.2170289],[145.7035807,15.2171059],[145.703863,15.2174281],[145.7039978,15.2175504],[145.70415,15.2177199],[145.7041909,15.2177277],[145.7042043,15.2176086],[145.7040595,15.2174423],[145.7039488,15.2172896],[145.7038539,15.2171626],[145.703771,15.2171186],[145.7036834,15.2170206],[145.7035975,15.2170037]]]},"properties":{"osm_id":1304760649,"osm_type":"way","seamark_type":"wreck","display_class":"OTHER","min_zoom":12,"importance":1,"name":"USS Asphalt","ref":null,"common":{"type":"wreck"},"children":{"wreck":{"category":"hull_showing"}},"osm_tags":{"description":"WWII Concrete barge sunk during a storm.","historic":"wreck","name":"USS Asphalt","seamark:type":"wreck","seamark:wreck:category":"hull_showing","wikidata":"Q7867456","wikipedia":"en:USS Asphalt","wreck:date_sunk":"6 October 1944","wreck:visible_at_high_tide":"yes","wreck:visible_at_low_tide":"yes"}}}],"type":"FeatureCollection"}