{"type":"FeatureCollection","features":[{"type":"Feature","geometry":{"type":"Point","coordinates":[-23.7426154,15.3384679]},"properties":{"osm_id":2686777475,"osm_type":"node","seamark_type":"light_major","display_class":"LIGHTHOUSE","min_zoom":7,"importance":5,"name":"Farol da Ponta Moreia","ref":null,"common":{"type":"light_major"},"children":{},"osm_tags":{"man_made":"lighthouse","name":"Farol da Ponta Moreia","seamark:type":"light_major"}}},{"type":"Feature","geometry":{"type":"Point","coordinates":[-23.4392886,15.0239858]},"properties":{"osm_id":7332173824,"osm_type":"node","seamark_type":"wreck","display_class":"OTHER","min_zoom":12,"importance":1,"name":null,"ref":null,"common":{"type":"wreck"},"children":{},"osm_tags":{"historic":"wreck","seamark:type":"wreck","wreck:visible_at_high_tide":"yes","wreck:visible_at_low_tide":"no"}}}],"type":"FeatureCollection"}