{"type":"FeatureCollection","features":[{"type":"Feature","geometry":{"type":"Point","coordinates":[-88.6217,15.6900018]},"properties":{"osm_id":1922156811,"osm_type":"node","seamark_type":"light_minor","display_class":"OTHER","min_zoom":12,"importance":1,"name":null,"ref":null,"common":{"information":"Visible on range line only.","type":"light_minor"},"children":{"light":{"category":"upper","character":"Oc","colour":"yellow","height":"24","period":"4","reference":"J 5989.1"}},"osm_tags":{"seamark:information":"Visible on range line only.","seamark:light:category":"upper","seamark:light:character":"Oc","seamark:light:colour":"yellow","seamark:light:height":"24","seamark:light:period":"4","seamark:light:reference":"J 5989.1","seamark:type":"light_minor","source":"US NGA Pub. 110. 2012-05-10."}}},{"type":"Feature","geometry":{"type":"Point","coordinates":[-88.6216855,15.690014]},"properties":{"osm_id":1922156907,"osm_type":"node","seamark_type":"light_minor","display_class":"OTHER","min_zoom":12,"importance":1,"name":null,"ref":null,"common":{"type":"light_minor"},"children":{"light":{"category":"upper","character":"Fl","colour":"yellow","reference":"J 5990.1"}},"osm_tags":{"seamark:light:category":"upper","seamark:light:character":"Fl","seamark:light:colour":"yellow","seamark:light:reference":"J 5990.1","seamark:type":"light_minor","source":"US NGA Pub. 110. 2012-05-10."}}},{"type":"Feature","geometry":{"type":"Point","coordinates":[-88.9982812,15.6564212]},"properties":{"osm_id":4232962372,"osm_type":"node","seamark_type":"small_craft_facility","display_class":"OTHER","min_zoom":12,"importance":1,"name":null,"ref":null,"common":{"type":"small_craft_facility"},"children":{"small_craft_facility":{"category":"slipway"}},"osm_tags":{"leisure":"slipway","seamark:small_craft_facility:category":"slipway","seamark:type":"small_craft_facility"}}},{"type":"Feature","geometry":{"type":"Point","coordinates":[-88.9852694,15.8055413]},"properties":{"osm_id":4234913306,"osm_type":"node","seamark_type":"small_craft_facility","display_class":"OTHER","min_zoom":12,"importance":1,"name":null,"ref":null,"common":{"type":"small_craft_facility"},"children":{"small_craft_facility":{"category":"slipway"}},"osm_tags":{"leisure":"slipway","seamark:small_craft_facility:category":"slipway","seamark:type":"small_craft_facility"}}},{"type":"Feature","geometry":{"type":"Point","coordinates":[-88.9934178,15.657362]},"properties":{"osm_id":5057434658,"osm_type":"node","seamark_type":"small_craft_facility","display_class":"OTHER","min_zoom":12,"importance":1,"name":null,"ref":null,"common":{"type":"small_craft_facility"},"children":{"small_craft_facility":{"category":"fuel_station"}},"osm_tags":{"operator":"Shell","seamark:small_craft_facility:category":"fuel_station","seamark:type":"small_craft_facility","waterway":"fuel"}}},{"type":"Feature","geometry":{"type":"Point","coordinates":[-88.9977598,15.6555299]},"properties":{"osm_id":5293088624,"osm_type":"node","seamark_type":"small_craft_facility","display_class":"OTHER","min_zoom":12,"importance":1,"name":null,"ref":null,"common":{"type":"small_craft_facility"},"children":{"small_craft_facility":{"category":"slipway"}},"osm_tags":{"leisure":"slipway","seamark:small_craft_facility:category":"slipway","seamark:type":"small_craft_facility"}}},{"type":"Feature","geometry":{"type":"Point","coordinates":[-88.9936978,15.6571648]},"properties":{"osm_id":5337307964,"osm_type":"node","seamark_type":"small_craft_facility","display_class":"OTHER","min_zoom":12,"importance":1,"name":null,"ref":null,"common":{"type":"small_craft_facility"},"children":{"small_craft_facility":{"category":"fuel_station"}},"osm_tags":{"operator":"Puma","seamark:small_craft_facility:category":"fuel_station","seamark:type":"small_craft_facility","waterway":"fuel"}}},{"type":"Feature","geometry":{"type":"Point","coordinates":[-88.9918515,15.659972]},"properties":{"osm_id":6738028405,"osm_type":"node","seamark_type":"small_craft_facility","display_class":"OTHER","min_zoom":12,"importance":1,"name":null,"ref":null,"common":{"type":"small_craft_facility"},"children":{"small_craft_facility":{"category":"slipway"}},"osm_tags":{"leisure":"slipway","seamark:small_craft_facility:category":"slipway","seamark:type":"small_craft_facility"}}},{"type":"Feature","geometry":{"type":"Point","coordinates":[-88.9932817,15.6571931]},"properties":{"osm_id":6738028406,"osm_type":"node","seamark_type":"small_craft_facility","display_class":"OTHER","min_zoom":12,"importance":1,"name":null,"ref":null,"common":{"type":"small_craft_facility"},"children":{"small_craft_facility":{"category":"slipway"}},"osm_tags":{"leisure":"slipway","seamark:small_craft_facility:category":"slipway","seamark:type":"small_craft_facility"}}},{"type":"Feature","geometry":{"type":"Point","coordinates":[-88.9934313,15.6569555]},"properties":{"osm_id":6738028407,"osm_type":"node","seamark_type":"small_craft_facility","display_class":"OTHER","min_zoom":12,"importance":1,"name":null,"ref":null,"common":{"type":"small_craft_facility"},"children":{"small_craft_facility":{"category":"slipway"}},"osm_tags":{"leisure":"slipway","seamark:small_craft_facility:category":"slipway","seamark:type":"small_craft_facility"}}},{"type":"Feature","geometry":{"type":"Point","coordinates":[-88.9937639,15.6560076]},"properties":{"osm_id":6738028408,"osm_type":"node","seamark_type":"small_craft_facility","display_class":"OTHER","min_zoom":12,"importance":1,"name":null,"ref":null,"common":{"type":"small_craft_facility"},"children":{"small_craft_facility":{"category":"slipway"}},"osm_tags":{"leisure":"slipway","seamark:small_craft_facility:category":"slipway","seamark:type":"small_craft_facility"}}},{"type":"Feature","geometry":{"type":"Point","coordinates":[-88.9962543,15.6557823]},"properties":{"osm_id":6738028411,"osm_type":"node","seamark_type":"small_craft_facility","display_class":"OTHER","min_zoom":12,"importance":1,"name":null,"ref":null,"common":{"type":"small_craft_facility"},"children":{"small_craft_facility":{"category":"slipway"}},"osm_tags":{"leisure":"slipway","seamark:small_craft_facility:category":"slipway","seamark:type":"small_craft_facility"}}},{"type":"Feature","geometry":{"type":"Point","coordinates":[-88.9852707,15.805538]},"properties":{"osm_id":6794070015,"osm_type":"node","seamark_type":"small_craft_facility","display_class":"OTHER","min_zoom":12,"importance":1,"name":null,"ref":null,"common":{"type":"small_craft_facility"},"children":{"small_craft_facility":{"category":"slipway"}},"osm_tags":{"leisure":"slipway","seamark:small_craft_facility:category":"slipway","seamark:type":"small_craft_facility"}}},{"type":"Feature","geometry":{"type":"Point","coordinates":[-88.9960723,15.6566377]},"properties":{"osm_id":6794548647,"osm_type":"node","seamark_type":"small_craft_facility","display_class":"OTHER","min_zoom":12,"importance":1,"name":null,"ref":null,"common":{"type":"small_craft_facility"},"children":{"small_craft_facility":{"category":"slipway"}},"osm_tags":{"leisure":"slipway","seamark:small_craft_facility:category":"slipway","seamark:type":"small_craft_facility"}}},{"type":"Feature","geometry":{"type":"Point","coordinates":[-88.996334,15.6576555]},"properties":{"osm_id":6828971836,"osm_type":"node","seamark_type":"small_craft_facility","display_class":"OTHER","min_zoom":12,"importance":1,"name":null,"ref":null,"common":{"type":"small_craft_facility"},"children":{"small_craft_facility":{"category":"slipway"}},"osm_tags":{"leisure":"slipway","seamark:small_craft_facility:category":"slipway","seamark:type":"small_craft_facility"}}},{"type":"Feature","geometry":{"type":"Point","coordinates":[-88.9962143,15.6574064]},"properties":{"osm_id":6828971837,"osm_type":"node","seamark_type":"small_craft_facility","display_class":"OTHER","min_zoom":12,"importance":1,"name":null,"ref":null,"common":{"type":"small_craft_facility"},"children":{"small_craft_facility":{"category":"slipway"}},"osm_tags":{"leisure":"slipway","seamark:small_craft_facility:category":"slipway","seamark:type":"small_craft_facility"}}},{"type":"Feature","geometry":{"type":"Point","coordinates":[-88.9974245,15.6507647]},"properties":{"osm_id":5331993730,"osm_type":"node","seamark_type":"harbour","display_class":"OTHER","min_zoom":12,"importance":1,"name":"Captain John's Marina & Bungalows","ref":null,"common":{"type":"harbour"},"children":{"harbour":{"category":"marina"}},"osm_tags":{"addr:city":"Frinteras, Rio Dulce","capacity":"10","description":"Med Tie, Water Access Only, Launch Service. Pool, Shower and Head on shore. Water filtered and treated, Purified Water Delivers (5 gal containers.) Cable Television. Laundry Service. Locked Dinghy Corral. 24/7 Security on site.","email":"john@riodulcemarina.com","fee":"yes","internet_access":"wlan","internet_access:fee":"no","leisure":"marina","name":"Captain John's Marina & Bungalows","operator":"Jahn and Elvira Brandis","phone":"+502 57362 0219","power_supply":"yes","sanitary_dump_station":"no","seamark:harbour:category":"marina","seamark:type":"harbour"}}},{"type":"Feature","geometry":{"type":"Polygon","coordinates":[[[-88.9952415,15.6548354],[-88.9952207,15.6548686],[-88.9951515,15.6549383],[-88.9951034,15.6549962],[-88.9950613,15.6550723],[-88.9950058,15.6553729],[-88.9950761,15.6554281],[-88.995158,15.6554924],[-88.995399,15.6552073],[-88.9954343,15.6551266],[-88.9955389,15.65495],[-88.9955384,15.6549003],[-88.9954306,15.6548613],[-88.995266,15.6548151],[-88.9952415,15.6548354]]]},"properties":{"osm_id":547810090,"osm_type":"way","seamark_type":"harbour","display_class":"OTHER","min_zoom":12,"importance":1,"name":"El Rellemo marina","ref":null,"common":{"type":"harbour"},"children":{"harbour":{"category":"marina"}},"osm_tags":{"leisure":"marina","mooring":"yes","name":"El Rellemo marina","seamark:harbour:category":"marina","seamark:type":"harbour","waterway":"boatyard"}}},{"type":"Feature","geometry":{"type":"Polygon","coordinates":[[[-88.9950279,15.6547362],[-88.9948281,15.6550707],[-88.9949159,15.655114],[-88.9950792,15.6548386],[-88.9950876,15.6548309],[-88.9951182,15.6547858],[-88.9950279,15.6547362]]]},"properties":{"osm_id":548052440,"osm_type":"way","seamark_type":"harbour","display_class":"OTHER","min_zoom":12,"importance":1,"name":"Hacha marina","ref":null,"common":{"type":"harbour"},"children":{"harbour":{"category":"marina"}},"osm_tags":{"leisure":"marina","mooring":"yes","name":"Hacha marina","seamark:harbour:category":"marina","seamark:type":"harbour","waterway":"boatyard"}}},{"type":"Feature","geometry":{"type":"Point","coordinates":[-88.9960568,15.649288]},"properties":{"osm_id":11516654704,"osm_type":"node","seamark_type":"harbour","display_class":"OTHER","min_zoom":12,"importance":1,"name":"Marina GYSA","ref":null,"common":{"type":"harbour"},"children":{"harbour":{"category":"marina"}},"osm_tags":{"leisure":"marina","name":"Marina GYSA","seamark:harbour:category":"marina","seamark:type":"harbour"}}},{"type":"Feature","geometry":{"type":"Polygon","coordinates":[[[-88.9917912,15.665207],[-88.9914036,15.6652121],[-88.9914116,15.6655944],[-88.9911085,15.6655724],[-88.991092,15.6656158],[-88.991075,15.665699],[-88.9911219,15.665739],[-88.9911219,15.6658927],[-88.9911018,15.666005],[-88.9911126,15.6661522],[-88.991822,15.6660902],[-88.9918116,15.6656885],[-88.9917912,15.665207]]]},"properties":{"osm_id":724484534,"osm_type":"way","seamark_type":"harbour","display_class":"OTHER","min_zoom":12,"importance":1,"name":"Monkey Bay Marina","ref":null,"common":{"type":"harbour"},"children":{"harbour":{"category":"marina"}},"osm_tags":{"leisure":"marina","mooring":"yes","name":"Monkey Bay Marina","operator":"La Soñada S.A.","power_supply":"yes","seamark:harbour:category":"marina","seamark:type":"harbour"}}},{"type":"Feature","geometry":{"type":"Point","coordinates":[-88.9980101,15.6546634]},"properties":{"osm_id":5337124146,"osm_type":"node","seamark_type":"small_craft_facility","display_class":"OTHER","min_zoom":12,"importance":1,"name":"Texaco","ref":null,"common":{"type":"small_craft_facility"},"children":{"small_craft_facility":{"category":"fuel_station"}},"osm_tags":{"description":"Store on site accepts Debit (cash beck) and Credit. No ATM","fuel:2-cycle_mix":"yes","fuel:Diesel_Top_Q":"yes","fuel:Gasoline":"yes","name":"Texaco","opening_hours":"Mo-Su 06:00-18:00","seamark:small_craft_facility:category":"fuel_station","seamark:type":"small_craft_facility","waterway":"fuel"}}}],"type":"FeatureCollection"}