{"type":"FeatureCollection","features":[{"type":"Feature","geometry":{"type":"Point","coordinates":[120.0141214,16.3140918]},"properties":{"osm_id":11533209797,"osm_type":"node","seamark_type":"light_minor","display_class":"LIGHTHOUSE","min_zoom":7,"importance":5,"name":"Anda","ref":null,"common":{"name":"Anda","type":"light_minor"},"children":{"light":{"character":"Fl","colour":"red","period":"5"}},"osm_tags":{"addr:province":"Pangasinan","addr:town":"Anda","building:material":"steel","man_made":"beacon","name":"Anda Lighthouse","not:man_made":"lighthouse","operator":"Sual Station, Philippine Coast Guard","ref:pcg":"NWLZN-016","seamark:light:character":"Fl","seamark:light:colour":"red","seamark:light:period":"5","seamark:name":"Anda","seamark:type":"light_minor","source":"Philippine Coast Guard, 2019 lighthouse masterlist"}}},{"type":"Feature","geometry":{"type":"Point","coordinates":[120.3355183,16.0728265]},"properties":{"osm_id":9449019009,"osm_type":"node","seamark_type":"light_minor","display_class":"LIGHTHOUSE","min_zoom":7,"importance":5,"name":"Dagupan","ref":null,"common":{"name":"Dagupan","type":"light_minor"},"children":{"light":{"character":"Fl","colour":"white","period":"5"}},"osm_tags":{"addr:city":"Dagupan","building:material":"concrete","man_made":"lighthouse","name":"Dagupan Lighthouse","operator":"Sual Station, Philippine Coast Guard","ref:pcg":"NWLZN-019","seamark:light:character":"Fl","seamark:light:colour":"white","seamark:light:period":"5","seamark:name":"Dagupan","seamark:type":"light_minor","source":"Philippine Coast Guard, 2019 lighthouse masterlist"}}},{"type":"Feature","geometry":{"type":"Point","coordinates":[120.4037579,16.2403109]},"properties":{"osm_id":9448847753,"osm_type":"node","seamark_type":"light_major","display_class":"LIGHTHOUSE","min_zoom":7,"importance":5,"name":"Damortis","ref":null,"common":{"name":"Damortis","type":"light_major"},"children":{"light":{"character":"Fl","colour":"red","period":"5"}},"osm_tags":{"addr:place":"Damortis","addr:province":"La Union","addr:town":"Santo Tomas","building:material":"concrete;steel","man_made":"lighthouse","name":"Damortis Lighthouse","operator":"San Fernando Station, Philippine Coast Guard","ref:pcg":"NWLZN-002","seamark:light:character":"Fl","seamark:light:colour":"red","seamark:light:period":"5","seamark:name":"Damortis","seamark:type":"light_major","source":"Philippine Coast Guard, 2019 lighthouse masterlist"}}},{"type":"Feature","geometry":{"type":"Point","coordinates":[120.3354701,16.8206166]},"properties":{"osm_id":9444153241,"osm_type":"node","seamark_type":"light_major","display_class":"LIGHTHOUSE","min_zoom":7,"importance":5,"name":"Darigayos","ref":null,"common":{"name":"Darigayos","type":"light_major"},"children":{"light":{"character":"Fl","colour":"green","period":"5"}},"osm_tags":{"addr:place":"Darigayos","addr:province":"La Union","addr:town":"Luna","building:material":"concrete;steel","man_made":"lighthouse","name":"Darigayos Lighthouse","operator":"San Fernando Station, Philippine Coast Guard","ref:pcg":"NWLZN-001","seamark:light:character":"Fl","seamark:light:colour":"green","seamark:light:period":"5","seamark:name":"Darigayos","seamark:type":"light_major","source":"Philippine Coast Guard, 2019 lighthouse masterlist"}}},{"type":"Feature","geometry":{"type":"Point","coordinates":[120.0038849,16.1927574]},"properties":{"osm_id":5492732929,"osm_type":"node","seamark_type":"light_minor","display_class":"LIGHTHOUSE","min_zoom":7,"importance":5,"name":"Lucap","ref":null,"common":{"name":"Lucap","type":"light_minor"},"children":{"light":{"character":"Fl","colour":"green","period":"5"}},"osm_tags":{"addr:province":"Pangasinan","addr:town":"Alaminos","building:material":"concrete","man_made":"lighthouse","name":"Lucap Lighthouse","name:en":"Lucap Lighthouse","operator":"Sual Station, Philippine Coast Guard","ref:pcg":"NWLZN-020","seamark:light:character":"Fl","seamark:light:colour":"green","seamark:light:period":"5","seamark:name":"Lucap","seamark:type":"light_minor","source":"Philippine Coast Guard, 2019 lighthouse masterlist","tourism":"yes"}}},{"type":"Feature","geometry":{"type":"Point","coordinates":[120.2808382,16.614861]},"properties":{"osm_id":528711123,"osm_type":"node","seamark_type":"light_major","display_class":"LIGHTHOUSE","min_zoom":7,"importance":5,"name":"San Fernando Point","ref":null,"common":{"name":"San Fernando Point","source":"https://www.admiralty.co.uk/WeeklyNMs/Year%20-%202016/32wknm16_week32_2016.pdf (4078)","type":"light_major"},"children":{"light":{"character":"Fl","colour":"white","group":"2","height":"33","period":"10","range":"10","reference":"F 2698"}},"osm_tags":{"addr:province":"La Union","addr:town":"San Fernando","alt_name":"Poro Point Lighthouse","building:material":"concrete","man_made":"lighthouse","name":"San Fernando Point Lighthouse","operator":"San Fernando Station, Philippine Coast Guard","ref:pcg":"NWLZN-003","seamark:light:character":"Fl","seamark:light:colour":"white","seamark:light:group":"2","seamark:light:height":"33","seamark:light:period":"10","seamark:light:range":"10","seamark:light:reference":"F 2698","seamark:name":"San Fernando Point","seamark:source":"https://www.admiralty.co.uk/WeeklyNMs/Year%20-%202016/32wknm16_week32_2016.pdf (4078)","seamark:type":"light_major","source":"Philippine Coast Guard, 2019 lighthouse masterlist"}}},{"type":"Feature","geometry":{"type":"Point","coordinates":[120.3159705,16.6117142]},"properties":{"osm_id":9446123108,"osm_type":"node","seamark_type":"light_minor","display_class":"LIGHTHOUSE","min_zoom":7,"importance":5,"name":"San Fernando R","ref":null,"common":{"name":"San Fernando R","type":"light_minor"},"children":{"light":{"character":"F","colour":"green"}},"osm_tags":{"addr:place":"Catbangen","addr:province":"La Union","addr:town":"San Fernando","building:material":"concrete;steel","man_made":"lighthouse","name":"San Fernando Range Rear Lighthouse","operator":"San Fernando Station, Philippine Coast Guard","ref:pcg":"NWLZN-005","seamark:light:character":"F","seamark:light:colour":"green","seamark:name":"San Fernando R","seamark:type":"light_minor","source":"Philippine Coast Guard, 2019 lighthouse masterlist"}}},{"type":"Feature","geometry":{"type":"Point","coordinates":[120.2805076,16.6147984]},"properties":{"osm_id":9446104331,"osm_type":"node","seamark_type":"light_minor","display_class":"LIGHTHOUSE","min_zoom":7,"importance":5,"name":"San Fernando, F","ref":null,"common":{"name":"San Fernando, F","type":"light_minor"},"children":{"light":{"character":"F","colour":"green"}},"osm_tags":{"addr:province":"La Union","addr:town":"San Fernando","building:material":"concrete;steel","name":"San Fernando, F Lighthouse","operator":"San Fernando Station, Philippine Coast Guard","ref:pcg":"NWLZN-004","ruins":"yes","ruins:man_made":"lighthouse","seamark:light:character":"F","seamark:light:colour":"green","seamark:name":"San Fernando, F","seamark:type":"light_minor","source":"Philippine Coast Guard, 2019 lighthouse masterlist"}}},{"type":"Feature","geometry":{"type":"Point","coordinates":[120.3429401,16.353832]},"properties":{"osm_id":9448817212,"osm_type":"node","seamark_type":"light_minor","display_class":"LIGHTHOUSE","min_zoom":7,"importance":5,"name":"Santa Rita","ref":"PCG-0025;Admiralty F2697;NGA 14406","common":{"name":"Santa Rita","type":"light_minor"},"children":{"light":{"character":"Fl","colour":"white","period":"5"}},"osm_tags":{"addr:municipality":"Agoo","addr:province":"Agusan del Norte","addr:village":"Santa Rita","man_made":"lighthouse","name":"Santa Rita Lighthouse","operator":"San Fernando Station, Philippine Coast Guard","ref":"PCG-0025;Admiralty F2697;NGA 14406","ref:pcg":"NWLZN-006","seamark:light:character":"Fl","seamark:light:colour":"white","seamark:light:period":"5","seamark:name":"Santa Rita","seamark:type":"light_minor","source":"Philippine Coast Guard, 2019 lighthouse masterlist"}}},{"type":"Feature","geometry":{"type":"Point","coordinates":[120.1123546,16.0745606]},"properties":{"osm_id":11533206230,"osm_type":"node","seamark_type":"light_minor","display_class":"LIGHTHOUSE","min_zoom":7,"importance":5,"name":"Sual","ref":null,"common":{"name":"Sual","type":"light_minor"},"children":{"light":{"character":"Fl","colour":"white","period":"5"}},"osm_tags":{"addr:province":"Pangasinan","addr:town":"Sual","building:material":"concrete","man_made":"lighthouse","name":"Sual Lighthouse","name:en":"Sual Lighthouse","name:zh":"苏阿尔灯塔","name:zh-Hans":"苏阿尔灯塔","name:zh-Hant":"蘇阿爾燈塔","operator":"Sual Station, Philippine Coast Guard","ref:pcg":"NWLZN-022","seamark:light:character":"Fl","seamark:light:colour":"white","seamark:light:period":"5","seamark:name":"Sual","seamark:type":"light_minor","source":"Philippine Coast Guard, 2019 lighthouse masterlist"}}},{"type":"Feature","geometry":{"type":"Point","coordinates":[120.4357409,16.9559952]},"properties":{"osm_id":9427782660,"osm_type":"node","seamark_type":"light_minor","display_class":"LIGHTHOUSE","min_zoom":7,"importance":5,"name":"Tagudin","ref":null,"common":{"name":"Tagudin","type":"light_minor"},"children":{"light":{"character":"Fl","colour":"red","group":"2","period":"5"}},"osm_tags":{"addr:place":"Farola","addr:province":"Ilocos Sur","addr:town":"Tagudin","building:material":"concrete","man_made":"lighthouse","name":"Tagudin Lighthouse","operator":"Currimao Station, Philippine Coast Guard","ref:pcg":"NWLZN-014","seamark:light:character":"Fl","seamark:light:colour":"red","seamark:light:group":"2","seamark:light:period":"5","seamark:name":"Tagudin","seamark:type":"light_minor","source":"Philippine Coast Guard, 2019 lighthouse masterlist"}}},{"type":"Feature","geometry":{"type":"Polygon","coordinates":[[[120.2284178,16.0177608],[120.2288456,16.0171137],[120.2284916,16.0168881],[120.2281885,16.0173058],[120.2283568,16.0174092],[120.2282046,16.0176203],[120.2284178,16.0177608]]]},"properties":{"osm_id":1057777266,"osm_type":"way","seamark_type":"harbour","display_class":"OTHER","min_zoom":12,"importance":1,"name":"Lingayen Municipal Fish Port","ref":null,"common":{"name":"Lingayen Municipal Fish Port","type":"harbour"},"children":{"harbour":{"category":"fishing"}},"osm_tags":{"addr:city":"Lingayen","addr:country":"PH","addr:postcode":"2401","addr:province":"Pangasinan","addr:quarter":"Poblacion","industrial":"port","landuse":"industrial","name":"Lingayen Municipal Fish Port","port":"fishing","seamark:harbour:category":"fishing","seamark:name":"Lingayen Municipal Fish Port","seamark:type":"harbour"}}},{"type":"Feature","geometry":{"type":"LineString","coordinates":[[120.6802003,16.1499668],[120.6814156,16.1496174]]},"properties":{"osm_id":1239554387,"osm_type":"way","seamark_type":"gate","display_class":"OTHER","min_zoom":12,"importance":1,"name":"Overflow Gate","ref":null,"common":{"type":"gate"},"children":{},"osm_tags":{"name":"Overflow Gate","seamark:type":"gate","waterway":"lock_gate"}}}],"type":"FeatureCollection"}