{"type":"FeatureCollection","features":[{"type":"Feature","geometry":{"type":"Polygon","coordinates":[[[39.3244919,16.6203759],[39.3245964,16.6203849],[39.3246077,16.6204107],[39.3245532,16.6204856],[39.324527,16.6204838],[39.324475,16.6204023],[39.3244919,16.6203759]]]},"properties":{"osm_id":757743694,"osm_type":"way","seamark_type":"light_major","display_class":"LIGHTHOUSE","min_zoom":7,"importance":5,"name":"منارة ديفنين","ref":null,"common":{"type":"light_major"},"children":{},"osm_tags":{"building":"yes","man_made":"lighthouse","name":"منارة ديفنين","name:ar":"منارة ديفنين","seamark:type":"light_major"}}},{"type":"Feature","geometry":{"type":"Point","coordinates":[39.3239833,16.6197667]},"properties":{"osm_id":1295699245,"osm_type":"node","seamark_type":"light_minor","display_class":"OTHER","min_zoom":12,"importance":1,"name":"Difnein","ref":null,"common":{"information":"Reserve light F.W. 7M.","name":"Difnein","national_name":"ديفنين","type":"light_minor"},"children":{"light":{"character":"Fl","colour":"white","group":"2","height":"44","period":"10","range":"10","reference":"E 6088"}},"osm_tags":{"seamark:information":"Reserve light F.W. 7M.","seamark:light:character":"Fl","seamark:light:colour":"white","seamark:light:group":"2","seamark:light:height":"44","seamark:light:period":"10","seamark:light:range":"10","seamark:light:reference":"E 6088","seamark:name":"Difnein","seamark:national_name":"ديفنين","seamark:type":"light_minor","source":"US NGA Pub. 112. 2010-11-10."}}},{"type":"Feature","geometry":{"type":"Point","coordinates":[39.4384652,16.032087]},"properties":{"osm_id":1295699251,"osm_type":"node","seamark_type":"light_minor","display_class":"OTHER","min_zoom":12,"importance":1,"name":"Sheik al Abu","ref":null,"common":{"name":"Sheik al Abu","type":"light_minor"},"children":{"light":{"1:character":"Fl","1:colour":"white","1:height":"19","1:period":"10","1:range":"9","1:sector_end":"187","1:sector_start":"277","1:sequence":"1+(9)","reference":"E 6090"}},"osm_tags":{"seamark:light:1:character":"Fl","seamark:light:1:colour":"white","seamark:light:1:height":"19","seamark:light:1:period":"10","seamark:light:1:range":"9","seamark:light:1:sector_end":"187","seamark:light:1:sector_start":"277","seamark:light:1:sequence":"1+(9)","seamark:light:reference":"E 6090","seamark:name":"Sheik al Abu","seamark:type":"light_minor","source":"US NGA Pub. 112. 2010-11-10."}}},{"type":"Feature","geometry":{"type":"Polygon","coordinates":[[[39.1923556,16.4009674],[39.1923878,16.4009674],[39.1924146,16.4009546],[39.192428,16.4009288],[39.192428,16.4008954],[39.1924039,16.4008336],[39.19231,16.4006535],[39.1919399,16.4001183],[39.1918594,16.4000308],[39.1917897,16.3999537],[39.1917199,16.3999048],[39.1916556,16.3998662],[39.1916314,16.3998687],[39.1916314,16.3999022],[39.1916502,16.3999768],[39.1916931,16.400072],[39.1917655,16.4001904],[39.1921196,16.4007179],[39.1922108,16.4008439],[39.1922993,16.4009263],[39.1923556,16.4009674]]]},"properties":{"osm_id":1236406710,"osm_type":"way","seamark_type":"wreck","display_class":"OTHER","min_zoom":12,"importance":1,"name":"Wreck Polish ship Bolesław Krzywousty","ref":null,"common":{"type":"wreck"},"children":{},"osm_tags":{"historic":"wreck","name":"Wreck Polish ship Bolesław Krzywousty","name:fr":"Épave du navire polonais Bolesław Krzywousty (\"Bouche-Torse\").","seamark:type":"wreck","wreck:visible_at_high_tide":"yes","wreck:visible_at_low_tide":"yes"}}}],"type":"FeatureCollection"}