{"type":"FeatureCollection","features":[{"type":"Feature","geometry":{"type":"Point","coordinates":[-22.6774313,16.10241]},"properties":{"osm_id":1334931906,"osm_type":"node","seamark_type":"light_major","display_class":"LIGHTHOUSE","min_zoom":7,"importance":5,"name":"Morro Negro","ref":null,"common":{"name":"Morro Negro","type":"light_major"},"children":{"light":{"1:character":"Fl","1:colour":"white","1:height":"163","1:period":"20","1:range":"31","1:sector_end":"35","1:sector_start":"163","reference":"D 2914"}},"osm_tags":{"man_made":"lighthouse","name":"Farol de Morro Negro","seamark:light:1:character":"Fl","seamark:light:1:colour":"white","seamark:light:1:height":"163","seamark:light:1:period":"20","seamark:light:1:range":"31","seamark:light:1:sector_end":"35","seamark:light:1:sector_start":"163","seamark:light:reference":"D 2914","seamark:name":"Morro Negro","seamark:type":"light_major","wikidata":"Q42414467","wikimedia_commons":"Category:Farol do Morro Negro","wikipedia":"en:Morro Negro Lighthouse"}}},{"type":"Feature","geometry":{"type":"Point","coordinates":[-22.9223825,16.1756402]},"properties":{"osm_id":4823599746,"osm_type":"node","seamark_type":"wreck","display_class":"OTHER","min_zoom":12,"importance":1,"name":null,"ref":null,"common":{"type":"wreck"},"children":{"wreck":{"category":"hull_showing"}},"osm_tags":{"historic":"wreck","seamark:type":"wreck","seamark:wreck:category":"hull_showing"}}},{"type":"Feature","geometry":{"type":"Point","coordinates":[-22.8932595,16.7447521]},"properties":{"osm_id":6888399085,"osm_type":"node","seamark_type":"wreck","display_class":"OTHER","min_zoom":12,"importance":1,"name":null,"ref":null,"common":{"type":"wreck"},"children":{},"osm_tags":{"historic":"wreck","seamark:type":"wreck"}}},{"type":"Feature","geometry":{"type":"Point","coordinates":[-22.9796232,16.7527898]},"properties":{"osm_id":11548216432,"osm_type":"node","seamark_type":"anchorage","display_class":"OTHER","min_zoom":12,"importance":1,"name":null,"ref":null,"common":{"type":"anchorage"},"children":{"anchorage":{"category":"small_craft"}},"osm_tags":{"seamark:anchorage:category":"small_craft","seamark:type":"anchorage"}}},{"type":"Feature","geometry":{"type":"LineString","coordinates":[[-22.927595,16.1795339],[-22.9262037,16.1800434]]},"properties":{"osm_id":282277356,"osm_type":"way","seamark_type":"berth","display_class":"OTHER","min_zoom":12,"importance":1,"name":null,"ref":null,"common":{"type":"berth"},"children":{},"osm_tags":{"seamark:type":"berth"}}},{"type":"Feature","geometry":{"type":"LineString","coordinates":[[-22.924258,16.1779342],[-22.924957,16.1776819]]},"properties":{"osm_id":282277357,"osm_type":"way","seamark_type":"berth","display_class":"OTHER","min_zoom":12,"importance":1,"name":"01","ref":null,"common":{"name":"01","type":"berth"},"children":{},"osm_tags":{"seamark:name":"01","seamark:type":"berth"}}},{"type":"Feature","geometry":{"type":"Polygon","coordinates":[[[-22.8954181,16.7299193],[-22.894989,16.7299193],[-22.8948602,16.7294508],[-22.8954181,16.7299193]]]},"properties":{"osm_id":236852632,"osm_type":"way","seamark_type":"wreck","display_class":"OTHER","min_zoom":12,"importance":1,"name":"Monte Vendoso","ref":null,"common":{"type":"wreck"},"children":{},"osm_tags":{"designation:pt":"carcaça","historic":"wreck","name":"Monte Vendoso","seamark:type":"wreck","tourism":"attraction"}}},{"type":"Feature","geometry":{"type":"Point","coordinates":[-22.9215435,16.5890196]},"properties":{"osm_id":1577423873,"osm_type":"node","seamark_type":"light_minor","display_class":"OTHER","min_zoom":12,"importance":1,"name":"Ponta do Sino","ref":null,"common":{"name":"Ponta do Sino","type":"light_minor"},"children":{"light":{"1:character":"Fl","1:colour":"white","1:group":"2+1","1:height":"11","1:period":"15","1:range":"8","1:sector_end":"142","1:sector_start":"300","reference":"D 2922"}},"osm_tags":{"seamark:light:1:character":"Fl","seamark:light:1:colour":"white","seamark:light:1:group":"2+1","seamark:light:1:height":"11","seamark:light:1:period":"15","seamark:light:1:range":"8","seamark:light:1:sector_end":"142","seamark:light:1:sector_start":"300","seamark:light:reference":"D 2922","seamark:name":"Ponta do Sino","seamark:type":"light_minor","source":"US NGA Pub. 113. 2011-10-20."}}},{"type":"Feature","geometry":{"type":"Point","coordinates":[-22.9271651,16.1779807]},"properties":{"osm_id":2862155642,"osm_type":"node","seamark_type":"harbour","display_class":"OTHER","min_zoom":12,"importance":1,"name":"Sal-Rei","ref":null,"common":{"type":"harbour"},"children":{"harbour":{"category":"fishing;ferry;roro;cargo;container;tanker;marina"}},"osm_tags":{"addr:city":"Mindelo","addr:country":"CV","addr:housenumber":"82","addr:street":"Avenue Marginal C.P.","contact:email":"info@enapor.cv","contact:facebook":"https://facebook.com/Enapor-Portos-De-Cabo-Verde-787731321365763","contact:instagram":"enaporportosdecaboverde","contact:linkedin":"https://linkedin.com/company/enapor-s.a.---porto-grande-do-mindelo/","contact:phone":"+238 230 75 00","contact:vhf":"16","contact:website":"http://enapor.cv","harbour":"yes","name":"Sal-Rei","operator":"ENAPOR","seamark:harbour:category":"fishing;ferry;roro;cargo;container;tanker;marina","seamark:type":"harbour"}}},{"type":"Feature","geometry":{"type":"Point","coordinates":[-22.9179805,16.1644004]},"properties":{"osm_id":2862155643,"osm_type":"node","seamark_type":"anchorage","display_class":"OTHER","min_zoom":12,"importance":1,"name":"Sal-Rei South Anchorage","ref":null,"common":{"information":"-10mZH","name":"Sal-Rei South Anchorage","type":"anchorage"},"children":{"anchorage":{"category":"unrestricted"}},"osm_tags":{"seamark:anchorage:category":"unrestricted","seamark:information":"-10mZH","seamark:name":"Sal-Rei South Anchorage","seamark:type":"anchorage"}}},{"type":"Feature","geometry":{"type":"Point","coordinates":[-22.9179264,16.1643727]},"properties":{"osm_id":2862175477,"osm_type":"node","seamark_type":"anchorage","display_class":"OTHER","min_zoom":12,"importance":1,"name":"Sal-Rei South Anchorage","ref":null,"common":{"information":"-10mZH","name":"Sal-Rei South Anchorage","type":"anchorage"},"children":{"anchorage":{"category":"unrestricted"}},"osm_tags":{"name":"Sal Rei anchorage","seamark:anchorage:category":"unrestricted","seamark:information":"-10mZH","seamark:name":"Sal-Rei South Anchorage","seamark:type":"anchorage"}}},{"type":"Feature","geometry":{"type":"Polygon","coordinates":[[[-22.8650272,16.2036384],[-22.8650865,16.2036916],[-22.8652644,16.2037561],[-22.8653356,16.2037448],[-22.8653396,16.203627],[-22.8651458,16.2035169],[-22.8649086,16.2033954],[-22.8649402,16.2035245],[-22.8650272,16.2036384]]]},"properties":{"osm_id":337064560,"osm_type":"way","seamark_type":"wreck","display_class":"OTHER","min_zoom":12,"importance":1,"name":"Santa Maria","ref":null,"common":{"type":"wreck"},"children":{},"osm_tags":{"historic":"wreck","name":"Santa Maria","seamark:type":"wreck","tourism":"attraction"}}},{"type":"Feature","geometry":{"type":"Point","coordinates":[-22.9320591,16.1725634]},"properties":{"osm_id":1338082110,"osm_type":"node","seamark_type":"light_minor","display_class":"OTHER","min_zoom":12,"importance":1,"name":"Velho","ref":null,"common":{"name":"Velho","type":"light_minor"},"children":{"light":{"1:character":"Fl","1:colour":"white","1:group":"5","1:height":"28","1:period":"20","1:range":"11","1:sector_end":"355","1:sector_start":"220","2:character":"Fl","2:colour":"red","2:group":"5","2:height":"28","2:period":"20","2:range":"11","2:sector_end":"220","2:sector_start":"355","reference":"D 2918"}},"osm_tags":{"man_made":"lighthouse","name":"Farol","name:es":"Faro","name:pt":"Farol","seamark:light:1:character":"Fl","seamark:light:1:colour":"white","seamark:light:1:group":"5","seamark:light:1:height":"28","seamark:light:1:period":"20","seamark:light:1:range":"11","seamark:light:1:sector_end":"355","seamark:light:1:sector_start":"220","seamark:light:2:character":"Fl","seamark:light:2:colour":"red","seamark:light:2:group":"5","seamark:light:2:height":"28","seamark:light:2:period":"20","seamark:light:2:range":"11","seamark:light:2:sector_end":"220","seamark:light:2:sector_start":"355","seamark:light:reference":"D 2918","seamark:name":"Velho","seamark:type":"light_minor","wikidata":"Q42414859","wikimedia_commons":"Category:Farol da Ponta da Escuma","wikipedia":"en:Ponta da Escuma Lighthouse"}}}],"type":"FeatureCollection"}