{"type":"FeatureCollection","features":[{"type":"Feature","geometry":{"type":"Point","coordinates":[120.4283511,17.3154712]},"properties":{"osm_id":9427782662,"osm_type":"node","seamark_type":"light_major","display_class":"LIGHTHOUSE","min_zoom":7,"importance":5,"name":"Apatot","ref":null,"common":{"name":"Apatot","type":"light_major"},"children":{"light":{"character":"LFl","colour":"red","period":"5"}},"osm_tags":{"addr:place":"Apatot","addr:province":"Ilocos Norte","addr:town":"San Esteban","building:material":"concrete","man_made":"lighthouse","name":"Apatot Lighthouse","operator":"Currimao Station, Philippine Coast Guard","ref:pcg":"NWLZN-008","seamark:light:character":"LFl","seamark:light:colour":"red","seamark:light:period":"5","seamark:name":"Apatot","seamark:type":"light_major","source":"Philippine Coast Guard, 2019 lighthouse masterlist"}}},{"type":"Feature","geometry":{"type":"Point","coordinates":[120.449476,17.8763003]},"properties":{"osm_id":9427782666,"osm_type":"node","seamark_type":"light_major","display_class":"LIGHTHOUSE","min_zoom":7,"importance":5,"name":"Cabangtalan","ref":null,"common":{"name":"Cabangtalan","type":"light_major"},"children":{"light":{"character":"Fl","colour":"white","period":"5"}},"osm_tags":{"addr:province":"Ilocos Norte","addr:town":"Magsingal","building:material":"glass_reinforced_plastic","man_made":"lighthouse","name":"Cabangtalan Lighthouse","operator":"Currimao Station, Philippine Coast Guard","ref:pcg":"NWLZN-009","seamark:light:character":"Fl","seamark:light:colour":"white","seamark:light:period":"5","seamark:name":"Cabangtalan","seamark:type":"light_major","source":"Philippine Coast Guard, 2019 lighthouse masterlist"}}},{"type":"Feature","geometry":{"type":"Point","coordinates":[120.4172319,17.2012025]},"properties":{"osm_id":9444456272,"osm_type":"node","seamark_type":"light_minor","display_class":"LIGHTHOUSE","min_zoom":7,"importance":5,"name":"Candon","ref":null,"common":{"name":"Candon","type":"light_minor"},"children":{"light":{"character":"Fl","colour":"red","period":"5"}},"osm_tags":{"addr:place":"Darapidap","addr:province":"Ilocos Sur","addr:town":"Candon","building:material":"concrete","man_made":"lighthouse","name":"Candon Lighthouse","operator":"Currimao Station, Philippine Coast Guard","ref:pcg":"NWLZN-011","seamark:light:character":"Fl","seamark:light:colour":"red","seamark:light:period":"5","seamark:name":"Candon","seamark:type":"light_minor","source":"Philippine Coast Guard, 2019 lighthouse masterlist"}}},{"type":"Feature","geometry":{"type":"Point","coordinates":[120.3695007,17.5334504]},"properties":{"osm_id":9427782663,"osm_type":"node","seamark_type":"light_major","display_class":"LIGHTHOUSE","min_zoom":7,"importance":5,"name":"Pandan","ref":null,"common":{"name":"Pandan","type":"light_major"},"children":{"light":{"character":"Fl","colour":"green","period":"5"}},"osm_tags":{"addr:municipality":"Pandan","addr:province":"Ilocos Sur","building:material":"concrete","man_made":"lighthouse","name":"Pandan Lighthouse","operator":"Currimao Station, Philippine Coast Guard","ref:pcg":"NWLZN-015","seamark:light:character":"Fl","seamark:light:colour":"green","seamark:light:period":"5","seamark:name":"Pandan","seamark:type":"light_major","source":"Philippine Coast Guard, 2019 lighthouse masterlist"}}},{"type":"Feature","geometry":{"type":"Point","coordinates":[120.3541756,17.6888834]},"properties":{"osm_id":9427782664,"osm_type":"node","seamark_type":"light_minor","display_class":"LIGHTHOUSE","min_zoom":7,"importance":5,"name":"Puropingit","ref":null,"common":{"name":"Puropingit","type":"light_minor"},"children":{"light":{"character":"Fl","colour":"white","period":"10"}},"osm_tags":{"addr:place":"Magsingal","addr:province":"Ilocos Sur","addr:town":"Sinait","building:material":"glass_reinforced_plastic","man_made":"lighthouse","name":"Puropingit Lighthouse","operator":"Currimao Station, Philippine Coast Guard","ref:admiralty":"F2715","ref:nga":"14438","ref:pcg":"NWLZN-013","seamark:light:character":"Fl","seamark:light:colour":"white","seamark:light:period":"10","seamark:name":"Puropingit","seamark:type":"light_minor","source":"Philippine Coast Guard, 2019 lighthouse masterlist"}}},{"type":"Feature","geometry":{"type":"Point","coordinates":[120.425668,17.7722472]},"properties":{"osm_id":9427782665,"osm_type":"node","seamark_type":"light_major","display_class":"LIGHTHOUSE","min_zoom":7,"importance":5,"name":"Salomague","ref":null,"common":{"name":"Salomague","type":"light_major"},"children":{"light":{"character":"Fl","colour":"red","period":"5"}},"osm_tags":{"addr:municipality":"Cabugao","addr:province":"Ilocos Sur","building:material":"concrete","man_made":"lighthouse","name":"Salomague Lighthouse","operator":"Salomague Station, Philippine Coast Guard","ref:pcg":"NWLZN-025","seamark:light:character":"Fl","seamark:light:colour":"red","seamark:light:period":"5","seamark:name":"Salomague","seamark:type":"light_major","source":"Philippine Coast Guard, 2019 lighthouse masterlist"}}},{"type":"Feature","geometry":{"type":"Polygon","coordinates":[[[120.4254538,17.7722019],[120.4255796,17.7723805],[120.4258005,17.7722395],[120.4256747,17.7720608],[120.4254538,17.7722019]]]},"properties":{"osm_id":1373541837,"osm_type":"way","seamark_type":"coastguard_station","display_class":"OTHER","min_zoom":12,"importance":1,"name":"Coast Guard Station Ilocos Sur","ref":null,"common":{"type":"coastguard_station"},"children":{},"osm_tags":{"amenity":"coast_guard","landuse":"commercial","name":"Coast Guard Station Ilocos Sur","nat_name":"Philippine Coast Guard","operator":"Department of Transportation","operator:type":"government","seamark:type":"coastguard_station"}}}],"type":"FeatureCollection"}