{"type":"FeatureCollection","features":[{"type":"Feature","geometry":{"type":"Point","coordinates":[122.2493188,17.4109777]},"properties":{"osm_id":1271040032,"osm_type":"node","seamark_type":"light_minor","display_class":"LIGHTHOUSE","min_zoom":7,"importance":5,"name":"Maconacon","ref":null,"common":{"name":"Maconacon","type":"light_minor"},"children":{"light":{"character":"Fl","colour":"white","period":"5","reference":"F 2735"}},"osm_tags":{"addr:province":"Isabela","addr:town":"Maconacon","alt_name":"Aplaya Lighthouse","building:material":"steel","man_made":"lighthouse","name":"Maconacon Lighthouse","operator":"Maconacon Station, Philippine Coast Guard","ref:admiralty":"F2735","ref:nga":"14007","ref:pcg":"NELZN-023","seamark:light:character":"Fl","seamark:light:colour":"white","seamark:light:period":"5","seamark:light:reference":"F 2735","seamark:name":"Maconacon","seamark:type":"light_minor","source":"Philippine Coast Guard, 2019 lighthouse masterlist;US NGA Pub. 112. 2009-11-12."}}},{"type":"Feature","geometry":{"type":"Point","coordinates":[122.5102873,17.1416786]},"properties":{"osm_id":9461804210,"osm_type":"node","seamark_type":"light_major","display_class":"LIGHTHOUSE","min_zoom":7,"importance":5,"name":"Palanan","ref":null,"common":{"name":"Palanan","type":"light_major"},"children":{"light":{"character":"Fl","colour":"white"}},"osm_tags":{"addr:municipality":"Palanan","addr:province":"Isabela","building:material":"glass_reinforced_plastic","man_made":"lighthouse","name":"Palanan Lighthouse","operator":"Appari Station, Philippine Coast Guard","ref:pcg":"NELZN-010","seamark:light:character":"Fl","seamark:light:colour":"white","seamark:name":"Palanan","seamark:type":"light_major","source":"Philippine Coast Guard, 2019 lighthouse masterlist"}}}],"type":"FeatureCollection"}