{"type":"FeatureCollection","features":[{"type":"Feature","geometry":{"type":"Point","coordinates":[-88.0486977,17.3271987]},"properties":{"osm_id":7447705474,"osm_type":"node","seamark_type":"light_major","display_class":"LIGHTHOUSE","min_zoom":7,"importance":5,"name":"English Caye Light","ref":null,"common":{"type":"light_major"},"children":{},"osm_tags":{"man_made":"lighthouse","name":"English Caye Light","seamark:type":"light_major","wikidata":"Q5378200","wikipedia":"en:English Caye Light"}}},{"type":"Feature","geometry":{"type":"Point","coordinates":[-88.201363,17.4810291]},"properties":{"osm_id":8923667516,"osm_type":"node","seamark_type":"small_craft_facility","display_class":"OTHER","min_zoom":12,"importance":1,"name":null,"ref":null,"common":{"type":"small_craft_facility"},"children":{"small_craft_facility":{"category":"fuel_station"}},"osm_tags":{"seamark:small_craft_facility:category":"fuel_station","seamark:type":"small_craft_facility","waterway":"fuel"}}},{"type":"Feature","geometry":{"type":"Point","coordinates":[-88.2004861,17.4787771]},"properties":{"osm_id":10196122928,"osm_type":"node","seamark_type":"anchor_berth","display_class":"OTHER","min_zoom":12,"importance":1,"name":null,"ref":null,"common":{"type":"anchor_berth"},"children":{},"osm_tags":{"seamark:type":"anchor_berth"}}},{"type":"Feature","geometry":{"type":"Point","coordinates":[-88.2013527,17.4810123]},"properties":{"osm_id":10196122964,"osm_type":"node","seamark_type":"anchor_berth","display_class":"OTHER","min_zoom":12,"importance":1,"name":null,"ref":null,"common":{"type":"anchor_berth"},"children":{},"osm_tags":{"seamark:type":"anchor_berth"}}},{"type":"Feature","geometry":{"type":"Point","coordinates":[-88.1926923,17.4862899]},"properties":{"osm_id":11630631438,"osm_type":"node","seamark_type":"gate","display_class":"OTHER","min_zoom":12,"importance":1,"name":null,"ref":null,"common":{"type":"gate"},"children":{},"osm_tags":{"seamark:type":"gate","waterway":"lock_gate"}}},{"type":"Feature","geometry":{"type":"Polygon","coordinates":[[[-88.075509,17.598628],[-88.0752431,17.5985907],[-88.0749628,17.5986614],[-88.0748598,17.5989129],[-88.0748927,17.5991859],[-88.0751854,17.5992154],[-88.0754596,17.5991309],[-88.0755317,17.5987557],[-88.075509,17.598628]]]},"properties":{"osm_id":1126590763,"osm_type":"way","seamark_type":"shoreline_construction","display_class":"OTHER","min_zoom":12,"importance":1,"name":null,"ref":null,"common":{"type":"shoreline_construction"},"children":{},"osm_tags":{"man_made":"groyne","seamark:type":"shoreline_construction"}}},{"type":"Feature","geometry":{"type":"Point","coordinates":[-88.1846574,17.493069]},"properties":{"osm_id":5249177537,"osm_type":"node","seamark_type":"harbour","display_class":"OTHER","min_zoom":12,"importance":1,"name":"Belize Harbor","ref":null,"common":{"type":"harbour"},"children":{"harbour":{"category":"marina"}},"osm_tags":{"leisure":"marina","name":"Belize Harbor","seamark:harbour:category":"marina","seamark:type":"harbour","wheelchair":"no"}}},{"type":"Feature","geometry":{"type":"Point","coordinates":[-88.2011462,17.4805117]},"properties":{"osm_id":238688190,"osm_type":"node","seamark_type":"anchor_berth","display_class":"OTHER","min_zoom":12,"importance":1,"name":"Bowen & Bowen","ref":null,"common":{"type":"anchor_berth"},"children":{},"osm_tags":{"name":"Bowen & Bowen","operator":"Bowen & Bowen","seamark:type":"anchor_berth"}}},{"type":"Feature","geometry":{"type":"Point","coordinates":[-88.2008538,17.4735784]},"properties":{"osm_id":10196122984,"osm_type":"node","seamark_type":"anchor_berth","display_class":"OTHER","min_zoom":12,"importance":1,"name":"Cargo Vessels","ref":null,"common":{"type":"anchor_berth"},"children":{},"osm_tags":{"name":"Cargo Vessels","operator":"Port Authority","seamark:type":"anchor_berth"}}},{"type":"Feature","geometry":{"type":"Point","coordinates":[-88.2009929,17.4795283]},"properties":{"osm_id":10196122919,"osm_type":"node","seamark_type":"anchor_berth","display_class":"OTHER","min_zoom":12,"importance":1,"name":"Caribbean Queen Barge","ref":null,"common":{"type":"anchor_berth"},"children":{},"osm_tags":{"name":"Caribbean Queen Barge","operator":"Caribbean Queen","seamark:type":"anchor_berth"}}},{"type":"Feature","geometry":{"type":"Point","coordinates":[-88.2008456,17.479189]},"properties":{"osm_id":10196122923,"osm_type":"node","seamark_type":"anchor_berth","display_class":"OTHER","min_zoom":12,"importance":1,"name":"Caribbean Queen Barge","ref":null,"common":{"type":"anchor_berth"},"children":{},"osm_tags":{"name":"Caribbean Queen Barge","operator":"Caribbean Queen","seamark:type":"anchor_berth"}}},{"type":"Feature","geometry":{"type":"Point","coordinates":[-88.0431679,17.697078]},"properties":{"osm_id":2370868298,"osm_type":"node","seamark_type":"harbour","display_class":"OTHER","min_zoom":12,"importance":1,"name":"Caye Chapel Marina","ref":null,"common":{"type":"harbour"},"children":{"harbour":{"category":"marina"}},"osm_tags":{"leisure":"marina","name":"Caye Chapel Marina","seamark:harbour:category":"marina","seamark:type":"harbour","source":"Bing"}}},{"type":"Feature","geometry":{"type":"Polygon","coordinates":[[[-88.1993851,17.4817809],[-88.1992468,17.481649],[-88.1991582,17.4817097],[-88.1992993,17.4818627],[-88.1993851,17.4817809]]]},"properties":{"osm_id":1296763317,"osm_type":"way","seamark_type":"harbour","display_class":"OTHER","min_zoom":12,"importance":1,"name":"Loyola Terminal","ref":null,"common":{"type":"harbour"},"children":{"small_craft_facility":{"category":"fuel_station"}},"osm_tags":{"addr:city":"Belize City","addr:street":"Port Loyola","building":"yes","fuel:HGV_diesel":"yes","fuel:diesel":"yes","fuel:gasoline":"yes","image":"https://commons.wikimedia.org/wiki/File:Loyola_Depot.jpg","name":"Loyola Terminal","seamark:small_craft_facility:category":"fuel_station","seamark:type":"harbour","waterway":"fuel"}}},{"type":"Feature","geometry":{"type":"Point","coordinates":[-88.3041381,17.2302066]},"properties":{"osm_id":1922157334,"osm_type":"node","seamark_type":"light_minor","display_class":"OTHER","min_zoom":12,"importance":1,"name":"Manatee River","ref":null,"common":{"information":"Occasional.","name":"Manatee River","type":"light_minor"},"children":{"light":{"character":"F","colour":"white","height":"10","range":"2","reference":"J 5957"}},"osm_tags":{"seamark:information":"Occasional.","seamark:light:character":"F","seamark:light:colour":"white","seamark:light:height":"10","seamark:light:range":"2","seamark:light:reference":"J 5957","seamark:name":"Manatee River","seamark:type":"light_minor","source":"US NGA Pub. 110. 2012-05-10."}}},{"type":"Feature","geometry":{"type":"Point","coordinates":[-88.1793296,17.4935339]},"properties":{"osm_id":2282927261,"osm_type":"node","seamark_type":"harbour","display_class":"OTHER","min_zoom":12,"importance":1,"name":"Radisson Fort George Marina","ref":null,"common":{"type":"harbour"},"children":{"harbour":{"category":"marina"}},"osm_tags":{"leisure":"marina","name":"Radisson Fort George Marina","seamark:harbour:category":"marina","seamark:type":"harbour"}}},{"type":"Feature","geometry":{"type":"Point","coordinates":[-88.0869874,17.5002648]},"properties":{"osm_id":9993288898,"osm_type":"node","seamark_type":"wreck","display_class":"OTHER","min_zoom":12,"importance":1,"name":"Rusty Barge Wreck","ref":null,"common":{"type":"wreck"},"children":{"wreck":{"category":"non-dangerous"}},"osm_tags":{"access":"yes","historic":"wreck","name":"Rusty Barge Wreck","seamark:type":"wreck","seamark:wreck:category":"non-dangerous"}}},{"type":"Feature","geometry":{"type":"Point","coordinates":[-88.2010184,17.4797361]},"properties":{"osm_id":10196122921,"osm_type":"node","seamark_type":"anchor_berth","display_class":"OTHER","min_zoom":12,"importance":1,"name":"Sassie Barge","ref":null,"common":{"type":"anchor_berth"},"children":{},"osm_tags":{"name":"Sassie Barge","operator":"Sassie","seamark:type":"anchor_berth"}}},{"type":"Feature","geometry":{"type":"Point","coordinates":[-88.2010361,17.4799476]},"properties":{"osm_id":10196122922,"osm_type":"node","seamark_type":"anchor_berth","display_class":"OTHER","min_zoom":12,"importance":1,"name":"Varela Barge","ref":null,"common":{"type":"anchor_berth"},"children":{},"osm_tags":{"name":"Varela Barge","operator":"Varela","seamark:type":"anchor_berth"}}}],"type":"FeatureCollection"}