{"type":"FeatureCollection","features":[{"type":"Feature","geometry":{"type":"Point","coordinates":[-62.8513479,17.9010903]},"properties":{"osm_id":6727316741,"osm_type":"node","seamark_type":"light_major","display_class":"LIGHTHOUSE","min_zoom":7,"importance":5,"name":"Fort Gustavia","ref":null,"common":{"name":"Fort Gustavia","type":"light_major"},"children":{"beacon_special_purpose":{"colour":"white;red","colour_pattern":"horizontal","height":"10.1","shape":"tower"},"light":{"1:character":"Fl","1:colour":"red","1:group":"3","1:height":"210","1:period":"12","1:range":"8","1:sector_end":"103","1:sector_start":"340","1:sequence":"1+(6)+1+(1.5)+1+(1.5)+1+(6)","2:character":"Fl","2:colour":"white","2:group":"3","2:height":"210","2:period":"12","2:range":"11","2:sector_end":"111","2:sector_start":"103","2:sequence":"1+(6)+1+(1.5)+1+(1.5)+1+(6)","3:character":"Fl","3:colour":"green","3:group":"3","3:height":"210","3:period":"12","3:range":"8","3:sector_end":"160","3:sector_start":"111","3:sequence":"1+(6)+1+(1.5)+1+(1.5)+1+(6)","reference":"J 5664"}},"osm_tags":{"height":"18","man_made":"lighthouse","name":"Phare de Gustavia","ref:FR:ANFR":"1563063","seamark:beacon_special_purpose:colour":"white;red","seamark:beacon_special_purpose:colour_pattern":"horizontal","seamark:beacon_special_purpose:height":"10.1","seamark:beacon_special_purpose:shape":"tower","seamark:light:1:character":"Fl","seamark:light:1:colour":"red","seamark:light:1:group":"3","seamark:light:1:height":"210","seamark:light:1:period":"12","seamark:light:1:range":"8","seamark:light:1:sector_end":"103","seamark:light:1:sector_start":"340","seamark:light:1:sequence":"1+(6)+1+(1.5)+1+(1.5)+1+(6)","seamark:light:2:character":"Fl","seamark:light:2:colour":"white","seamark:light:2:group":"3","seamark:light:2:height":"210","seamark:light:2:period":"12","seamark:light:2:range":"11","seamark:light:2:sector_end":"111","seamark:light:2:sector_start":"103","seamark:light:2:sequence":"1+(6)+1+(1.5)+1+(1.5)+1+(6)","seamark:light:3:character":"Fl","seamark:light:3:colour":"green","seamark:light:3:group":"3","seamark:light:3:height":"210","seamark:light:3:period":"12","seamark:light:3:range":"8","seamark:light:3:sector_end":"160","seamark:light:3:sector_start":"111","seamark:light:3:sequence":"1+(6)+1+(1.5)+1+(1.5)+1+(6)","seamark:light:reference":"J 5664","seamark:name":"Fort Gustavia","seamark:type":"light_major","source":"US NGA Pub. 110. 2024-05-18.","wikidata":"Q3378242"}}},{"type":"Feature","geometry":{"type":"Point","coordinates":[-62.9867281,17.4800547]},"properties":{"osm_id":1920892119,"osm_type":"node","seamark_type":"light_major","display_class":"LIGHTHOUSE","min_zoom":7,"importance":5,"name":"Oranjestad","ref":null,"common":{"name":"Oranjestad","type":"light_major"},"children":{"light":{"character":"Fl","colour":"white","group":"3","height":"40","period":"15","range":"17","reference":"J 5668.5"}},"osm_tags":{"seamark:light:character":"Fl","seamark:light:colour":"white","seamark:light:group":"3","seamark:light:height":"40","seamark:light:period":"15","seamark:light:range":"17","seamark:light:reference":"J 5668.5","seamark:name":"Oranjestad","seamark:type":"light_major","source":"US NGA Pub. 110. 2012-05-10."}}},{"type":"Feature","geometry":{"type":"Point","coordinates":[-62.7227363,17.2872046]},"properties":{"osm_id":1920892078,"osm_type":"node","seamark_type":"light_minor","display_class":"OTHER","min_zoom":12,"importance":1,"name":null,"ref":null,"common":{"information":"J 5673.14","type":"light_minor"},"children":{"light":{"character":"Q","colour":"red","reference":"J 5673.14"}},"osm_tags":{"seamark:information":"J 5673.14","seamark:light:character":"Q","seamark:light:colour":"red","seamark:light:reference":"J 5673.14","seamark:type":"light_minor","source":"US NGA Pub. 110. 2012-05-10."}}},{"type":"Feature","geometry":{"type":"Point","coordinates":[-62.7227715,17.2888382]},"properties":{"osm_id":1920892100,"osm_type":"node","seamark_type":"light_minor","display_class":"OTHER","min_zoom":12,"importance":1,"name":null,"ref":null,"common":{"type":"light_minor"},"children":{"light":{"character":"Fl","colour":"yellow","period":"4"}},"osm_tags":{"seamark:light:character":"Fl","seamark:light:colour":"yellow","seamark:light:period":"4","seamark:type":"light_minor","source":"US NGA Pub. 110. 2012-05-10."}}},{"type":"Feature","geometry":{"type":"Point","coordinates":[-62.7975,17.884]},"properties":{"osm_id":4197868463,"osm_type":"node","seamark_type":"obstruction","display_class":"OTHER","min_zoom":12,"importance":1,"name":null,"ref":null,"common":{"type":"obstruction"},"children":{},"osm_tags":{"seamark:type":"obstruction","source":"https://www.defensie.nl/english/topics/notices-to-mariners/contents/database/by-week?week=20&year=2016 {*195/16 }"}}},{"type":"Feature","geometry":{"type":"Point","coordinates":[-62.6589799,17.2209461]},"properties":{"osm_id":6248310767,"osm_type":"node","seamark_type":"wreck","display_class":"OTHER","min_zoom":12,"importance":1,"name":null,"ref":null,"common":{"type":"wreck"},"children":{},"osm_tags":{"historic":"wreck","seamark:type":"wreck"}}},{"type":"Feature","geometry":{"type":"Point","coordinates":[-62.683333,17.183333]},"properties":{"osm_id":7306201864,"osm_type":"node","seamark_type":"buoy_cardinal","display_class":"OTHER","min_zoom":12,"importance":1,"name":null,"ref":null,"common":{"source":"https://english.defensie.nl/topics/notices-to-mariners/weekly-editions/2020/9 (89/20)","type":"buoy_cardinal"},"children":{"buoy_cardinal":{"category":"west","colour":"yellow;black;yellow","colour_pattern":"horizontal","shape":"pillar"},"light":{"character":"Q","colour":"white","group":"9","period":"15"},"topmark":{"colour":"black","shape":"2 cones point together"}},"osm_tags":{"seamark:buoy_cardinal:category":"west","seamark:buoy_cardinal:colour":"yellow;black;yellow","seamark:buoy_cardinal:colour_pattern":"horizontal","seamark:buoy_cardinal:shape":"pillar","seamark:light:character":"Q","seamark:light:colour":"white","seamark:light:group":"9","seamark:light:period":"15","seamark:source":"https://english.defensie.nl/topics/notices-to-mariners/weekly-editions/2020/9 (89/20)","seamark:topmark:colour":"black","seamark:topmark:shape":"2 cones point together","seamark:type":"buoy_cardinal"}}},{"type":"Feature","geometry":{"type":"Polygon","coordinates":[[[-62.630171,17.1387358],[-62.6309789,17.1386989],[-62.6309844,17.1373807],[-62.6299541,17.13741],[-62.6300069,17.1375206],[-62.6300102,17.1375422],[-62.6301239,17.1382953],[-62.630125,17.1383344],[-62.630171,17.1387358]]]},"properties":{"osm_id":673654906,"osm_type":"way","seamark_type":"harbour","display_class":"OTHER","min_zoom":12,"importance":1,"name":null,"ref":null,"common":{"type":"harbour"},"children":{"harbour":{"category":"marina"}},"osm_tags":{"leisure":"marina","seamark:harbour:category":"marina","seamark:type":"harbour"}}},{"type":"Feature","geometry":{"type":"Polygon","coordinates":[[[-62.6491931,17.2264969],[-62.649044,17.2265193],[-62.6489593,17.2260052],[-62.6491085,17.2259827],[-62.6491931,17.2264969]]]},"properties":{"osm_id":674765270,"osm_type":"way","seamark_type":"wreck","display_class":"OTHER","min_zoom":12,"importance":1,"name":null,"ref":null,"common":{"type":"wreck"},"children":{},"osm_tags":{"historic":"wreck","seamark:type":"wreck"}}},{"type":"Feature","geometry":{"type":"Polygon","coordinates":[[[-62.8501008,17.3577294],[-62.8501025,17.3576348],[-62.8500141,17.3576348],[-62.8499946,17.3576771],[-62.8499698,17.3576906],[-62.8499362,17.3576787],[-62.849922,17.3576399],[-62.8499167,17.357623],[-62.8498212,17.3576264],[-62.8498017,17.3576382],[-62.8497982,17.3576754],[-62.8497787,17.3576855],[-62.8497964,17.357699],[-62.8498212,17.3577176],[-62.8501008,17.3577294]]]},"properties":{"osm_id":685046544,"osm_type":"way","seamark_type":"wreck","display_class":"OTHER","min_zoom":12,"importance":1,"name":null,"ref":null,"common":{"type":"wreck"},"children":{},"osm_tags":{"building":"yes","historic":"wreck","seamark:type":"wreck"}}},{"type":"Feature","geometry":{"type":"LineString","coordinates":[[-62.840167,17.910167],[-62.831667,17.907667]]},"properties":{"osm_id":751008626,"osm_type":"way","seamark_type":"restricted_area","display_class":"OTHER","min_zoom":12,"importance":1,"name":null,"ref":null,"common":{"source":"https://english.defensie.nl/topics/notices-to-mariners/weekly-editions/2019/48 (414/19)","type":"restricted_area"},"children":{"restricted_area":{"category":"nature_reserve","restriction":"no_entry"}},"osm_tags":{"seamark:restricted_area:category":"nature_reserve","seamark:restricted_area:restriction":"no_entry","seamark:source":"https://english.defensie.nl/topics/notices-to-mariners/weekly-editions/2019/48 (414/19)","seamark:type":"restricted_area"}}},{"type":"Feature","geometry":{"type":"Point","coordinates":[-62.8499514,17.8978372]},"properties":{"osm_id":2093615690,"osm_type":"node","seamark_type":"harbour","display_class":"OTHER","min_zoom":12,"importance":1,"name":"Autorités portuaires","ref":null,"common":{"type":"harbour"},"children":{"harbour":{"category":"marina"}},"osm_tags":{"leisure":"marina","name":"Autorités portuaires","name:en":"Port Authorities","seamark:harbour:category":"marina","seamark:type":"harbour"}}},{"type":"Feature","geometry":{"type":"Polygon","coordinates":[[[-62.7107558,17.2934493],[-62.7108037,17.2932614],[-62.7108611,17.2932779],[-62.7109224,17.2932767],[-62.711014,17.2932936],[-62.7111463,17.2933376],[-62.7111897,17.293372],[-62.7112271,17.2933817],[-62.7112175,17.2934158],[-62.7112629,17.2934256],[-62.7112705,17.2933992],[-62.7115105,17.2934954],[-62.7115727,17.2936973],[-62.7116298,17.2937103],[-62.7115753,17.2938407],[-62.7111412,17.2939113],[-62.7108908,17.2938836],[-62.7107384,17.2938415],[-62.7108513,17.2934575],[-62.7108367,17.2934349],[-62.7108119,17.2934223],[-62.7107808,17.2934301],[-62.7107558,17.2934493]]]},"properties":{"osm_id":669015263,"osm_type":"way","seamark_type":"harbour","display_class":"OTHER","min_zoom":12,"importance":1,"name":"Budget Marine","ref":null,"common":{"type":"harbour"},"children":{"harbour":{"category":"marina"}},"osm_tags":{"leisure":"marina","name":"Budget Marine","seamark:harbour:category":"marina","seamark:type":"harbour"}}},{"type":"Feature","geometry":{"type":"Point","coordinates":[-62.6294997,17.1403466]},"properties":{"osm_id":1920892069,"osm_type":"node","seamark_type":"light_minor","display_class":"OTHER","min_zoom":12,"importance":1,"name":"Charlestown","ref":null,"common":{"information":"Iso.R. light on radio mast 0.7 mile SSE.Only major coastal and harbor entrance lighted aids are listed for Puerto Rico and the U.S. Virgin Islands. For other lighted aids in this area, see U.S.C.G. Light List Vol. III.","name":"Charlestown","type":"light_minor"},"children":{"light":{"character":"F","colour":"red","height":"5","reference":"J 5678"}},"osm_tags":{"note":"radio tower","seamark:information":"Iso.R. light on radio mast 0.7 mile SSE.Only major coastal and harbor entrance lighted aids are listed for Puerto Rico and the U.S. Virgin Islands. For other lighted aids in this area, see U.S.C.G. Light List Vol. III.","seamark:light:character":"F","seamark:light:colour":"red","seamark:light:height":"5","seamark:light:reference":"J 5678","seamark:name":"Charlestown","seamark:type":"light_minor","source":"US NGA Pub. 110. 2012-05-10."}}},{"type":"Feature","geometry":{"type":"Polygon","coordinates":[[[-62.6573602,17.2449941],[-62.6573359,17.2449527],[-62.6572012,17.2447243],[-62.6571798,17.2446877],[-62.6570426,17.2444523],[-62.6570229,17.2444181],[-62.6568846,17.2441811],[-62.6568612,17.2441416],[-62.6563143,17.2444365],[-62.6553814,17.2449355],[-62.6556182,17.2453394],[-62.6556451,17.2453852],[-62.655885,17.2457897],[-62.6568188,17.2452845],[-62.6573602,17.2449941]]]},"properties":{"osm_id":671193112,"osm_type":"way","seamark_type":"harbour","display_class":"OTHER","min_zoom":12,"importance":1,"name":"Christophe Harbour Marina","ref":null,"common":{"type":"harbour"},"children":{"harbour":{"category":"marina"}},"osm_tags":{"leisure":"marina","name":"Christophe Harbour Marina","seamark:harbour:category":"marina","seamark:type":"harbour","source":"http://www.christopheharbour.com/marina","website":"https://www.christopheharbour.com/"}}},{"type":"Feature","geometry":{"type":"Point","coordinates":[-62.6244104,17.1174371]},"properties":{"osm_id":5402617171,"osm_type":"node","seamark_type":"small_craft_facility","display_class":"OTHER","min_zoom":12,"importance":1,"name":"Delta Gas Plant","ref":null,"common":{"type":"small_craft_facility"},"children":{"small_craft_facility":{"category":"fuel_station"}},"osm_tags":{"addr:city":"St. Johns","addr:street":"Lower Long point","name":"Delta Gas Plant","seamark:small_craft_facility:category":"fuel_station","seamark:type":"small_craft_facility","waterway":"fuel"}}},{"type":"Feature","geometry":{"type":"Point","coordinates":[-62.7104737,17.2861247]},"properties":{"osm_id":1920891998,"osm_type":"node","seamark_type":"light_minor","display_class":"OTHER","min_zoom":12,"importance":1,"name":"Fort Smith","ref":null,"common":{"information":"Fl.W. 2s 2M on dolphin 370 meters NW.","name":"Fort Smith","type":"light_minor"},"children":{"light":{"character":"F","colour":"green","height":"11","range":"2","reference":"J 5674"}},"osm_tags":{"seamark:information":"Fl.W. 2s 2M on dolphin 370 meters NW.","seamark:light:character":"F","seamark:light:colour":"green","seamark:light:height":"11","seamark:light:range":"2","seamark:light:reference":"J 5674","seamark:name":"Fort Smith","seamark:type":"light_minor","source":"US NGA Pub. 110. 2012-05-10."}}},{"type":"Feature","geometry":{"type":"Point","coordinates":[-62.6870666,17.2790269]},"properties":{"osm_id":10723848214,"osm_type":"node","seamark_type":"harbour","display_class":"OTHER","min_zoom":12,"importance":1,"name":"Frigate Bay Marina","ref":null,"common":{"type":"harbour"},"children":{"harbour":{"category":"marina"}},"osm_tags":{"leisure":"marina","name":"Frigate Bay Marina","seamark:harbour:category":"marina","seamark:type":"harbour"}}},{"type":"Feature","geometry":{"type":"Point","coordinates":[-62.6252308,17.1087611]},"properties":{"osm_id":1920891911,"osm_type":"node","seamark_type":"light_minor","display_class":"OTHER","min_zoom":12,"importance":1,"name":"Long Point Port","ref":null,"common":{"name":"Long Point Port","type":"light_minor"},"children":{"light":{"1:character":"Fl","1:colour":"white","1:group":"2","1:height":"27","1:period":"15","1:sequence":"1+(2),1+(11)","2:character":"Fl","2:colour":"red","2:group":"2","2:height":"27","2:period":"15","2:sequence":"1+(2),1+(11)","reference":"J 5678.4"}},"osm_tags":{"seamark:light:1:character":"Fl","seamark:light:1:colour":"white","seamark:light:1:group":"2","seamark:light:1:height":"27","seamark:light:1:period":"15","seamark:light:1:sequence":"1+(2),1+(11)","seamark:light:2:character":"Fl","seamark:light:2:colour":"red","seamark:light:2:group":"2","seamark:light:2:height":"27","seamark:light:2:period":"15","seamark:light:2:sequence":"1+(2),1+(11)","seamark:light:reference":"J 5678.4","seamark:name":"Long Point Port","seamark:type":"light_minor","source":"US NGA Pub. 110. 2012-05-10."}}},{"type":"Feature","geometry":{"type":"Polygon","coordinates":[[[-62.7251128,17.2936772],[-62.725114,17.2920315],[-62.724234,17.2920311],[-62.7240823,17.2920509],[-62.7240935,17.2931388],[-62.7241024,17.2936859],[-62.7251128,17.2936772]]]},"properties":{"osm_id":398242204,"osm_type":"way","seamark_type":"harbour","display_class":"OTHER","min_zoom":12,"importance":1,"name":"Port Zante Marina","ref":null,"common":{"type":"harbour"},"children":{"harbour":{"category":"marina"}},"osm_tags":{"addr:city":"Basseterre","addr:street":"Bay Road","leisure":"marina","name":"Port Zante Marina","seamark:harbour:category":"marina","seamark:type":"harbour","source":"KG Ground Survey 2016"}}},{"type":"Feature","geometry":{"type":"Point","coordinates":[-62.999167,17.525833]},"properties":{"osm_id":4405348191,"osm_type":"node","seamark_type":"wreck","display_class":"OTHER","min_zoom":12,"importance":1,"name":"Sirena","ref":null,"common":{"name":"Sirena","type":"wreck"},"children":{"wreck":{"category":"hull_showing","water_level":"dry"}},"osm_tags":{"seamark:name":"Sirena","seamark:type":"wreck","seamark:wreck:category":"hull_showing","seamark:wreck:water_level":"dry","source":"https://www.defensie.nl/english/topics/notices-to-mariners/contents/database/by-week?week=37&year=2016&nauticalcharts=true (345(T)/16)"}}}],"type":"FeatureCollection"}