{"type":"FeatureCollection","features":[{"type":"Feature","geometry":{"type":"Point","coordinates":[-77.0433333,17.7066667]},"properties":{"osm_id":9471354295,"osm_type":"node","seamark_type":"buoy_special_purpose","display_class":"OTHER","min_zoom":12,"importance":1,"name":null,"ref":null,"common":{"type":"buoy_special_purpose"},"children":{"radio_station":{"category":"ais"}},"osm_tags":{"seamark:radio_station:category":"ais","seamark:type":"buoy_special_purpose"}}},{"type":"Feature","geometry":{"type":"Point","coordinates":[-77.0466667,17.715]},"properties":{"osm_id":9471354296,"osm_type":"node","seamark_type":"buoy_special_purpose","display_class":"OTHER","min_zoom":12,"importance":1,"name":null,"ref":null,"common":{"type":"buoy_special_purpose"},"children":{"radio_station":{"category":"ais"}},"osm_tags":{"seamark:radio_station:category":"ais","seamark:type":"buoy_special_purpose"}}},{"type":"Feature","geometry":{"type":"Point","coordinates":[-77.0566667,17.75]},"properties":{"osm_id":9471354297,"osm_type":"node","seamark_type":"buoy_special_purpose","display_class":"OTHER","min_zoom":12,"importance":1,"name":null,"ref":null,"common":{"type":"buoy_special_purpose"},"children":{"radio_station":{"category":"ais"}},"osm_tags":{"seamark:radio_station:category":"ais","seamark:type":"buoy_special_purpose"}}},{"type":"Feature","geometry":{"type":"Point","coordinates":[-77.0633333,17.74]},"properties":{"osm_id":9471354298,"osm_type":"node","seamark_type":"buoy_special_purpose","display_class":"OTHER","min_zoom":12,"importance":1,"name":null,"ref":null,"common":{"type":"buoy_special_purpose"},"children":{"radio_station":{"category":"ais"}},"osm_tags":{"seamark:radio_station:category":"ais","seamark:type":"buoy_special_purpose"}}},{"type":"Feature","geometry":{"type":"Point","coordinates":[-77.05,17.7133333]},"properties":{"osm_id":9471354299,"osm_type":"node","seamark_type":"buoy_special_purpose","display_class":"OTHER","min_zoom":12,"importance":1,"name":null,"ref":null,"common":{"type":"buoy_special_purpose"},"children":{"radio_station":{"category":"ais"}},"osm_tags":{"seamark:radio_station:category":"ais","seamark:type":"buoy_special_purpose"}}},{"type":"Feature","geometry":{"type":"Point","coordinates":[-77.0466667,17.7066667]},"properties":{"osm_id":9471354300,"osm_type":"node","seamark_type":"buoy_special_purpose","display_class":"OTHER","min_zoom":12,"importance":1,"name":null,"ref":null,"common":{"type":"buoy_special_purpose"},"children":{"radio_station":{"category":"ais"}},"osm_tags":{"seamark:radio_station:category":"ais","seamark:type":"buoy_special_purpose"}}}],"type":"FeatureCollection"}