{"type":"FeatureCollection","features":[{"type":"Feature","geometry":{"type":"Point","coordinates":[-71.6409456,17.4746175]},"properties":{"osm_id":1920900457,"osm_type":"node","seamark_type":"light_minor","display_class":"OTHER","min_zoom":12,"importance":1,"name":"Isla Alto Velo","ref":null,"common":{"name":"Isla Alto Velo","type":"light_minor"},"children":{"light":{"character":"Fl","colour":"white","group":"2","height":"163","period":"10","range":"13","reference":"J 5482","sequence":"1+(2)+1+(6)"}},"osm_tags":{"seamark:light:character":"Fl","seamark:light:colour":"white","seamark:light:group":"2","seamark:light:height":"163","seamark:light:period":"10","seamark:light:range":"13","seamark:light:reference":"J 5482","seamark:light:sequence":"1+(2)+1+(6)","seamark:name":"Isla Alto Velo","seamark:type":"light_minor","source":"US NGA Pub. 110. 2012-05-10."}}},{"type":"Feature","geometry":{"type":"Point","coordinates":[-71.6595226,17.9253109]},"properties":{"osm_id":2112688573,"osm_type":"node","seamark_type":"harbour","display_class":"OTHER","min_zoom":12,"importance":1,"name":"puerto cabo rojo","ref":null,"common":{"type":"harbour"},"children":{"harbour":{"category":"marina"}},"osm_tags":{"harbour":"yes","leisure":"marina","name":"puerto cabo rojo","seamark:harbour:category":"marina","seamark:type":"harbour"}}}],"type":"FeatureCollection"}