{"type":"FeatureCollection","features":[{"type":"Feature","geometry":{"type":"LineString","coordinates":[[69.9622243,18.3868537],[69.8820215,18.3683131]]},"properties":{"osm_id":598857788,"osm_type":"way","seamark_type":"cable_submarine","display_class":"OTHER","min_zoom":12,"importance":1,"name":"FLAG Europe-Asia","ref":null,"common":{"type":"cable_submarine"},"children":{"cable_submarine":{"category":"fibre_optic"}},"osm_tags":{"communication":"line","name":"FLAG Europe-Asia","note":"Speculative route","seamark:cable_submarine:category":"fibre_optic","seamark:type":"cable_submarine","wikidata":"Q641659","wikipedia":"en:Fibre-optic Link Around the Globe"}}},{"type":"Feature","geometry":{"type":"LineString","coordinates":[[69.8820215,18.3683131],[69.8023682,18.3498975]]},"properties":{"osm_id":598857790,"osm_type":"way","seamark_type":"cable_submarine","display_class":"OTHER","min_zoom":12,"importance":1,"name":"FLAG Europe-Asia","ref":null,"common":{"type":"cable_submarine"},"children":{"cable_submarine":{"category":"fibre_optic"}},"osm_tags":{"communication":"line","name":"FLAG Europe-Asia","note":"Speculative route","seamark:cable_submarine:category":"fibre_optic","seamark:type":"cable_submarine","wikidata":"Q641659","wikipedia":"en:Fibre-optic Link Around the Globe"}}},{"type":"Feature","geometry":{"type":"LineString","coordinates":[[69.8023682,18.3498975],[69.7186703,18.3305446]]},"properties":{"osm_id":598857791,"osm_type":"way","seamark_type":"cable_submarine","display_class":"OTHER","min_zoom":12,"importance":1,"name":"FLAG Europe-Asia","ref":null,"common":{"type":"cable_submarine"},"children":{"cable_submarine":{"category":"fibre_optic"}},"osm_tags":{"communication":"line","name":"FLAG Europe-Asia","note":"Speculative route","seamark:cable_submarine:category":"fibre_optic","seamark:type":"cable_submarine","wikidata":"Q641659","wikipedia":"en:Fibre-optic Link Around the Globe"}}},{"type":"Feature","geometry":{"type":"LineString","coordinates":[[69.7186703,18.3305446],[69.6553662,18.3159058]]},"properties":{"osm_id":598857792,"osm_type":"way","seamark_type":"cable_submarine","display_class":"OTHER","min_zoom":12,"importance":1,"name":"FLAG Europe-Asia","ref":null,"common":{"type":"cable_submarine"},"children":{"cable_submarine":{"category":"fibre_optic"}},"osm_tags":{"communication":"line","name":"FLAG Europe-Asia","note":"Speculative route","seamark:cable_submarine:category":"fibre_optic","seamark:type":"cable_submarine","wikidata":"Q641659","wikipedia":"en:Fibre-optic Link Around the Globe"}}},{"type":"Feature","geometry":{"type":"LineString","coordinates":[[69.6553662,18.3159058],[69.5689744,18.2959262]]},"properties":{"osm_id":598857794,"osm_type":"way","seamark_type":"cable_submarine","display_class":"OTHER","min_zoom":12,"importance":1,"name":"FLAG Europe-Asia","ref":null,"common":{"type":"cable_submarine"},"children":{"cable_submarine":{"category":"fibre_optic"}},"osm_tags":{"communication":"line","name":"FLAG Europe-Asia","note":"Speculative route","seamark:cable_submarine:category":"fibre_optic","seamark:type":"cable_submarine","wikidata":"Q641659","wikipedia":"en:Fibre-optic Link Around the Globe"}}},{"type":"Feature","geometry":{"type":"LineString","coordinates":[[69.5689744,18.2959262],[69.4842323,18.2763258]]},"properties":{"osm_id":598857795,"osm_type":"way","seamark_type":"cable_submarine","display_class":"OTHER","min_zoom":12,"importance":1,"name":"FLAG Europe-Asia","ref":null,"common":{"type":"cable_submarine"},"children":{"cable_submarine":{"category":"fibre_optic"}},"osm_tags":{"communication":"line","name":"FLAG Europe-Asia","note":"Speculative route","seamark:cable_submarine:category":"fibre_optic","seamark:type":"cable_submarine","wikidata":"Q641659","wikipedia":"en:Fibre-optic Link Around the Globe"}}},{"type":"Feature","geometry":{"type":"LineString","coordinates":[[69.4842323,18.2763258],[69.4032859,18.2576012]]},"properties":{"osm_id":598857796,"osm_type":"way","seamark_type":"cable_submarine","display_class":"OTHER","min_zoom":12,"importance":1,"name":"FLAG Europe-Asia","ref":null,"common":{"type":"cable_submarine"},"children":{"cable_submarine":{"category":"fibre_optic"}},"osm_tags":{"communication":"line","name":"FLAG Europe-Asia","note":"Speculative route","seamark:cable_submarine:category":"fibre_optic","seamark:type":"cable_submarine","wikidata":"Q641659","wikipedia":"en:Fibre-optic Link Around the Globe"}}},{"type":"Feature","geometry":{"type":"LineString","coordinates":[[69.4032859,18.2576012],[69.319966,18.2383255]]},"properties":{"osm_id":598857797,"osm_type":"way","seamark_type":"cable_submarine","display_class":"OTHER","min_zoom":12,"importance":1,"name":"FLAG Europe-Asia","ref":null,"common":{"type":"cable_submarine"},"children":{"cable_submarine":{"category":"fibre_optic"}},"osm_tags":{"communication":"line","name":"FLAG Europe-Asia","note":"Speculative route","seamark:cable_submarine:category":"fibre_optic","seamark:type":"cable_submarine","wikidata":"Q641659","wikipedia":"en:Fibre-optic Link Around the Globe"}}},{"type":"Feature","geometry":{"type":"LineString","coordinates":[[69.319966,18.2383255],[69.2580131,18.2239916]]},"properties":{"osm_id":598857800,"osm_type":"way","seamark_type":"cable_submarine","display_class":"OTHER","min_zoom":12,"importance":1,"name":"FLAG Europe-Asia","ref":null,"common":{"type":"cable_submarine"},"children":{"cable_submarine":{"category":"fibre_optic"}},"osm_tags":{"communication":"line","name":"FLAG Europe-Asia","note":"Speculative route","seamark:cable_submarine:category":"fibre_optic","seamark:type":"cable_submarine","wikidata":"Q641659","wikipedia":"en:Fibre-optic Link Around the Globe"}}},{"type":"Feature","geometry":{"type":"LineString","coordinates":[[69.2580131,18.2239916],[69.1794656,18.2058165]]},"properties":{"osm_id":598857802,"osm_type":"way","seamark_type":"cable_submarine","display_class":"OTHER","min_zoom":12,"importance":1,"name":"FLAG Europe-Asia","ref":null,"common":{"type":"cable_submarine"},"children":{"cable_submarine":{"category":"fibre_optic"}},"osm_tags":{"communication":"line","name":"FLAG Europe-Asia","note":"Speculative route","seamark:cable_submarine:category":"fibre_optic","seamark:type":"cable_submarine","wikidata":"Q641659","wikipedia":"en:Fibre-optic Link Around the Globe"}}},{"type":"Feature","geometry":{"type":"LineString","coordinates":[[69.1794656,18.2058165],[69.1142907,18.1907343]]},"properties":{"osm_id":598857803,"osm_type":"way","seamark_type":"cable_submarine","display_class":"OTHER","min_zoom":12,"importance":1,"name":"FLAG Europe-Asia","ref":null,"common":{"type":"cable_submarine"},"children":{"cable_submarine":{"category":"fibre_optic"}},"osm_tags":{"communication":"line","name":"FLAG Europe-Asia","note":"Speculative route","seamark:cable_submarine:category":"fibre_optic","seamark:type":"cable_submarine","wikidata":"Q641659","wikipedia":"en:Fibre-optic Link Around the Globe"}}},{"type":"Feature","geometry":{"type":"LineString","coordinates":[[69.1142907,18.1907343],[69.0523025,18.1763883]]},"properties":{"osm_id":598857804,"osm_type":"way","seamark_type":"cable_submarine","display_class":"OTHER","min_zoom":12,"importance":1,"name":"FLAG Europe-Asia","ref":null,"common":{"type":"cable_submarine"},"children":{"cable_submarine":{"category":"fibre_optic"}},"osm_tags":{"communication":"line","name":"FLAG Europe-Asia","note":"Speculative route","seamark:cable_submarine:category":"fibre_optic","seamark:type":"cable_submarine","wikidata":"Q641659","wikipedia":"en:Fibre-optic Link Around the Globe"}}},{"type":"Feature","geometry":{"type":"LineString","coordinates":[[69.0523025,18.1763883],[68.9902224,18.1620199]]},"properties":{"osm_id":598857805,"osm_type":"way","seamark_type":"cable_submarine","display_class":"OTHER","min_zoom":12,"importance":1,"name":"FLAG Europe-Asia","ref":null,"common":{"type":"cable_submarine"},"children":{"cable_submarine":{"category":"fibre_optic"}},"osm_tags":{"communication":"line","name":"FLAG Europe-Asia","note":"Speculative route","seamark:cable_submarine:category":"fibre_optic","seamark:type":"cable_submarine","wikidata":"Q641659","wikipedia":"en:Fibre-optic Link Around the Globe"}}}],"type":"FeatureCollection"}