{"type":"FeatureCollection","features":[{"type":"Feature","geometry":{"type":"Polygon","coordinates":[[[71.2043333,18.313],[71.2118333,18.302],[71.588,18.5196667],[71.92,18.8898333],[72.1166667,18.8878333],[72.3163333,18.8461667],[72.5401667,18.8368333],[72.5383333,18.8436667],[72.3165,18.8528333],[72.1175,18.8936667],[71.9156667,18.8971667],[71.5783333,18.5303333],[71.2043333,18.313]]]},"properties":{"osm_id":1114898514,"osm_type":"way","seamark_type":"separation_zone","display_class":"TSS","min_zoom":6,"importance":5,"name":null,"ref":null,"common":{"type":"separation_zone"},"children":{},"osm_tags":{"description":"Not IMO-Adopted","note":"Do not move or modify geometry - points mapped according to a set of WGS84 coordinates","seamark:type":"separation_zone","source":"Admiralty Preliminary Notice 2184(P)/18; Indian Notice 7/75/18","start_date":"2018-04-01"}}},{"type":"Feature","geometry":{"type":"LineString","coordinates":[[71.229,18.2942502],[71.591,18.4989179],[71.9258333,18.8829168],[72.1175833,18.8815834],[72.3158333,18.8392501],[72.5415833,18.8305834]]},"properties":{"osm_id":1114898503,"osm_type":"way","seamark_type":"separation_lane","display_class":"OTHER","min_zoom":12,"importance":1,"name":null,"ref":null,"common":{"type":"separation_lane"},"children":{},"osm_tags":{"description":"Not IMO-Adopted","note":"Do not move or modify geometry - points mapped according to a set of WGS84 coordinates","seamark:type":"separation_lane","source":"Admiralty Preliminary Notice 2184(P)/18; Indian Notice 7/75/18","start_date":"2018-04-01"}}},{"type":"Feature","geometry":{"type":"LineString","coordinates":[[72.53525,18.8538336],[72.3175,18.8596668],[72.1195,18.9025002],[71.912,18.9044168],[71.5546667,18.5298333],[71.1989167,18.3316677]]},"properties":{"osm_id":1114898504,"osm_type":"way","seamark_type":"separation_lane","display_class":"OTHER","min_zoom":12,"importance":1,"name":null,"ref":null,"common":{"type":"separation_lane"},"children":{},"osm_tags":{"description":"Not IMO-Adopted","note":"Do not move or modify geometry - points mapped according to a set of WGS84 coordinates","seamark:type":"separation_lane","source":"Admiralty Preliminary Notice 2184(P)/18; Indian Notice 7/75/18","start_date":"2018-04-01"}}},{"type":"Feature","geometry":{"type":"LineString","coordinates":[[72.5321667,18.864],[72.3185,18.8665],[72.1215,18.9113333],[71.9083333,18.9116667],[71.531,18.5293333],[71.1935,18.3503333]]},"properties":{"osm_id":1114898510,"osm_type":"way","seamark_type":"separation_boundary","display_class":"OTHER","min_zoom":12,"importance":1,"name":null,"ref":null,"common":{"type":"separation_boundary"},"children":{},"osm_tags":{"description":"Not IMO-Adopted","note":"Do not move or modify geometry - points mapped according to a set of WGS84 coordinates","seamark:type":"separation_boundary","source":"Admiralty Preliminary Notice 2184(P)/18; Indian Notice 7/75/18","start_date":"2018-04-01"}}},{"type":"Feature","geometry":{"type":"LineString","coordinates":[[71.2461667,18.2865],[71.594,18.4781667],[71.9316667,18.876],[72.1185,18.8753333],[72.3153333,18.8323333],[72.543,18.8243333]]},"properties":{"osm_id":1114898512,"osm_type":"way","seamark_type":"separation_boundary","display_class":"OTHER","min_zoom":12,"importance":1,"name":null,"ref":null,"common":{"type":"separation_boundary"},"children":{},"osm_tags":{"description":"Not IMO-Adopted","note":"Do not move or modify geometry - points mapped according to a set of WGS84 coordinates","seamark:type":"separation_boundary","source":"Admiralty Preliminary Notice 2184(P)/18; Indian Notice 7/75/18","start_date":"2018-04-01"}}},{"type":"Feature","geometry":{"type":"LineString","coordinates":[[72.1023439,18.8395411],[71.9922192,18.8247012]]},"properties":{"osm_id":589451575,"osm_type":"way","seamark_type":"cable_submarine","display_class":"OTHER","min_zoom":12,"importance":1,"name":"FLAG Europe-Asia","ref":null,"common":{"type":"cable_submarine"},"children":{"cable_submarine":{"category":"fibre_optic"}},"osm_tags":{"communication":"line","name":"FLAG Europe-Asia","note":"Speculative route","seamark:cable_submarine:category":"fibre_optic","seamark:type":"cable_submarine","wikidata":"Q641659","wikipedia":"en:Fibre-optic Link Around the Globe"}}},{"type":"Feature","geometry":{"type":"LineString","coordinates":[[71.9922192,18.8247012],[71.9048968,18.8129332]]},"properties":{"osm_id":589451576,"osm_type":"way","seamark_type":"cable_submarine","display_class":"OTHER","min_zoom":12,"importance":1,"name":"FLAG Europe-Asia","ref":null,"common":{"type":"cable_submarine"},"children":{"cable_submarine":{"category":"fibre_optic"}},"osm_tags":{"communication":"line","name":"FLAG Europe-Asia","note":"Speculative route","seamark:cable_submarine:category":"fibre_optic","seamark:type":"cable_submarine","wikidata":"Q641659","wikipedia":"en:Fibre-optic Link Around the Globe"}}},{"type":"Feature","geometry":{"type":"LineString","coordinates":[[71.9048968,18.8129332],[71.8645188,18.8074913]]},"properties":{"osm_id":589451577,"osm_type":"way","seamark_type":"cable_submarine","display_class":"OTHER","min_zoom":12,"importance":1,"name":"FLAG Europe-Asia","ref":null,"common":{"type":"cable_submarine"},"children":{"cable_submarine":{"category":"fibre_optic"}},"osm_tags":{"communication":"line","name":"FLAG Europe-Asia","note":"Speculative route","seamark:cable_submarine:category":"fibre_optic","seamark:type":"cable_submarine","wikidata":"Q641659","wikipedia":"en:Fibre-optic Link Around the Globe"}}},{"type":"Feature","geometry":{"type":"LineString","coordinates":[[71.6710925,18.7814203],[71.6262251,18.7710724]]},"properties":{"osm_id":589451578,"osm_type":"way","seamark_type":"cable_submarine","display_class":"OTHER","min_zoom":12,"importance":1,"name":"FLAG Europe-Asia","ref":null,"common":{"type":"cable_submarine"},"children":{"cable_submarine":{"category":"fibre_optic"}},"osm_tags":{"communication":"line","name":"FLAG Europe-Asia","note":"Speculative route","seamark:cable_submarine:category":"fibre_optic","seamark:type":"cable_submarine","wikidata":"Q641659","wikipedia":"en:Fibre-optic Link Around the Globe"}}},{"type":"Feature","geometry":{"type":"LineString","coordinates":[[71.5067887,18.7435234],[71.4658229,18.7340733]]},"properties":{"osm_id":589451579,"osm_type":"way","seamark_type":"cable_submarine","display_class":"OTHER","min_zoom":12,"importance":1,"name":"FLAG Europe-Asia","ref":null,"common":{"type":"cable_submarine"},"children":{"cable_submarine":{"category":"fibre_optic"}},"osm_tags":{"communication":"line","name":"FLAG Europe-Asia","note":"Speculative route","seamark:cable_submarine:category":"fibre_optic","seamark:type":"cable_submarine","wikidata":"Q641659","wikipedia":"en:Fibre-optic Link Around the Globe"}}},{"type":"Feature","geometry":{"type":"LineString","coordinates":[[71.8645188,18.8074913],[71.802126,18.7990821]]},"properties":{"osm_id":598857755,"osm_type":"way","seamark_type":"cable_submarine","display_class":"OTHER","min_zoom":12,"importance":1,"name":"FLAG Europe-Asia","ref":null,"common":{"type":"cable_submarine"},"children":{"cable_submarine":{"category":"fibre_optic"}},"osm_tags":{"communication":"line","name":"FLAG Europe-Asia","note":"Speculative route","seamark:cable_submarine:category":"fibre_optic","seamark:type":"cable_submarine","wikidata":"Q641659","wikipedia":"en:Fibre-optic Link Around the Globe"}}},{"type":"Feature","geometry":{"type":"LineString","coordinates":[[71.802126,18.7990821],[71.7290274,18.7892295]]},"properties":{"osm_id":598857756,"osm_type":"way","seamark_type":"cable_submarine","display_class":"OTHER","min_zoom":12,"importance":1,"name":"FLAG Europe-Asia","ref":null,"common":{"type":"cable_submarine"},"children":{"cable_submarine":{"category":"fibre_optic"}},"osm_tags":{"communication":"line","name":"FLAG Europe-Asia","note":"Speculative route","seamark:cable_submarine:category":"fibre_optic","seamark:type":"cable_submarine","wikidata":"Q641659","wikipedia":"en:Fibre-optic Link Around the Globe"}}},{"type":"Feature","geometry":{"type":"LineString","coordinates":[[71.7290274,18.7892295],[71.6710925,18.7814203]]},"properties":{"osm_id":598857757,"osm_type":"way","seamark_type":"cable_submarine","display_class":"OTHER","min_zoom":12,"importance":1,"name":"FLAG Europe-Asia","ref":null,"common":{"type":"cable_submarine"},"children":{"cable_submarine":{"category":"fibre_optic"}},"osm_tags":{"communication":"line","name":"FLAG Europe-Asia","note":"Speculative route","seamark:cable_submarine:category":"fibre_optic","seamark:type":"cable_submarine","wikidata":"Q641659","wikipedia":"en:Fibre-optic Link Around the Globe"}}},{"type":"Feature","geometry":{"type":"LineString","coordinates":[[71.6262251,18.7710724],[71.5752302,18.7593106]]},"properties":{"osm_id":598857759,"osm_type":"way","seamark_type":"cable_submarine","display_class":"OTHER","min_zoom":12,"importance":1,"name":"FLAG Europe-Asia","ref":null,"common":{"type":"cable_submarine"},"children":{"cable_submarine":{"category":"fibre_optic"}},"osm_tags":{"communication":"line","name":"FLAG Europe-Asia","note":"Speculative route","seamark:cable_submarine:category":"fibre_optic","seamark:type":"cable_submarine","wikidata":"Q641659","wikipedia":"en:Fibre-optic Link Around the Globe"}}},{"type":"Feature","geometry":{"type":"LineString","coordinates":[[71.5752302,18.7593106],[71.5067887,18.7435234]]},"properties":{"osm_id":598857761,"osm_type":"way","seamark_type":"cable_submarine","display_class":"OTHER","min_zoom":12,"importance":1,"name":"FLAG Europe-Asia","ref":null,"common":{"type":"cable_submarine"},"children":{"cable_submarine":{"category":"fibre_optic"}},"osm_tags":{"communication":"line","name":"FLAG Europe-Asia","note":"Speculative route","seamark:cable_submarine:category":"fibre_optic","seamark:type":"cable_submarine","wikidata":"Q641659","wikipedia":"en:Fibre-optic Link Around the Globe"}}},{"type":"Feature","geometry":{"type":"LineString","coordinates":[[71.4658229,18.7340733],[71.4163911,18.7226694]]},"properties":{"osm_id":598857764,"osm_type":"way","seamark_type":"cable_submarine","display_class":"OTHER","min_zoom":12,"importance":1,"name":"FLAG Europe-Asia","ref":null,"common":{"type":"cable_submarine"},"children":{"cable_submarine":{"category":"fibre_optic"}},"osm_tags":{"communication":"line","name":"FLAG Europe-Asia","note":"Speculative route","seamark:cable_submarine:category":"fibre_optic","seamark:type":"cable_submarine","wikidata":"Q641659","wikipedia":"en:Fibre-optic Link Around the Globe"}}},{"type":"Feature","geometry":{"type":"LineString","coordinates":[[71.4163911,18.7226694],[71.3660439,18.7110537]]},"properties":{"osm_id":598857765,"osm_type":"way","seamark_type":"cable_submarine","display_class":"OTHER","min_zoom":12,"importance":1,"name":"FLAG Europe-Asia","ref":null,"common":{"type":"cable_submarine"},"children":{"cable_submarine":{"category":"fibre_optic"}},"osm_tags":{"communication":"line","name":"FLAG Europe-Asia","note":"Speculative route","seamark:cable_submarine:category":"fibre_optic","seamark:type":"cable_submarine","wikidata":"Q641659","wikipedia":"en:Fibre-optic Link Around the Globe"}}},{"type":"Feature","geometry":{"type":"LineString","coordinates":[[71.3660439,18.7110537],[71.3124955,18.6986984]]},"properties":{"osm_id":598857766,"osm_type":"way","seamark_type":"cable_submarine","display_class":"OTHER","min_zoom":12,"importance":1,"name":"FLAG Europe-Asia","ref":null,"common":{"type":"cable_submarine"},"children":{"cable_submarine":{"category":"fibre_optic"}},"osm_tags":{"communication":"line","name":"FLAG Europe-Asia","note":"Speculative route","seamark:cable_submarine:category":"fibre_optic","seamark:type":"cable_submarine","wikidata":"Q641659","wikipedia":"en:Fibre-optic Link Around the Globe"}}},{"type":"Feature","geometry":{"type":"LineString","coordinates":[[71.3124955,18.6986984],[71.2625,18.6871622]]},"properties":{"osm_id":598857767,"osm_type":"way","seamark_type":"cable_submarine","display_class":"OTHER","min_zoom":12,"importance":1,"name":"FLAG Europe-Asia","ref":null,"common":{"type":"cable_submarine"},"children":{"cable_submarine":{"category":"fibre_optic"}},"osm_tags":{"communication":"line","name":"FLAG Europe-Asia","note":"Speculative route","seamark:cable_submarine:category":"fibre_optic","seamark:type":"cable_submarine","wikidata":"Q641659","wikipedia":"en:Fibre-optic Link Around the Globe"}}},{"type":"Feature","geometry":{"type":"LineString","coordinates":[[71.2625,18.6871622],[71.1987783,18.6724575]]},"properties":{"osm_id":598857768,"osm_type":"way","seamark_type":"cable_submarine","display_class":"OTHER","min_zoom":12,"importance":1,"name":"FLAG Europe-Asia","ref":null,"common":{"type":"cable_submarine"},"children":{"cable_submarine":{"category":"fibre_optic"}},"osm_tags":{"communication":"line","name":"FLAG Europe-Asia","note":"Speculative route","seamark:cable_submarine:category":"fibre_optic","seamark:type":"cable_submarine","wikidata":"Q641659","wikipedia":"en:Fibre-optic Link Around the Globe"}}},{"type":"Feature","geometry":{"type":"LineString","coordinates":[[71.1987783,18.6724575],[71.1339289,18.6574913]]},"properties":{"osm_id":598857769,"osm_type":"way","seamark_type":"cable_submarine","display_class":"OTHER","min_zoom":12,"importance":1,"name":"FLAG Europe-Asia","ref":null,"common":{"type":"cable_submarine"},"children":{"cable_submarine":{"category":"fibre_optic"}},"osm_tags":{"communication":"line","name":"FLAG Europe-Asia","note":"Speculative route","seamark:cable_submarine:category":"fibre_optic","seamark:type":"cable_submarine","wikidata":"Q641659","wikipedia":"en:Fibre-optic Link Around the Globe"}}},{"type":"Feature","geometry":{"type":"LineString","coordinates":[[71.1339289,18.6574913],[71.0653949,18.6416733]]},"properties":{"osm_id":598857770,"osm_type":"way","seamark_type":"cable_submarine","display_class":"OTHER","min_zoom":12,"importance":1,"name":"FLAG Europe-Asia","ref":null,"common":{"type":"cable_submarine"},"children":{"cable_submarine":{"category":"fibre_optic"}},"osm_tags":{"communication":"line","name":"FLAG Europe-Asia","note":"Speculative route","seamark:cable_submarine:category":"fibre_optic","seamark:type":"cable_submarine","wikidata":"Q641659","wikipedia":"en:Fibre-optic Link Around the Globe"}}}],"type":"FeatureCollection"}