{"type":"FeatureCollection","features":[{"type":"Feature","geometry":{"type":"LineString","coordinates":[[-66.928556,10.602852],[-68.1028761,12.2930443],[-75.6683405,18.2710913],[-75.7060734,19.9596427],[-77.100023,18.4139103],[-77.1000903,18.4127498]]},"properties":{"osm_id":804788258,"osm_type":"way","seamark_type":"cable_submarine","display_class":"OTHER","min_zoom":12,"importance":1,"name":"ALBA-1","ref":null,"common":{"type":"cable_submarine"},"children":{"cable_submarine":{"category":"fibre_optic"}},"osm_tags":{"communication":"line","name":"ALBA-1","seamark:cable_submarine:category":"fibre_optic","seamark:type":"cable_submarine","submarine":"yes","wikidata":"Q15781198"}}}],"type":"FeatureCollection"}