{"type":"FeatureCollection","features":[{"type":"Feature","geometry":{"type":"Point","coordinates":[-78.3606189,18.2485129]},"properties":{"osm_id":3597242201,"osm_type":"node","seamark_type":"light_major","display_class":"LIGHTHOUSE","min_zoom":7,"importance":5,"name":"South Negril Point","ref":null,"common":{"name":"South Negril Point","type":"light_major"},"children":{"light":{"1:character":"Fl","1:colour":"red","1:height":"30","1:period":"2","1:range":"15","1:sector_end":"305","1:sector_start":"297","1:sequence":"0.8+(1.2)","2:character":"Fl","2:colour":"white","2:height":"30","2:period":"2","2:range":"15","2:sector_end":"161","2:sector_start":"305","2:sequence":"0.8+(1.2)","3:character":"Fl","3:colour":"red","3:height":"30","3:period":"2","3:range":"15","3:sector_start":"161","3:sequence":"0.8+(1.2)","reference":"J 5244"}},"osm_tags":{"man_made":"lighthouse","name":"Negril Lighthouse","seamark:light:1:character":"Fl","seamark:light:1:colour":"red","seamark:light:1:height":"30","seamark:light:1:period":"2","seamark:light:1:range":"15","seamark:light:1:sector_end":"305","seamark:light:1:sector_start":"297","seamark:light:1:sequence":"0.8+(1.2)","seamark:light:2:character":"Fl","seamark:light:2:colour":"white","seamark:light:2:height":"30","seamark:light:2:period":"2","seamark:light:2:range":"15","seamark:light:2:sector_end":"161","seamark:light:2:sector_start":"305","seamark:light:2:sequence":"0.8+(1.2)","seamark:light:3:character":"Fl","seamark:light:3:colour":"red","seamark:light:3:height":"30","seamark:light:3:period":"2","seamark:light:3:range":"15","seamark:light:3:sector_start":"161","seamark:light:3:sequence":"0.8+(1.2)","seamark:light:reference":"J 5244","seamark:name":"South Negril Point","seamark:type":"light_major","wikidata":"Q6987511","wikipedia":"en:Negril Lighthouse"}}},{"type":"Feature","geometry":{"type":"Point","coordinates":[-78.1579802,18.449237]},"properties":{"osm_id":9918681614,"osm_type":"node","seamark_type":"buoy_lateral","display_class":"OTHER","min_zoom":12,"importance":1,"name":null,"ref":null,"common":{"type":"buoy_lateral"},"children":{},"osm_tags":{"seamark:type":"buoy_lateral"}}},{"type":"Feature","geometry":{"type":"Point","coordinates":[-78.157752,18.4509854]},"properties":{"osm_id":9918681615,"osm_type":"node","seamark_type":"buoy_lateral","display_class":"OTHER","min_zoom":12,"importance":1,"name":null,"ref":null,"common":{"type":"buoy_lateral"},"children":{},"osm_tags":{"seamark:type":"buoy_lateral"}}}],"type":"FeatureCollection"}