{"type":"FeatureCollection","features":[{"type":"Feature","geometry":{"type":"LineString","coordinates":[[43.679721,12.2354574],[42.8094667,13.2897933],[41.3427919,15.9683176],[38.7445253,19.8252283],[37.327289,22.7575582],[34.8004335,27.1047247],[34.3350184,27.4416351],[33.7347597,27.8746423],[33.0920595,28.5716094],[32.8579134,29.0913287],[32.6409334,29.432772],[32.5622266,29.8767228],[32.4828708,29.9419454]]},"properties":{"osm_id":589410923,"osm_type":"way","seamark_type":"cable_submarine","display_class":"OTHER","min_zoom":12,"importance":1,"name":"FLAG Europe-Asia","ref":null,"common":{"type":"cable_submarine"},"children":{"cable_submarine":{"category":"fibre_optic"}},"osm_tags":{"communication":"line","name":"FLAG Europe-Asia","note":"Speculative route","seamark:cable_submarine:category":"fibre_optic","seamark:type":"cable_submarine","wikidata":"Q641659","wikipedia":"en:Fibre-optic Link Around the Globe"}}}],"type":"FeatureCollection"}