{"type":"FeatureCollection","features":[{"type":"Feature","geometry":{"type":"Point","coordinates":[-155.0712463,19.7242553]},"properties":{"osm_id":7483351488,"osm_type":"node","seamark_type":"beacon_lateral","display_class":"BEACON","min_zoom":9,"importance":4,"name":"1","ref":null,"common":{"name":"1","status":"permanent","type":"beacon_lateral"},"children":{"beacon_lateral":{"category":"port","colour":"green","system":"iala-b"},"light":{"character":"Fl","colour":"green","exhibition":"night","group":"1","height":"4.5","period":"4"},"topmark":{"colour":"green","shape":"cylinder"}},"osm_tags":{"seamark:beacon_lateral:category":"port","seamark:beacon_lateral:colour":"green","seamark:beacon_lateral:system":"iala-b","seamark:light:character":"Fl","seamark:light:colour":"green","seamark:light:exhibition":"night","seamark:light:group":"1","seamark:light:height":"4.5","seamark:light:period":"4","seamark:name":"1","seamark:status":"permanent","seamark:topmark:colour":"green","seamark:topmark:shape":"cylinder","seamark:type":"beacon_lateral"}}},{"type":"Feature","geometry":{"type":"Point","coordinates":[-155.0718304,19.7244055]},"properties":{"osm_id":7483351487,"osm_type":"node","seamark_type":"beacon_lateral","display_class":"BEACON","min_zoom":9,"importance":4,"name":"2","ref":null,"common":{"name":"2","status":"permanent","type":"beacon_lateral"},"children":{"beacon_lateral":{"category":"starboard","colour":"red","system":"iala-b"},"light":{"character":"Fl","colour":"red","group":"1","height":"4.5","period":"2.5"},"topmark":{"colour":"red","shape":"cone, point up"}},"osm_tags":{"seamark:beacon_lateral:category":"starboard","seamark:beacon_lateral:colour":"red","seamark:beacon_lateral:system":"iala-b","seamark:light:character":"Fl","seamark:light:colour":"red","seamark:light:group":"1","seamark:light:height":"4.5","seamark:light:period":"2.5","seamark:name":"2","seamark:status":"permanent","seamark:topmark:colour":"red","seamark:topmark:shape":"cone, point up","seamark:type":"beacon_lateral"}}},{"type":"Feature","geometry":{"type":"Point","coordinates":[-155.0862152,19.7269645]},"properties":{"osm_id":3760730261,"osm_type":"node","seamark_type":"beacon_special_purpose","display_class":"BEACON","min_zoom":9,"importance":4,"name":"Coconut Point Directional Light","ref":null,"common":{"construction":"concreted","name":"Coconut Point Directional Light","status":"permanent","type":"beacon_special_purpose"},"children":{"beacon_special_purpose":{"colour":"white","shape":"tower"},"light":{"1:sector_end":"201","1:sector_start":"193","character":"Oc","colour":"green","exhibition":"night","group":"1","height":"3.6","period":"4"}},"osm_tags":{"seamark:beacon_special_purpose:colour":"white","seamark:beacon_special_purpose:shape":"tower","seamark:construction":"concreted","seamark:light:1:sector_end":"201","seamark:light:1:sector_start":"193","seamark:light:character":"Oc","seamark:light:colour":"green","seamark:light:exhibition":"night","seamark:light:group":"1","seamark:light:height":"3.6","seamark:light:period":"4","seamark:name":"Coconut Point Directional Light","seamark:status":"permanent","seamark:type":"beacon_special_purpose"}}},{"type":"Feature","geometry":{"type":"Point","coordinates":[-155.0750148,19.7428888]},"properties":{"osm_id":7483249759,"osm_type":"node","seamark_type":"beacon_special_purpose","display_class":"BEACON","min_zoom":9,"importance":4,"name":"Hilo Harbor Breakwater","ref":null,"common":{"name":"Hilo Harbor Breakwater","status":"permanent","type":"beacon_special_purpose"},"children":{"beacon_special_purpose":{"colour":"yellow","shape":"stake"},"light":{"character":"Fl","colour":"white","group":"1","height":"3.6","period":"2.5"},"radio_station":{"category":"ais"},"topmark":{"colour":"white;black;white;black","colour_pattern":"squared","shape":"rhombus"}},"osm_tags":{"seamark:beacon_special_purpose:colour":"yellow","seamark:beacon_special_purpose:shape":"stake","seamark:light:character":"Fl","seamark:light:colour":"white","seamark:light:group":"1","seamark:light:height":"3.6","seamark:light:period":"2.5","seamark:name":"Hilo Harbor Breakwater","seamark:radio_station:category":"ais","seamark:status":"permanent","seamark:topmark:colour":"white;black;white;black","seamark:topmark:colour_pattern":"squared","seamark:topmark:shape":"rhombus","seamark:type":"beacon_special_purpose"}}},{"type":"Feature","geometry":{"type":"Point","coordinates":[-155.0533882,19.7325126]},"properties":{"osm_id":7483249766,"osm_type":"node","seamark_type":"beacon_special_purpose","display_class":"BEACON","min_zoom":9,"importance":4,"name":"Hilo Harbor Range Front Light","ref":null,"common":{"name":"Hilo Harbor Range Front Light","type":"beacon_special_purpose"},"children":{"beacon_special_purpose":{"category":"leading","colour":"yellow","shape":"stake"},"light":{"1:sector_end":"101.5","1:sector_start":"93.5","character":"Q","colour":"green","exhibition":"night","group":"1","height":"6.6"},"radio_station":{"category":"ais"},"topmark":{"colour":"red;white;red","colour_pattern":"vertical","shape":"cylinder"}},"osm_tags":{"seamark:beacon_special_purpose:category":"leading","seamark:beacon_special_purpose:colour":"yellow","seamark:beacon_special_purpose:shape":"stake","seamark:light:1:sector_end":"101.5","seamark:light:1:sector_start":"93.5","seamark:light:character":"Q","seamark:light:colour":"green","seamark:light:exhibition":"night","seamark:light:group":"1","seamark:light:height":"6.6","seamark:name":"Hilo Harbor Range Front Light","seamark:radio_station:category":"ais","seamark:topmark:colour":"red;white;red","seamark:topmark:colour_pattern":"vertical","seamark:topmark:shape":"cylinder","seamark:type":"beacon_special_purpose"}}},{"type":"Feature","geometry":{"type":"Polygon","coordinates":[[[-155.0516634,19.7316997],[-155.0516836,19.7314359],[-155.0517803,19.7313176],[-155.0519197,19.7312669],[-155.0531687,19.7312749],[-155.0532002,19.7312751],[-155.0532197,19.7312752],[-155.0532592,19.7312754],[-155.0533179,19.7312758],[-155.0533157,19.7317131],[-155.0531457,19.7317117],[-155.0516634,19.7316997]]]},"properties":{"osm_id":146529096,"osm_type":"way","seamark_type":"harbour","display_class":"OTHER","min_zoom":12,"importance":1,"name":null,"ref":null,"common":{"type":"harbour"},"children":{"harbour":{"category":"marina"}},"osm_tags":{"leisure":"marina","seamark:harbour:category":"marina","seamark:type":"harbour"}}},{"type":"Feature","geometry":{"type":"Point","coordinates":[-155.0799125,19.7427929]},"properties":{"osm_id":7483249760,"osm_type":"node","seamark_type":"buoy_lateral","display_class":"OTHER","min_zoom":12,"importance":1,"name":"1","ref":null,"common":{"name":"1","type":"buoy_lateral"},"children":{"buoy_lateral":{"category":"port","colour":"green","shape":"pillar","system":"iala-b"},"light":{"character":"Fl","colour":"green","exhibition":"night","group":"1","period":"2.5"}},"osm_tags":{"man_made":"buoy","seamark:buoy_lateral:category":"port","seamark:buoy_lateral:colour":"green","seamark:buoy_lateral:shape":"pillar","seamark:buoy_lateral:system":"iala-b","seamark:light:character":"Fl","seamark:light:colour":"green","seamark:light:exhibition":"night","seamark:light:group":"1","seamark:light:period":"2.5","seamark:name":"1","seamark:type":"buoy_lateral"}}},{"type":"Feature","geometry":{"type":"Point","coordinates":[-155.058353,19.7307352]},"properties":{"osm_id":7483249767,"osm_type":"node","seamark_type":"buoy_lateral","display_class":"OTHER","min_zoom":12,"importance":1,"name":"10","ref":null,"common":{"name":"10","type":"buoy_lateral"},"children":{"buoy_lateral":{"category":"starboard","colour":"red","shape":"conical","system":"iala-b"}},"osm_tags":{"man_made":"buoy","seamark:buoy_lateral:category":"starboard","seamark:buoy_lateral:colour":"red","seamark:buoy_lateral:shape":"conical","seamark:buoy_lateral:system":"iala-b","seamark:name":"10","seamark:type":"buoy_lateral"}}},{"type":"Feature","geometry":{"type":"Point","coordinates":[-155.0758195,19.7368045]},"properties":{"osm_id":7483249761,"osm_type":"node","seamark_type":"buoy_lateral","display_class":"OTHER","min_zoom":12,"importance":1,"name":"3","ref":null,"common":{"name":"3","type":"buoy_lateral"},"children":{"buoy_lateral":{"category":"port","colour":"green","shape":"pillar","system":"iala-b"},"light":{"character":"Q","colour":"green","exhibition":"night","group":"1","period":"1"}},"osm_tags":{"man_made":"buoy","seamark:buoy_lateral:category":"port","seamark:buoy_lateral:colour":"green","seamark:buoy_lateral:shape":"pillar","seamark:buoy_lateral:system":"iala-b","seamark:light:character":"Q","seamark:light:colour":"green","seamark:light:exhibition":"night","seamark:light:group":"1","seamark:light:period":"1","seamark:name":"3","seamark:type":"buoy_lateral"}}},{"type":"Feature","geometry":{"type":"Point","coordinates":[-155.068143,19.7337143]},"properties":{"osm_id":7483249762,"osm_type":"node","seamark_type":"buoy_lateral","display_class":"OTHER","min_zoom":12,"importance":1,"name":"4","ref":null,"common":{"name":"4","type":"buoy_lateral"},"children":{"buoy_lateral":{"category":"starboard","colour":"red","shape":"pillar","system":"iala-b"},"light":{"character":"Fl","colour":"red","exhibition":"night","group":"1","period":"4"}},"osm_tags":{"man_made":"buoy","seamark:buoy_lateral:category":"starboard","seamark:buoy_lateral:colour":"red","seamark:buoy_lateral:shape":"pillar","seamark:buoy_lateral:system":"iala-b","seamark:light:character":"Fl","seamark:light:colour":"red","seamark:light:exhibition":"night","seamark:light:group":"1","seamark:light:period":"4","seamark:name":"4","seamark:type":"buoy_lateral"}}},{"type":"Feature","geometry":{"type":"Point","coordinates":[-155.0639427,19.7344011]},"properties":{"osm_id":7483249764,"osm_type":"node","seamark_type":"buoy_lateral","display_class":"OTHER","min_zoom":12,"importance":1,"name":"5","ref":null,"common":{"name":"5","type":"buoy_lateral"},"children":{"buoy_lateral":{"category":"port","colour":"green","shape":"pillar","system":"iala-b"},"light":{"character":"Fl","colour":"green","exhibition":"night","group":"1","period":"2.5"}},"osm_tags":{"man_made":"buoy","seamark:buoy_lateral:category":"port","seamark:buoy_lateral:colour":"green","seamark:buoy_lateral:shape":"pillar","seamark:buoy_lateral:system":"iala-b","seamark:light:character":"Fl","seamark:light:colour":"green","seamark:light:exhibition":"night","seamark:light:group":"1","seamark:light:period":"2.5","seamark:name":"5","seamark:type":"buoy_lateral"}}},{"type":"Feature","geometry":{"type":"Point","coordinates":[-155.0639534,19.7313765]},"properties":{"osm_id":7483249763,"osm_type":"node","seamark_type":"buoy_lateral","display_class":"OTHER","min_zoom":12,"importance":1,"name":"6","ref":null,"common":{"name":"6","type":"buoy_lateral"},"children":{"buoy_lateral":{"category":"starboard","colour":"red","shape":"conical","system":"iala-b"}},"osm_tags":{"man_made":"buoy","seamark:buoy_lateral:category":"starboard","seamark:buoy_lateral:colour":"red","seamark:buoy_lateral:shape":"conical","seamark:buoy_lateral:system":"iala-b","seamark:name":"6","seamark:type":"buoy_lateral"}}},{"type":"Feature","geometry":{"type":"Point","coordinates":[-155.061408,19.7344011]},"properties":{"osm_id":7483249765,"osm_type":"node","seamark_type":"buoy_lateral","display_class":"OTHER","min_zoom":12,"importance":1,"name":"7","ref":null,"common":{"name":"7","type":"buoy_lateral"},"children":{"buoy_lateral":{"category":"port","colour":"green","shape":"pillar","system":"iala-b"},"light":{"character":"Fl","colour":"green","exhibition":"night","group":"1","period":"4"}},"osm_tags":{"man_made":"buoy","seamark:buoy_lateral:category":"port","seamark:buoy_lateral:colour":"green","seamark:buoy_lateral:shape":"pillar","seamark:buoy_lateral:system":"iala-b","seamark:light:character":"Fl","seamark:light:colour":"green","seamark:light:exhibition":"night","seamark:light:group":"1","seamark:light:period":"4","seamark:name":"7","seamark:type":"buoy_lateral"}}},{"type":"Feature","geometry":{"type":"Point","coordinates":[-155.0577414,19.7344364]},"properties":{"osm_id":7483249768,"osm_type":"node","seamark_type":"buoy_lateral","display_class":"OTHER","min_zoom":12,"importance":1,"name":"9","ref":null,"common":{"name":"9","type":"buoy_lateral"},"children":{"buoy_lateral":{"category":"port","colour":"green","shape":"pillar","system":"iala-b"},"light":{"character":"Fl","colour":"green","group":"1","period":"2.5"}},"osm_tags":{"man_made":"buoy","seamark:buoy_lateral:category":"port","seamark:buoy_lateral:colour":"green","seamark:buoy_lateral:shape":"pillar","seamark:buoy_lateral:system":"iala-b","seamark:light:character":"Fl","seamark:light:colour":"green","seamark:light:group":"1","seamark:light:period":"2.5","seamark:name":"9","seamark:type":"buoy_lateral"}}},{"type":"Feature","geometry":{"type":"Point","coordinates":[-155.0767824,19.735825]},"properties":{"osm_id":7483392722,"osm_type":"node","seamark_type":"buoy_special_purpose","display_class":"OTHER","min_zoom":12,"importance":1,"name":"Hilo Bay Water Quality Buoy","ref":null,"common":{"name":"Hilo Bay Water Quality Buoy","type":"buoy_special_purpose"},"children":{"buoy_special_purpose":{"colour":"yellow","shape":"pillar"},"light":{"character":"Fl","colour":"yellow","exhibition":"night","group":"1","period":"4"}},"osm_tags":{"man_made":"buoy","seamark:buoy_special_purpose:colour":"yellow","seamark:buoy_special_purpose:shape":"pillar","seamark:light:character":"Fl","seamark:light:colour":"yellow","seamark:light:exhibition":"night","seamark:light:group":"1","seamark:light:period":"4","seamark:name":"Hilo Bay Water Quality Buoy","seamark:type":"buoy_special_purpose"}}},{"type":"Feature","geometry":{"type":"Polygon","coordinates":[[[-155.0714653,19.7212449],[-155.0712843,19.7212878],[-155.07114,19.7213252],[-155.0710138,19.72138],[-155.0709087,19.7214449],[-155.070812,19.7215339],[-155.0707292,19.7216346],[-155.0706619,19.7217451],[-155.0706115,19.7218632],[-155.0705788,19.7219868],[-155.0705645,19.7221134],[-155.0705867,19.7226497],[-155.0708569,19.7226305],[-155.0709964,19.7232064],[-155.0708014,19.7234201],[-155.070869,19.7234757],[-155.0705119,19.7237126],[-155.0701822,19.7237122],[-155.070184,19.7217966],[-155.070727,19.7210165],[-155.0712417,19.7208662],[-155.0712518,19.720894],[-155.07126,19.7209168],[-155.0713994,19.7208759],[-155.0714297,19.7209674],[-155.0714653,19.7212449]]]},"properties":{"osm_id":232497803,"osm_type":"way","seamark_type":"harbour","display_class":"OTHER","min_zoom":12,"importance":1,"name":"Wailoa River Small Boat Harbor","ref":null,"common":{"type":"harbour"},"children":{"harbour":{"category":"marina"}},"osm_tags":{"leisure":"marina","name":"Wailoa River Small Boat Harbor","seamark:harbour:category":"marina","seamark:type":"harbour"}}}],"type":"FeatureCollection"}