{"type":"FeatureCollection","features":[{"type":"Feature","geometry":{"type":"Point","coordinates":[-92.1811165,19.3001903]},"properties":{"osm_id":7188818247,"osm_type":"node","seamark_type":"platform","display_class":"OTHER","min_zoom":12,"importance":1,"name":"ABKATUN-93","ref":null,"common":{"name":"ABKATUN-93","type":"platform"},"children":{},"osm_tags":{"seamark:name":"ABKATUN-93","seamark:type":"platform"}}},{"type":"Feature","geometry":{"type":"Point","coordinates":[-92.1687669,19.2965019]},"properties":{"osm_id":7188818248,"osm_type":"node","seamark_type":"platform","display_class":"OTHER","min_zoom":12,"importance":1,"name":"ABKATUN-A","ref":null,"common":{"name":"ABKATUN-A","type":"platform"},"children":{},"osm_tags":{"seamark:name":"ABKATUN-A","seamark:type":"platform"}}},{"type":"Feature","geometry":{"type":"Point","coordinates":[-92.1675096,19.3015719]},"properties":{"osm_id":7188818249,"osm_type":"node","seamark_type":"platform","display_class":"OTHER","min_zoom":12,"importance":1,"name":"ABKATUN-B","ref":null,"common":{"name":"ABKATUN-B","type":"platform"},"children":{},"osm_tags":{"seamark:name":"ABKATUN-B","seamark:type":"platform"}}},{"type":"Feature","geometry":{"type":"Point","coordinates":[-92.1860753,19.3243916]},"properties":{"osm_id":7188818245,"osm_type":"node","seamark_type":"platform","display_class":"OTHER","min_zoom":12,"importance":1,"name":"ABKATUN-C","ref":null,"common":{"name":"ABKATUN-C","type":"platform"},"children":{},"osm_tags":{"seamark:name":"ABKATUN-C","seamark:type":"platform"}}},{"type":"Feature","geometry":{"type":"Point","coordinates":[-92.1994794,19.2998028]},"properties":{"osm_id":7188818246,"osm_type":"node","seamark_type":"platform","display_class":"OTHER","min_zoom":12,"importance":1,"name":"ABKATUN-D","ref":null,"common":{"name":"ABKATUN-D","type":"platform"},"children":{},"osm_tags":{"seamark:name":"ABKATUN-D","seamark:type":"platform"}}},{"type":"Feature","geometry":{"type":"Point","coordinates":[-92.1854898,19.274059]},"properties":{"osm_id":7188818243,"osm_type":"node","seamark_type":"platform","display_class":"OTHER","min_zoom":12,"importance":1,"name":"ABKATUN-E","ref":null,"common":{"name":"ABKATUN-E","type":"platform"},"children":{},"osm_tags":{"seamark:name":"ABKATUN-E","seamark:type":"platform"}}},{"type":"Feature","geometry":{"type":"Point","coordinates":[-92.1552244,19.2746598]},"properties":{"osm_id":7188818241,"osm_type":"node","seamark_type":"platform","display_class":"OTHER","min_zoom":12,"importance":1,"name":"ABKATUN-F","ref":null,"common":{"name":"ABKATUN-F","type":"platform"},"children":{},"osm_tags":{"seamark:name":"ABKATUN-F","seamark:type":"platform"}}},{"type":"Feature","geometry":{"type":"Point","coordinates":[-92.2193607,19.3422966]},"properties":{"osm_id":7188818244,"osm_type":"node","seamark_type":"platform","display_class":"OTHER","min_zoom":12,"importance":1,"name":"ABKATUN-H","ref":null,"common":{"name":"ABKATUN-H","type":"platform"},"children":{},"osm_tags":{"seamark:name":"ABKATUN-H","seamark:type":"platform"}}},{"type":"Feature","geometry":{"type":"Point","coordinates":[-92.1667698,19.2557519]},"properties":{"osm_id":7188818242,"osm_type":"node","seamark_type":"platform","display_class":"OTHER","min_zoom":12,"importance":1,"name":"ABKATUN-I","ref":null,"common":{"name":"ABKATUN-I","type":"platform"},"children":{},"osm_tags":{"seamark:name":"ABKATUN-I","seamark:type":"platform"}}},{"type":"Feature","geometry":{"type":"Point","coordinates":[-92.132605,19.2744167]},"properties":{"osm_id":7188818240,"osm_type":"node","seamark_type":"platform","display_class":"OTHER","min_zoom":12,"importance":1,"name":"ABKATUN-J","ref":null,"common":{"name":"ABKATUN-J","type":"platform"},"children":{},"osm_tags":{"seamark:name":"ABKATUN-J","seamark:type":"platform"}}},{"type":"Feature","geometry":{"type":"Point","coordinates":[-92.2079416,19.2632337]},"properties":{"osm_id":7188818239,"osm_type":"node","seamark_type":"platform","display_class":"OTHER","min_zoom":12,"importance":1,"name":"ABKATUN-N1","ref":null,"common":{"name":"ABKATUN-N1","type":"platform"},"children":{},"osm_tags":{"seamark:name":"ABKATUN-N1","seamark:type":"platform"}}},{"type":"Feature","geometry":{"type":"Point","coordinates":[-92.0338066,19.4394635]},"properties":{"osm_id":7188832434,"osm_type":"node","seamark_type":"platform","display_class":"OTHER","min_zoom":12,"importance":1,"name":"AKAL-B","ref":null,"common":{"name":"AKAL-B","type":"platform"},"children":{},"osm_tags":{"seamark:name":"AKAL-B","seamark:type":"platform"}}},{"type":"Feature","geometry":{"type":"Point","coordinates":[-92.0500975,19.4435417]},"properties":{"osm_id":7188832435,"osm_type":"node","seamark_type":"platform","display_class":"OTHER","min_zoom":12,"importance":1,"name":"AKAL-BN","ref":null,"common":{"name":"AKAL-BN","type":"platform"},"children":{},"osm_tags":{"seamark:name":"AKAL-BN","seamark:type":"platform"}}},{"type":"Feature","geometry":{"type":"Point","coordinates":[-92.0436487,19.4128927]},"properties":{"osm_id":7188832422,"osm_type":"node","seamark_type":"platform","display_class":"OTHER","min_zoom":12,"importance":1,"name":"AKAL-CI","ref":null,"common":{"name":"AKAL-CI","type":"platform"},"children":{},"osm_tags":{"seamark:name":"AKAL-CI","seamark:type":"platform"}}},{"type":"Feature","geometry":{"type":"Point","coordinates":[-92.0311327,19.4308444]},"properties":{"osm_id":7188832420,"osm_type":"node","seamark_type":"platform","display_class":"OTHER","min_zoom":12,"importance":1,"name":"AKAL-DB","ref":null,"common":{"name":"AKAL-DB","type":"platform"},"children":{},"osm_tags":{"seamark:name":"AKAL-DB","seamark:type":"platform"}}},{"type":"Feature","geometry":{"type":"Point","coordinates":[-92.0760142,19.4263998]},"properties":{"osm_id":7188832423,"osm_type":"node","seamark_type":"platform","display_class":"OTHER","min_zoom":12,"importance":1,"name":"AKAL-J","ref":null,"common":{"name":"AKAL-J","type":"platform"},"children":{},"osm_tags":{"seamark:name":"AKAL-J","seamark:type":"platform"}}},{"type":"Feature","geometry":{"type":"Point","coordinates":[-92.0840009,19.4485654]},"properties":{"osm_id":7188722558,"osm_type":"node","seamark_type":"platform","display_class":"OTHER","min_zoom":12,"importance":1,"name":"AKAL-L","ref":null,"common":{"name":"AKAL-L","type":"platform"},"children":{},"osm_tags":{"seamark:name":"AKAL-L","seamark:type":"platform"}}},{"type":"Feature","geometry":{"type":"Point","coordinates":[-92.0995723,19.4624159]},"properties":{"osm_id":7188832429,"osm_type":"node","seamark_type":"platform","display_class":"OTHER","min_zoom":12,"importance":1,"name":"AKAL-L-KL","ref":null,"common":{"name":"AKAL-L-KL","type":"platform"},"children":{},"osm_tags":{"seamark:name":"AKAL-L-KL","seamark:type":"platform"}}},{"type":"Feature","geometry":{"type":"Point","coordinates":[-92.0613045,19.4621]},"properties":{"osm_id":7188832427,"osm_type":"node","seamark_type":"platform","display_class":"OTHER","min_zoom":12,"importance":1,"name":"AKAL-M","ref":null,"common":{"name":"AKAL-M","type":"platform"},"children":{},"osm_tags":{"seamark:name":"AKAL-M","seamark:type":"platform"}}},{"type":"Feature","geometry":{"type":"Point","coordinates":[-92.0499932,19.4623381]},"properties":{"osm_id":7188832426,"osm_type":"node","seamark_type":"platform","display_class":"OTHER","min_zoom":12,"importance":1,"name":"AKAL-MB","ref":null,"common":{"name":"AKAL-MB","type":"platform"},"children":{},"osm_tags":{"seamark:name":"AKAL-MB","seamark:type":"platform"}}},{"type":"Feature","geometry":{"type":"Point","coordinates":[-92.0606206,19.4382412]},"properties":{"osm_id":7188832436,"osm_type":"node","seamark_type":"platform","display_class":"OTHER","min_zoom":12,"importance":1,"name":"AKAL-N","ref":null,"common":{"name":"AKAL-N","type":"platform"},"children":{},"osm_tags":{"seamark:name":"AKAL-N","seamark:type":"platform"}}},{"type":"Feature","geometry":{"type":"Point","coordinates":[-92.0331406,19.4427486]},"properties":{"osm_id":7188832433,"osm_type":"node","seamark_type":"platform","display_class":"OTHER","min_zoom":12,"importance":1,"name":"AKAL-TB","ref":null,"common":{"name":"AKAL-TB","type":"platform"},"children":{},"osm_tags":{"seamark:name":"AKAL-TB","seamark:type":"platform"}}},{"type":"Feature","geometry":{"type":"Point","coordinates":[-92.0262787,19.4169629]},"properties":{"osm_id":7188832421,"osm_type":"node","seamark_type":"platform","display_class":"OTHER","min_zoom":12,"importance":1,"name":"AKAL-TD","ref":null,"common":{"name":"AKAL-TD","type":"platform"},"children":{},"osm_tags":{"seamark:name":"AKAL-TD","seamark:type":"platform"}}},{"type":"Feature","geometry":{"type":"Point","coordinates":[-92.0501635,19.4187276]},"properties":{"osm_id":7188832432,"osm_type":"node","seamark_type":"platform","display_class":"OTHER","min_zoom":12,"importance":1,"name":"AKAL-TE","ref":null,"common":{"name":"AKAL-TE","type":"platform"},"children":{},"osm_tags":{"seamark:name":"AKAL-TE","seamark:type":"platform"}}},{"type":"Feature","geometry":{"type":"Point","coordinates":[-92.0921601,19.4431314]},"properties":{"osm_id":7188832431,"osm_type":"node","seamark_type":"platform","display_class":"OTHER","min_zoom":12,"importance":1,"name":"AKAL-TJ","ref":null,"common":{"name":"AKAL-TJ","type":"platform"},"children":{},"osm_tags":{"seamark:name":"AKAL-TJ","seamark:type":"platform"}}},{"type":"Feature","geometry":{"type":"Point","coordinates":[-92.0730388,19.4623771]},"properties":{"osm_id":7188832428,"osm_type":"node","seamark_type":"platform","display_class":"OTHER","min_zoom":12,"importance":1,"name":"AKAL-TM","ref":null,"common":{"name":"AKAL-TM","type":"platform"},"children":{},"osm_tags":{"seamark:name":"AKAL-TM","seamark:type":"platform"}}},{"type":"Feature","geometry":{"type":"Point","coordinates":[-92.0687917,19.46942]},"properties":{"osm_id":7188832425,"osm_type":"node","seamark_type":"platform","display_class":"OTHER","min_zoom":12,"importance":1,"name":"AKAL-TQ","ref":null,"common":{"name":"AKAL-TQ","type":"platform"},"children":{},"osm_tags":{"seamark:name":"AKAL-TQ","seamark:type":"platform"}}},{"type":"Feature","geometry":{"type":"Point","coordinates":[-92.0688437,19.4707609]},"properties":{"osm_id":7188832424,"osm_type":"node","seamark_type":"platform","display_class":"OTHER","min_zoom":12,"importance":1,"name":"AKAL-TQA","ref":null,"common":{"name":"AKAL-TQA","type":"platform"},"children":{},"osm_tags":{"seamark:name":"AKAL-TQA","seamark:type":"platform"}}},{"type":"Feature","geometry":{"type":"Point","coordinates":[-92.1123997,19.442494]},"properties":{"osm_id":7188832430,"osm_type":"node","seamark_type":"platform","display_class":"OTHER","min_zoom":12,"importance":1,"name":"KUTZ-TA","ref":null,"common":{"name":"KUTZ-TA","type":"platform"},"children":{},"osm_tags":{"seamark:name":"KUTZ-TA","seamark:type":"platform"}}}],"type":"FeatureCollection"}