{"type":"FeatureCollection","features":[{"type":"Feature","geometry":{"type":"Point","coordinates":[70.9965087,20.7130997]},"properties":{"osm_id":1293790785,"osm_type":"node","seamark_type":"light_major","display_class":"LIGHTHOUSE","min_zoom":7,"importance":5,"name":"Cavaleiro","ref":null,"common":{"information":"Storm signals.Signal station.","name":"Cavaleiro","type":"light_major"},"children":{"light":{"character":"Fl","colour":"white","height":"45","period":"2","range":"20","reference":"F 0420"}},"osm_tags":{"seamark:information":"Storm signals.Signal station.","seamark:light:character":"Fl","seamark:light:colour":"white","seamark:light:height":"45","seamark:light:period":"2","seamark:light:range":"20","seamark:light:reference":"F 0420","seamark:name":"Cavaleiro","seamark:type":"light_major","source":"US NGA Pub. 112. 2009-11-12."}}},{"type":"Feature","geometry":{"type":"Point","coordinates":[70.8277422,20.6913812]},"properties":{"osm_id":1293790787,"osm_type":"node","seamark_type":"light_major","display_class":"LIGHTHOUSE","min_zoom":7,"importance":5,"name":"Diu Head","ref":null,"common":{"information":"Radiobeacon.","name":"Diu Head","type":"light_major"},"children":{"light":{"character":"Fl","colour":"white","height":"59","period":"10","range":"32","reference":"F 0414"}},"osm_tags":{"seamark:information":"Radiobeacon.","seamark:light:character":"Fl","seamark:light:colour":"white","seamark:light:height":"59","seamark:light:period":"10","seamark:light:range":"32","seamark:light:reference":"F 0414","seamark:name":"Diu Head","seamark:type":"light_major","source":"US NGA Pub. 112. 2009-11-12."}}},{"type":"Feature","geometry":{"type":"Point","coordinates":[70.9979803,20.7161226]},"properties":{"osm_id":1293790784,"osm_type":"node","seamark_type":"light_minor","display_class":"OTHER","min_zoom":12,"importance":1,"name":"Couraca","ref":null,"common":{"information":"Shown Sept. 1 to May 31.","name":"Couraca","type":"light_minor"},"children":{"light":{"character":"Fl","colour":"red","height":"6","period":"4","range":"6","reference":"F 0424"}},"osm_tags":{"seamark:information":"Shown Sept. 1 to May 31.","seamark:light:character":"Fl","seamark:light:colour":"red","seamark:light:height":"6","seamark:light:period":"4","seamark:light:range":"6","seamark:light:reference":"F 0424","seamark:name":"Couraca","seamark:type":"light_minor","source":"US NGA Pub. 112. 2009-11-12."}}},{"type":"Feature","geometry":{"type":"Point","coordinates":[70.9876309,20.7212966]},"properties":{"osm_id":1293790783,"osm_type":"node","seamark_type":"light_minor","display_class":"OTHER","min_zoom":12,"importance":1,"name":"Forte do Mar","ref":null,"common":{"information":"Shown Sept. 1 to May 31.","name":"Forte do Mar","type":"light_minor"},"children":{"light":{"character":"Fl","colour":"green","height":"17","period":"4","range":"6","reference":"F 0422"}},"osm_tags":{"seamark:information":"Shown Sept. 1 to May 31.","seamark:light:character":"Fl","seamark:light:colour":"green","seamark:light:height":"17","seamark:light:period":"4","seamark:light:range":"6","seamark:light:reference":"F 0422","seamark:name":"Forte do Mar","seamark:type":"light_minor","source":"US NGA Pub. 112. 2009-11-12."}}},{"type":"Feature","geometry":{"type":"Point","coordinates":[70.8743593,20.7093815]},"properties":{"osm_id":1293790786,"osm_type":"node","seamark_type":"light_minor","display_class":"OTHER","min_zoom":12,"importance":1,"name":"Vanakbava","ref":null,"common":{"name":"Vanakbava","type":"light_minor"},"children":{"light":{"character":"Fl","colour":"white","group":"3","period":"10","reference":"F 0414.2"}},"osm_tags":{"seamark:light:character":"Fl","seamark:light:colour":"white","seamark:light:group":"3","seamark:light:period":"10","seamark:light:reference":"F 0414.2","seamark:name":"Vanakbava","seamark:type":"light_minor","source":"US NGA Pub. 112. 2009-11-12."}}}],"type":"FeatureCollection"}