{"type":"FeatureCollection","features":[{"type":"Feature","geometry":{"type":"Point","coordinates":[71.8043404,21.0402566]},"properties":{"osm_id":8002782082,"osm_type":"node","seamark_type":"rock","display_class":"LIGHTHOUSE","min_zoom":7,"importance":5,"name":"LightHouse (Mahuva)","ref":null,"common":{"type":"rock"},"children":{},"osm_tags":{"man_made":"lighthouse","name":"LightHouse (Mahuva)","operator":"Government of India","seamark:type":"rock","source":"local knowledge;streetlevel imagery"}}}],"type":"FeatureCollection"}