{"type":"FeatureCollection","features":[{"type":"Feature","geometry":{"type":"Point","coordinates":[-142.720271,-43.5801068]},"properties":{"osm_id":1112841934,"osm_type":"node","seamark_type":"wreck","name":"Spaceship cemetery","importance":4,"min_zoom":9,"attributes":{},"common":{"type":"wreck"},"children":{},"osm_tags":{"historic":"wreck","name":"Spaceship cemetery","name:ru":"Кладбище космических кораблей","seamark:type":"wreck","start_date":"1971","wikidata":"Q2031530","wikipedia":"ru:Кладбище космических кораблей","wikipedia:en":"en:Spacecraft cemetery","wreck:depth":"4000 m"}}},{"type":"Feature","geometry":{"type":"Point","coordinates":[-148.4370056,-41.4368004]},"properties":{"osm_id":9220341767,"osm_type":"node","seamark_type":"obstruction","name":"Sophie Christenson Shoal","importance":4,"min_zoom":9,"attributes":{"status":"existence_doubtful","water_level":"submerged"},"common":{"type":"obstruction"},"children":{},"osm_tags":{"depth":"9","depth:exposition":"shoaler","depth:source_quality":"not_confirmed","description":"(1913)","name":"Sophie Christenson Shoal","ref:linz:hydrographic_id":"3649955","seamark:obstruction:status":"existence_doubtful","seamark:obstruction:water_level":"submerged","seamark:type":"obstruction","source":"LINZ;Chatham Islands to Ile Rapa Chart;Chart NZ14613","source:date":"1999-04-01"}}}],"type":"FeatureCollection"}