{"type":"FeatureCollection","features":[{"type":"Feature","geometry":{"type":"Polygon","coordinates":[[[55.0254427,24.9907612],[55.025396,24.9907292],[55.0253186,24.9907072],[55.0252369,24.9907043],[55.0247469,24.990563],[55.0243169,24.990423],[55.0241799,24.9903634],[55.0241295,24.9903464],[55.024053,24.9903431],[55.024007,24.9903319],[55.0239138,24.9902371],[55.023926,24.9902229],[55.0238662,24.9901665],[55.0237712,24.9900779],[55.0237526,24.9900853],[55.0237362,24.9900699],[55.0236735,24.9900055],[55.0236268,24.989925],[55.0235809,24.9898079],[55.0235847,24.9897077],[55.023586,24.9896204],[55.0235677,24.9895335],[55.0235337,24.9894841],[55.023506,24.9894554],[55.0235174,24.9893302],[55.0235917,24.9890006],[55.0236515,24.9886932],[55.0236686,24.9884871],[55.0238203,24.9883731],[55.0240138,24.9882816],[55.0243041,24.9882188],[55.0244496,24.9882254],[55.0244717,24.9882612],[55.0244847,24.9883093],[55.0245161,24.9883687],[55.0245265,24.9884034],[55.0245441,24.9884099],[55.024559,24.9884154],[55.0245756,24.9884137],[55.0245921,24.9884121],[55.0246266,24.9883838],[55.0246496,24.9883346],[55.0246424,24.9882098],[55.0246219,24.9881245],[55.0245848,24.9880484],[55.0245809,24.9879865],[55.0245923,24.9879306],[55.024613,24.9878287],[55.024729,24.9871909],[55.0260882,24.9873821],[55.0260505,24.9875984],[55.0258818,24.9885678],[55.0259301,24.9886107],[55.0259701,24.9886462],[55.0258163,24.9888643],[55.0257964,24.9888883],[55.025778,24.9889315],[55.0257853,24.988968],[55.0257781,24.9889931],[55.0257198,24.989064],[55.0257107,24.9890775],[55.0257075,24.9890845],[55.0257063,24.9890948],[55.0257054,24.989102],[55.0257101,24.9891088],[55.0257203,24.9891384],[55.0257275,24.9891653],[55.0257282,24.9891991],[55.0257157,24.9892443],[55.0256695,24.9893607],[55.0256259,24.9894531],[55.0255977,24.9895364],[55.0255823,24.989592],[55.0255642,24.9896324],[55.0255521,24.9896686],[55.0255399,24.98969],[55.0255378,24.9897085],[55.025536,24.9897197],[55.0255336,24.9897274],[55.0255307,24.9897369],[55.0255337,24.9897444],[55.0255317,24.9897621],[55.0255509,24.9898271],[55.0255462,24.9898609],[55.0255414,24.9898946],[55.0255418,24.9899073],[55.0255432,24.9899597],[55.025527,24.989997],[55.0255221,24.9900599],[55.0255309,24.9901249],[55.0255607,24.9901617],[55.0256051,24.9901807],[55.0256491,24.9901772],[55.0254427,24.9907612]]]},"properties":{"osm_id":87186170,"osm_type":"way","seamark_type":"harbour","display_class":"OTHER","min_zoom":12,"importance":1,"name":null,"ref":null,"common":{"type":"harbour"},"children":{"harbour":{"category":"marina"}},"osm_tags":{"leisure":"marina","seamark:harbour:category":"marina","seamark:type":"harbour","source":"Bing"}}}],"type":"FeatureCollection"}