{"type":"FeatureCollection","features":[{"type":"Feature","geometry":{"type":"Point","coordinates":[-76.1691665,24.6259954]},"properties":{"osm_id":7442770130,"osm_type":"node","seamark_type":"light_major","display_class":"LIGHTHOUSE","min_zoom":7,"importance":5,"name":"Sandy Point Lighthouse","ref":null,"common":{"type":"light_major"},"children":{},"osm_tags":{"man_made":"lighthouse","name":"Sandy Point Lighthouse","seamark:type":"light_major"}}},{"type":"Feature","geometry":{"type":"Point","coordinates":[-76.4774099,24.2246539]},"properties":{"osm_id":6874392384,"osm_type":"node","seamark_type":"landmark","display_class":"OTHER","min_zoom":12,"importance":1,"name":null,"ref":null,"common":{"type":"landmark"},"children":{"landmark":{"category":"windmotor"}},"osm_tags":{"generator:method":"wind_turbine","generator:source":"wind","power":"generator","seamark:landmark:category":"windmotor","seamark:type":"landmark"}}},{"type":"Feature","geometry":{"type":"Point","coordinates":[-76.478806,24.2255283]},"properties":{"osm_id":6874392385,"osm_type":"node","seamark_type":"landmark","display_class":"OTHER","min_zoom":12,"importance":1,"name":null,"ref":null,"common":{"type":"landmark"},"children":{"landmark":{"category":"windmotor"}},"osm_tags":{"generator:method":"wind_turbine","generator:source":"wind","power":"generator","seamark:landmark:category":"windmotor","seamark:type":"landmark"}}},{"type":"Feature","geometry":{"type":"Point","coordinates":[-76.4790179,24.2261765]},"properties":{"osm_id":6874392386,"osm_type":"node","seamark_type":"landmark","display_class":"OTHER","min_zoom":12,"importance":1,"name":null,"ref":null,"common":{"type":"landmark"},"children":{"landmark":{"category":"windmotor"}},"osm_tags":{"generator:method":"wind_turbine","generator:source":"wind","power":"generator","seamark:landmark:category":"windmotor","seamark:type":"landmark"}}},{"type":"Feature","geometry":{"type":"Point","coordinates":[-76.4464411,24.1664546]},"properties":{"osm_id":6970692969,"osm_type":"node","seamark_type":"wreck","display_class":"OTHER","min_zoom":12,"importance":1,"name":null,"ref":null,"common":{"type":"wreck"},"children":{},"osm_tags":{"historic":"wreck","seamark:type":"wreck"}}},{"type":"Feature","geometry":{"type":"Point","coordinates":[-76.8179941,24.7031042]},"properties":{"osm_id":11061912647,"osm_type":"node","seamark_type":"rock","display_class":"OTHER","min_zoom":12,"importance":1,"name":null,"ref":null,"common":{"type":"rock"},"children":{"rock":{"water_level":"covers"}},"osm_tags":{"seamark:rock:water_level":"covers","seamark:type":"rock"}}},{"type":"Feature","geometry":{"type":"Point","coordinates":[-76.8163097,24.7041082]},"properties":{"osm_id":11061912648,"osm_type":"node","seamark_type":"rock","display_class":"OTHER","min_zoom":12,"importance":1,"name":null,"ref":null,"common":{"type":"rock"},"children":{"rock":{"water_level":"covers"}},"osm_tags":{"seamark:rock:water_level":"covers","seamark:type":"rock"}}},{"type":"Feature","geometry":{"type":"Point","coordinates":[-76.8159342,24.7036306]},"properties":{"osm_id":11061912649,"osm_type":"node","seamark_type":"rock","display_class":"OTHER","min_zoom":12,"importance":1,"name":null,"ref":null,"common":{"type":"rock"},"children":{"rock":{"water_level":"covers"}},"osm_tags":{"seamark:rock:water_level":"covers","seamark:type":"rock"}}},{"type":"Feature","geometry":{"type":"Point","coordinates":[-76.8180478,24.7031725]},"properties":{"osm_id":11061912650,"osm_type":"node","seamark_type":"rock","display_class":"OTHER","min_zoom":12,"importance":1,"name":null,"ref":null,"common":{"type":"rock"},"children":{"rock":{"water_level":"covers"}},"osm_tags":{"seamark:rock:water_level":"covers","seamark:type":"rock"}}},{"type":"Feature","geometry":{"type":"Point","coordinates":[-76.8219423,24.7019346]},"properties":{"osm_id":11061912651,"osm_type":"node","seamark_type":"rock","display_class":"OTHER","min_zoom":12,"importance":1,"name":null,"ref":null,"common":{"type":"rock"},"children":{"rock":{"water_level":"covers"}},"osm_tags":{"seamark:rock:water_level":"covers","seamark:type":"rock"}}},{"type":"Feature","geometry":{"type":"Polygon","coordinates":[[[-76.344823,24.8378332],[-76.3446952,24.8373687],[-76.3446884,24.8373416],[-76.3445064,24.8373727],[-76.3444404,24.8372943],[-76.3443996,24.8373227],[-76.3436594,24.8363663],[-76.3437451,24.8361712],[-76.3438649,24.8362132],[-76.3439179,24.8361231],[-76.3439275,24.8359786],[-76.3439138,24.8358168],[-76.3438757,24.8356699],[-76.3437764,24.8355192],[-76.3436689,24.8354069],[-76.3435315,24.8353069],[-76.3433845,24.8352266],[-76.3432226,24.8351871],[-76.3430417,24.8351747],[-76.3428661,24.8351858],[-76.3426824,24.8352217],[-76.3425219,24.8352538],[-76.342379,24.8352896],[-76.3423001,24.8353118],[-76.3423844,24.8355612],[-76.342262,24.8355983],[-76.3421349,24.8353015],[-76.3417762,24.8355612],[-76.34173,24.8356131],[-76.3416837,24.8356625],[-76.3418225,24.8363663],[-76.3424103,24.8362058],[-76.3426035,24.8369143],[-76.3427739,24.8371482],[-76.3434567,24.8380852],[-76.3442404,24.8380445],[-76.344823,24.8378332]]]},"properties":{"osm_id":482899221,"osm_type":"way","seamark_type":"harbour","display_class":"OTHER","min_zoom":12,"importance":1,"name":null,"ref":null,"common":{"type":"harbour"},"children":{"harbour":{"category":"marina"}},"osm_tags":{"leisure":"marina","seamark:harbour:category":"marina","seamark:type":"harbour"}}},{"type":"Feature","geometry":{"type":"Polygon","coordinates":[[[-76.8097942,24.5944381],[-76.809949,24.5943721],[-76.8099737,24.5943596],[-76.8099935,24.5943491],[-76.8099954,24.5943456],[-76.8099954,24.5943419],[-76.8099921,24.5943393],[-76.8099872,24.5943385],[-76.8099491,24.5943459],[-76.8098929,24.5943598],[-76.8098221,24.5943787],[-76.8098176,24.5943797],[-76.8098134,24.5943716],[-76.8098108,24.5943644],[-76.8098072,24.5943549],[-76.809805,24.5943537],[-76.8098019,24.594354],[-76.809798,24.5943534],[-76.809795,24.5943546],[-76.8097928,24.5943573],[-76.8097903,24.5943591],[-76.8097897,24.5943612],[-76.809793,24.5943696],[-76.8097958,24.5943768],[-76.8097987,24.5943843],[-76.809773,24.5943912],[-76.8097655,24.594373],[-76.8097599,24.5943607],[-76.8097534,24.5943489],[-76.8097491,24.594342],[-76.8097444,24.594336],[-76.8097408,24.5943319],[-76.8097355,24.5943261],[-76.8097283,24.5943213],[-76.8097192,24.5943198],[-76.8097136,24.5943256],[-76.8097126,24.5943333],[-76.8097128,24.5943415],[-76.8097139,24.5943462],[-76.8097152,24.5943522],[-76.809717,24.5943613],[-76.8097206,24.5943728],[-76.8097251,24.5943861],[-76.8097319,24.5944038],[-76.8097069,24.5944135],[-76.8097031,24.5944053],[-76.8097005,24.5943999],[-76.8096957,24.5943905],[-76.8096936,24.5943892],[-76.8096901,24.5943897],[-76.809686,24.5943896],[-76.8096837,24.5943906],[-76.809682,24.594393],[-76.8096799,24.5943948],[-76.8096784,24.594397],[-76.8096827,24.594406],[-76.8096856,24.5944125],[-76.8096888,24.594421],[-76.8096225,24.5944486],[-76.8095784,24.5944673],[-76.8095432,24.5944841],[-76.8095387,24.5944888],[-76.8095383,24.5944939],[-76.8095417,24.5944969],[-76.8095465,24.5944981],[-76.8095683,24.5944939],[-76.8095951,24.5944887],[-76.8097517,24.5944529],[-76.8097767,24.5945074],[-76.8098064,24.594562],[-76.8097801,24.5945774],[-76.8097576,24.5945911],[-76.8097532,24.5945943],[-76.8097503,24.5945967],[-76.809749,24.5945988],[-76.8097498,24.5946017],[-76.8097523,24.5946031],[-76.8097573,24.594602],[-76.8097661,24.5945999],[-76.8097873,24.594594],[-76.8098221,24.5945837],[-76.8098248,24.5945869],[-76.8098286,24.5945896],[-76.8098268,24.5945859],[-76.8098234,24.5945784],[-76.80982,24.5945711],[-76.8098137,24.5945564],[-76.8098034,24.5945258],[-76.8098097,24.5945408],[-76.8098161,24.5945557],[-76.8098219,24.5945705],[-76.8098248,24.594578],[-76.8098278,24.5945856],[-76.8098294,24.5945893],[-76.8098302,24.5945848],[-76.8098299,24.594581],[-76.8098632,24.5945679],[-76.8098809,24.5945607],[-76.8098893,24.5945569],[-76.8098944,24.594554],[-76.8098957,24.5945512],[-76.8098935,24.5945484],[-76.8098907,24.5945474],[-76.8098866,24.5945473],[-76.8098808,24.5945477],[-76.8098558,24.594551],[-76.8098261,24.5945551],[-76.8098119,24.5944963],[-76.8097942,24.5944381]]]},"properties":{"osm_id":948102800,"osm_type":"way","seamark_type":"wreck","display_class":"OTHER","min_zoom":12,"importance":1,"name":"Curtiss C-46A-45-CU Commando","ref":null,"common":{"type":"wreck"},"children":{},"osm_tags":{"access":"yes","aircraft:type":"transport","damage":"destroyed","damage:structure":"heavy","historic":"wreck","name":"Curtiss C-46A-45-CU Commando","note":"Civil registration, N355BY, cancelled on 15 November 1980.","seamark:type":"wreck","sport":"scuba_diving","tourism":"attraction","wikidata":"Q1145708","wikipedia":"en:Curtiss C-46 Commando","wreck:date_sunk":"15 November 1980","wreck:visible_at_high_tide":"no","wreck:visible_at_low_tide":"yes","year_of_construction":"1940-1945"}}},{"type":"Feature","geometry":{"type":"Point","coordinates":[-76.5589875,24.3220753]},"properties":{"osm_id":13247426702,"osm_type":"node","seamark_type":"wreck","display_class":"OTHER","min_zoom":12,"importance":1,"name":"O'Brians plane wreck","ref":null,"common":{"type":"wreck"},"children":{"wreck":{"category":"non-dangerous"}},"osm_tags":{"access":"yes","historic":"wreck","name":"O'Brians plane wreck","seamark:type":"wreck","seamark:wreck:category":"non-dangerous"}}},{"type":"Feature","geometry":{"type":"Point","coordinates":[-76.8097657,24.5944262]},"properties":{"osm_id":8336222619,"osm_type":"node","seamark_type":"wreck","display_class":"OTHER","min_zoom":12,"importance":1,"name":"Plane wreck - Curtiss C-46A-45-CU Commando","ref":null,"common":{"type":"wreck"},"children":{},"osm_tags":{"access":"yes","aircraft:type":"transport","alt_name":"Norman's Cay plane wreck, Staniel Cay plane wreck, Exumas Plane Wreck","description":"Crashed plane from the era when Norman Cay was controlled by Carlos Lehder's smuggling operation, which was connected with Pablo Escobar and the Medellin Cartel. Stories that the plane crashed while running drugs for Lehder are disputed.","historic":"wreck","name":"Plane wreck - Curtiss C-46A-45-CU Commando","name:de":"Flugzeug wrack - Curtiss C-46A-45-CU Commando","name:fr":"épave d'avion - Curtiss C-46A-45-CU Commando","name:nl":"Vliegtuig wrak - Curtiss C-46A-45-CU Commando","note":"https://en.wikipedia.org/wiki/Curtiss_C-46_Commando","seamark:type":"wreck","wikidata":"Q1145708","wikipedia":"en:Curtiss C-46 Commando","wreck:date_sunk":"15 November 1980","wreck:visible_at_high_tide":"no","wreck:visible_at_low_tide":"yes"}}},{"type":"Feature","geometry":{"type":"Point","coordinates":[-76.4454765,24.1725521]},"properties":{"osm_id":3464392793,"osm_type":"node","seamark_type":"harbour","display_class":"OTHER","min_zoom":12,"importance":1,"name":"Staniel Cay Yacht Club","ref":null,"common":{"type":"harbour"},"children":{"harbour":{"category":"marina"}},"osm_tags":{"addr:country":"BS","contact:email":"marina@stanielcay.com","email":"info@stanielcay.com","fax":"Bahamas Office fax  (242) 355-2044","leisure":"marina","name":"Staniel Cay Yacht Club","note":"Please make reservations via email at: Reservations@stanielcay.com","phone":"USA (954) 467-6658, Bahamas (242) 355-2024","power_supply":"yes","reservation":"recommended","seamark:harbour:category":"marina","seamark:type":"harbour","tourism":"hotel","website":"https://www.stanielcay.com/"}}},{"type":"Feature","geometry":{"type":"Point","coordinates":[-76.2351068,24.750221]},"properties":{"osm_id":1920830207,"osm_type":"node","seamark_type":"light_minor","display_class":"OTHER","min_zoom":12,"importance":1,"name":"Wemyss Bight","ref":null,"common":{"name":"Wemyss Bight","type":"light_minor"},"children":{"light":{"character":"F","colour":"white","height":"8","range":"2","reference":"J 4702"}},"osm_tags":{"seamark:light:character":"F","seamark:light:colour":"white","seamark:light:height":"8","seamark:light:range":"2","seamark:light:reference":"J 4702","seamark:name":"Wemyss Bight","seamark:type":"light_minor","source":"US NGA Pub. 110. 2012-05-10."}}}],"type":"FeatureCollection"}