{"type":"FeatureCollection","features":[{"type":"Feature","geometry":{"type":"Point","coordinates":[-98.009336,25.6525342]},"properties":{"osm_id":6949847672,"osm_type":"node","seamark_type":"beacon_lateral","display_class":"BEACON","min_zoom":9,"importance":4,"name":null,"ref":null,"common":{"type":"beacon_lateral"},"children":{},"osm_tags":{"seamark:type":"beacon_lateral"}}},{"type":"Feature","geometry":{"type":"Point","coordinates":[-98.0309147,25.6519304]},"properties":{"osm_id":6949847674,"osm_type":"node","seamark_type":"beacon_lateral","display_class":"BEACON","min_zoom":9,"importance":4,"name":null,"ref":null,"common":{"type":"beacon_lateral"},"children":{},"osm_tags":{"seamark:type":"beacon_lateral"}}}],"type":"FeatureCollection"}