{"type":"FeatureCollection","features":[{"type":"Feature","geometry":{"type":"Point","coordinates":[-81.0663222,25.137349]},"properties":{"osm_id":5287961161,"osm_type":"node","seamark_type":"gate","display_class":"OTHER","min_zoom":12,"importance":1,"name":null,"ref":null,"common":{"type":"gate"},"children":{},"osm_tags":{"seamark:type":"gate","waterway":"lock_gate"}}},{"type":"Feature","geometry":{"type":"Point","coordinates":[-81.5935385,25.9880031]},"properties":{"osm_id":12508625509,"osm_type":"node","seamark_type":"harbour","display_class":"OTHER","min_zoom":12,"importance":1,"name":null,"ref":null,"common":{"type":"harbour"},"children":{"harbour":{"category":"marina_no_facilities"}},"osm_tags":{"leisure":"marina","seamark:harbour:category":"marina_no_facilities","seamark:type":"harbour"}}},{"type":"Feature","geometry":{"type":"Point","coordinates":[-81.5932405,25.9879927]},"properties":{"osm_id":12508625510,"osm_type":"node","seamark_type":"harbour","display_class":"OTHER","min_zoom":12,"importance":1,"name":null,"ref":null,"common":{"type":"harbour"},"children":{"harbour":{"category":"marina_no_facilities"}},"osm_tags":{"leisure":"marina","seamark:harbour:category":"marina_no_facilities","seamark:type":"harbour"}}},{"type":"Feature","geometry":{"type":"Polygon","coordinates":[[[-81.7289565,25.9734164],[-81.7289441,25.9733814],[-81.7289192,25.9733476],[-81.7288837,25.9733271],[-81.7288441,25.9733199],[-81.7288022,25.9733223],[-81.7287583,25.9733401],[-81.7287285,25.9733663],[-81.72871,25.9733953],[-81.7286949,25.9734444],[-81.7286701,25.9735876],[-81.7287825,25.9736427],[-81.7287878,25.9736683],[-81.7287771,25.9736879],[-81.728762,25.973697],[-81.7287452,25.9736992],[-81.728885,25.9737591],[-81.7288606,25.9737341],[-81.7288488,25.9737054],[-81.7288569,25.9736723],[-81.7288814,25.9736421],[-81.7289367,25.9736038],[-81.7289558,25.9734625],[-81.7289565,25.9734164]]]},"properties":{"osm_id":493297685,"osm_type":"way","seamark_type":"harbour","display_class":"OTHER","min_zoom":12,"importance":1,"name":null,"ref":null,"common":{"type":"harbour"},"children":{"harbour":{"category":"marina"}},"osm_tags":{"leisure":"marina","natural":"water","seamark:harbour:category":"marina","seamark:type":"harbour"}}},{"type":"Feature","geometry":{"type":"Polygon","coordinates":[[[-81.713787,25.9611254],[-81.7137258,25.9615953],[-81.7128965,25.9621211],[-81.7128801,25.9621005],[-81.7128399,25.9620529],[-81.7124931,25.9616415],[-81.7122654,25.9613714],[-81.7121929,25.961284],[-81.7118871,25.9609151],[-81.711643,25.9606207],[-81.7127062,25.959827],[-81.713787,25.9611254]]]},"properties":{"osm_id":494897410,"osm_type":"way","seamark_type":"harbour","display_class":"OTHER","min_zoom":12,"importance":1,"name":"Marco Island Marina","ref":null,"common":{"type":"harbour"},"children":{"harbour":{"category":"marina"}},"osm_tags":{"leisure":"marina","name":"Marco Island Marina","seamark:harbour:category":"marina","seamark:type":"harbour"}}},{"type":"Feature","geometry":{"type":"Polygon","coordinates":[[[-81.5100301,25.9574441],[-81.5100043,25.9552601],[-81.5114806,25.9552292],[-81.5115407,25.9574132],[-81.5100301,25.9574441]]]},"properties":{"osm_id":1495968632,"osm_type":"way","seamark_type":"harbour","display_class":"OTHER","min_zoom":12,"importance":1,"name":"Port of the Islands Marina","ref":null,"common":{"type":"harbour"},"children":{"harbour":{"category":"marina"}},"osm_tags":{"leisure":"marina","name":"Port of the Islands Marina","seamark:harbour:category":"marina","seamark:type":"harbour","website":"https://portoftheislandsmarina.com/contact-us.html"}}},{"type":"Feature","geometry":{"type":"Point","coordinates":[-81.7217535,25.9568533]},"properties":{"osm_id":5482408657,"osm_type":"node","seamark_type":"harbour","display_class":"OTHER","min_zoom":12,"importance":1,"name":"Walker's Hideaway Marina of Marco Island","ref":null,"common":{"type":"harbour"},"children":{"harbour":{"category":"marina"}},"osm_tags":{"contact:website":"http://www.walkersmarine.com/","leisure":"marina","name":"Walker's Hideaway Marina of Marco Island","seamark:harbour:category":"marina","seamark:type":"harbour"}}},{"type":"Feature","geometry":{"type":"Point","coordinates":[-81.7226825,25.9540211]},"properties":{"osm_id":4814486457,"osm_type":"node","seamark_type":"small_craft_facility","display_class":"OTHER","min_zoom":12,"importance":1,"name":"West Marine","ref":null,"common":{"type":"small_craft_facility"},"children":{"small_craft_facility":{"category":"chandler"}},"osm_tags":{"brand":"West Marine","brand:wikidata":"Q7985852","name":"West Marine","seamark:small_craft_facility:category":"chandler","seamark:type":"small_craft_facility","shop":"boat"}}}],"type":"FeatureCollection"}