{"type":"FeatureCollection","features":[{"type":"Feature","geometry":{"type":"Point","coordinates":[53.727276,26.6993093]},"properties":{"osm_id":1293792082,"osm_type":"node","seamark_type":"light_major","display_class":"LIGHTHOUSE","min_zoom":7,"importance":5,"name":"Bandar-e Chiru.","ref":null,"common":{"name":"Bandar-e Chiru.","type":"light_major"},"children":{"light":{"character":"Fl","colour":"white","period":"5","range":"8","reference":"D 7690"}},"osm_tags":{"seamark:light:character":"Fl","seamark:light:colour":"white","seamark:light:period":"5","seamark:light:range":"8","seamark:light:reference":"D 7690","seamark:name":"Bandar-e Chiru.","seamark:type":"light_major","source":"US NGA Pub. 112. 2009-11-12."}}},{"type":"Feature","geometry":{"type":"Point","coordinates":[53.47,26.9720096]},"properties":{"osm_id":1293792094,"osm_type":"node","seamark_type":"light_major","display_class":"LIGHTHOUSE","min_zoom":7,"importance":5,"name":"Bandar-e Moqam.","ref":null,"common":{"name":"Bandar-e Moqam.","type":"light_major"},"children":{"light":{"character":"Fl","colour":"white","height":"20","period":"5","range":"8","reference":"D 7681.5"}},"osm_tags":{"seamark:light:character":"Fl","seamark:light:colour":"white","seamark:light:height":"20","seamark:light:period":"5","seamark:light:range":"8","seamark:light:reference":"D 7681.5","seamark:name":"Bandar-e Moqam.","seamark:type":"light_major","source":"US NGA Pub. 112. 2009-11-12."}}},{"type":"Feature","geometry":{"type":"Point","coordinates":[53.4067722,26.791071]},"properties":{"osm_id":1293792158,"osm_type":"node","seamark_type":"light_major","display_class":"LIGHTHOUSE","min_zoom":7,"importance":5,"name":"Jazireh-e Shitvar.","ref":null,"common":{"name":"Jazireh-e Shitvar.","type":"light_major"},"children":{"light":{"character":"Fl","colour":"white","group":"2","period":"10","range":"10","reference":"D 7688"}},"osm_tags":{"seamark:light:character":"Fl","seamark:light:colour":"white","seamark:light:group":"2","seamark:light:period":"10","seamark:light:range":"10","seamark:light:reference":"D 7688","seamark:name":"Jazireh-e Shitvar.","seamark:type":"light_major","source":"US NGA Pub. 112. 2009-11-12."}}},{"type":"Feature","geometry":{"type":"Point","coordinates":[53.6418311,26.6748561]},"properties":{"osm_id":1293792084,"osm_type":"node","seamark_type":"light_major","display_class":"LIGHTHOUSE","min_zoom":7,"importance":5,"name":"Jazireh-ye Hendorabi.","ref":null,"common":{"name":"Jazireh-ye Hendorabi.","type":"light_major"},"children":{"light":{"character":"Fl","colour":"white","group":"3","height":"58","period":"10","range":"10","reference":"D 7691"}},"osm_tags":{"seamark:light:character":"Fl","seamark:light:colour":"white","seamark:light:group":"3","seamark:light:height":"58","seamark:light:period":"10","seamark:light:range":"10","seamark:light:reference":"D 7691","seamark:name":"Jazireh-ye Hendorabi.","seamark:type":"light_major","source":"US NGA Pub. 112. 2009-11-12."}}},{"type":"Feature","geometry":{"type":"Point","coordinates":[53.3565737,26.8032356]},"properties":{"osm_id":1293792099,"osm_type":"node","seamark_type":"light_major","display_class":"LIGHTHOUSE","min_zoom":7,"importance":5,"name":"Jazireh-ye Lavan","ref":null,"common":{"information":"F.R. on radio tower close NW.","name":"Jazireh-ye Lavan","type":"light_major"},"children":{"light":{"character":"Fl","colour":"white","group":"3","height":"54","period":"12","range":"15","reference":"D 7685"}},"osm_tags":{"seamark:information":"F.R. on radio tower close NW.","seamark:light:character":"Fl","seamark:light:colour":"white","seamark:light:group":"3","seamark:light:height":"54","seamark:light:period":"12","seamark:light:range":"15","seamark:light:reference":"D 7685","seamark:name":"Jazireh-ye Lavan","seamark:type":"light_major","source":"US NGA Pub. 112. 2009-11-12."}}},{"type":"Feature","geometry":{"type":"Point","coordinates":[53.4897834,26.8592338]},"properties":{"osm_id":1293792090,"osm_type":"node","seamark_type":"light_major","display_class":"LIGHTHOUSE","min_zoom":7,"importance":5,"name":"Ra's-e Nakhilu.","ref":null,"common":{"name":"Ra's-e Nakhilu.","type":"light_major"},"children":{"light":{"character":"Fl","colour":"white","group":"3","height":"8","period":"18","range":"10","reference":"D 7689"}},"osm_tags":{"seamark:light:character":"Fl","seamark:light:colour":"white","seamark:light:group":"3","seamark:light:height":"8","seamark:light:period":"18","seamark:light:range":"10","seamark:light:reference":"D 7689","seamark:name":"Ra's-e Nakhilu.","seamark:type":"light_major","source":"US NGA Pub. 112. 2009-11-12."}}},{"type":"Feature","geometry":{"type":"Point","coordinates":[53.3876023,26.7940008]},"properties":{"osm_id":1293792111,"osm_type":"node","seamark_type":"light_minor","display_class":"OTHER","min_zoom":12,"importance":1,"name":null,"ref":null,"common":{"type":"light_minor"},"children":{"light":{"character":"Fl","colour":"red","period":"10"}},"osm_tags":{"seamark:light:character":"Fl","seamark:light:colour":"red","seamark:light:period":"10","seamark:type":"light_minor","source":"US NGA Pub. 112. 2009-11-12.","waterway":"boatyard"}}},{"type":"Feature","geometry":{"type":"Point","coordinates":[53.3363235,26.7945102]},"properties":{"osm_id":1293792113,"osm_type":"node","seamark_type":"light_minor","display_class":"OTHER","min_zoom":12,"importance":1,"name":null,"ref":null,"common":{"type":"light_minor"},"children":{"light":{"1:category":"lower","1:character":"F","1:colour":"red","1:height":"34","1:range":"12","1:sector_end":"6.61667","1:sector_start":"356.617","reference":"D 7686"}},"osm_tags":{"seamark:light:1:category":"lower","seamark:light:1:character":"F","seamark:light:1:colour":"red","seamark:light:1:height":"34","seamark:light:1:range":"12","seamark:light:1:sector_end":"6.61667","seamark:light:1:sector_start":"356.617","seamark:light:reference":"D 7686","seamark:type":"light_minor","source":"US NGA Pub. 112. 2009-11-12."}}},{"type":"Feature","geometry":{"type":"Point","coordinates":[53.3365917,26.8024249]},"properties":{"osm_id":1293792121,"osm_type":"node","seamark_type":"light_minor","display_class":"OTHER","min_zoom":12,"importance":1,"name":null,"ref":null,"common":{"type":"light_minor"},"children":{"light":{"1:category":"upper","1:character":"F","1:colour":"red","1:height":"56","1:range":"12","1:sector_end":"6.61667","1:sector_start":"356.617","reference":"D 7686.1"}},"osm_tags":{"seamark:light:1:category":"upper","seamark:light:1:character":"F","seamark:light:1:colour":"red","seamark:light:1:height":"56","seamark:light:1:range":"12","seamark:light:1:sector_end":"6.61667","seamark:light:1:sector_start":"356.617","seamark:light:reference":"D 7686.1","seamark:type":"light_minor","source":"US NGA Pub. 112. 2009-11-12."}}},{"type":"Feature","geometry":{"type":"Point","coordinates":[53.339824,26.7934933]},"properties":{"osm_id":1293792130,"osm_type":"node","seamark_type":"light_minor","display_class":"OTHER","min_zoom":12,"importance":1,"name":null,"ref":null,"common":{"type":"light_minor"},"children":{"light":{"category":"front","character":"F","colour":"red","reference":"D 7686.3"}},"osm_tags":{"seamark:light:category":"front","seamark:light:character":"F","seamark:light:colour":"red","seamark:light:reference":"D 7686.3","seamark:type":"light_minor","source":"US NGA Pub. 112. 2009-11-12."}}},{"type":"Feature","geometry":{"type":"Point","coordinates":[53.3453971,26.7969739]},"properties":{"osm_id":1293792135,"osm_type":"node","seamark_type":"light_minor","display_class":"OTHER","min_zoom":12,"importance":1,"name":null,"ref":null,"common":{"type":"light_minor"},"children":{"light":{"1:category":"rear","1:character":"F","1:colour":"red","1:sector_end":"61","1:sector_start":"51","reference":"D 7686.31"}},"osm_tags":{"seamark:light:1:category":"rear","seamark:light:1:character":"F","seamark:light:1:colour":"red","seamark:light:1:sector_end":"61","seamark:light:1:sector_start":"51","seamark:light:reference":"D 7686.31","seamark:type":"light_minor","source":"US NGA Pub. 112. 2009-11-12."}}},{"type":"Feature","geometry":{"type":"Point","coordinates":[53.3285978,26.794025]},"properties":{"osm_id":1293792140,"osm_type":"node","seamark_type":"light_minor","display_class":"OTHER","min_zoom":12,"importance":1,"name":null,"ref":null,"common":{"information":"F.R. (occas) marks head and elbow of dock.","type":"light_minor"},"children":{"light":{"category":"front","character":"Q","colour":"red","reference":"D 7686.5"}},"osm_tags":{"seamark:information":"F.R. (occas) marks head and elbow of dock.","seamark:light:category":"front","seamark:light:character":"Q","seamark:light:colour":"red","seamark:light:reference":"D 7686.5","seamark:type":"light_minor","source":"US NGA Pub. 112. 2009-11-12."}}},{"type":"Feature","geometry":{"type":"Point","coordinates":[53.3259691,26.7955961]},"properties":{"osm_id":1293792145,"osm_type":"node","seamark_type":"light_minor","display_class":"OTHER","min_zoom":12,"importance":1,"name":null,"ref":null,"common":{"type":"light_minor"},"children":{"light":{"category":"upper","character":"Q","colour":"white","reference":"D 7686.51"}},"osm_tags":{"seamark:light:category":"upper","seamark:light:character":"Q","seamark:light:colour":"white","seamark:light:reference":"D 7686.51","seamark:type":"light_minor","source":"US NGA Pub. 112. 2009-11-12."}}},{"type":"Feature","geometry":{"type":"Point","coordinates":[53.3774402,26.7944646]},"properties":{"osm_id":1293792149,"osm_type":"node","seamark_type":"light_minor","display_class":"OTHER","min_zoom":12,"importance":1,"name":null,"ref":null,"common":{"type":"light_minor"},"children":{"light":{"category":"front","character":"Q","colour":"red","reference":"D 7685.6"}},"osm_tags":{"seamark:light:category":"front","seamark:light:character":"Q","seamark:light:colour":"red","seamark:light:reference":"D 7685.6","seamark:type":"light_minor","source":"US NGA Pub. 112. 2009-11-12."}}},{"type":"Feature","geometry":{"type":"Point","coordinates":[53.3765979,26.7957204]},"properties":{"osm_id":1293792153,"osm_type":"node","seamark_type":"light_minor","display_class":"OTHER","min_zoom":12,"importance":1,"name":null,"ref":null,"common":{"type":"light_minor"},"children":{"light":{"category":"rear","character":"Q","colour":"white","reference":"D 7685.61"}},"osm_tags":{"seamark:light:category":"rear","seamark:light:character":"Q","seamark:light:colour":"white","seamark:light:reference":"D 7685.61","seamark:type":"light_minor","source":"US NGA Pub. 112. 2009-11-12."}}},{"type":"Feature","geometry":{"type":"LineString","coordinates":[[53.1570292,25.521494],[53.1516256,25.5396436],[53.151613,25.5432369],[53.1502045,25.5612093],[53.1491146,25.5765169],[53.1520322,25.6155638],[53.1569621,25.6957649],[53.1629652,25.7444095],[53.1815445,25.8678348],[53.1958982,25.9285341],[53.2221909,26.0689997],[53.3321911,26.7700489],[53.3331302,26.7798696],[53.3345607,26.7942052],[53.3352107,26.8013084]]},"properties":{"osm_id":220017998,"osm_type":"way","seamark_type":"pipeline_submarine","display_class":"OTHER","min_zoom":12,"importance":1,"name":null,"ref":null,"common":{"type":"pipeline_submarine"},"children":{"pipeline_submarine":{"category":"supply","product":"oil"}},"osm_tags":{"man_made":"pipeline","seamark:pipeline_submarine:category":"supply","seamark:pipeline_submarine:product":"oil","seamark:type":"pipeline_submarine","source":"Aramco","submarine":"yes","substance":"oil"}}},{"type":"Feature","geometry":{"type":"LineString","coordinates":[[53.3017273,26.757188],[53.3232494,26.788185],[53.3251946,26.7910365],[53.3270642,26.793394]]},"properties":{"osm_id":220018305,"osm_type":"way","seamark_type":"pipeline_submarine","display_class":"OTHER","min_zoom":12,"importance":1,"name":null,"ref":null,"common":{"type":"pipeline_submarine"},"children":{"pipeline_submarine":{"category":"supply","product":"oil"}},"osm_tags":{"man_made":"pipeline","seamark:pipeline_submarine:category":"supply","seamark:pipeline_submarine:product":"oil","seamark:type":"pipeline_submarine","source":"Aramco","submarine":"yes","substance":"oil"}}},{"type":"Feature","geometry":{"type":"LineString","coordinates":[[53.3280032,26.7957963],[53.3267917,26.7893376],[53.3267037,26.789143],[53.3187849,26.7802101],[53.3185124,26.7799594],[53.3017189,26.7703034]]},"properties":{"osm_id":220018403,"osm_type":"way","seamark_type":"pipeline_submarine","display_class":"OTHER","min_zoom":12,"importance":1,"name":null,"ref":null,"common":{"type":"pipeline_submarine"},"children":{"pipeline_submarine":{"category":"supply","product":"oil"}},"osm_tags":{"man_made":"pipeline","seamark:pipeline_submarine:category":"supply","seamark:pipeline_submarine:product":"oil","seamark:type":"pipeline_submarine","source":"Aramco","submarine":"yes","substance":"oil"}}},{"type":"Feature","geometry":{"type":"LineString","coordinates":[[53.3345607,26.7942052],[53.3318442,26.7888465],[53.3258747,26.7775596],[53.3225545,26.7704336],[53.3205759,26.7653433],[53.3184295,26.7617201],[53.3139691,26.7508796],[53.3106155,26.7463276],[52.913977,25.9158903]]},"properties":{"osm_id":220018519,"osm_type":"way","seamark_type":"pipeline_submarine","display_class":"OTHER","min_zoom":12,"importance":1,"name":null,"ref":null,"common":{"type":"pipeline_submarine"},"children":{"pipeline_submarine":{"category":"supply","product":"oil"}},"osm_tags":{"man_made":"pipeline","seamark:pipeline_submarine:category":"supply","seamark:pipeline_submarine:product":"oil","seamark:type":"pipeline_submarine","source":"Aramco","submarine":"yes","substance":"oil"}}},{"type":"Feature","geometry":{"type":"Polygon","coordinates":[[[53.949009,26.6847743],[53.9488748,26.6183532],[54.0319116,26.6178735],[54.0328506,26.6845346],[53.949009,26.6847743]]]},"properties":{"osm_id":220138819,"osm_type":"way","seamark_type":"restricted_area","display_class":"OTHER","min_zoom":12,"importance":1,"name":null,"ref":null,"common":{"type":"restricted_area"},"children":{},"osm_tags":{"seamark:type":"restricted_area"}}},{"type":"Feature","geometry":{"type":"LineString","coordinates":[[53.3365917,26.8024249],[53.3357698,26.7724995]]},"properties":{"osm_id":220260711,"osm_type":"way","seamark_type":"navigation_line","display_class":"OTHER","min_zoom":12,"importance":1,"name":null,"ref":null,"common":{"type":"navigation_line"},"children":{},"osm_tags":{"seamark:type":"navigation_line"}}},{"type":"Feature","geometry":{"type":"LineString","coordinates":[[53.3765979,26.7957204],[53.3894197,26.7774736]]},"properties":{"osm_id":220260712,"osm_type":"way","seamark_type":"navigation_line","display_class":"OTHER","min_zoom":12,"importance":1,"name":null,"ref":null,"common":{"type":"navigation_line"},"children":{},"osm_tags":{"seamark:type":"navigation_line"}}},{"type":"Feature","geometry":{"type":"LineString","coordinates":[[53.3259691,26.7955961],[53.3619751,26.7744975]]},"properties":{"osm_id":220260713,"osm_type":"way","seamark_type":"navigation_line","display_class":"OTHER","min_zoom":12,"importance":1,"name":null,"ref":null,"common":{"type":"navigation_line"},"children":{},"osm_tags":{"seamark:type":"navigation_line"}}},{"type":"Feature","geometry":{"type":"Point","coordinates":[53.3206858,26.8073443]},"properties":{"osm_id":1293792104,"osm_type":"node","seamark_type":"landmark","display_class":"OTHER","min_zoom":12,"importance":1,"name":"Main.","ref":null,"common":{"name":"Main.","type":"landmark"},"children":{"landmark":{"height":"328"},"light":{"character":"Oc","colour":"red","height":"123","period":"3","range":"20","reference":"D 7685.4"}},"osm_tags":{"seamark:landmark:height":"328","seamark:light:character":"Oc","seamark:light:colour":"red","seamark:light:height":"123","seamark:light:period":"3","seamark:light:range":"20","seamark:light:reference":"D 7685.4","seamark:name":"Main.","seamark:type":"landmark","source":"US NGA Pub. 112. 2009-11-12."}}},{"type":"Feature","geometry":{"type":"Point","coordinates":[53.1430835,26.4167159]},"properties":{"osm_id":1293792167,"osm_type":"node","seamark_type":"light_float","display_class":"OTHER","min_zoom":12,"importance":1,"name":"Stiffe Bank Lightfloat.","ref":null,"common":{"name":"Stiffe Bank Lightfloat.","type":"light_float"},"children":{"light":{"character":"Fl","colour":"white","group":"2","height":"12","period":"10","range":"10","reference":"D 7684"},"light_float":{"colour":"black;red;black","colour_pattern":"horizontal"}},"osm_tags":{"seamark:light:character":"Fl","seamark:light:colour":"white","seamark:light:group":"2","seamark:light:height":"12","seamark:light:period":"10","seamark:light:range":"10","seamark:light:reference":"D 7684","seamark:light_float:colour":"black;red;black","seamark:light_float:colour_pattern":"horizontal","seamark:name":"Stiffe Bank Lightfloat.","seamark:type":"light_float","source":"US NGA Pub. 112. 2009-11-12."}}},{"type":"Feature","geometry":{"type":"Point","coordinates":[53.6057956,26.695112]},"properties":{"osm_id":5205737375,"osm_type":"node","seamark_type":"harbour","display_class":"OTHER","min_zoom":12,"importance":1,"name":"اسکله هندورابی","ref":null,"common":{"type":"harbour"},"children":{"harbour":{"category":"marina"}},"osm_tags":{"leisure":"marina","name":"اسکله هندورابی","name:en":"Hendourabi Port","seamark:harbour:category":"marina","seamark:type":"harbour"}}},{"type":"Feature","geometry":{"type":"Polygon","coordinates":[[[53.9086817,26.526262],[53.9086373,26.5262802],[53.9085864,26.5262944],[53.9084014,26.5262872],[53.9081985,26.5262401],[53.9079655,26.5261924],[53.9076584,26.5261132],[53.9075781,26.5260685],[53.9075759,26.5260209],[53.907615,26.5260064],[53.9077076,26.5259962],[53.9079073,26.5260183],[53.9084595,26.5261437],[53.9086131,26.5261841],[53.908668,26.5262226],[53.9086817,26.526262]]]},"properties":{"osm_id":468516919,"osm_type":"way","seamark_type":"wreck","display_class":"OTHER","min_zoom":12,"importance":1,"name":"کشتی یونانی","ref":null,"common":{"type":"wreck"},"children":{"wreck":{"category":"hull_showing"}},"osm_tags":{"access":"yes","alt_name":"Khoula F","historic":"wreck","name":"کشتی یونانی","name:en":"Greek Ship","seamark:type":"wreck","seamark:wreck:category":"hull_showing","tourism":"viewpoint","wikidata":"Q5601887","wikipedia":"fa:کشتی یونانی","wreck:date_sunk":"1966-07-25","wreck:visible_at_high_tide":"yes","wreck:visible_at_low_tide":"yes"}}}],"type":"FeatureCollection"}