{"type":"FeatureCollection","features":[{"type":"Feature","geometry":{"type":"Point","coordinates":[36.4434782,26.2511086]},"properties":{"osm_id":2471055682,"osm_type":"node","seamark_type":"small_craft_facility","display_class":"OTHER","min_zoom":12,"importance":1,"name":null,"ref":null,"common":{"type":"small_craft_facility"},"children":{"small_craft_facility":{"category":"boat_hoist"}},"osm_tags":{"seamark:small_craft_facility:category":"boat_hoist","seamark:type":"small_craft_facility"}}},{"type":"Feature","geometry":{"type":"Point","coordinates":[36.4423623,26.2505667]},"properties":{"osm_id":2471160211,"osm_type":"node","seamark_type":"rock","display_class":"OTHER","min_zoom":12,"importance":1,"name":null,"ref":null,"common":{"type":"rock"},"children":{"rock":{"water_level":"awash"}},"osm_tags":{"seamark:rock:water_level":"awash","seamark:type":"rock"}}},{"type":"Feature","geometry":{"type":"Point","coordinates":[36.4422583,26.2507083]},"properties":{"osm_id":2471160212,"osm_type":"node","seamark_type":"light_minor","display_class":"OTHER","min_zoom":12,"importance":1,"name":null,"ref":null,"common":{"type":"light_minor"},"children":{"light":{"colour":"red"}},"osm_tags":{"seamark:light:colour":"red","seamark:type":"light_minor"}}},{"type":"Feature","geometry":{"type":"Point","coordinates":[36.4763649,26.1828865]},"properties":{"osm_id":7924859925,"osm_type":"node","seamark_type":"harbour","display_class":"OTHER","min_zoom":12,"importance":1,"name":null,"ref":null,"common":{"type":"harbour"},"children":{"harbour":{"category":"marina"}},"osm_tags":{"leisure":"marina","seamark:harbour:category":"marina","seamark:type":"harbour"}}},{"type":"Feature","geometry":{"type":"Point","coordinates":[36.4724048,26.2032384]},"properties":{"osm_id":1295698516,"osm_type":"node","seamark_type":"light_minor","display_class":"OTHER","min_zoom":12,"importance":1,"name":"Al Wajh","ref":null,"common":{"name":"Al Wajh","type":"light_minor"},"children":{"light":{"category":"aero","character":"Al.Fl","colour":"white;green","period":"5","reference":"E 6050.1"}},"osm_tags":{"seamark:light:category":"aero","seamark:light:character":"Al.Fl","seamark:light:colour":"white;green","seamark:light:period":"5","seamark:light:reference":"E 6050.1","seamark:name":"Al Wajh","seamark:type":"light_minor","source":"US NGA Pub. 112. 2010-11-10."}}},{"type":"Feature","geometry":{"type":"Point","coordinates":[36.0185115,26.8822439]},"properties":{"osm_id":11871539522,"osm_type":"node","seamark_type":"anchorage","display_class":"OTHER","min_zoom":12,"importance":1,"name":"مرسى زبيدة","ref":null,"common":{"type":"anchorage"},"children":{},"osm_tags":{"alt_name":"Marsá Zubaydah;Marsa Zubaida","name":"مرسى زبيدة","name:ar":"مرسى زبيدة","name:en":"Marsa Zubaydah","seamark:type":"anchorage","source":"GNS"}}}],"type":"FeatureCollection"}