{"type":"FeatureCollection","features":[{"type":"Feature","geometry":{"type":"Polygon","coordinates":[[[50.1762014,26.8310296],[50.1768973,26.8307752],[50.1776603,26.8305059],[50.1886938,26.8546987],[50.2025948,26.9105453],[50.2081619,26.9285916],[50.2152046,26.9339586],[50.2103082,26.9384882],[50.2057808,26.9427784],[50.1983692,26.935319],[50.1762014,26.8310296]]]},"properties":{"osm_id":220138725,"osm_type":"way","seamark_type":"separation_zone","display_class":"TSS","min_zoom":6,"importance":5,"name":null,"ref":null,"common":{"type":"separation_zone"},"children":{},"osm_tags":{"seamark:type":"separation_zone"}}},{"type":"Feature","geometry":{"type":"Point","coordinates":[50.6502667,26.0543333]},"properties":{"osm_id":1293793544,"osm_type":"node","seamark_type":"beacon_lateral","display_class":"BEACON","min_zoom":9,"importance":4,"name":"Hayyan","ref":null,"common":{"name":"Hayyan","type":"beacon_lateral"},"children":{"beacon_lateral":{"category":"port","colour":"red","system":"iala-a"},"light":{"character":"Fl","colour":"white","height":"3","period":"3","range":"7","reference":"D 7400"}},"osm_tags":{"seamark:beacon_lateral:category":"port","seamark:beacon_lateral:colour":"red","seamark:beacon_lateral:system":"iala-a","seamark:light:character":"Fl","seamark:light:colour":"white","seamark:light:height":"3","seamark:light:period":"3","seamark:light:range":"7","seamark:light:reference":"D 7400","seamark:name":"Hayyan","seamark:type":"beacon_lateral","source":"US NGA Pub. 112. 2009-11-12."}}},{"type":"Feature","geometry":{"type":"Point","coordinates":[50.775,26.0221333]},"properties":{"osm_id":1293793545,"osm_type":"node","seamark_type":"beacon_lateral","display_class":"BEACON","min_zoom":9,"importance":4,"name":"Umm Jalid","ref":null,"common":{"name":"Umm Jalid","type":"beacon_lateral"},"children":{"beacon_lateral":{"category":"port","colour":"red","system":"iala-a"},"light":{"character":"Fl","colour":"white","height":"3","period":"5","reference":"D 7399.3"}},"osm_tags":{"seamark:beacon_lateral:category":"port","seamark:beacon_lateral:colour":"red","seamark:beacon_lateral:system":"iala-a","seamark:light:character":"Fl","seamark:light:colour":"white","seamark:light:height":"3","seamark:light:period":"5","seamark:light:reference":"D 7399.3","seamark:name":"Umm Jalid","seamark:type":"beacon_lateral","source":"US NGA Pub. 112. 2009-11-12."}}},{"type":"Feature","geometry":{"type":"Point","coordinates":[50.9788,26.2789667]},"properties":{"osm_id":1293793356,"osm_type":"node","seamark_type":"light_minor","display_class":"OTHER","min_zoom":12,"importance":1,"name":null,"ref":null,"common":{"type":"light_minor"},"children":{"light":{"character":"Fl","colour":"white","group":"2","height":"4","period":"10","range":"7","reference":"D 7398.4"}},"osm_tags":{"seamark:light:character":"Fl","seamark:light:colour":"white","seamark:light:group":"2","seamark:light:height":"4","seamark:light:period":"10","seamark:light:range":"7","seamark:light:reference":"D 7398.4","seamark:type":"light_minor","source":"US NGA Pub. 112. 2009-11-12."}}},{"type":"Feature","geometry":{"type":"Point","coordinates":[50.0214942,26.9155787]},"properties":{"osm_id":2291408212,"osm_type":"node","seamark_type":"platform","display_class":"OTHER","min_zoom":12,"importance":1,"name":null,"ref":null,"common":{"type":"platform"},"children":{"platform":{"category":"production"}},"osm_tags":{"man_made":"pumping_rig","seamark:platform:category":"production","seamark:type":"platform","source":"Aramco"}}},{"type":"Feature","geometry":{"type":"Point","coordinates":[50.5223641,26.922875]},"properties":{"osm_id":2291408239,"osm_type":"node","seamark_type":"platform","display_class":"OTHER","min_zoom":12,"importance":1,"name":null,"ref":null,"common":{"type":"platform"},"children":{"platform":{"category":"production"}},"osm_tags":{"man_made":"pumping_rig","seamark:platform:category":"production","seamark:type":"platform","source":"Aramco"}}},{"type":"Feature","geometry":{"type":"Point","coordinates":[50.5177025,26.9258951]},"properties":{"osm_id":2291408248,"osm_type":"node","seamark_type":"platform","display_class":"OTHER","min_zoom":12,"importance":1,"name":null,"ref":null,"common":{"type":"platform"},"children":{"platform":{"category":"production"}},"osm_tags":{"man_made":"pumping_rig","seamark:platform:category":"production","seamark:type":"platform","source":"Aramco"}}},{"type":"Feature","geometry":{"type":"Point","coordinates":[50.486178,26.9260446]},"properties":{"osm_id":2291408251,"osm_type":"node","seamark_type":"platform","display_class":"OTHER","min_zoom":12,"importance":1,"name":null,"ref":null,"common":{"type":"platform"},"children":{"platform":{"category":"production"}},"osm_tags":{"man_made":"pumping_rig","seamark:platform:category":"production","seamark:type":"platform","source":"Aramco"}}},{"type":"Feature","geometry":{"type":"Point","coordinates":[50.4830256,26.9281974]},"properties":{"osm_id":2291408253,"osm_type":"node","seamark_type":"platform","display_class":"OTHER","min_zoom":12,"importance":1,"name":null,"ref":null,"common":{"type":"platform"},"children":{"platform":{"category":"production"}},"osm_tags":{"man_made":"pumping_rig","seamark:platform:category":"production","seamark:type":"platform","source":"Aramco"}}},{"type":"Feature","geometry":{"type":"Point","coordinates":[50.0605308,26.9295728]},"properties":{"osm_id":2291408259,"osm_type":"node","seamark_type":"platform","display_class":"OTHER","min_zoom":12,"importance":1,"name":null,"ref":null,"common":{"type":"platform"},"children":{"platform":{"category":"production"}},"osm_tags":{"man_made":"pumping_rig","seamark:platform:category":"production","seamark:type":"platform","source":"Aramco"}}},{"type":"Feature","geometry":{"type":"Point","coordinates":[50.5111293,26.9358517]},"properties":{"osm_id":2291408263,"osm_type":"node","seamark_type":"platform","display_class":"OTHER","min_zoom":12,"importance":1,"name":null,"ref":null,"common":{"type":"platform"},"children":{"platform":{"category":"production"}},"osm_tags":{"man_made":"pumping_rig","seamark:platform:category":"production","seamark:type":"platform","source":"Aramco"}}},{"type":"Feature","geometry":{"type":"Point","coordinates":[50.523236,26.9371672]},"properties":{"osm_id":2291408264,"osm_type":"node","seamark_type":"platform","display_class":"OTHER","min_zoom":12,"importance":1,"name":null,"ref":null,"common":{"type":"platform"},"children":{"platform":{"category":"production"}},"osm_tags":{"man_made":"pumping_rig","seamark:platform:category":"production","seamark:type":"platform","source":"Aramco"}}},{"type":"Feature","geometry":{"type":"Point","coordinates":[50.533297,26.937795]},"properties":{"osm_id":2291408266,"osm_type":"node","seamark_type":"platform","display_class":"OTHER","min_zoom":12,"importance":1,"name":null,"ref":null,"common":{"type":"platform"},"children":{"platform":{"category":"production"}},"osm_tags":{"man_made":"pumping_rig","seamark:platform:category":"production","seamark:type":"platform","source":"Aramco"}}},{"type":"Feature","geometry":{"type":"Point","coordinates":[50.4956354,26.9408745]},"properties":{"osm_id":2291408268,"osm_type":"node","seamark_type":"platform","display_class":"OTHER","min_zoom":12,"importance":1,"name":null,"ref":null,"common":{"type":"platform"},"children":{"platform":{"category":"production"}},"osm_tags":{"man_made":"pumping_rig","seamark:platform:category":"production","seamark:type":"platform","source":"Aramco"}}},{"type":"Feature","geometry":{"type":"Point","coordinates":[50.0733418,26.9469733]},"properties":{"osm_id":2291408276,"osm_type":"node","seamark_type":"platform","display_class":"OTHER","min_zoom":12,"importance":1,"name":null,"ref":null,"common":{"type":"platform"},"children":{"platform":{"category":"production"}},"osm_tags":{"man_made":"pumping_rig","seamark:platform:category":"production","seamark:type":"platform","source":"Aramco"}}},{"type":"Feature","geometry":{"type":"Point","coordinates":[50.5380592,26.964954]},"properties":{"osm_id":2291408279,"osm_type":"node","seamark_type":"platform","display_class":"OTHER","min_zoom":12,"importance":1,"name":null,"ref":null,"common":{"type":"platform"},"children":{"platform":{"category":"production"}},"osm_tags":{"man_made":"pumping_rig","seamark:platform:category":"production","seamark:type":"platform","source":"Aramco"}}},{"type":"Feature","geometry":{"type":"Point","coordinates":[50.5410943,26.9659553]},"properties":{"osm_id":2291408281,"osm_type":"node","seamark_type":"platform","display_class":"OTHER","min_zoom":12,"importance":1,"name":null,"ref":null,"common":{"type":"platform"},"children":{"platform":{"category":"production"}},"osm_tags":{"man_made":"pumping_rig","seamark:platform:category":"production","seamark:type":"platform","source":"Aramco"}}},{"type":"Feature","geometry":{"type":"Point","coordinates":[50.3857022,26.9693329]},"properties":{"osm_id":2291408284,"osm_type":"node","seamark_type":"platform","display_class":"OTHER","min_zoom":12,"importance":1,"name":null,"ref":null,"common":{"type":"platform"},"children":{"platform":{"category":"production"}},"osm_tags":{"man_made":"pumping_rig","seamark:platform:category":"production","seamark:type":"platform","source":"Aramco"}}},{"type":"Feature","geometry":{"type":"Point","coordinates":[50.0856249,26.4776507]},"properties":{"osm_id":7903710136,"osm_type":"node","seamark_type":"wreck","display_class":"OTHER","min_zoom":12,"importance":1,"name":null,"ref":null,"common":{"type":"wreck"},"children":{},"osm_tags":{"historic":"wreck","seamark:type":"wreck"}}},{"type":"Feature","geometry":{"type":"Point","coordinates":[50.600928,26.23336]},"properties":{"osm_id":12595334124,"osm_type":"node","seamark_type":"harbour","display_class":"OTHER","min_zoom":12,"importance":1,"name":null,"ref":null,"common":{"type":"harbour"},"children":{"harbour":{"category":"marina"}},"osm_tags":{"image":"https://photos.app.goo.gl/Jtw8moxNiV9XsqUU9","leisure":"marina","seamark:harbour:category":"marina","seamark:type":"harbour","url":"https://youtu.be/lw-YVNaSVIw"}}},{"type":"Feature","geometry":{"type":"Point","coordinates":[50.4781122,26.0952752]},"properties":{"osm_id":12599442988,"osm_type":"node","seamark_type":"harbour","display_class":"OTHER","min_zoom":12,"importance":1,"name":null,"ref":null,"common":{"type":"harbour"},"children":{"harbour":{"category":"marina"}},"osm_tags":{"image":"https://photos.app.goo.gl/vyjwRY3x72Xm9h8D8","leisure":"marina","seamark:harbour:category":"marina","seamark:type":"harbour"}}},{"type":"Feature","geometry":{"type":"LineString","coordinates":[[50.0238446,26.7839251],[50.0490933,26.8079588],[50.0498814,26.8085126],[50.0507534,26.8087969],[50.0516254,26.8089167],[50.097973,26.8136159],[50.1164685,26.8155015],[50.1491769,26.8187801],[50.1996479,26.84201],[50.3521235,26.8704483],[50.4477528,26.9069337],[50.4828168,26.9069337]]},"properties":{"osm_id":220017945,"osm_type":"way","seamark_type":"pipeline_submarine","display_class":"OTHER","min_zoom":12,"importance":1,"name":null,"ref":null,"common":{"type":"pipeline_submarine"},"children":{"pipeline_submarine":{"category":"supply","product":"oil"}},"osm_tags":{"man_made":"pipeline","seamark:pipeline_submarine:category":"supply","seamark:pipeline_submarine:product":"oil","seamark:type":"pipeline_submarine","source":"Aramco","submarine":"yes","substance":"oil"}}},{"type":"Feature","geometry":{"type":"Polygon","coordinates":[[[50.1482223,26.653641],[50.1500652,26.6549468],[50.15483,26.6583001],[50.1595866,26.6614901],[50.163181,26.6637305],[50.1700211,26.6669129],[50.1736072,26.6675434],[50.1805719,26.6688119],[50.1804889,26.6715195],[50.1724783,26.6703623],[50.1657543,26.6673951],[50.1651235,26.6668313],[50.1619026,26.6645836],[50.1475001,26.6543978],[50.1482223,26.653641]]]},"properties":{"osm_id":220018004,"osm_type":"way","seamark_type":"pipeline_submarine","display_class":"OTHER","min_zoom":12,"importance":1,"name":null,"ref":null,"common":{"type":"pipeline_submarine"},"children":{"pipeline_submarine":{"category":"supply","product":"oil"}},"osm_tags":{"man_made":"pipeline","seamark:pipeline_submarine:category":"supply","seamark:pipeline_submarine:product":"oil","seamark:type":"pipeline_submarine","source":"Aramco","submarine":"yes","substance":"oil"}}},{"type":"Feature","geometry":{"type":"LineString","coordinates":[[50.0400037,26.9292179],[50.0215125,26.9156274]]},"properties":{"osm_id":220018050,"osm_type":"way","seamark_type":"pipeline_submarine","display_class":"OTHER","min_zoom":12,"importance":1,"name":null,"ref":null,"common":{"type":"pipeline_submarine"},"children":{"pipeline_submarine":{"category":"supply","product":"oil"}},"osm_tags":{"man_made":"pipeline","seamark:pipeline_submarine:category":"supply","seamark:pipeline_submarine:product":"oil","seamark:type":"pipeline_submarine","source":"Aramco","submarine":"yes","substance":"oil"}}},{"type":"Feature","geometry":{"type":"LineString","coordinates":[[50.4947451,26.9239018],[50.1353999,26.715116]]},"properties":{"osm_id":220018066,"osm_type":"way","seamark_type":"pipeline_submarine","display_class":"OTHER","min_zoom":12,"importance":1,"name":null,"ref":null,"common":{"type":"pipeline_submarine"},"children":{"pipeline_submarine":{"category":"supply","product":"oil"}},"osm_tags":{"man_made":"pipeline","seamark:pipeline_submarine:category":"supply","seamark:pipeline_submarine:product":"oil","seamark:type":"pipeline_submarine","source":"Aramco","submarine":"yes","substance":"oil"}}},{"type":"Feature","geometry":{"type":"LineString","coordinates":[[50.4536063,26.1805163],[50.448392,26.1827417],[50.4451213,26.1841347],[50.4395346,26.1862428],[50.4281786,26.190526],[50.4208736,26.1932672],[50.4188316,26.1941983],[50.4148553,26.196984],[50.4119665,26.198861],[50.4089446,26.1995971],[50.4040472,26.2014754],[50.3939194,26.2059209],[50.3883528,26.2082131],[50.3447936,26.2260369],[50.334866,26.2300481],[50.32077,26.237385],[50.3144944,26.2396336],[50.2508418,26.2639082],[50.2306693,26.2705442],[50.220877,26.2749572]]},"properties":{"osm_id":220018165,"osm_type":"way","seamark_type":"pipeline_submarine","display_class":"OTHER","min_zoom":12,"importance":1,"name":null,"ref":null,"common":{"type":"pipeline_submarine"},"children":{"pipeline_submarine":{"category":"supply","product":"oil"}},"osm_tags":{"man_made":"pipeline","seamark:pipeline_submarine:category":"supply","seamark:pipeline_submarine:product":"oil","seamark:type":"pipeline_submarine","source":"Aramco","submarine":"yes","substance":"oil"}}},{"type":"Feature","geometry":{"type":"LineString","coordinates":[[50.4534219,26.180291],[50.45238,26.1807188],[50.4504348,26.1815841],[50.4486406,26.182438],[50.4474794,26.1829647],[50.4464272,26.1834161],[50.4447881,26.1839992],[50.4444402,26.1841196],[50.4431113,26.1844921],[50.4415015,26.1851541],[50.4399903,26.1855492],[50.4386635,26.1858501],[50.4365087,26.1865874],[50.4347984,26.1872344],[50.4319184,26.1883554],[50.4264058,26.1902965],[50.4229515,26.1915529],[50.4202141,26.1924369],[50.4164748,26.1936368],[50.413075,26.1946901],[50.4091815,26.1960435],[50.4005826,26.1991136],[50.3960894,26.2011049],[50.3839455,26.205893],[50.368815,26.2115481],[50.3403089,26.2234323],[50.3273637,26.2286068],[50.3005679,26.2394364],[50.2639459,26.2543255],[50.2401737,26.2636426],[50.2207559,26.2743603]]},"properties":{"osm_id":220018215,"osm_type":"way","seamark_type":"pipeline_submarine","display_class":"OTHER","min_zoom":12,"importance":1,"name":null,"ref":null,"common":{"type":"pipeline_submarine"},"children":{"pipeline_submarine":{"category":"supply","product":"oil"}},"osm_tags":{"man_made":"pipeline","seamark:pipeline_submarine:category":"supply","seamark:pipeline_submarine:product":"oil","seamark:type":"pipeline_submarine","source":"Aramco","submarine":"yes","substance":"oil"}}},{"type":"Feature","geometry":{"type":"LineString","coordinates":[[51.5555483,26.9213793],[51.3299321,26.7881093],[51.2764075,26.7565508],[51.2117488,26.7181537],[51.1990719,26.7097658],[51.1532608,26.6822609],[51.1182485,26.6608036],[51.0381629,26.6134396],[50.9926871,26.5859714],[50.8615586,26.507489],[50.6642958,26.3880426],[50.5828016,26.3667106],[50.5697223,26.3617826],[50.5486613,26.3516856],[50.5399417,26.3129124],[50.5324295,26.282125],[50.549986,26.2550138],[50.552082,26.2519986],[50.5520569,26.2514497],[50.5521575,26.2512918],[50.5527863,26.2510737],[50.5529875,26.2509459],[50.5539433,26.2494119],[50.5542913,26.2490209],[50.5565298,26.2464905],[50.5568694,26.2461371],[50.5583911,26.2435916],[50.5589696,26.2425313],[50.5591363,26.2422248],[50.559196,26.2419823]]},"properties":{"osm_id":220018256,"osm_type":"way","seamark_type":"cable_submarine","display_class":"OTHER","min_zoom":12,"importance":1,"name":null,"ref":null,"common":{"type":"cable_submarine"},"children":{"cable_submarine":{"category":"fibre_optic"}},"osm_tags":{"communication":"line","seamark:cable_submarine:category":"fibre_optic","seamark:type":"cable_submarine","submarine":"yes"}}},{"type":"Feature","geometry":{"type":"LineString","coordinates":[[50.073205,26.9468875],[50.0455037,26.9258391],[50.0426867,26.9244636],[50.0215125,26.9156274]]},"properties":{"osm_id":220018290,"osm_type":"way","seamark_type":"pipeline_submarine","display_class":"OTHER","min_zoom":12,"importance":1,"name":null,"ref":null,"common":{"type":"pipeline_submarine"},"children":{"pipeline_submarine":{"category":"supply","product":"oil"}},"osm_tags":{"man_made":"pipeline","seamark:pipeline_submarine:category":"supply","seamark:pipeline_submarine:product":"oil","seamark:type":"pipeline_submarine","source":"Aramco","submarine":"yes","substance":"oil"}}},{"type":"Feature","geometry":{"type":"LineString","coordinates":[[50.1835719,26.6593098],[50.1826185,26.6751749],[50.1825449,26.6760925],[50.1232773,26.685887],[50.114581,26.6893273],[50.1140767,26.6895382],[50.1133686,26.6881674],[50.1131463,26.6865106]]},"properties":{"osm_id":220018293,"osm_type":"way","seamark_type":"pipeline_submarine","display_class":"OTHER","min_zoom":12,"importance":1,"name":null,"ref":null,"common":{"type":"pipeline_submarine"},"children":{"pipeline_submarine":{"category":"supply","product":"oil"}},"osm_tags":{"man_made":"pipeline","seamark:pipeline_submarine:category":"supply","seamark:pipeline_submarine:product":"oil","seamark:type":"pipeline_submarine","source":"Aramco","submarine":"yes","substance":"oil"}}},{"type":"Feature","geometry":{"type":"LineString","coordinates":[[50.021525,26.9156872],[50.0252141,26.9160162],[50.0321897,26.9173618],[50.0391653,26.9199634],[50.060612,26.9296215]]},"properties":{"osm_id":220018340,"osm_type":"way","seamark_type":"pipeline_submarine","display_class":"OTHER","min_zoom":12,"importance":1,"name":null,"ref":null,"common":{"type":"pipeline_submarine"},"children":{"pipeline_submarine":{"category":"supply","product":"oil"}},"osm_tags":{"man_made":"pipeline","seamark:pipeline_submarine:category":"supply","seamark:pipeline_submarine:product":"oil","seamark:type":"pipeline_submarine","source":"Aramco","submarine":"yes","substance":"oil"}}},{"type":"Feature","geometry":{"type":"LineString","coordinates":[[50.0819916,26.9286946],[50.0519092,26.9199634],[50.0390647,26.9161657],[50.0356775,26.9157171],[50.0334641,26.9153284],[50.0215125,26.9156274]]},"properties":{"osm_id":220018399,"osm_type":"way","seamark_type":"pipeline_submarine","display_class":"OTHER","min_zoom":12,"importance":1,"name":null,"ref":null,"common":{"type":"pipeline_submarine"},"children":{"pipeline_submarine":{"category":"supply","product":"oil"}},"osm_tags":{"man_made":"pipeline","seamark:pipeline_submarine:category":"supply","seamark:pipeline_submarine:product":"oil","seamark:type":"pipeline_submarine","source":"Aramco","submarine":"yes","substance":"oil"}}},{"type":"Feature","geometry":{"type":"LineString","coordinates":[[49.9961526,26.8222201],[50.0215125,26.9156274],[50.0218604,26.9170871],[50.0238055,26.9226191],[50.0272263,26.9286946],[50.0354763,26.9421732]]},"properties":{"osm_id":220018401,"osm_type":"way","seamark_type":"pipeline_submarine","display_class":"OTHER","min_zoom":12,"importance":1,"name":null,"ref":null,"common":{"type":"pipeline_submarine"},"children":{"pipeline_submarine":{"category":"supply","product":"oil"}},"osm_tags":{"man_made":"pipeline","seamark:pipeline_submarine:category":"supply","seamark:pipeline_submarine:product":"oil","seamark:type":"pipeline_submarine","source":"Aramco","submarine":"yes","substance":"oil"}}},{"type":"Feature","geometry":{"type":"LineString","coordinates":[[50.0215586,26.9157022],[50.0289366,26.9247926],[50.0399031,26.9380979],[50.0423177,26.9414165],[50.0432903,26.9431505],[50.0463421,26.952149]]},"properties":{"osm_id":220018402,"osm_type":"way","seamark_type":"pipeline_submarine","display_class":"OTHER","min_zoom":12,"importance":1,"name":null,"ref":null,"common":{"type":"pipeline_submarine"},"children":{"pipeline_submarine":{"category":"supply","product":"oil"}},"osm_tags":{"man_made":"pipeline","seamark:pipeline_submarine:category":"supply","seamark:pipeline_submarine:product":"oil","seamark:type":"pipeline_submarine","source":"Aramco","submarine":"yes","substance":"oil"}}},{"type":"Feature","geometry":{"type":"LineString","coordinates":[[50.1318171,26.4329587],[50.1432726,26.5895957],[50.1462574,26.6325029],[50.1464251,26.6330725],[50.1468611,26.6335222],[50.1556812,26.6374342]]},"properties":{"osm_id":220018408,"osm_type":"way","seamark_type":"pipeline_submarine","display_class":"OTHER","min_zoom":12,"importance":1,"name":null,"ref":null,"common":{"type":"pipeline_submarine"},"children":{"pipeline_submarine":{"category":"supply","product":"oil"}},"osm_tags":{"man_made":"pipeline","seamark:pipeline_submarine:category":"supply","seamark:pipeline_submarine:product":"oil","seamark:type":"pipeline_submarine","source":"Aramco","submarine":"yes","substance":"oil"}}},{"type":"Feature","geometry":{"type":"LineString","coordinates":[[50.2037434,26.6841469],[50.2056885,26.7011357],[50.2048501,26.7086255],[50.194655,26.739179],[50.1803181,26.7914304],[50.1768973,26.8235179],[50.1911839,26.8520358],[50.2075833,26.9085417],[50.2143913,26.9284571],[50.2569158,26.9649296],[50.3950867,27.0868772],[50.7009409,27.0990587]]},"properties":{"osm_id":220138726,"osm_type":"way","seamark_type":"separation_lane","display_class":"OTHER","min_zoom":12,"importance":1,"name":null,"ref":null,"common":{"type":"separation_lane"},"children":{},"osm_tags":{"seamark:type":"separation_lane"}}},{"type":"Feature","geometry":{"type":"LineString","coordinates":[[50.2103082,26.9384882],[50.2377328,26.9648997]]},"properties":{"osm_id":220138743,"osm_type":"way","seamark_type":"separation_line","display_class":"OTHER","min_zoom":12,"importance":1,"name":null,"ref":null,"common":{"type":"separation_line"},"children":{},"osm_tags":{"seamark:type":"separation_line"}}},{"type":"Feature","geometry":{"type":"Polygon","coordinates":[[[50.5443248,26.3133357],[50.5360748,26.3133282],[50.5285165,26.2811578],[50.537739,26.2671969],[50.5441194,26.2575128],[50.5510531,26.2489708],[50.5511118,26.250971],[50.5566202,26.2446846],[50.5590097,26.242],[50.5597558,26.2420075],[50.5598229,26.2419173],[50.5598648,26.2417744],[50.5604685,26.2414811],[50.5612985,26.2413908],[50.5607158,26.2447523],[50.5605062,26.2458502],[50.5604266,26.2464104],[50.5600199,26.2470947],[50.5598523,26.2474782],[50.5595546,26.2487716],[50.5594959,26.248922],[50.5562429,26.2540765],[50.5382379,26.2827552],[50.5383259,26.2835934],[50.5393698,26.2923358],[50.5443248,26.3133357]]]},"properties":{"osm_id":220138748,"osm_type":"way","seamark_type":"restricted_area","display_class":"OTHER","min_zoom":12,"importance":1,"name":null,"ref":null,"common":{"type":"restricted_area"},"children":{},"osm_tags":{"seamark:type":"restricted_area"}}},{"type":"Feature","geometry":{"type":"Polygon","coordinates":[[[50.2135927,26.6666704],[50.213425,26.631983],[50.2547422,26.632043],[50.2411263,26.666633],[50.2135927,26.6666704]]]},"properties":{"osm_id":220138774,"osm_type":"way","seamark_type":"anchorage","display_class":"OTHER","min_zoom":12,"importance":1,"name":null,"ref":null,"common":{"type":"anchorage"},"children":{},"osm_tags":{"seamark:type":"anchorage"}}},{"type":"Feature","geometry":{"type":"Polygon","coordinates":[[[50.1999684,26.6030276],[50.2092245,26.6030725],[50.2092245,26.6109286],[50.2000355,26.6141519],[50.1999684,26.6030276]]]},"properties":{"osm_id":220138778,"osm_type":"way","seamark_type":"anchorage","display_class":"OTHER","min_zoom":12,"importance":1,"name":null,"ref":null,"common":{"type":"anchorage"},"children":{},"osm_tags":{"seamark:type":"anchorage"}}},{"type":"Feature","geometry":{"type":"Polygon","coordinates":[[[50.467943,26.835842],[50.4680771,26.802381],[50.5176443,26.802381],[50.5177784,26.8359617],[50.467943,26.835842]]]},"properties":{"osm_id":220138787,"osm_type":"way","seamark_type":"restricted_area","display_class":"OTHER","min_zoom":12,"importance":1,"name":null,"ref":null,"common":{"type":"restricted_area"},"children":{},"osm_tags":{"seamark:type":"restricted_area"}}},{"type":"Feature","geometry":{"type":"Polygon","coordinates":[[[50.2144982,26.5144217],[50.2262528,26.5019522],[50.2338321,26.5019822],[50.2338153,26.5144518],[50.2144982,26.5144217]]]},"properties":{"osm_id":220138789,"osm_type":"way","seamark_type":"anchorage","display_class":"OTHER","min_zoom":12,"importance":1,"name":null,"ref":null,"common":{"type":"anchorage"},"children":{},"osm_tags":{"seamark:type":"anchorage"}}},{"type":"Feature","geometry":{"type":"Polygon","coordinates":[[[50.2135592,26.6855721],[50.2135927,26.6666704],[50.2411263,26.666633],[50.2337147,26.6855121],[50.2135592,26.6855721]]]},"properties":{"osm_id":220138800,"osm_type":"way","seamark_type":"anchorage","display_class":"OTHER","min_zoom":12,"importance":1,"name":null,"ref":null,"common":{"type":"anchorage"},"children":{},"osm_tags":{"seamark:type":"anchorage"}}},{"type":"Feature","geometry":{"type":"Polygon","coordinates":[[[50.193303,26.5380817],[50.2123183,26.518698],[50.2165775,26.5259898],[50.2010835,26.5430021],[50.193303,26.5380817]]]},"properties":{"osm_id":220138802,"osm_type":"way","seamark_type":"anchorage","display_class":"OTHER","min_zoom":12,"importance":1,"name":null,"ref":null,"common":{"type":"anchorage"},"children":{},"osm_tags":{"seamark:type":"anchorage"}}},{"type":"Feature","geometry":{"type":"Polygon","coordinates":[[[50.2182878,26.5246395],[50.2158732,26.5164774],[50.2263366,26.5164474],[50.2263031,26.5232892],[50.2182878,26.5246395]]]},"properties":{"osm_id":220138811,"osm_type":"way","seamark_type":"anchorage","display_class":"OTHER","min_zoom":12,"importance":1,"name":null,"ref":null,"common":{"type":"anchorage"},"children":{},"osm_tags":{"seamark:type":"anchorage"}}},{"type":"Feature","geometry":{"type":"Polygon","coordinates":[[[50.2237426,26.2827138],[50.2234107,26.2807556],[50.2223552,26.2758676],[50.2210396,26.2527623],[50.2214151,26.2469738],[50.4211195,26.1806729],[50.4225449,26.1738409],[50.4212705,26.1727574],[50.418118,26.1723962],[50.4192583,26.1684834],[50.4216058,26.1633062],[50.4245906,26.1635169],[50.4262674,26.1546971],[50.4368985,26.1562324],[50.4352552,26.1650821],[50.4483345,26.1668279],[50.4501791,26.168664],[50.4508162,26.1699281],[50.4512187,26.1708311],[50.4500114,26.1745331],[50.4500114,26.1757671],[50.4506486,26.1764594],[50.451487,26.1764895],[50.4544382,26.180703],[50.4539016,26.1819369],[50.4542034,26.1825087],[50.4558132,26.1830806],[50.4559474,26.1870531],[50.4547065,26.1878054],[50.2553647,26.2684299],[50.2281665,26.2796918],[50.2237426,26.2827138]]]},"properties":{"osm_id":220138828,"osm_type":"way","seamark_type":"restricted_area","display_class":"OTHER","min_zoom":12,"importance":1,"name":null,"ref":null,"common":{"type":"restricted_area"},"children":{},"osm_tags":{"fixme":"Polygon Loop is not closed","seamark:type":"restricted_area"}}},{"type":"Feature","geometry":{"type":"Polygon","coordinates":[[[50.1875012,26.624698],[50.1872664,26.6185219],[50.2000355,26.6141519],[50.2092245,26.6109286],[50.2094342,26.6228692],[50.1875012,26.624698]]]},"properties":{"osm_id":220138841,"osm_type":"way","seamark_type":"anchorage","display_class":"OTHER","min_zoom":12,"importance":1,"name":null,"ref":null,"common":{"type":"anchorage"},"children":{},"osm_tags":{"seamark:type":"anchorage"}}},{"type":"Feature","geometry":{"type":"LineString","coordinates":[[50.1631892,26.6309918],[50.1717768,26.6276488],[50.1756648,26.6261352],[50.193171,26.6557517],[50.1933051,26.6793674],[50.1275062,26.6791876]]},"properties":{"osm_id":220138842,"osm_type":"way","seamark_type":"restricted_area","display_class":"OTHER","min_zoom":12,"importance":1,"name":null,"ref":null,"common":{"type":"restricted_area"},"children":{},"osm_tags":{"seamark:type":"restricted_area"}}},{"type":"Feature","geometry":{"type":"LineString","coordinates":[[50.1768973,26.8307752],[50.1747342,26.8241389],[50.1715231,26.8079841],[50.204498,26.7011656],[50.2022175,26.6846413]]},"properties":{"osm_id":220138844,"osm_type":"way","seamark_type":"separation_line","display_class":"OTHER","min_zoom":12,"importance":1,"name":null,"ref":null,"common":{"type":"separation_line"},"children":{},"osm_tags":{"seamark:type":"separation_line"}}},{"type":"Feature","geometry":{"type":"Polygon","coordinates":[[[50.0676328,26.8973657],[50.0840993,26.8674233],[50.1140476,26.8787611],[50.0976817,26.9084613],[50.0676328,26.8973657]]]},"properties":{"osm_id":220138846,"osm_type":"way","seamark_type":"anchorage","display_class":"OTHER","min_zoom":12,"importance":1,"name":null,"ref":null,"common":{"type":"anchorage"},"children":{},"osm_tags":{"seamark:type":"anchorage"}}},{"type":"Feature","geometry":{"type":"Polygon","coordinates":[[[50.53322,27.0432271],[50.4283718,26.9218227],[50.4864909,26.8783068],[50.5515519,26.8869216],[50.618139,27.0299716],[50.53322,27.0432271]]]},"properties":{"osm_id":220138847,"osm_type":"way","seamark_type":"restricted_area","display_class":"OTHER","min_zoom":12,"importance":1,"name":null,"ref":null,"common":{"type":"restricted_area"},"children":{},"osm_tags":{"seamark:type":"restricted_area"}}},{"type":"Feature","geometry":{"type":"Polygon","coordinates":[[[49.9182208,26.9289093],[49.9018214,26.8560189],[49.904672,26.8564677],[49.9066842,26.8564378],[49.907858,26.855989],[49.9181202,26.8553307],[49.9256995,26.8551213],[49.9368672,26.8545528],[49.9383428,26.8547323],[49.940858,26.8540143],[49.9470288,26.8532363],[49.9538032,26.8532363],[49.9547422,26.8520096],[49.9554465,26.848838],[49.9575257,26.8457261],[49.9603093,26.8422551],[49.9624556,26.8401006],[49.9695654,26.836001],[49.9746294,26.8330384],[49.9783185,26.831961],[49.9801965,26.8313924],[49.981538,26.8292377],[49.9840868,26.8283998],[49.986602,26.8263648],[49.9892514,26.8257363],[49.9905929,26.8247187],[49.9925715,26.8230128],[49.9961935,26.822115],[49.9972667,26.8216661],[49.9971661,26.8205587],[50.0006203,26.8169372],[50.0000502,26.8160393],[50.0009222,26.8143333],[50.0027667,26.8122082],[50.0063886,26.8072395],[50.0077972,26.8026299],[50.0091051,26.8004148],[50.0116539,26.7972716],[50.0147057,26.7946373],[50.0181265,26.7913743],[50.0198704,26.7881111],[50.0249344,26.7826923],[50.0284557,26.7782613],[50.0318765,26.7764648],[50.0336539,26.7740696],[50.0368734,26.770776],[50.0379131,26.7678716],[50.0410655,26.7645179],[50.0414009,26.7622422],[50.0459954,26.7562532],[50.0504893,26.7523302],[50.0569284,26.7486167],[50.0610534,26.7454123],[50.0629314,26.7428666],[50.0668887,26.7383741],[50.0668217,26.7633202],[50.1142425,26.76341],[50.1051037,26.779878],[50.1165397,26.7968675],[50.1165062,27.0074597],[50.0205411,27.0251619],[49.9182208,26.9289093]]]},"properties":{"osm_id":220138865,"osm_type":"way","seamark_type":"restricted_area","display_class":"OTHER","min_zoom":12,"importance":1,"name":null,"ref":null,"common":{"type":"restricted_area"},"children":{},"osm_tags":{"seamark:type":"restricted_area"}}},{"type":"Feature","geometry":{"type":"LineString","coordinates":[[50.195724,26.6853193],[50.1957156,26.7007911],[50.1949316,26.7039894],[50.1654026,26.8033296],[50.1944621,26.9432269],[50.2015887,26.9495348],[50.1760673,26.9736723]]},"properties":{"osm_id":220138866,"osm_type":"way","seamark_type":"separation_boundary","display_class":"OTHER","min_zoom":12,"importance":1,"name":null,"ref":null,"common":{"type":"separation_boundary"},"children":{},"osm_tags":{"seamark:type":"separation_boundary"}}},{"type":"Feature","geometry":{"type":"Polygon","coordinates":[[[50.3134334,26.1948924],[50.3134669,26.1824937],[50.3148755,26.180718],[50.3169212,26.1794841],[50.3189425,26.1786527],[50.3191346,26.1785737],[50.3229305,26.1778103],[50.3246346,26.1774676],[50.3278877,26.1762938],[50.3305706,26.1761735],[50.331627,26.1763841],[50.3336895,26.1771065],[50.3353663,26.177889],[50.3437421,26.1776444],[50.345943,26.177494],[50.3455447,26.1685586],[50.3561255,26.1679717],[50.3566789,26.1768657],[50.365063,26.1766701],[50.3685676,26.1764142],[50.3739503,26.1755866],[50.3784106,26.1743977],[50.3820158,26.1728778],[50.3851347,26.1714782],[50.3904,26.1687994],[50.3944579,26.1672192],[50.3945418,26.1676857],[50.3948436,26.1688596],[50.3951119,26.1691907],[50.3963024,26.1691004],[50.3974427,26.1700184],[50.3973253,26.1706354],[50.3960174,26.1721404],[50.3967719,26.173555],[50.3978283,26.1747589],[50.3991363,26.175737],[50.4049549,26.1717491],[50.405525,26.1719748],[50.405525,26.1729079],[50.4054412,26.1733894],[50.4048375,26.1742171],[50.404737,26.1744417],[50.4045224,26.1746631],[50.4040155,26.1751181],[50.4029595,26.176023],[50.3983776,26.180124],[50.3973957,26.1809082],[50.3950683,26.1815041],[50.3938716,26.1819772],[50.392714,26.1824636],[50.3914061,26.1828097],[50.3908192,26.1832611],[50.3853863,26.1846606],[50.3841306,26.1849188],[50.3832902,26.1850518],[50.3817811,26.1854882],[50.379889,26.185774],[50.3781155,26.1862128],[50.3773516,26.1863613],[50.3765661,26.186391],[50.3749288,26.1862411],[50.3741609,26.186515],[50.3726456,26.1868309],[50.3733131,26.1894305],[50.3726256,26.1897164],[50.371217,26.1896111],[50.3696576,26.1891898],[50.3686347,26.1886631],[50.3677963,26.1877753],[50.3671423,26.1865264],[50.3666393,26.1859697],[50.3660524,26.1858493],[50.357249,26.1862857],[50.3577018,26.1951632],[50.3469365,26.195419],[50.3465005,26.1866318],[50.3380325,26.1871283],[50.3373115,26.1873691],[50.3360706,26.1887083],[50.335249,26.1892199],[50.3330691,26.1898067],[50.3303526,26.1904236],[50.3283404,26.1904236],[50.3276875,26.1907135],[50.3267139,26.1911458],[50.3258927,26.1916569],[50.3247201,26.1923867],[50.3246346,26.1924399],[50.3229075,26.193147],[50.3210797,26.1932223],[50.3187489,26.1930868],[50.3173572,26.193132],[50.3134334,26.1948924]]]},"properties":{"osm_id":220138876,"osm_type":"way","seamark_type":"restricted_area","display_class":"OTHER","min_zoom":12,"importance":1,"name":null,"ref":null,"common":{"type":"restricted_area"},"children":{},"osm_tags":{"seamark:type":"restricted_area"}}},{"type":"Feature","geometry":{"type":"LineString","coordinates":[[50.1255015,26.3255633],[50.1252435,26.327154],[50.1246809,26.3392345],[50.1263906,26.363115],[50.1270083,26.3720293],[50.1277805,26.3828798],[50.1280197,26.3860957],[50.1290212,26.3995564],[50.1318171,26.4329587]]},"properties":{"osm_id":1035770360,"osm_type":"way","seamark_type":"pipeline_submarine","display_class":"OTHER","min_zoom":12,"importance":1,"name":null,"ref":null,"common":{"type":"pipeline_submarine"},"children":{"pipeline_submarine":{"category":"supply","product":"oil"}},"osm_tags":{"layer":"-1","location":"underground","man_made":"pipeline","seamark:pipeline_submarine:category":"supply","seamark:pipeline_submarine:product":"oil","seamark:type":"pipeline_submarine","source":"Aramco","submarine":"yes","substance":"oil"}}},{"type":"Feature","geometry":{"type":"Point","coordinates":[50.6579546,26.2921206]},"properties":{"osm_id":1905869993,"osm_type":"node","seamark_type":"harbour","display_class":"OTHER","min_zoom":12,"importance":1,"name":"Amwaj Marina","ref":null,"common":{"type":"harbour"},"children":{"harbour":{"category":"marina"}},"osm_tags":{"image":"https://photos.app.goo.gl/U3ihMup1cs59NcSJ7","leisure":"marina","name":"Amwaj Marina","name:en":"Amwaj Marina","seamark:harbour:category":"marina","seamark:type":"harbour"}}},{"type":"Feature","geometry":{"type":"Polygon","coordinates":[[[50.6556093,26.2918569],[50.6572745,26.2908264],[50.6574651,26.290734],[50.6574851,26.2907243],[50.6575065,26.2907139],[50.6577235,26.2906439],[50.6580193,26.2906077],[50.6581548,26.2906062],[50.6583651,26.2906229],[50.658535,26.2906626],[50.6586671,26.2906995],[50.6588411,26.2907708],[50.6590009,26.2908578],[50.6592421,26.2910454],[50.6593972,26.291228],[50.6595313,26.29149],[50.6596057,26.2917236],[50.6595038,26.2917344],[50.6594394,26.2917404],[50.6594632,26.2919085],[50.6594603,26.2920018],[50.6594596,26.2920243],[50.6594418,26.292169],[50.6593983,26.2923318],[50.6594339,26.2923415],[50.6595142,26.2923727],[50.6594242,26.2925738],[50.6593018,26.2927648],[50.6592439,26.2928283],[50.6591452,26.2929279],[50.6590803,26.2929745],[50.6589684,26.2930561],[50.6588774,26.2931078],[50.6587328,26.2931829],[50.6585688,26.2932355],[50.6584584,26.2932447],[50.6581961,26.2932691],[50.6579095,26.2932477],[50.657663,26.2931784],[50.6573963,26.2930428],[50.657122,26.2928188],[50.656246,26.2919907],[50.6561765,26.291925],[50.6560678,26.2920149],[50.655934,26.2921254],[50.6559097,26.2921455],[50.6556093,26.2918569]]]},"properties":{"osm_id":170127322,"osm_type":"way","seamark_type":"harbour","display_class":"OTHER","min_zoom":12,"importance":1,"name":"Amwaj Marina","ref":null,"common":{"type":"harbour"},"children":{"harbour":{"category":"marina"}},"osm_tags":{"leisure":"marina","name":"Amwaj Marina","seamark:harbour:category":"marina","seamark:type":"harbour"}}},{"type":"Feature","geometry":{"type":"Point","coordinates":[50.95815,26.2906167]},"properties":{"osm_id":1293793346,"osm_type":"node","seamark_type":"light_minor","display_class":"OTHER","min_zoom":12,"importance":1,"name":"Fasht ad-Dibal","ref":null,"common":{"name":"Fasht ad-Dibal","type":"light_minor"},"children":{"light":{"character":"Q","colour":"white","height":"4","range":"7","reference":"D 7398"}},"osm_tags":{"seamark:light:character":"Q","seamark:light:colour":"white","seamark:light:height":"4","seamark:light:range":"7","seamark:light:reference":"D 7398","seamark:name":"Fasht ad-Dibal","seamark:type":"light_minor","source":"US NGA Pub. 112. 2009-11-12."}}},{"type":"Feature","geometry":{"type":"Point","coordinates":[50.89975,26.1745834]},"properties":{"osm_id":1293793522,"osm_type":"node","seamark_type":"light_minor","display_class":"OTHER","min_zoom":12,"importance":1,"name":"Katah ad Jaradeh","ref":null,"common":{"name":"Katah ad Jaradeh","type":"light_minor"},"children":{"light":{"character":"Fl","colour":"white","height":"3","period":"5","range":"8","reference":"D 7399"}},"osm_tags":{"seamark:light:character":"Fl","seamark:light:colour":"white","seamark:light:height":"3","seamark:light:period":"5","seamark:light:range":"8","seamark:light:reference":"D 7399","seamark:name":"Katah ad Jaradeh","seamark:type":"light_minor","source":"US NGA Pub. 112. 2009-11-12."}}},{"type":"Feature","geometry":{"type":"Polygon","coordinates":[[[50.2392624,26.5558988],[50.2392409,26.555875],[50.2392599,26.555858],[50.2392244,26.5558558],[50.2392092,26.5558422],[50.239194,26.5558546],[50.2391788,26.5558399],[50.2393169,26.5557697],[50.2393282,26.5557844],[50.2393384,26.5557754],[50.2393396,26.5558343],[50.239365,26.5558365],[50.2393612,26.5558648],[50.2393358,26.555858],[50.2393169,26.555866],[50.2393295,26.5558784],[50.2393181,26.5558864],[50.2393004,26.5558739],[50.2392624,26.5558988]]]},"properties":{"osm_id":1488574230,"osm_type":"way","seamark_type":"wreck","display_class":"OTHER","min_zoom":12,"importance":1,"name":"MV Sophia","ref":null,"common":{"type":"wreck"},"children":{"wreck":{"category":"hull_showing"}},"osm_tags":{"access":"yes","alt_name":"MV Achaios;MV Heina","fixme":"Map the bow outline when more detailed aerial imagery is accessible and the shipwreck lies shallow enough.","historic":"wreck","name":"MV Sophia","seamark:type":"wreck","seamark:wreck:category":"hull_showing","wreck:date_sunk":"1977","wreck:visible_at_low_tide":"yes"}}},{"type":"Feature","geometry":{"type":"Polygon","coordinates":[[[50.5417563,26.2439042],[50.5417434,26.2439307],[50.5419345,26.2445744],[50.5419219,26.2446144],[50.5419013,26.244648],[50.5418665,26.2446704],[50.5418092,26.2446537],[50.5417438,26.2446565],[50.5413986,26.2447701],[50.5412477,26.2448008],[50.5411888,26.2447974],[50.5411171,26.2447694],[50.5410445,26.2447066],[50.540978,26.2446318],[50.5409187,26.2445293],[50.5408642,26.2444107],[50.5408396,26.2443076],[50.5408309,26.244158],[50.5408395,26.2440562],[50.540864,26.2439816],[50.5409169,26.2439192],[50.5416212,26.2436178],[50.5417563,26.2439042]]]},"properties":{"osm_id":170977899,"osm_type":"way","seamark_type":"harbour","display_class":"OTHER","min_zoom":12,"importance":1,"name":"Royal Marina","ref":null,"common":{"type":"harbour"},"children":{"harbour":{"category":"marina"}},"osm_tags":{"leisure":"marina","name":"Royal Marina","name:en":"Royal Marina","seamark:harbour:category":"marina","seamark:type":"harbour"}}},{"type":"Feature","geometry":{"type":"Polygon","coordinates":[[[50.2162957,26.4839891],[50.2122724,26.4848054],[50.2116179,26.4859289],[50.2114463,26.486918],[50.2151799,26.5024157],[50.2203512,26.50159],[50.2206516,26.500745],[50.2200079,26.497903],[50.21945,26.4974997],[50.2162957,26.4839891]]]},"properties":{"osm_id":568329229,"osm_type":"way","seamark_type":"harbour","display_class":"OTHER","min_zoom":12,"importance":1,"name":"Zamil Offshore Services","ref":null,"common":{"type":"harbour"},"children":{"harbour":{"category":"marina"}},"osm_tags":{"leisure":"marina","name":"Zamil Offshore Services","seamark:harbour:category":"marina","seamark:type":"harbour","waterway":"boatyard"}}},{"type":"Feature","geometry":{"type":"Polygon","coordinates":[[[50.1239684,26.6837431],[50.1229974,26.6830406],[50.1231758,26.6829002],[50.1236612,26.6824481],[50.1241681,26.6819769],[50.1246797,26.6815058],[50.1249723,26.6811917],[50.1252745,26.6809585],[50.1253959,26.6808324],[50.1255529,26.6806278],[50.1263834,26.6795737],[50.1267236,26.6791644],[50.1276468,26.6779794],[50.1279609,26.6775464],[50.1281751,26.6772014],[50.1286129,26.6763162],[50.1296884,26.6741723],[50.1297598,26.6740795],[50.1303975,26.6733062],[50.1315277,26.671919],[50.1318133,26.6715692],[50.1318728,26.6714597],[50.1318847,26.6713717],[50.1318799,26.6712479],[50.1318514,26.6708886],[50.1318014,26.6705222],[50.13178,26.6703747],[50.1317942,26.6702105],[50.1318133,26.6701058],[50.1318109,26.6700106],[50.1317752,26.6698679],[50.1317538,26.6697156],[50.1316562,26.6695133],[50.1314825,26.6693087],[50.1308068,26.6685354],[50.1304713,26.6681927],[50.1301239,26.667831],[50.1297598,26.6675146],[50.1295671,26.6674004],[50.1294338,26.6673694],[50.12941,26.6673504],[50.1294291,26.6673004],[50.1294505,26.6672481],[50.1294457,26.6672076],[50.1294267,26.6671743],[50.1294076,26.667122],[50.1294362,26.6670696],[50.1294957,26.667072],[50.1296051,26.6670886],[50.1297669,26.6671005],[50.1301001,26.6671077],[50.1302405,26.667122],[50.1309519,26.6658442],[50.1310209,26.6657419],[50.1310828,26.6657062],[50.1311566,26.6656943],[50.1312398,26.6656871],[50.1313874,26.6657419],[50.1316681,26.6658394],[50.1318395,26.6658989],[50.1318847,26.6659465],[50.1318894,26.6660084],[50.1318704,26.6660631],[50.1318514,26.6661012],[50.131818,26.6661131],[50.1317919,26.6660988],[50.1317705,26.6660417],[50.1311566,26.6658442],[50.1311018,26.6658275],[50.1306545,26.6666437],[50.1310947,26.666746],[50.1311256,26.6667722],[50.1311256,26.6668793],[50.1311875,26.666884],[50.1312375,26.6667056],[50.1313184,26.6667151],[50.1313065,26.6667936],[50.1313731,26.6668079],[50.1318537,26.6669268],[50.1321083,26.6669816],[50.132282,26.6670077],[50.1329507,26.6670577],[50.1336145,26.6670458],[50.1338501,26.6670315],[50.1342237,26.6669697],[50.1344902,26.6669054],[50.1346877,26.6668245],[50.1348495,26.6667484],[50.1350303,26.6666603],[50.135116,26.6666247],[50.1351398,26.6665771],[50.1351564,26.6665223],[50.135223,26.6664819],[50.1353301,26.6664747],[50.1353872,26.6664771],[50.1354229,26.6664533],[50.1355419,26.6663891],[50.1356989,26.6663034],[50.1358869,26.6662201],[50.1360868,26.6660869],[50.1361915,26.6660131],[50.1361963,26.6659679],[50.1361701,26.6659275],[50.1361653,26.665887],[50.1363057,26.6657514],[50.1363509,26.6657514],[50.136389,26.6657633],[50.1364271,26.6657657],[50.1365151,26.6656681],[50.1365793,26.6656015],[50.136753,26.6654635],[50.1369505,26.6653088],[50.1371076,26.6651185],[50.1384353,26.6634766],[50.1397369,26.6618848],[50.1410932,26.6602072],[50.1424019,26.6586083],[50.1435869,26.6571663],[50.1436225,26.6570402],[50.1436701,26.6568831],[50.1437439,26.6566999],[50.1437558,26.6565691],[50.1437939,26.6564287],[50.1438843,26.656255],[50.1440175,26.6560313],[50.1441579,26.6558719],[50.1442721,26.6557862],[50.1445029,26.6556791],[50.1447242,26.6555459],[50.1447861,26.6554697],[50.1448694,26.6554079],[50.1449098,26.6553698],[50.1449503,26.6552722],[50.1449931,26.655139],[50.1450574,26.6550105],[50.1451644,26.6548511],[50.1452239,26.6547416],[50.145262,26.6546536],[50.1453619,26.6544894],[50.1454809,26.6543133],[50.1455856,26.6541896],[50.1457093,26.654092],[50.1458783,26.6539397],[50.1459782,26.6538041],[50.1463661,26.6529094],[50.1468491,26.6517935],[50.1471085,26.6512057],[50.147118,26.6511367],[50.1471965,26.650668],[50.147156,26.64974],[50.1471227,26.6491975],[50.1474297,26.6485812],[50.1474725,26.6484551],[50.147482,26.6483647],[50.1475153,26.6482386],[50.1475844,26.648091],[50.1477271,26.647815],[50.1477985,26.6476699],[50.1478532,26.6476032],[50.1478889,26.6475747],[50.147927,26.64752],[50.1480222,26.6473772],[50.1487122,26.6459805],[50.1489335,26.6455212],[50.149043,26.6453475],[50.1496569,26.6443648],[50.1506967,26.6427372],[50.1514391,26.6416046],[50.1515057,26.6414761],[50.1515771,26.641331],[50.1521838,26.6400318],[50.152674,26.6389563],[50.1530167,26.6382282],[50.1530785,26.638133],[50.1533712,26.6378046],[50.1534497,26.6377023],[50.1535425,26.6376024],[50.1536639,26.6375453],[50.1539018,26.6374263],[50.1541778,26.6372907],[50.1543373,26.6372002],[50.1547917,26.6366863],[50.1552557,26.6361295],[50.1551939,26.635794],[50.1551296,26.6356322],[50.1550059,26.6354466],[50.1546395,26.6352586],[50.1539042,26.6348565],[50.1543373,26.634145],[50.1553699,26.6346495],[50.1560124,26.6338262],[50.157107,26.6324247],[50.1573401,26.6325674],[50.1579398,26.6317798],[50.1577827,26.6316799],[50.1581515,26.6311992],[50.158311,26.631292],[50.158311,26.6313158],[50.1588606,26.6316609],[50.1589391,26.6315585],[50.1589796,26.6315823],[50.1590653,26.6314729],[50.1591628,26.6313539],[50.1592342,26.6311921],[50.159258,26.6311469],[50.1592413,26.6310969],[50.1591914,26.6310612],[50.1591319,26.6310232],[50.15912,26.6309875],[50.1592152,26.6308209],[50.1592294,26.63079],[50.1592223,26.6307567],[50.1591914,26.630721],[50.1586869,26.6304545],[50.1587226,26.6304021],[50.1587773,26.6304331],[50.1588011,26.6303878],[50.15907,26.6305259],[50.1594674,26.6299072],[50.1592009,26.6297692],[50.1592223,26.6297264],[50.1591747,26.6297026],[50.159208,26.6296312],[50.1595197,26.6297835],[50.1595649,26.6297478],[50.1597101,26.629674],[50.1598529,26.6295622],[50.1599909,26.6293647],[50.1601312,26.6291006],[50.1603049,26.6288388],[50.1604834,26.6286532],[50.1607713,26.6284081],[50.1609855,26.6282225],[50.1610878,26.6280988],[50.1611758,26.6279061],[50.1612639,26.6276277],[50.1613305,26.6274349],[50.161409,26.6273041],[50.1615161,26.6272065],[50.1618088,26.6268996],[50.1619682,26.6267972],[50.16208,26.6267306],[50.1622442,26.6266592],[50.1625416,26.6266521],[50.1628652,26.6266711],[50.162958,26.6266759],[50.1631317,26.6268353],[50.1633959,26.6270899],[50.1635672,26.627316],[50.1636576,26.6274825],[50.1637528,26.6276396],[50.1638004,26.6276895],[50.1638384,26.6277371],[50.1639693,26.6279703],[50.1640455,26.628213],[50.1641644,26.6285866],[50.1642501,26.6289411],[50.1642977,26.6292552],[50.1643001,26.6296264],[50.1643072,26.6299072],[50.1643453,26.630157],[50.1643738,26.6302475],[50.1644,26.6302998],[50.1643929,26.6303664],[50.1643738,26.6304378],[50.1642977,26.6306044],[50.1642144,26.6310255],[50.164193,26.6312897],[50.1641763,26.6316751],[50.1641311,26.6320249],[50.1640621,26.6323866],[50.1640407,26.632646],[50.1640478,26.6328601],[50.1640645,26.6329505],[50.1641073,26.6330195],[50.1642192,26.6330909],[50.1643429,26.6331504],[50.1644262,26.6331956],[50.1644857,26.6332361],[50.1644381,26.6333312],[50.1642287,26.6338357],[50.1641073,26.6342997],[50.1641097,26.6343711],[50.1641073,26.6344305],[50.1641168,26.6344805],[50.1641502,26.6345138],[50.1641763,26.6345495],[50.1641644,26.63459],[50.1641287,26.6346709],[50.1641383,26.6348493],[50.1641478,26.6349921],[50.1641906,26.635123],[50.1642334,26.6352348],[50.1643143,26.6352991],[50.1644547,26.6353466],[50.1646332,26.6353895],[50.164776,26.6354204],[50.1648545,26.6354133],[50.1649211,26.6353514],[50.1649592,26.6352991],[50.165002,26.6352919],[50.1650448,26.6353157],[50.1650591,26.6353895],[50.1650686,26.6355917],[50.1651186,26.6357107],[50.1651567,26.6357749],[50.1652376,26.6358582],[50.1653042,26.6359248],[50.1652875,26.6360414],[50.1652185,26.6361033],[50.164933,26.6364031],[50.1645118,26.6368933],[50.1640883,26.6375191],[50.1638551,26.6379307],[50.1638147,26.6380259],[50.1637766,26.6382996],[50.1637837,26.6384352],[50.1638266,26.6386731],[50.1639027,26.6393655],[50.1637956,26.6395155],[50.1636481,26.6397843],[50.1633864,26.6403007],[50.1630746,26.6408575],[50.1629033,26.6410573],[50.1626915,26.6412977],[50.1624869,26.6415594],[50.162061,26.6421067],[50.161785,26.6423875],[50.1615161,26.6426611],[50.1613686,26.6429347],[50.1611497,26.643344],[50.1608498,26.6439317],[50.1605905,26.6444743],[50.1602098,26.6452452],[50.160186,26.6453166],[50.160205,26.6453618],[50.1602098,26.6453951],[50.1601931,26.6454403],[50.1601622,26.6454903],[50.1601146,26.6455355],[50.1600456,26.6456045],[50.1599861,26.645714],[50.1598909,26.6459305],[50.1598005,26.6460709],[50.1597029,26.646166],[50.1595602,26.6462588],[50.1594769,26.646354],[50.1594388,26.646454],[50.1593889,26.6466538],[50.1592461,26.6469798],[50.1592247,26.6470679],[50.1591247,26.6471012],[50.1590343,26.6471059],[50.1589558,26.6471202],[50.1588606,26.6471488],[50.158706,26.647213],[50.1582991,26.6473629],[50.1578208,26.6475319],[50.1575591,26.6476627],[50.1569333,26.6480768],[50.1566763,26.6482338],[50.1565383,26.6483337],[50.1564431,26.6485193],[50.1562289,26.6489476],[50.1561671,26.6490404],[50.1560648,26.6491142],[50.1558268,26.6492475],[50.1552367,26.6495972],[50.1551249,26.6496758],[50.1550321,26.6497686],[50.154618,26.6503182],[50.1539946,26.6511201],[50.1538733,26.6512795],[50.1534307,26.6515413],[50.1525003,26.6520838],[50.1520768,26.652336],[50.1508751,26.6530356],[50.1499781,26.6535971],[50.1498996,26.653628],[50.1497996,26.6536399],[50.1496545,26.6536947],[50.1494903,26.6537827],[50.1490715,26.653985],[50.1487194,26.654161],[50.148272,26.6544252],[50.1480531,26.654587],[50.147927,26.654694],[50.1478794,26.6547868],[50.1477557,26.6548725],[50.1476748,26.6549177],[50.1475201,26.6549962],[50.1474463,26.655089],[50.1471917,26.6553413],[50.1471323,26.6553698],[50.1470347,26.6553817],[50.1469467,26.6554245],[50.1468681,26.6554888],[50.1465969,26.6557624],[50.1460401,26.656362],[50.145519,26.656895],[50.1445244,26.6578968],[50.1438296,26.6585892],[50.1432728,26.6591508],[50.1428944,26.6595434],[50.1428159,26.6596505],[50.1427374,26.6598004],[50.1427088,26.659886],[50.1426446,26.6599883],[50.1425542,26.6600573],[50.1424281,26.660143],[50.1422924,26.6602715],[50.1420307,26.6604381],[50.1418237,26.6606022],[50.1417356,26.6607688],[50.1415262,26.6610329],[50.1413192,26.6612566],[50.1411265,26.661485],[50.1409219,26.6617491],[50.1407815,26.6619799],[50.1406696,26.6621608],[50.1405411,26.6623036],[50.1405055,26.6624082],[50.1403698,26.6625891],[50.1402152,26.6627937],[50.1400581,26.662965],[50.1398844,26.6631959],[50.1393728,26.6637907],[50.1387875,26.6644094],[50.1384472,26.6648091],[50.1381688,26.6651446],[50.1381308,26.6652493],[50.1380855,26.6653445],[50.1380094,26.6654278],[50.137938,26.6655087],[50.1377643,26.6657133],[50.1375763,26.665868],[50.1374883,26.6659513],[50.1373574,26.6660964],[50.1372622,26.6662344],[50.1372028,26.6663558],[50.13706,26.6665461],[50.1369577,26.6666056],[50.1368911,26.6666841],[50.1369101,26.666746],[50.1369553,26.6667817],[50.1370029,26.6668222],[50.1369767,26.6668816],[50.1368268,26.6669506],[50.136684,26.6670173],[50.1365841,26.6671124],[50.136527,26.6672005],[50.1365103,26.6672695],[50.136527,26.6673337],[50.136546,26.6674051],[50.136546,26.6674527],[50.136508,26.6675074],[50.1363366,26.6677359],[50.1361487,26.6679928],[50.1359488,26.6681999],[50.1354919,26.6686853],[50.1350874,26.6691088],[50.1347686,26.6694538],[50.1346877,26.6694919],[50.1345806,26.6695847],[50.134464,26.6696918],[50.1343331,26.6697798],[50.1341309,26.6700035],[50.1339296,26.6702452],[50.1335227,26.6707616],[50.1332919,26.671059],[50.1329802,26.6714421],[50.1328469,26.6716539],[50.1326946,26.6718871],[50.1322901,26.6724415],[50.1318832,26.672934],[50.1317452,26.6731363],[50.1315953,26.6733481],[50.1314192,26.6735884],[50.1313764,26.673674],[50.1313312,26.6737621],[50.1313145,26.6738406],[50.1312646,26.6739286],[50.1310433,26.6742237],[50.1308529,26.674464],[50.1307578,26.6746306],[50.1306887,26.6747757],[50.1306864,26.6748852],[50.1306816,26.6749709],[50.1306102,26.6750303],[50.1304341,26.6751588],[50.1301914,26.6753087],[50.1300677,26.6754325],[50.1299654,26.6756371],[50.1298155,26.6759893],[50.129687,26.6762153],[50.1294705,26.6766912],[50.1292135,26.6771838],[50.1290017,26.6775835],[50.1289065,26.6777977],[50.1288613,26.6780023],[50.1288066,26.6781974],[50.1287019,26.6783307],[50.1285234,26.6785448],[50.1283616,26.6787827],[50.1281729,26.679046],[50.1280587,26.6792197],[50.1278779,26.6795195],[50.1277446,26.6797432],[50.1275495,26.6799859],[50.1274258,26.6801025],[50.1273258,26.6801858],[50.1270879,26.6803571],[50.1269713,26.6804499],[50.1269332,26.6804927],[50.126819,26.6805974],[50.1267476,26.6806736],[50.1266477,26.680764],[50.1266453,26.6808497],[50.1266096,26.6809663],[50.1265358,26.6810567],[50.1263836,26.6812185],[50.1262384,26.6813517],[50.1261099,26.6814683],[50.1259529,26.6816301],[50.1257958,26.6818514],[50.1256769,26.6819728],[50.1255341,26.6820632],[50.1254056,26.6821655],[50.1251843,26.6824106],[50.1248726,26.6827223],[50.1246799,26.682946],[50.1244467,26.6832053],[50.1241278,26.6835361],[50.1239684,26.6837431]]]},"properties":{"osm_id":1453058290,"osm_type":"way","seamark_type":"tanker","display_class":"OTHER","min_zoom":12,"importance":1,"name":"ميناء رأس تنورة","ref":null,"common":{"type":"tanker"},"children":{"harbour":{"category":"tanker"}},"osm_tags":{"industrial":"port","landuse":"industrial","name":"ميناء رأس تنورة","name:ar":"ميناء رأس تنورة","name:en":"Ras Tanura Port","port":"?","seamark:harbour:category":"tanker","seamark:type":"tanker","website":"https://mawani.gov.sa/"}}}],"type":"FeatureCollection"}