{"type":"FeatureCollection","features":[{"type":"Feature","geometry":{"type":"LineString","coordinates":[[-94.903556,26.0941761],[-94.90352,26.0939602]]},"properties":{"osm_id":1256814728,"osm_type":"way","seamark_type":"pipeline_submarine","display_class":"OTHER","min_zoom":12,"importance":1,"name":null,"ref":null,"common":{"type":"pipeline_submarine"},"children":{"pipeline_submarine":{"category":"supply","product":"oil"}},"osm_tags":{"diameter":"6.63\"","location":"underwater","man_made":"pipeline","operator":"Shell Offshore Inc.","seamark:pipeline_submarine:category":"supply","seamark:pipeline_submarine:product":"oil","seamark:type":"pipeline_submarine","substance":"oil","usage":"gathering"}}},{"type":"Feature","geometry":{"type":"LineString","coordinates":[[-94.9035223,26.0939095],[-94.9012361,26.0979923],[-94.9007171,26.0988768],[-94.90027,26.0996778],[-94.8997193,26.1006727],[-94.8994154,26.1012875],[-94.899142,26.1019102],[-94.8986413,26.1031713],[-94.8984507,26.1038177],[-94.898312,26.1044743],[-94.8982161,26.1051441],[-94.8981476,26.1058081],[-94.8981188,26.106477],[-94.8980923,26.1080428],[-94.8981308,26.110048],[-94.8981009,26.1127281],[-94.898148,26.1145103],[-94.8981464,26.1198753],[-94.8981668,26.1207637],[-94.8982085,26.1252258],[-94.8982829,26.1270048],[-94.8982906,26.1287986],[-94.8982651,26.129484]]},"properties":{"osm_id":1256814889,"osm_type":"way","seamark_type":"pipeline_submarine","display_class":"OTHER","min_zoom":12,"importance":1,"name":null,"ref":null,"common":{"type":"pipeline_submarine"},"children":{"pipeline_submarine":{"category":"supply","product":"oil"}},"osm_tags":{"diameter":"10.75\"","location":"underwater","man_made":"pipeline","operator":"Shell Offshore Inc.","seamark:pipeline_submarine:category":"supply","seamark:pipeline_submarine:product":"oil","seamark:type":"pipeline_submarine","substance":"oil","usage":"gathering"}}},{"type":"Feature","geometry":{"type":"LineString","coordinates":[[-94.8979408,26.1293884],[-94.8979741,26.1295334]]},"properties":{"osm_id":1256815173,"osm_type":"way","seamark_type":"pipeline_submarine","display_class":"OTHER","min_zoom":12,"importance":1,"name":null,"ref":null,"common":{"type":"pipeline_submarine"},"children":{"pipeline_submarine":{"category":"supply","product":"oil"}},"osm_tags":{"location":"underwater","man_made":"pipeline","operator":"Shell Offshore Inc.","seamark:pipeline_submarine:category":"supply","seamark:pipeline_submarine:product":"oil","seamark:type":"pipeline_submarine","substance":"oil","usage":"gathering"}}},{"type":"Feature","geometry":{"type":"LineString","coordinates":[[-94.8979405,26.1295563],[-94.8977604,26.1295967]]},"properties":{"osm_id":1256815214,"osm_type":"way","seamark_type":"pipeline_submarine","display_class":"OTHER","min_zoom":12,"importance":1,"name":null,"ref":null,"common":{"type":"pipeline_submarine"},"children":{"pipeline_submarine":{"category":"supply","product":"oil"}},"osm_tags":{"diameter":"8.63\"","location":"underwater","man_made":"pipeline","operator":"Shell Offshore Inc.","seamark:pipeline_submarine:category":"supply","seamark:pipeline_submarine:product":"oil","seamark:type":"pipeline_submarine","substance":"oil","usage":"gathering"}}},{"type":"Feature","geometry":{"type":"LineString","coordinates":[[-94.76828,26.955851],[-94.767087,26.9566057],[-94.7647284,26.9581493],[-94.7635365,26.9589056],[-94.7623626,26.959684],[-94.758813,26.9619853],[-94.7576394,26.9627645],[-94.7564422,26.9635139],[-94.7493396,26.9681127],[-94.7483574,26.9687933],[-94.7476013,26.9693941],[-94.7466947,26.9701793],[-94.7463425,26.9705035],[-94.7458466,26.9710168],[-94.7452328,26.971736],[-94.7449461,26.972109],[-94.744533,26.972679],[-94.7440133,26.973459],[-94.7437911,26.9738676],[-94.7433197,26.9749217],[-94.7432419,26.9751378],[-94.7426569,26.9768836],[-94.7413521,26.9806315],[-94.7396504,26.9856394],[-94.7348758,26.9993848],[-94.7327444,27.0056435],[-94.7314402,27.0093918],[-94.7305993,27.0118987],[-94.7297079,27.0143914],[-94.7292885,27.0156449],[-94.7280862,27.0194215],[-94.7272576,27.0219314],[-94.7255364,27.0269343],[-94.7250728,27.0281757],[-94.7247736,27.0290301]]},"properties":{"osm_id":1256815373,"osm_type":"way","seamark_type":"pipeline_submarine","display_class":"OTHER","min_zoom":12,"importance":1,"name":null,"ref":null,"common":{"type":"pipeline_submarine"},"children":{"pipeline_submarine":{"category":"supply","product":"gas"}},"osm_tags":{"diameter":"6.63\"","location":"underwater","man_made":"pipeline","operator":"ExxonMobil Pipeline Company","operator:wikidata":"Q129699985","ref:US:BOEM:ROW":"G21888","seamark:pipeline_submarine:category":"supply","seamark:pipeline_submarine:product":"gas","seamark:type":"pipeline_submarine","substance":"gas","usage":"gathering"}}},{"type":"Feature","geometry":{"type":"LineString","coordinates":[[-94.8978088,26.1298169],[-94.8979909,26.1295863]]},"properties":{"osm_id":1256815381,"osm_type":"way","seamark_type":"pipeline_submarine","display_class":"OTHER","min_zoom":12,"importance":1,"name":null,"ref":null,"common":{"type":"pipeline_submarine"},"children":{"pipeline_submarine":{"category":"supply","product":"oil"}},"osm_tags":{"diameter":"10.75\"","location":"underwater","man_made":"pipeline","operator":"Shell Offshore Inc.","seamark:pipeline_submarine:category":"supply","seamark:pipeline_submarine:product":"oil","seamark:type":"pipeline_submarine","substance":"oil","usage":"gathering"}}},{"type":"Feature","geometry":{"type":"LineString","coordinates":[[-94.898174,26.1293174],[-94.8980035,26.1295149]]},"properties":{"osm_id":1256815405,"osm_type":"way","seamark_type":"pipeline_submarine","display_class":"OTHER","min_zoom":12,"importance":1,"name":null,"ref":null,"common":{"type":"pipeline_submarine"},"children":{"pipeline_submarine":{"category":"supply","product":"oil"}},"osm_tags":{"diameter":"6.63\"","location":"underwater","man_made":"pipeline","operator":"Shell Offshore Inc.","seamark:pipeline_submarine:category":"supply","seamark:pipeline_submarine:product":"oil","seamark:type":"pipeline_submarine","substance":"oil","usage":"gathering"}}},{"type":"Feature","geometry":{"type":"LineString","coordinates":[[-94.7898013,26.1557061],[-94.7909966,26.1527253],[-94.7916414,26.1510279],[-94.7923351,26.1493437],[-94.7930073,26.1476488],[-94.7933174,26.1467947],[-94.7942875,26.1442459],[-94.7953003,26.1417075],[-94.796568,26.1382938],[-94.7986933,26.1327728]]},"properties":{"osm_id":1256815551,"osm_type":"way","seamark_type":"pipeline_submarine","display_class":"OTHER","min_zoom":12,"importance":1,"name":null,"ref":null,"common":{"type":"pipeline_submarine"},"children":{"pipeline_submarine":{"category":"supply","product":"oil"}},"osm_tags":{"diameter":"10.75\"","location":"underwater","man_made":"pipeline","operator":"Shell Offshore Inc.","seamark:pipeline_submarine:category":"supply","seamark:pipeline_submarine:product":"oil","seamark:type":"pipeline_submarine","substance":"oil","usage":"gathering"}}},{"type":"Feature","geometry":{"type":"LineString","coordinates":[[-94.8976128,26.1292118],[-94.8973933,26.1293006]]},"properties":{"osm_id":1256816025,"osm_type":"way","seamark_type":"pipeline_submarine","display_class":"OTHER","min_zoom":12,"importance":1,"name":null,"ref":null,"common":{"type":"pipeline_submarine"},"children":{"pipeline_submarine":{"category":"supply","product":"oil"}},"osm_tags":{"diameter":"8.63\"","location":"underwater","man_made":"pipeline","operator":"Shell Offshore Inc.","seamark:pipeline_submarine:category":"supply","seamark:pipeline_submarine:product":"oil","seamark:type":"pipeline_submarine","substance":"oil","usage":"gathering"}}},{"type":"Feature","geometry":{"type":"LineString","coordinates":[[-94.9030189,26.0931988],[-94.9031583,26.0933493],[-94.9033355,26.0934163],[-94.9033956,26.0934768],[-94.9034511,26.0936058],[-94.9035214,26.0939095]]},"properties":{"osm_id":1256816468,"osm_type":"way","seamark_type":"pipeline_submarine","display_class":"OTHER","min_zoom":12,"importance":1,"name":null,"ref":null,"common":{"type":"pipeline_submarine"},"children":{"pipeline_submarine":{"category":"supply","product":"oil"}},"osm_tags":{"location":"underwater","man_made":"pipeline","operator":"Shell Offshore Inc.","seamark:pipeline_submarine:category":"supply","seamark:pipeline_submarine:product":"oil","seamark:type":"pipeline_submarine","substance":"oil","usage":"gathering"}}},{"type":"Feature","geometry":{"type":"LineString","coordinates":[[-94.8984643,26.1286064],[-94.906272,26.1182274],[-94.9105657,26.1127698],[-94.9139683,26.1083804],[-94.9152583,26.1067593],[-94.915841,26.10605],[-94.9186893,26.102452],[-94.9198052,26.1009982],[-94.9260346,26.0930631],[-94.9301912,26.0877196],[-94.9310558,26.0868451],[-94.9317406,26.0859559],[-94.9324088,26.0850561],[-94.9331573,26.0841523],[-94.9338227,26.0832509],[-94.9352515,26.0814549],[-94.9357469,26.0807774],[-94.9368821,26.0794664],[-94.9376625,26.0786495],[-94.9382784,26.0780622],[-94.9391105,26.0772292],[-94.9399664,26.0764792],[-94.9410478,26.0754883],[-94.9427518,26.0741221],[-94.944521,26.0728705],[-94.9460293,26.071916],[-94.9468047,26.0715095],[-94.9475525,26.0710628],[-94.9480627,26.0707814],[-94.9486301,26.0704997],[-94.9496984,26.0700156],[-94.9507542,26.0695079],[-94.9526964,26.0687326],[-94.9538398,26.0683588],[-94.9544114,26.0681443],[-94.9552894,26.0679036],[-94.9564055,26.0675538],[-94.9573104,26.0673443],[-94.957902,26.0671779],[-94.9581925,26.0671117],[-94.9587801,26.067006],[-94.9596717,26.066803],[-94.9599656,26.0667499],[-94.960875,26.066629],[-94.9614838,26.066525],[-94.9620775,26.0664497],[-94.9645024,26.0662219],[-94.9669393,26.0661335],[-94.9684596,26.0661386],[-94.9687594,26.0661502],[-94.9699729,26.0662743],[-94.9708902,26.0663281],[-94.9721039,26.0664366],[-94.9733045,26.0666307],[-94.9742129,26.0667587],[-94.975398,26.0670179],[-94.976589,26.0672508],[-94.9777691,26.0675264],[-94.979792,26.0680962],[-94.9815095,26.0686904],[-94.9831746,26.0693513],[-94.9848331,26.0700688],[-94.9864079,26.0708904],[-94.9874396,26.0714754],[-94.9882293,26.0719001],[-94.9899864,26.072969],[-94.9911924,26.0738331],[-94.9925769,26.0748975],[-94.9932501,26.0754625],[-94.9939306,26.0759946],[-94.9941577,26.0761982],[-94.9951873,26.0772071],[-94.9958313,26.0778],[-94.99643,26.0784065],[-94.9968424,26.0788717],[-94.997366,26.0795328],[-94.997933,26.0801627],[-94.9986522,26.0810293],[-94.9993822,26.0819997],[-95.000487,26.0836112],[-95.0017718,26.0857552],[-95.0019962,26.0862587],[-95.0022905,26.0868319],[-95.0027568,26.0878296],[-95.003507,26.0895995],[-95.0040727,26.0911423],[-95.0047388,26.0933194],[-95.0048026,26.0935844],[-95.0050224,26.0949259],[-95.0052878,26.0962587],[-95.0054144,26.0970636],[-95.0056523,26.0995842],[-95.0057018,26.100397],[-95.0056855,26.1020246],[-95.0056366,26.1031996],[-95.0055524,26.1042825],[-95.0053949,26.1056324],[-95.0051287,26.107244],[-95.0049226,26.1083151],[-95.0046932,26.1091971],[-95.0044526,26.109983],[-95.0041582,26.1110374],[-95.0039817,26.1115573],[-95.0033831,26.1130961],[-95.0032683,26.1133475],[-95.0029962,26.1138347],[-95.0028749,26.114083],[-95.0026408,26.1146807],[-95.0024205,26.1151865],[-95.0022946,26.1154333],[-95.001729,26.1163927],[-95.001362,26.1171374],[-95.001082,26.117618],[-95.0003131,26.1187844],[-94.9996013,26.1197687],[-94.9991581,26.1204795],[-94.9988463,26.120945],[-94.9973184,26.122955],[-94.9965808,26.1238107],[-94.9958635,26.1247897],[-94.9937883,26.1274444],[-94.9930653,26.1283093],[-94.9923184,26.1292695],[-94.9916453,26.1301663],[-94.9903386,26.1317782],[-94.9895605,26.1328148],[-94.9860242,26.1373004],[-94.9853226,26.1382122],[-94.9839578,26.1400712],[-94.9832602,26.1409523],[-94.9818229,26.142688],[-94.9813305,26.1433175],[-94.981088,26.1436559],[-94.9803958,26.1445406],[-94.9797281,26.1454408],[-94.9788651,26.146545],[-94.9779974,26.1477543],[-94.9770662,26.1491411],[-94.9765111,26.1500992],[-94.9759873,26.1510716],[-94.975444,26.1520373],[-94.9748296,26.1530717],[-94.9743135,26.1539791],[-94.9721139,26.1579106],[-94.9699302,26.1618595],[-94.9682277,26.1648247],[-94.9677132,26.1657631],[-94.9671952,26.1667604],[-94.9666438,26.1677427],[-94.9660534,26.1687375],[-94.9655115,26.1696938],[-94.9649774,26.1706839],[-94.9644821,26.1717117],[-94.9639383,26.1726772],[-94.9632991,26.1737005],[-94.9627459,26.1746617],[-94.9622635,26.1756147],[-94.961662,26.1765944],[-94.961172,26.1775843],[-94.960155,26.1793708],[-94.9589569,26.1815293],[-94.9551508,26.18849],[-94.9518588,26.1943711],[-94.9497345,26.1982563],[-94.9491304,26.1992955],[-94.9480628,26.2012357],[-94.946968,26.2031636],[-94.946398,26.2042183],[-94.9442339,26.2080856],[-94.9436309,26.2091253],[-94.9425454,26.2110574],[-94.9409125,26.2140535],[-94.9404115,26.2150376],[-94.9398286,26.2162856],[-94.939394,26.2172962],[-94.9391971,26.2178083],[-94.9384656,26.2199676],[-94.938222,26.2207503],[-94.9378674,26.222067],[-94.9373704,26.2241889],[-94.937037,26.2261551],[-94.9369291,26.2269632],[-94.9368428,26.2277735],[-94.9365902,26.2311058],[-94.9365068,26.2325252],[-94.9362531,26.2354273],[-94.9360927,26.237679],[-94.9359649,26.2387566],[-94.9359085,26.2398387],[-94.9358306,26.2409195],[-94.9351737,26.2486585],[-94.9347481,26.2541505],[-94.9340224,26.2628805],[-94.9336788,26.267292],[-94.9335688,26.2683707],[-94.9322699,26.2842487],[-94.932223,26.2851157],[-94.9322059,26.2862008],[-94.932213,26.2867436],[-94.9322564,26.2875569],[-94.9323543,26.2887299],[-94.9324161,26.2892701],[-94.9326282,26.2905687],[-94.9327969,26.2914154],[-94.9330574,26.2924765],[-94.9334816,26.2938743],[-94.9337519,26.2946524],[-94.9340697,26.2954158],[-94.9346409,26.2966722],[-94.9350109,26.2974153],[-94.9352736,26.2979039],[-94.9442533,26.3138364],[-94.9446851,26.3146516],[-94.9451554,26.315644],[-94.9454906,26.3163968],[-94.9456969,26.3169048],[-94.9460733,26.317932],[-94.946321,26.3187121],[-94.9466364,26.319849],[-94.9468249,26.3206424],[-94.9469815,26.3214413],[-94.9472005,26.322779],[-94.9472979,26.3235857],[-94.9473834,26.3246652],[-94.947434,26.326108],[-94.9474819,26.3293567],[-94.9475296,26.3348619],[-94.9475533,26.3359447],[-94.9475527,26.3371181],[-94.947724,26.3469542],[-94.9478142,26.3535419],[-94.9479152,26.3579634],[-94.948016,26.3657244],[-94.9480158,26.368432],[-94.9479426,26.3700515],[-94.9478848,26.3708595],[-94.9478215,26.3714867],[-94.9475942,26.3730929],[-94.9475057,26.373627],[-94.9472938,26.3746907],[-94.9471018,26.375483],[-94.9468844,26.3762705],[-94.9466866,26.3768761],[-94.9463172,26.3779059],[-94.9421756,26.3879767],[-94.9413171,26.3900002],[-94.9400259,26.3931303],[-94.9395845,26.394138],[-94.93877,26.3961761],[-94.9383337,26.3971855],[-94.9378926,26.3982895],[-94.9370464,26.400317],[-94.9366479,26.401339],[-94.9349552,26.4054903],[-94.9314357,26.4139407],[-94.9310973,26.4147905],[-94.9308122,26.4155615],[-94.9302858,26.4171162],[-94.9299588,26.4181597],[-94.9297444,26.4189497],[-94.9294601,26.420096],[-94.928022,26.4265558],[-94.9277708,26.427615],[-94.927314,26.4297417],[-94.9267915,26.4319485],[-94.9260821,26.4351341],[-94.9243607,26.4426841],[-94.9236429,26.4459235],[-94.9233919,26.4469827],[-94.92242,26.4513176],[-94.9219013,26.453525],[-94.9216936,26.4545922],[-94.9211827,26.456709],[-94.9209739,26.457776],[-94.9201711,26.4610365],[-94.9196959,26.4631599],[-94.9194932,26.464228],[-94.9192096,26.4653734],[-94.9185068,26.4685603],[-94.9172526,26.4739486],[-94.9165857,26.4769577],[-94.91638,26.4777481],[-94.9159881,26.4790539],[-94.9157213,26.479829],[-94.9154214,26.4805945],[-94.9148401,26.4819387],[-94.9144817,26.4826835],[-94.911034,26.4894022],[-94.9099956,26.4913564],[-94.9094643,26.492428],[-94.9084408,26.4943885],[-94.907447,26.4963614],[-94.9063747,26.4984009],[-94.9040531,26.5029036],[-94.9033728,26.5041106],[-94.9029308,26.5048187],[-94.9024684,26.5055164],[-94.9019855,26.5062028],[-94.901482,26.5068775],[-94.9007102,26.5078243],[-94.8999583,26.5086713],[-94.8987491,26.5098796],[-94.8963664,26.5120755],[-94.8913024,26.5168347],[-94.8896236,26.5183874],[-94.8828337,26.524784],[-94.8752579,26.5318786],[-94.874366,26.5327349],[-94.8714495,26.5354701],[-94.8705838,26.5363468],[-94.8698096,26.5371755],[-94.8690551,26.5380187],[-94.8681598,26.539106],[-94.8672874,26.5402084],[-94.8617477,26.5475161],[-94.8603761,26.5492966],[-94.8582965,26.552063],[-94.8512278,26.561383],[-94.8501643,26.5626966],[-94.8490616,26.563984],[-94.8484242,26.564682],[-94.8474342,26.5657034],[-94.8426584,26.5703371],[-94.840214,26.5727299],[-94.8335948,26.5792726],[-94.8227792,26.5898257],[-94.8184435,26.5940863],[-94.8176804,26.5949238],[-94.8169642,26.5957942],[-94.8166188,26.5962378],[-94.8157888,26.5973677],[-94.8151751,26.5983005],[-94.8148441,26.5988583],[-94.814439,26.5995849],[-94.8139245,26.6005649],[-94.8131041,26.6023114],[-94.8117042,26.6054046],[-94.8107805,26.6074051],[-94.8103368,26.6084122],[-94.8093696,26.6104944],[-94.8089194,26.611499],[-94.8084381,26.612492],[-94.8074321,26.6146553],[-94.8070194,26.6155783],[-94.8060774,26.6175721],[-94.8056395,26.6185814],[-94.8051624,26.619576],[-94.8042401,26.6216749],[-94.8032693,26.623658],[-94.8028317,26.6246674],[-94.8021625,26.6260925],[-94.8018833,26.6267565],[-94.801425,26.6277582],[-94.799507,26.6318309],[-94.7981547,26.6348443],[-94.7972609,26.6367584],[-94.7969262,26.6374158],[-94.7965436,26.6384436],[-94.7961086,26.6394543],[-94.795533,26.64109],[-94.7952155,26.642135],[-94.7949179,26.6431847],[-94.7945917,26.6442274],[-94.794318,26.6452831],[-94.7939483,26.6463149],[-94.7935912,26.6474435],[-94.7916426,26.653795],[-94.7913408,26.6548437],[-94.790663,26.6569227],[-94.7890405,26.6622316],[-94.7877289,26.666466],[-94.7873087,26.6677621],[-94.7857565,26.6728399],[-94.7840795,26.6781352],[-94.781915,26.6850862],[-94.7810744,26.687689],[-94.7800634,26.6909025],[-94.7787714,26.6950763],[-94.7771517,26.7003862],[-94.775849,26.7047267],[-94.775539,26.7056978],[-94.7752392,26.706747],[-94.7732527,26.7131831],[-94.7729032,26.7142199],[-94.7723034,26.7163183],[-94.7715768,26.7184788],[-94.7712683,26.7195259],[-94.7708547,26.720794],[-94.7706259,26.7216138],[-94.7699011,26.723681],[-94.7696117,26.7248266],[-94.7693144,26.7258765],[-94.7689765,26.7269162],[-94.7686154,26.7279502],[-94.7683205,26.7290007],[-94.7679642,26.7301295],[-94.7670215,26.7332665],[-94.7666638,26.7343014],[-94.766327,26.7354351],[-94.7659929,26.7364758],[-94.7656949,26.7375255],[-94.7653607,26.7385662],[-94.7640566,26.7428308],[-94.763457,26.7449294],[-94.7630858,26.7460544],[-94.7617905,26.7502276],[-94.7614791,26.7512741],[-94.7607866,26.7534431],[-94.7598284,26.7565921],[-94.7574955,26.7640502],[-94.7568271,26.7661316],[-94.7545076,26.7736089],[-94.7534855,26.7767261],[-94.7524747,26.7798931],[-94.7518321,26.7820278],[-94.7505114,26.7862416],[-94.7502275,26.7873417],[-94.7498502,26.7883717],[-94.7488785,26.7915484],[-94.7485337,26.7925864],[-94.7482226,26.7936798],[-94.7475284,26.7958485],[-94.7472768,26.7969099],[-94.746919,26.7979447],[-94.7442469,26.8063646],[-94.7411232,26.8164506],[-94.7405538,26.8180858],[-94.7403564,26.8185972],[-94.7397141,26.8201151],[-94.7390135,26.8216126],[-94.7381835,26.823157],[-94.7371969,26.8248327],[-94.7361108,26.8264582],[-94.7356231,26.8271425],[-94.7348934,26.8281162],[-94.7257539,26.8394509],[-94.7235806,26.8421621],[-94.7228927,26.8430524],[-94.7214725,26.8448042],[-94.7200181,26.8466452],[-94.7178748,26.8492647],[-94.7143221,26.8537543],[-94.7135937,26.8546185],[-94.7114194,26.8573293],[-94.7085729,26.8609405],[-94.7078954,26.8618376],[-94.7058018,26.8644893],[-94.7032843,26.8675987],[-94.7007984,26.8707544],[-94.7000802,26.8716303],[-94.6979429,26.8743288],[-94.696994,26.8754911],[-94.6950971,26.8779075],[-94.6943631,26.87879],[-94.6933998,26.8800519],[-94.6908122,26.8832774],[-94.6886752,26.8859783],[-94.6858031,26.8895453],[-94.6850705,26.8904288],[-94.6843674,26.891331],[-94.6822018,26.8940039],[-94.6807917,26.8957867],[-94.672162,26.9064965],[-94.6699939,26.9092119],[-94.6678446,26.9119395],[-94.6621455,26.9190484],[-94.6612788,26.9201545],[-94.6607823,26.9208328],[-94.6600975,26.9218309],[-94.6593371,26.9229989],[-94.6587159,26.9240427],[-94.6578228,26.9256468],[-94.6574095,26.9264693],[-94.6568156,26.9277136],[-94.6565988,26.9282189],[-94.6559904,26.9297487],[-94.6556177,26.9307786],[-94.655336,26.9316449],[-94.6548801,26.9332166],[-94.6545053,26.9348051],[-94.654146,26.9366711],[-94.6539617,26.9378316],[-94.6538254,26.9389069],[-94.6532342,26.9449306],[-94.6527771,26.9493341],[-94.6515114,26.9613748],[-94.6513895,26.9624524],[-94.6512472,26.9635283],[-94.6508453,26.9677141],[-94.650475,26.9710625],[-94.6502401,26.9733609],[-94.6499862,26.9755696],[-94.6495225,26.9799725],[-94.6494403,26.9810533],[-94.6492665,26.9821266],[-94.6491807,26.9829061],[-94.6491789,26.9832977],[-94.6491137,26.9843799],[-94.649007,26.9854588],[-94.6488687,26.986535],[-94.6487781,26.9876152],[-94.6485074,26.9898588],[-94.6484241,26.9909395],[-94.6482572,26.9920133],[-94.6482275,26.9930985],[-94.648069,26.9942637],[-94.647736,26.9974992],[-94.6476341,26.9985784],[-94.6475453,26.9998772],[-94.6474228,27.0007544],[-94.6473576,27.0019091],[-94.6469381,27.0063156],[-94.6465385,27.0095456],[-94.6464566,27.0106266],[-94.646356,27.0113455],[-94.6462198,27.012873],[-94.6460839,27.0139493],[-94.6457277,27.0172734],[-94.6456169,27.0186351],[-94.6455118,27.0194309],[-94.6454261,27.0205115],[-94.6452899,27.0215878],[-94.6451791,27.022757],[-94.645101,27.0238382],[-94.6449432,27.0249129],[-94.6448258,27.0259907],[-94.6447506,27.0270722],[-94.6445909,27.0281466],[-94.6444669,27.0293147],[-94.644395,27.0303964],[-94.6421233,27.0523242],[-94.6406119,27.0676076],[-94.6403623,27.069853],[-94.6394915,27.0781793],[-94.6386797,27.0854854],[-94.6385294,27.0865614],[-94.638398,27.0873665],[-94.6381699,27.0884321],[-94.6379048,27.0894892],[-94.6376118,27.0905406],[-94.6373165,27.0916839],[-94.6365298,27.094856],[-94.6352551,27.1002419],[-94.6335579,27.1072082],[-94.6333942,27.1077298],[-94.6330047,27.1088512],[-94.6322614,27.1106287],[-94.631906,27.1113779],[-94.6312262,27.1125902],[-94.6304199,27.1138434],[-94.6300986,27.114303],[-94.6294198,27.1151997],[-94.6287145,27.1160798],[-94.6279839,27.1169424],[-94.6271613,27.1178559],[-94.6265673,27.1184706],[-94.6259481,27.1190653],[-94.6250953,27.1198339],[-94.6199689,27.1245633],[-94.6191472,27.125359],[-94.6165274,27.1277376],[-94.6139946,27.130066],[-94.6130978,27.1309223],[-94.6109262,27.1331722],[-94.6099937,27.1342351],[-94.6095836,27.1347487],[-94.6092486,27.1351992],[-94.6082286,27.1368059],[-94.6075412,27.1380393],[-94.6071587,27.1387941],[-94.6064521,27.1403089],[-94.606047,27.1413493],[-94.6057729,27.1421333],[-94.6044283,27.1463705],[-94.6026706,27.1517126],[-94.6020094,27.1537968],[-94.5995886,27.1611563],[-94.5991975,27.1622763],[-94.5978117,27.1664255],[-94.597677,27.1669527],[-94.5974975,27.1675633],[-94.5972354,27.1686209],[-94.597031,27.1696893],[-94.5969593,27.1702278],[-94.5967461,27.1723894],[-94.5967005,27.1741053],[-94.5967331,27.1753605],[-94.5966974,27.1806942],[-94.5967161,27.1817775],[-94.5966654,27.1839432],[-94.5966514,27.1873092],[-94.5965881,27.1917047],[-94.5965444,27.1939979],[-94.5965084,27.1949533],[-94.5964123,27.2004581],[-94.5963761,27.2048805],[-94.5963262,27.2082196],[-94.5963239,27.2125606],[-94.5964127,27.2137314],[-94.5966986,27.2161504],[-94.5967573,27.2172309],[-94.5967628,27.2180433],[-94.5967417,27.2192165],[-94.5966136,27.2235473],[-94.5965686,27.2258034],[-94.5966146,27.2290534],[-94.5966115,27.2298124],[-94.5963807,27.2378962],[-94.5962599,27.2434006],[-94.5962,27.247844],[-94.5959655,27.2620811],[-94.5958411,27.2686687],[-94.5958044,27.2720079],[-94.5956734,27.2785953],[-94.5956559,27.2807591],[-94.5956154,27.2829635],[-94.5955486,27.2848674],[-94.5955644,27.2851831],[-94.5955272,27.2862658],[-94.595501,27.2906882],[-94.595436,27.2951102],[-94.5954362,27.2961933],[-94.5954699,27.2972769],[-94.5954524,27.2995332],[-94.5953942,27.3016988],[-94.5953732,27.3034689],[-94.5953157,27.3050375],[-94.595307,27.3061205],[-94.5952526,27.3072029],[-94.595209,27.3093687],[-94.5952258,27.3116254],[-94.5951301,27.3148736],[-94.5950672,27.3182124],[-94.5950175,27.3220293],[-94.5949625,27.323717],[-94.5949525,27.3269664],[-94.5949197,27.3292225],[-94.5949269,27.3303057],[-94.5948592,27.3313042],[-94.5948591,27.3336444],[-94.5947341,27.3391489],[-94.5947218,27.3405953],[-94.5946944,27.3413146],[-94.5946635,27.3446538],[-94.5945129,27.351241],[-94.5943074,27.3632793],[-94.5943427,27.3677566],[-94.5943028,27.3698852],[-94.5943059,27.3715306],[-94.5943336,27.3720842],[-94.5944008,27.3728995],[-94.5944998,27.3737229],[-94.5946292,27.37454],[-94.5948411,27.3756714],[-94.5950902,27.3767324],[-94.5953044,27.3775229],[-94.5957285,27.3788432],[-94.5961274,27.3798686],[-94.5968171,27.3814164],[-94.5973312,27.3824182],[-94.6008017,27.3885462],[-94.6024162,27.3915227],[-94.6040912,27.3944751],[-94.606069,27.3980449],[-94.6061853,27.3981473],[-94.6067059,27.3979801]]},"properties":{"osm_id":1256816511,"osm_type":"way","seamark_type":"pipeline_submarine","display_class":"OTHER","min_zoom":12,"importance":1,"name":null,"ref":null,"common":{"type":"pipeline_submarine"},"children":{"pipeline_submarine":{"category":"supply","product":"gas"}},"osm_tags":{"location":"underwater","man_made":"pipeline","operator":"Williams Field Services - Gulf Coast Company LLC","ref:US:BOEM:ROW":"G28326","seamark:pipeline_submarine:category":"supply","seamark:pipeline_submarine:product":"gas","seamark:type":"pipeline_submarine","substance":"gas","usage":"transmission"}}},{"type":"Feature","geometry":{"type":"LineString","coordinates":[[-94.897744,26.1292875],[-94.8976729,26.1292116]]},"properties":{"osm_id":1256816526,"osm_type":"way","seamark_type":"pipeline_submarine","display_class":"OTHER","min_zoom":12,"importance":1,"name":null,"ref":null,"common":{"type":"pipeline_submarine"},"children":{"pipeline_submarine":{"category":"supply","product":"oil"}},"osm_tags":{"diameter":"6.63\"","location":"underwater","man_made":"pipeline","operator":"Shell Offshore Inc.","seamark:pipeline_submarine:category":"supply","seamark:pipeline_submarine:product":"oil","seamark:type":"pipeline_submarine","substance":"oil","usage":"gathering"}}},{"type":"Feature","geometry":{"type":"LineString","coordinates":[[-94.895891,26.102795],[-94.8961681,26.1029029]]},"properties":{"osm_id":1256816899,"osm_type":"way","seamark_type":"pipeline_submarine","display_class":"OTHER","min_zoom":12,"importance":1,"name":null,"ref":null,"common":{"type":"pipeline_submarine"},"children":{"pipeline_submarine":{"category":"supply","product":"oil"}},"osm_tags":{"diameter":"8.63\"","location":"underwater","man_made":"pipeline","operator":"Shell Offshore Inc.","seamark:pipeline_submarine:category":"supply","seamark:pipeline_submarine:product":"oil","seamark:type":"pipeline_submarine","substance":"oil","usage":"gathering"}}},{"type":"Feature","geometry":{"type":"LineString","coordinates":[[-94.6886486,26.9393515],[-94.681814,26.9441177],[-94.6805203,26.9452594],[-94.6790057,26.9460442],[-94.6786292,26.9463332]]},"properties":{"osm_id":1256816915,"osm_type":"way","seamark_type":"pipeline_submarine","display_class":"OTHER","min_zoom":12,"importance":1,"name":null,"ref":null,"common":{"type":"pipeline_submarine"},"children":{"pipeline_submarine":{"category":"supply","product":"gas"}},"osm_tags":{"location":"underwater","man_made":"pipeline","operator":"ExxonMobil Pipeline Company","operator:wikidata":"Q129699985","ref:US:BOEM:ROW":"G28828","seamark:pipeline_submarine:category":"supply","seamark:pipeline_submarine:product":"gas","seamark:type":"pipeline_submarine","substance":"gas"}}},{"type":"Feature","geometry":{"type":"LineString","coordinates":[[-94.882635,26.1085157],[-94.8825689,26.1083862],[-94.8825232,26.1082304],[-94.882505,26.108097],[-94.8825259,26.1079975],[-94.8825753,26.1079341],[-94.8826495,26.1078937],[-94.8830944,26.1078065],[-94.8832193,26.1077331],[-94.8832633,26.1076644],[-94.8832759,26.1075606],[-94.883222,26.1073471],[-94.8831782,26.1072464],[-94.8831175,26.1071822],[-94.8830281,26.1071541],[-94.8829373,26.1071699],[-94.8826427,26.1073115],[-94.8825233,26.1073435],[-94.8823978,26.1073346],[-94.882272,26.1072692],[-94.8820717,26.1070999],[-94.8817012,26.1067219],[-94.8812201,26.1063851],[-94.8810875,26.1062714],[-94.8809329,26.1060605],[-94.8808698,26.1058986],[-94.8808627,26.1058087],[-94.8808877,26.1057206],[-94.8809452,26.1056462],[-94.8810214,26.1055899],[-94.8811823,26.1055065],[-94.8813603,26.1054638],[-94.8814532,26.1054713],[-94.881541,26.1054989],[-94.8819912,26.1057415],[-94.8821114,26.1058199]]},"properties":{"osm_id":1256816940,"osm_type":"way","seamark_type":"pipeline_submarine","display_class":"OTHER","min_zoom":12,"importance":1,"name":null,"ref":null,"common":{"type":"pipeline_submarine"},"children":{"pipeline_submarine":{"category":"supply","product":"oil"}},"osm_tags":{"diameter":"16\"","location":"underwater","man_made":"pipeline","operator":"Shell Offshore Inc.","seamark:pipeline_submarine:category":"supply","seamark:pipeline_submarine:product":"oil","seamark:type":"pipeline_submarine","substance":"oil","usage":"gathering"}}},{"type":"Feature","geometry":{"type":"LineString","coordinates":[[-94.8975531,26.1289926],[-94.897638,26.1291538]]},"properties":{"osm_id":1256817364,"osm_type":"way","seamark_type":"pipeline_submarine","display_class":"OTHER","min_zoom":12,"importance":1,"name":null,"ref":null,"common":{"type":"pipeline_submarine"},"children":{"pipeline_submarine":{"category":"supply","product":"oil"}},"osm_tags":{"location":"underwater","man_made":"pipeline","operator":"Shell Offshore Inc.","seamark:pipeline_submarine:category":"supply","seamark:pipeline_submarine:product":"oil","seamark:type":"pipeline_submarine","substance":"oil","usage":"gathering"}}},{"type":"Feature","geometry":{"type":"LineString","coordinates":[[-94.7900811,26.1556577],[-94.7898256,26.1556996]]},"properties":{"osm_id":1256817535,"osm_type":"way","seamark_type":"pipeline_submarine","display_class":"OTHER","min_zoom":12,"importance":1,"name":null,"ref":null,"common":{"type":"pipeline_submarine"},"children":{"pipeline_submarine":{"category":"supply","product":"oil"}},"osm_tags":{"diameter":"6.63\"","location":"underwater","man_made":"pipeline","operator":"Shell Offshore Inc.","seamark:pipeline_submarine:category":"supply","seamark:pipeline_submarine:product":"oil","seamark:type":"pipeline_submarine","substance":"oil","usage":"gathering"}}},{"type":"Feature","geometry":{"type":"LineString","coordinates":[[-94.7896103,26.155796],[-94.7897846,26.1556889]]},"properties":{"osm_id":1256817707,"osm_type":"way","seamark_type":"pipeline_submarine","display_class":"OTHER","min_zoom":12,"importance":1,"name":null,"ref":null,"common":{"type":"pipeline_submarine"},"children":{"pipeline_submarine":{"category":"supply","product":"oil"}},"osm_tags":{"diameter":"6.63\"","location":"underwater","man_made":"pipeline","operator":"Shell Offshore Inc.","seamark:pipeline_submarine:category":"supply","seamark:pipeline_submarine:product":"oil","seamark:type":"pipeline_submarine","substance":"oil","usage":"gathering"}}},{"type":"Feature","geometry":{"type":"LineString","coordinates":[[-94.8905371,26.101758],[-94.8909046,26.1013539],[-94.8909495,26.1013141],[-94.8910077,26.1012907],[-94.8911019,26.1012919],[-94.8912105,26.1013382],[-94.8916105,26.1016271]]},"properties":{"osm_id":1256817740,"osm_type":"way","seamark_type":"pipeline_submarine","display_class":"OTHER","min_zoom":12,"importance":1,"name":null,"ref":null,"common":{"type":"pipeline_submarine"},"children":{"pipeline_submarine":{"category":"supply","product":"oil"}},"osm_tags":{"location":"underwater","man_made":"pipeline","operator":"Shell Offshore Inc.","seamark:pipeline_submarine:category":"supply","seamark:pipeline_submarine:product":"oil","seamark:type":"pipeline_submarine","substance":"oil","usage":"gathering"}}},{"type":"Feature","geometry":{"type":"LineString","coordinates":[[-94.8977255,26.1288964],[-94.897677,26.1291248]]},"properties":{"osm_id":1256817862,"osm_type":"way","seamark_type":"pipeline_submarine","display_class":"OTHER","min_zoom":12,"importance":1,"name":null,"ref":null,"common":{"type":"pipeline_submarine"},"children":{"pipeline_submarine":{"category":"supply","product":"oil"}},"osm_tags":{"diameter":"8.63\"","location":"underwater","man_made":"pipeline","operator":"Shell Offshore Inc.","seamark:pipeline_submarine:category":"supply","seamark:pipeline_submarine:product":"oil","seamark:type":"pipeline_submarine","substance":"oil","usage":"gathering"}}},{"type":"Feature","geometry":{"type":"LineString","coordinates":[[-94.9081451,27.0175186],[-94.9081545,27.0173509],[-94.9078549,27.0169805],[-94.9010395,27.0097114],[-94.8948343,27.0029828],[-94.8939605,27.0020774],[-94.8931351,27.0012808],[-94.8906161,26.9989257],[-94.8863067,26.9949453],[-94.8837862,26.9925928],[-94.8693758,26.9790658],[-94.8650552,26.9750967],[-94.8633723,26.9735305],[-94.8608536,26.9711765],[-94.8600336,26.9703741],[-94.8557412,26.9663809],[-94.8532338,26.9640167],[-94.845597,26.9568728],[-94.8406215,26.9522771],[-94.8365881,26.948514],[-94.8352077,26.9472472],[-94.8298281,26.9422139],[-94.8285093,26.9409518],[-94.8258171,26.9384612],[-94.8244739,26.9372021],[-94.8236319,26.9363766],[-94.8216938,26.9345777],[-94.8209792,26.9338469],[-94.8202877,26.9332231],[-94.8196021,26.9325772],[-94.8182897,26.9313121],[-94.8169063,26.9300287],[-94.8149147,26.9281313],[-94.8142266,26.9275184],[-94.8135902,26.9268773],[-94.8115527,26.9249833],[-94.8109854,26.9244321],[-94.8095345,26.9231384],[-94.8088252,26.9225395],[-94.8073581,26.9213754],[-94.8058699,26.920239],[-94.8050875,26.9196685],[-94.8043336,26.9191609],[-94.803542,26.9185906],[-94.8019911,26.9175595],[-94.7996139,26.9160905],[-94.7979694,26.9151485],[-94.7972328,26.9147507],[-94.7946063,26.9134251],[-94.7937319,26.9130483],[-94.7928601,26.9126412],[-94.7910784,26.9119431],[-94.7901246,26.911592],[-94.7874253,26.9106991],[-94.7855936,26.9101363],[-94.7837289,26.9096179],[-94.7818438,26.9091713],[-94.7808712,26.9089827],[-94.7799483,26.9088376],[-94.7789787,26.9086489],[-94.7779944,26.9085045],[-94.7771471,26.9082869],[-94.7761433,26.9080684],[-94.7751675,26.9078771],[-94.7723243,26.9073764],[-94.7713436,26.9072621],[-94.7704137,26.9070619],[-94.7694848,26.906925],[-94.7685094,26.9067557],[-94.7665781,26.9064855],[-94.7656522,26.9063375],[-94.7637555,26.9061246],[-94.7617123,26.9059603],[-94.7607938,26.9059002],[-94.7588415,26.9058585],[-94.7568805,26.9058499],[-94.7549571,26.9058876],[-94.7539297,26.9059279],[-94.753001,26.9059972],[-94.7510707,26.906189],[-94.7500935,26.9063029],[-94.7491127,26.9063783],[-94.7481631,26.9064836],[-94.7472018,26.9066331],[-94.7462463,26.9067577],[-94.7452943,26.9069125],[-94.7426149,26.9074821],[-94.7415147,26.9077735],[-94.739634,26.9082011],[-94.7386381,26.9084968],[-94.7377763,26.908733],[-94.7368325,26.9090225],[-94.7350894,26.9096189],[-94.734159,26.909988],[-94.733228,26.910313],[-94.7314991,26.9110413],[-94.7306115,26.9113906],[-94.729731,26.911814],[-94.7288713,26.912185],[-94.7280067,26.9126468],[-94.7271472,26.9130314],[-94.7263093,26.9134323],[-94.7246184,26.9144407],[-94.7238393,26.9148711],[-94.7230247,26.9153928],[-94.7222368,26.9158481],[-94.721483,26.9163277],[-94.7206691,26.9168962],[-94.7198849,26.9173927],[-94.7191137,26.9179468],[-94.7175549,26.9189727],[-94.7160401,26.9200723],[-94.7145093,26.9211364],[-94.7130063,26.9222056],[-94.7098743,26.9243482],[-94.7084237,26.9254387],[-94.7022333,26.9297448],[-94.7007092,26.9308609],[-94.6979729,26.9328114],[-94.6976427,26.9331043],[-94.6965669,26.9338215],[-94.6952732,26.9347505],[-94.6888326,26.9392241]]},"properties":{"osm_id":1256818039,"osm_type":"way","seamark_type":"pipeline_submarine","display_class":"OTHER","min_zoom":12,"importance":1,"name":null,"ref":null,"common":{"type":"pipeline_submarine"},"children":{"pipeline_submarine":{"category":"supply","product":"oil"}},"osm_tags":{"abandoned:man_made":"pipeline","diameter":"6.63\"","location":"underwater","operator":"Exxon Mobil Corporation","ref:US:BOEM:ROW":"G20523","seamark:pipeline_submarine:category":"supply","seamark:pipeline_submarine:product":"oil","seamark:type":"pipeline_submarine","substance":"oil","usage":"gathering"}}},{"type":"Feature","geometry":{"type":"LineString","coordinates":[[-94.9031643,26.0939405],[-94.9032444,26.0936719],[-94.9032458,26.0935876],[-94.90301,26.0932056]]},"properties":{"osm_id":1256818170,"osm_type":"way","seamark_type":"pipeline_submarine","display_class":"OTHER","min_zoom":12,"importance":1,"name":null,"ref":null,"common":{"type":"pipeline_submarine"},"children":{"pipeline_submarine":{"category":"supply","product":"oil"}},"osm_tags":{"location":"underwater","man_made":"pipeline","operator":"Shell Offshore Inc.","seamark:pipeline_submarine:category":"supply","seamark:pipeline_submarine:product":"oil","seamark:type":"pipeline_submarine","substance":"oil","usage":"gathering"}}},{"type":"Feature","geometry":{"type":"LineString","coordinates":[[-94.802519,26.1303569],[-94.8021493,26.1305212],[-94.8018855,26.1306644],[-94.8017393,26.1307055],[-94.8014194,26.1307089],[-94.8012845,26.1307352],[-94.8011713,26.1307907],[-94.8010739,26.1308908],[-94.8009466,26.1309843],[-94.8008044,26.131039],[-94.8002218,26.1312081],[-94.7993973,26.1315671],[-94.7992525,26.1316112],[-94.7991208,26.1316813],[-94.7990814,26.1318131],[-94.7990482,26.1320861],[-94.798931,26.1326267]]},"properties":{"osm_id":1256818318,"osm_type":"way","seamark_type":"pipeline_submarine","display_class":"OTHER","min_zoom":12,"importance":1,"name":null,"ref":null,"common":{"type":"pipeline_submarine"},"children":{"pipeline_submarine":{"category":"supply","product":"oil"}},"osm_tags":{"location":"underwater","man_made":"pipeline","operator":"Shell Offshore Inc.","seamark:pipeline_submarine:category":"supply","seamark:pipeline_submarine:product":"oil","seamark:type":"pipeline_submarine","substance":"oil","usage":"gathering"}}},{"type":"Feature","geometry":{"type":"LineString","coordinates":[[-94.8979546,26.1295868],[-94.8978227,26.1297149]]},"properties":{"osm_id":1256818344,"osm_type":"way","seamark_type":"pipeline_submarine","display_class":"OTHER","min_zoom":12,"importance":1,"name":null,"ref":null,"common":{"type":"pipeline_submarine"},"children":{"pipeline_submarine":{"category":"supply","product":"oil"}},"osm_tags":{"diameter":"8.63\"","location":"underwater","man_made":"pipeline","operator":"Shell Offshore Inc.","seamark:pipeline_submarine:category":"supply","seamark:pipeline_submarine:product":"oil","seamark:type":"pipeline_submarine","substance":"oil","usage":"gathering"}}},{"type":"Feature","geometry":{"type":"LineString","coordinates":[[-94.8916786,26.101599],[-94.8930792,26.1005512],[-94.8937973,26.1000403],[-94.8947387,26.0993415],[-94.8959447,26.0985001],[-94.8961641,26.0983079],[-94.8966469,26.0979718],[-94.8975649,26.0972472],[-94.8982765,26.0967292],[-94.8994355,26.0958363],[-94.8996869,26.0956792],[-94.8999095,26.0954905],[-94.9001567,26.0953288],[-94.9003791,26.0951398],[-94.9008755,26.0948188],[-94.9013467,26.0944698],[-94.9022644,26.093745],[-94.9029691,26.0932206]]},"properties":{"osm_id":1256818501,"osm_type":"way","seamark_type":"pipeline_submarine","display_class":"OTHER","min_zoom":12,"importance":1,"name":null,"ref":null,"common":{"type":"pipeline_submarine"},"children":{"pipeline_submarine":{"category":"supply","product":"oil"}},"osm_tags":{"location":"underwater","man_made":"pipeline","operator":"Shell Offshore Inc.","seamark:pipeline_submarine:category":"supply","seamark:pipeline_submarine:product":"oil","seamark:type":"pipeline_submarine","substance":"oil","usage":"gathering"}}},{"type":"Feature","geometry":{"type":"LineString","coordinates":[[-94.8984901,26.1286969],[-94.9037809,26.1239747],[-94.9105038,26.1183337],[-94.9115737,26.1174088],[-94.9152931,26.1141295],[-94.9189724,26.1108313],[-94.9204002,26.1096265],[-94.9245847,26.1059363],[-94.9288459,26.1022889],[-94.9377173,26.0945986],[-94.9395309,26.0931405],[-94.9402538,26.0924818],[-94.9404093,26.0923768],[-94.9421767,26.0908601],[-94.9423799,26.0906601],[-94.9426181,26.0904676],[-94.943082,26.0901248],[-94.9437653,26.0895696],[-94.9440006,26.0894019],[-94.9454884,26.0884287],[-94.947034,26.0875021],[-94.9475632,26.0872482],[-94.9480635,26.086951],[-94.9485954,26.0867032],[-94.9491005,26.0864113],[-94.9496278,26.0861555],[-94.9507011,26.0856756],[-94.9517874,26.0852186],[-94.9529883,26.0847718],[-94.9535499,26.0845818],[-94.9543961,26.0843048],[-94.9555413,26.0839795],[-94.9561314,26.0838741],[-94.957292,26.0835998],[-94.9585697,26.0833849],[-94.9591655,26.0833199],[-94.9597551,26.0832222],[-94.9600526,26.0831893],[-94.9621404,26.0830156],[-94.9655334,26.0829351],[-94.96641,26.0829998],[-94.9667314,26.0829818],[-94.9670309,26.0829981],[-94.9679208,26.083122],[-94.9685198,26.0831548],[-94.9694118,26.0832594],[-94.9699949,26.0833915],[-94.9705869,26.0834746],[-94.9712643,26.0836314],[-94.9718546,26.0837258],[-94.9724384,26.0838468],[-94.9730097,26.0840111],[-94.9735884,26.0841498],[-94.9747262,26.0844863],[-94.9758416,26.084878],[-94.9773093,26.085439],[-94.9778367,26.0856947],[-94.9797218,26.086507],[-94.9804952,26.0869149],[-94.9812967,26.0872802],[-94.9817993,26.0875725],[-94.9831815,26.0882987],[-94.9836841,26.0885951],[-94.9848886,26.0894034],[-94.9860377,26.0902756],[-94.987132,26.0912033],[-94.9882545,26.0922339],[-94.9892495,26.0932483],[-94.9898238,26.0938746],[-94.9903803,26.0945138],[-94.9910907,26.0953878],[-94.991489,26.0959081],[-94.9921414,26.0968185],[-94.9929015,26.0979871],[-94.9934592,26.0989472],[-94.9940852,26.1001782],[-94.9947977,26.101767],[-94.9951102,26.1025281],[-94.9956787,26.1040686],[-94.9957613,26.1043289],[-94.9961395,26.1056385],[-94.9963703,26.106517],[-94.996586,26.1075829],[-94.9967959,26.1089239],[-94.9969567,26.1105426],[-94.9969991,26.1116253],[-94.9970169,26.112799],[-94.9969513,26.1141521],[-94.9967859,26.1157701],[-94.9965647,26.117109],[-94.9963825,26.1179962],[-94.9962378,26.1185217],[-94.9960481,26.119315],[-94.9957344,26.1203593],[-94.995265,26.1216431],[-94.9950529,26.1221486],[-94.9947657,26.1229169],[-94.994469,26.1234887],[-94.9942412,26.1239879],[-94.9935964,26.1252054],[-94.992905,26.126401],[-94.9924712,26.1271095],[-94.9918324,26.1280214],[-94.9906101,26.1296648],[-94.9899256,26.1305543],[-94.9892654,26.1314592],[-94.9885572,26.1323336],[-94.9871469,26.1341968],[-94.9857666,26.1359687],[-94.9841555,26.1379912],[-94.9834613,26.1389187],[-94.9813782,26.1415685],[-94.9806236,26.1425238],[-94.9799019,26.1433898],[-94.9776643,26.1462778],[-94.9769702,26.1472742],[-94.9763621,26.1482115],[-94.9762376,26.1484601],[-94.9761398,26.1487218],[-94.9760173,26.1489704],[-94.9755977,26.1496893],[-94.9743621,26.1519068],[-94.9716975,26.1568092],[-94.9714437,26.1572642],[-94.9711079,26.1578145],[-94.9682524,26.1630243],[-94.9677394,26.1640037],[-94.9671721,26.1649585],[-94.9637554,26.1711059],[-94.9592937,26.1792641],[-94.9576603,26.1821598],[-94.9571141,26.1831849],[-94.9560144,26.1851507],[-94.9554581,26.1861106],[-94.9549366,26.1870863],[-94.953652,26.189332],[-94.9531285,26.1903067],[-94.9520191,26.192228],[-94.9509164,26.1942532],[-94.9504095,26.1951193],[-94.9492704,26.1971432],[-94.948744,26.1981167],[-94.9476196,26.2001321],[-94.9470994,26.2011084],[-94.9465436,26.2020685],[-94.9441925,26.206255],[-94.9436338,26.2072139],[-94.9433547,26.2077389],[-94.941026,26.2118902],[-94.9406329,26.212621],[-94.9399661,26.2139335],[-94.9396063,26.2146778],[-94.938944,26.2161877],[-94.9386307,26.2169488],[-94.9384027,26.2174504],[-94.9382323,26.21797],[-94.9378216,26.2190833],[-94.9377331,26.2193421],[-94.9375258,26.2201331],[-94.9373063,26.2207888],[-94.9371437,26.2214418],[-94.9369618,26.2222371],[-94.9368649,26.2227716],[-94.9367203,26.2232973],[-94.9364458,26.2247191],[-94.9363809,26.2252575],[-94.936271,26.2257902],[-94.9362366,26.2260591],[-94.9360246,26.227944],[-94.9359585,26.2286636],[-94.935896,26.2295644],[-94.9357628,26.2310034],[-94.9356873,26.2320845],[-94.9354798,26.2342425],[-94.935455,26.2347657],[-94.9351257,26.2386534],[-94.9348418,26.2422544],[-94.9347342,26.2433331],[-94.9342673,26.248877],[-94.9342006,26.249904],[-94.9340939,26.2509828],[-94.9340463,26.2520657],[-94.9336284,26.2575581],[-94.9332575,26.2622393],[-94.9331556,26.2633185],[-94.9326413,26.2696192],[-94.9323714,26.2732211],[-94.931929,26.278712],[-94.931777,26.2808738],[-94.9316452,26.282313],[-94.931494,26.2844725],[-94.9314434,26.2850112],[-94.9314131,26.2860917],[-94.9314488,26.2875332],[-94.9315915,26.289151],[-94.9317804,26.2905028],[-94.93203,26.2915529],[-94.9321449,26.2921118],[-94.9323606,26.2929188],[-94.9327135,26.2940006],[-94.9331365,26.2950135],[-94.9334047,26.2957879],[-94.9335112,26.2960407],[-94.9346036,26.2982643],[-94.9351686,26.2993206],[-94.9428447,26.3130149],[-94.9434484,26.3140551],[-94.9439576,26.315022],[-94.9444419,26.3160309],[-94.9447617,26.316792],[-94.944866,26.3170465],[-94.9452201,26.3180836],[-94.9456502,26.3194766],[-94.9459313,26.3205314],[-94.9461074,26.3213295],[-94.9462481,26.3221333],[-94.9463364,26.3226699],[-94.9464162,26.3234806],[-94.9465159,26.3242895],[-94.9465609,26.3254642],[-94.9465801,26.3276307],[-94.9465865,26.3317825],[-94.9466621,26.336475],[-94.9467065,26.3408069],[-94.9467325,26.34198],[-94.9467452,26.3441461],[-94.9467837,26.3465825],[-94.9468179,26.3477555],[-94.9468197,26.3488386],[-94.9467963,26.3496512],[-94.9468014,26.3507342],[-94.9468388,26.3518168],[-94.9469758,26.3586748],[-94.9471065,26.3691418],[-94.9470871,26.3699531],[-94.9470046,26.371123],[-94.9469485,26.3716618],[-94.9468056,26.3727368],[-94.9467065,26.3732708],[-94.9464673,26.3743318],[-94.9461076,26.3756449],[-94.9457368,26.3767681],[-94.9452551,26.3780483],[-94.9440875,26.3808345],[-94.9428095,26.3839691],[-94.941955,26.3859938],[-94.9390355,26.3930399],[-94.9328734,26.4080836],[-94.9320466,26.4100214],[-94.9312195,26.4120554],[-94.9304392,26.413913],[-94.9298369,26.4154465],[-94.9293979,26.4167436],[-94.9291567,26.4175278],[-94.9289327,26.4183163],[-94.9287327,26.4191099],[-94.9281905,26.4215906],[-94.9266864,26.4282706],[-94.923704,26.4412147],[-94.9232196,26.4434101],[-94.9219843,26.4488203],[-94.9217608,26.4498846],[-94.9214481,26.4512088],[-94.9202492,26.4566073],[-94.9187196,26.4633268],[-94.9182324,26.46554],[-94.9172252,26.4698683],[-94.9156718,26.4767052],[-94.9153145,26.4781737],[-94.9149799,26.4792134],[-94.9145073,26.4804981],[-94.9139081,26.4818373],[-94.9135458,26.482581],[-94.911751,26.4860102],[-94.9112045,26.4870755],[-94.910722,26.4880679],[-94.9096619,26.4900131],[-94.9033303,26.5022931],[-94.9028038,26.5032658],[-94.9020674,26.5044448],[-94.9016069,26.5051427],[-94.9007806,26.5062732],[-94.8998308,26.5074365],[-94.8990658,26.5082723],[-94.8982743,26.5090881],[-94.8975508,26.5097869],[-94.8940326,26.5130559],[-94.8898141,26.517044],[-94.8836806,26.5227564],[-94.8792356,26.5269246],[-94.8758062,26.5300935],[-94.871143,26.5344496],[-94.8696372,26.535906],[-94.8688604,26.5367364],[-94.8679201,26.5377974],[-94.8673812,26.5384515],[-94.8666824,26.5393366],[-94.8618706,26.5457806],[-94.8589619,26.5495678],[-94.8575837,26.5514535],[-94.8562424,26.5532526],[-94.8533163,26.5571386],[-94.8512103,26.5598889],[-94.8505164,26.5607734],[-94.8494407,26.562077],[-94.8476808,26.5640415],[-94.8472917,26.5644536],[-94.8464886,26.5652587],[-94.8448472,26.566844],[-94.8429595,26.568716],[-94.8303174,26.5810685],[-94.8295148,26.5818762],[-94.8268695,26.5844709],[-94.8251577,26.5861209],[-94.8186364,26.5924728],[-94.8174865,26.5936407],[-94.8169158,26.5942742],[-94.8160097,26.5953623],[-94.8153302,26.5962622],[-94.8148464,26.5969526],[-94.814544,26.5974237],[-94.81394,26.5984692],[-94.8131725,26.599945],[-94.8116317,26.6031832],[-94.8096229,26.6075151],[-94.8021504,26.6237824],[-94.8016825,26.6248781],[-94.7961922,26.6368042],[-94.7954312,26.6385739],[-94.7948496,26.6401145],[-94.794487,26.641206],[-94.792636,26.6473383],[-94.7912468,26.6518625],[-94.7909094,26.6529023],[-94.787983,26.662382],[-94.7876397,26.6629884],[-94.7873081,26.6645366],[-94.7819509,26.6817651],[-94.780401,26.6868197],[-94.7792225,26.690545],[-94.7782734,26.6936804],[-94.7767046,26.6987166],[-94.7763163,26.70003],[-94.7759771,26.7010693],[-94.7732926,26.7098604],[-94.7730281,26.7106547],[-94.7702178,26.719678],[-94.7696021,26.7217266],[-94.7689039,26.7239401],[-94.7655569,26.7348142],[-94.7634841,26.7414161],[-94.7625474,26.7445547],[-94.7619675,26.7464708],[-94.7619511,26.746469],[-94.7612489,26.7488207],[-94.7595937,26.7541218],[-94.7572416,26.7617783],[-94.7555552,26.7670717],[-94.7545704,26.770293],[-94.754267,26.7713403],[-94.7539313,26.7723807],[-94.7529726,26.7755138],[-94.752608,26.7766405],[-94.7513207,26.7809095],[-94.7492568,26.7875139],[-94.7482108,26.7907189],[-94.747617,26.7926316],[-94.7473017,26.7935833],[-94.7462265,26.7970622],[-94.7438248,26.8047064],[-94.7412646,26.812967],[-94.7409255,26.8140065],[-94.7402896,26.8160953],[-94.7401142,26.8166128],[-94.7399018,26.8171195],[-94.7396101,26.8179826],[-94.7388627,26.8197533],[-94.7384952,26.8204948],[-94.7381495,26.8212448],[-94.7377701,26.8219816],[-94.7366289,26.8239901],[-94.7358889,26.825169],[-94.7349421,26.826553],[-94.7335217,26.8284144],[-94.7297352,26.8330863],[-94.7276312,26.8357308],[-94.7148804,26.851629],[-94.7134824,26.8533953],[-94.7112969,26.8560988],[-94.7106019,26.8569851],[-94.7098857,26.8578565],[-94.7091922,26.8587433],[-94.7063037,26.8623274],[-94.7032738,26.8661541],[-94.7011532,26.8687884],[-94.6981141,26.8726092],[-94.6959399,26.8753202],[-94.6945155,26.8770696],[-94.686504,26.8870725],[-94.680044,26.8950728],[-94.6724618,26.9045374],[-94.6711243,26.906232],[-94.669761,26.9079099],[-94.6660052,26.9126034],[-94.6630939,26.9161739],[-94.6624037,26.9170629],[-94.6616935,26.9179392],[-94.6604895,26.9195002],[-94.659614,26.9207152],[-94.6591412,26.9214098],[-94.6583802,26.9225822],[-94.6578162,26.9235425],[-94.6574092,26.92427],[-94.6565865,26.9258219],[-94.6562197,26.9265666],[-94.6556487,26.9278234],[-94.6550093,26.9293483],[-94.6544775,26.9309061],[-94.6540468,26.9323012],[-94.653751,26.9333542],[-94.6533677,26.9349465],[-94.6531062,26.9362835],[-94.6528799,26.9377173],[-94.6525538,26.9404116],[-94.652414,26.9417597],[-94.6522551,26.9429245],[-94.6521469,26.9440033],[-94.6517809,26.9472358],[-94.651477,26.949767],[-94.6506421,26.9571112],[-94.6505356,26.9581902],[-94.6503974,26.9592662],[-94.6502812,26.960435],[-94.6494296,26.9677306],[-94.6488214,26.9735473],[-94.6478558,26.9817148],[-94.6465055,26.9937929],[-94.6456115,27.0014583],[-94.6451061,27.0061037],[-94.6450037,27.0067297],[-94.6452564,27.0070117]]},"properties":{"osm_id":1256818635,"osm_type":"way","seamark_type":"pipeline_submarine","display_class":"OTHER","min_zoom":12,"importance":1,"name":null,"ref":null,"common":{"type":"pipeline_submarine"},"children":{"pipeline_submarine":{"category":"supply","product":"oil"}},"osm_tags":{"location":"underwater","man_made":"pipeline","operator":"Williams Oil Gathering, L.L.C.","ref:US:BOEM:ROW":"G28325","seamark:pipeline_submarine:category":"supply","seamark:pipeline_submarine:product":"oil","seamark:type":"pipeline_submarine","substance":"oil","usage":"transmission"}}},{"type":"Feature","geometry":{"type":"LineString","coordinates":[[-94.8907572,26.1011747],[-94.8909292,26.1010601],[-94.8910148,26.101026],[-94.891107,26.1010221],[-94.8912165,26.101062],[-94.8913204,26.1011247],[-94.8913798,26.101189],[-94.8914739,26.1013942],[-94.8915007,26.1015076],[-94.8916211,26.1016193]]},"properties":{"osm_id":1256818781,"osm_type":"way","seamark_type":"pipeline_submarine","display_class":"OTHER","min_zoom":12,"importance":1,"name":null,"ref":null,"common":{"type":"pipeline_submarine"},"children":{"pipeline_submarine":{"category":"supply","product":"oil"}},"osm_tags":{"location":"underwater","man_made":"pipeline","operator":"Shell Offshore Inc.","seamark:pipeline_submarine:category":"supply","seamark:pipeline_submarine:product":"oil","seamark:type":"pipeline_submarine","substance":"oil","usage":"gathering"}}},{"type":"Feature","geometry":{"type":"LineString","coordinates":[[-94.8821042,26.1058423],[-94.8862672,26.1049158],[-94.8872239,26.1047189],[-94.890087,26.1040679],[-94.8910499,26.1038792],[-94.8920031,26.1036493],[-94.8958959,26.1028003]]},"properties":{"osm_id":1256819034,"osm_type":"way","seamark_type":"pipeline_submarine","display_class":"OTHER","min_zoom":12,"importance":1,"name":null,"ref":null,"common":{"type":"pipeline_submarine"},"children":{"pipeline_submarine":{"category":"supply","product":"oil"}},"osm_tags":{"diameter":"8.63\"","location":"underwater","man_made":"pipeline","operator":"Shell Offshore Inc.","seamark:pipeline_submarine:category":"supply","seamark:pipeline_submarine:product":"oil","seamark:type":"pipeline_submarine","substance":"oil","usage":"gathering"}}},{"type":"Feature","geometry":{"type":"LineString","coordinates":[[-94.8976141,26.1292297],[-94.8872733,26.1301554],[-94.886047,26.1303147],[-94.8845491,26.1304694],[-94.8836718,26.1305387],[-94.8818893,26.130627],[-94.8806922,26.1306604],[-94.87962,26.1306557],[-94.8771544,26.1305703],[-94.8747288,26.1304119],[-94.8742338,26.1303522],[-94.8735991,26.1302385],[-94.8724024,26.1301003],[-94.8712054,26.1299254],[-94.8700675,26.1298218],[-94.8676668,26.1295566],[-94.8664879,26.1293958],[-94.8652542,26.1292485],[-94.8640229,26.1291605],[-94.8634258,26.1290491],[-94.8627952,26.1290037],[-94.861643,26.1288746],[-94.859814,26.12872],[-94.8592086,26.1286549],[-94.858581,26.1286383],[-94.8573594,26.1285735],[-94.8550618,26.1284926],[-94.8544089,26.1285089],[-94.8538731,26.1285031],[-94.8533051,26.1284644],[-94.8520694,26.1285532],[-94.8514468,26.1285386],[-94.8508679,26.1285507],[-94.8479295,26.1288569],[-94.8460783,26.1290345],[-94.8449186,26.1291653],[-94.8442872,26.1292562],[-94.8436658,26.1293755],[-94.8412762,26.1298447],[-94.8400885,26.1301082],[-94.8378742,26.1306735],[-94.8363583,26.1311076],[-94.8333387,26.132063],[-94.8323366,26.1324161],[-94.8306249,26.1330634],[-94.828944,26.1337407],[-94.8267352,26.1347365],[-94.8251639,26.1355247],[-94.8245451,26.1358507],[-94.8235571,26.1363994],[-94.8144766,26.1416655],[-94.8113326,26.1434682],[-94.8092966,26.1446534],[-94.8051667,26.1471164],[-94.8020892,26.1488992],[-94.7968805,26.1518599],[-94.7916332,26.1547827],[-94.7905814,26.1553735],[-94.7900658,26.1556798]]},"properties":{"osm_id":1256819125,"osm_type":"way","seamark_type":"pipeline_submarine","display_class":"OTHER","min_zoom":12,"importance":1,"name":null,"ref":null,"common":{"type":"pipeline_submarine"},"children":{"pipeline_submarine":{"category":"supply","product":"oil"}},"osm_tags":{"diameter":"6.63\"","location":"underwater","man_made":"pipeline","operator":"Shell Offshore Inc.","ref:US:BOEM:ROW":"G29326","seamark:pipeline_submarine:category":"supply","seamark:pipeline_submarine:product":"oil","seamark:type":"pipeline_submarine","substance":"oil","usage":"gathering"}}},{"type":"Feature","geometry":{"type":"LineString","coordinates":[[-94.903799,26.0939761],[-94.9035361,26.0939303]]},"properties":{"osm_id":1256819195,"osm_type":"way","seamark_type":"pipeline_submarine","display_class":"OTHER","min_zoom":12,"importance":1,"name":null,"ref":null,"common":{"type":"pipeline_submarine"},"children":{"pipeline_submarine":{"category":"supply","product":"oil"}},"osm_tags":{"diameter":"6.63\"","location":"underwater","man_made":"pipeline","operator":"Shell Offshore Inc.","seamark:pipeline_submarine:category":"supply","seamark:pipeline_submarine:product":"oil","seamark:type":"pipeline_submarine","substance":"oil","usage":"gathering"}}},{"type":"Feature","geometry":{"type":"LineString","coordinates":[[-94.7990804,26.1327735],[-94.7989294,26.1326653]]},"properties":{"osm_id":1256819693,"osm_type":"way","seamark_type":"pipeline_submarine","display_class":"OTHER","min_zoom":12,"importance":1,"name":null,"ref":null,"common":{"type":"pipeline_submarine"},"children":{"pipeline_submarine":{"category":"supply","product":"oil"}},"osm_tags":{"diameter":"6.63\"","location":"underwater","man_made":"pipeline","operator":"Shell Offshore Inc.","seamark:pipeline_submarine:category":"supply","seamark:pipeline_submarine:product":"oil","seamark:type":"pipeline_submarine","substance":"oil","usage":"gathering"}}},{"type":"Feature","geometry":{"type":"LineString","coordinates":[[-94.8979525,26.1291884],[-94.8976937,26.1291837]]},"properties":{"osm_id":1256819716,"osm_type":"way","seamark_type":"pipeline_submarine","display_class":"OTHER","min_zoom":12,"importance":1,"name":null,"ref":null,"common":{"type":"pipeline_submarine"},"children":{"pipeline_submarine":{"category":"supply","product":"oil"}},"osm_tags":{"diameter":"6.63\"","location":"underwater","man_made":"pipeline","operator":"Shell Offshore Inc.","seamark:pipeline_submarine:category":"supply","seamark:pipeline_submarine:product":"oil","seamark:type":"pipeline_submarine","substance":"oil","usage":"gathering"}}},{"type":"Feature","geometry":{"type":"LineString","coordinates":[[-94.7691765,26.955289],[-94.7693332,26.9553527]]},"properties":{"osm_id":1256819785,"osm_type":"way","seamark_type":"pipeline_submarine","display_class":"OTHER","min_zoom":12,"importance":1,"name":null,"ref":null,"common":{"type":"pipeline_submarine"},"children":{"pipeline_submarine":{"category":"supply","product":"oil"}},"osm_tags":{"diameter":"7\"","location":"underwater","man_made":"pipeline","operator":"ExxonMobil Pipeline Company","operator:wikidata":"Q129699985","seamark:pipeline_submarine:category":"supply","seamark:pipeline_submarine:product":"oil","seamark:type":"pipeline_submarine","substance":"oil","usage":"gathering"}}},{"type":"Feature","geometry":{"type":"LineString","coordinates":[[-94.7247807,27.0294265],[-94.7236224,27.0294295],[-94.7232063,27.0293302],[-94.7228091,27.0290195],[-94.7226329,27.0280987],[-94.7225189,27.0267754],[-94.7217039,27.0247388],[-94.7206282,27.0221784],[-94.7196274,27.019568],[-94.7191404,27.0182526],[-94.718086,27.0156308],[-94.7170325,27.0131682],[-94.7159933,27.0104117],[-94.7144209,27.0066637],[-94.7138501,27.0053717],[-94.7133054,27.0040228],[-94.7130204,27.0026717],[-94.7127662,27.0020747],[-94.7121466,27.0014911],[-94.7112374,27.0014437],[-94.7103703,27.0015417],[-94.7096767,27.0014268],[-94.7090642,27.0008899],[-94.7090606,26.999976],[-94.7097285,26.9993502],[-94.7104388,26.998758],[-94.7108097,26.9980113],[-94.7105528,26.9971317],[-94.7099902,26.9956359],[-94.7066415,26.9872252],[-94.7061167,26.9860125],[-94.7045247,26.9820416],[-94.7039909,26.9807481],[-94.703504,26.9794689],[-94.702484,26.976893],[-94.7019519,26.9755837],[-94.7014126,26.97432],[-94.7009103,26.9729966],[-94.699856,26.9704274],[-94.699368,26.9690962],[-94.6988087,26.9677906],[-94.6983012,26.9665104],[-94.6971812,26.9638948],[-94.6966922,26.9626057],[-94.6951648,26.9587769],[-94.6946637,26.9574798],[-94.6941283,26.9561356],[-94.6938819,26.9555768],[-94.693611,26.9548949],[-94.6930496,26.9536089],[-94.6928308,26.9530442],[-94.6926045,26.9525562],[-94.692349,26.9520814],[-94.6920347,26.9515638],[-94.6917419,26.9511174],[-94.6913446,26.9506463],[-94.6910369,26.9502374],[-94.6907211,26.9497656],[-94.6904422,26.9492967],[-94.6902065,26.9488194],[-94.6895992,26.9473131],[-94.6894238,26.9467508],[-94.6892338,26.9456648],[-94.689021,26.943446],[-94.6889034,26.9426119],[-94.6886389,26.9394108]]},"properties":{"osm_id":1256819854,"osm_type":"way","seamark_type":"pipeline_submarine","display_class":"OTHER","min_zoom":12,"importance":1,"name":null,"ref":null,"common":{"type":"pipeline_submarine"},"children":{"pipeline_submarine":{"category":"supply","product":"gas"}},"osm_tags":{"diameter":"3.5\"","location":"underwater","man_made":"pipeline","operator":"ExxonMobil Pipeline Company","operator:wikidata":"Q129699985","ref:US:BOEM:ROW":"G21887","seamark:pipeline_submarine:category":"supply","seamark:pipeline_submarine:product":"gas","seamark:type":"pipeline_submarine","substance":"gas","usage":"gathering"}}},{"type":"Feature","geometry":{"type":"LineString","coordinates":[[-94.7989169,26.1326462],[-94.7992859,26.1326581],[-94.8007699,26.1326258],[-94.8022626,26.1325741],[-94.8045113,26.1325239],[-94.8052605,26.1324843],[-94.8059971,26.1324118],[-94.8067362,26.1323117],[-94.8081768,26.1320405],[-94.8096135,26.1317143],[-94.8131982,26.130742],[-94.8153538,26.1301921],[-94.8167932,26.1298438],[-94.818242,26.1295174],[-94.8196973,26.1292129],[-94.8211618,26.1289137],[-94.8226359,26.1286475],[-94.8233749,26.1285446],[-94.8255669,26.1281839],[-94.8277623,26.1278507],[-94.8306979,26.1274833],[-94.8321706,26.1273297],[-94.8329132,26.127257],[-94.8343987,26.127139],[-94.8358911,26.127065],[-94.8396166,26.1269377],[-94.8425996,26.1268776],[-94.8448066,26.1268989],[-94.8470325,26.1269584],[-94.8499791,26.1271077],[-94.8514557,26.1272015],[-94.8529512,26.1273253],[-94.854447,26.1274739],[-94.8559342,26.1276556],[-94.8589032,26.1280658],[-94.8648408,26.1288502],[-94.8685572,26.1293001],[-94.8707491,26.1295192],[-94.8729585,26.1296859],[-94.8744289,26.1297658],[-94.8766491,26.1298497],[-94.8781338,26.1298716],[-94.8818182,26.1298373],[-94.8847507,26.129865],[-94.8891638,26.129843],[-94.8906599,26.1298206],[-94.8978257,26.1298309]]},"properties":{"osm_id":1256819860,"osm_type":"way","seamark_type":"pipeline_submarine","display_class":"OTHER","min_zoom":12,"importance":1,"name":null,"ref":null,"common":{"type":"pipeline_submarine"},"children":{"pipeline_submarine":{"category":"supply","product":"oil"}},"osm_tags":{"diameter":"10.75\"","location":"underwater","man_made":"pipeline","operator":"Shell Offshore Inc.","ref:US:BOEM:ROW":"G28747","seamark:pipeline_submarine:category":"supply","seamark:pipeline_submarine:product":"oil","seamark:type":"pipeline_submarine","substance":"oil","usage":"gathering"}}},{"type":"Feature","geometry":{"type":"LineString","coordinates":[[-94.8978624,26.128876],[-94.8977076,26.1291433]]},"properties":{"osm_id":1256820010,"osm_type":"way","seamark_type":"pipeline_submarine","display_class":"OTHER","min_zoom":12,"importance":1,"name":null,"ref":null,"common":{"type":"pipeline_submarine"},"children":{"pipeline_submarine":{"category":"supply","product":"oil"}},"osm_tags":{"diameter":"6.63\"","location":"underwater","man_made":"pipeline","operator":"Shell Offshore Inc.","seamark:pipeline_submarine:category":"supply","seamark:pipeline_submarine:product":"oil","seamark:type":"pipeline_submarine","substance":"oil","usage":"gathering"}}},{"type":"Feature","geometry":{"type":"LineString","coordinates":[[-94.8961901,26.102901],[-94.8963997,26.1058861],[-94.8964447,26.1067824],[-94.8966788,26.1103395],[-94.8968767,26.1139108],[-94.8972067,26.1192467],[-94.8972872,26.1210257],[-94.8973504,26.1219163],[-94.8977253,26.1288968]]},"properties":{"osm_id":1256820015,"osm_type":"way","seamark_type":"pipeline_submarine","display_class":"OTHER","min_zoom":12,"importance":1,"name":null,"ref":null,"common":{"type":"pipeline_submarine"},"children":{"pipeline_submarine":{"category":"supply","product":"oil"}},"osm_tags":{"diameter":"8.63\"","location":"underwater","man_made":"pipeline","operator":"Shell Offshore Inc.","seamark:pipeline_submarine:category":"supply","seamark:pipeline_submarine:product":"oil","seamark:type":"pipeline_submarine","substance":"oil","usage":"gathering"}}},{"type":"Feature","geometry":{"type":"LineString","coordinates":[[-94.8976432,26.1292301],[-94.897479,26.1294321]]},"properties":{"osm_id":1256846349,"osm_type":"way","seamark_type":"pipeline_submarine","display_class":"OTHER","min_zoom":12,"importance":1,"name":null,"ref":null,"common":{"type":"pipeline_submarine"},"children":{"pipeline_submarine":{"category":"supply","product":"oil"}},"osm_tags":{"diameter":"8.63\"","location":"underwater","man_made":"pipeline","operator":"Shell Offshore Inc.","seamark:pipeline_submarine:category":"supply","seamark:pipeline_submarine:product":"oil","seamark:type":"pipeline_submarine","substance":"oil","usage":"gathering"}}},{"type":"Feature","geometry":{"type":"LineString","coordinates":[[-94.9033753,26.0938083],[-94.9034978,26.0939134]]},"properties":{"osm_id":1256847180,"osm_type":"way","seamark_type":"pipeline_submarine","display_class":"OTHER","min_zoom":12,"importance":1,"name":null,"ref":null,"common":{"type":"pipeline_submarine"},"children":{"pipeline_submarine":{"category":"supply","product":"oil"}},"osm_tags":{"diameter":"6.63\"","location":"underwater","man_made":"pipeline","operator":"Shell Offshore Inc.","seamark:pipeline_submarine:category":"supply","seamark:pipeline_submarine:product":"oil","seamark:type":"pipeline_submarine","substance":"oil","usage":"gathering"}}},{"type":"Feature","geometry":{"type":"LineString","coordinates":[[-94.8980185,26.1296785],[-94.8980135,26.1295784]]},"properties":{"osm_id":1256847453,"osm_type":"way","seamark_type":"pipeline_submarine","display_class":"OTHER","min_zoom":12,"importance":1,"name":null,"ref":null,"common":{"type":"pipeline_submarine"},"children":{"pipeline_submarine":{"category":"supply","product":"oil"}},"osm_tags":{"diameter":"6.63\"","location":"underwater","man_made":"pipeline","operator":"Shell Offshore Inc.","seamark:pipeline_submarine:category":"supply","seamark:pipeline_submarine:product":"oil","seamark:type":"pipeline_submarine","substance":"oil","usage":"gathering"}}},{"type":"Feature","geometry":{"type":"LineString","coordinates":[[-94.8981484,26.1294277],[-94.8980369,26.129509]]},"properties":{"osm_id":1256847642,"osm_type":"way","seamark_type":"pipeline_submarine","display_class":"OTHER","min_zoom":12,"importance":1,"name":null,"ref":null,"common":{"type":"pipeline_submarine"},"children":{"pipeline_submarine":{"category":"supply","product":"oil"}},"osm_tags":{"diameter":"6.63\"","location":"underwater","man_made":"pipeline","operator":"Shell Offshore Inc.","seamark:pipeline_submarine:category":"supply","seamark:pipeline_submarine:product":"oil","seamark:type":"pipeline_submarine","substance":"oil","usage":"gathering"}}},{"type":"Feature","geometry":{"type":"LineString","coordinates":[[-94.7692399,26.9551386],[-94.7691439,26.9552828]]},"properties":{"osm_id":1256847729,"osm_type":"way","seamark_type":"pipeline_submarine","display_class":"OTHER","min_zoom":12,"importance":1,"name":null,"ref":null,"common":{"type":"pipeline_submarine"},"children":{"pipeline_submarine":{"category":"supply","product":"oil"}},"osm_tags":{"diameter":"7\"","location":"underwater","man_made":"pipeline","operator":"ExxonMobil Pipeline Company","operator:wikidata":"Q129699985","seamark:pipeline_submarine:category":"supply","seamark:pipeline_submarine:product":"oil","seamark:type":"pipeline_submarine","substance":"oil","usage":"gathering"}}},{"type":"Feature","geometry":{"type":"LineString","coordinates":[[-94.7987046,26.1327675],[-94.7988942,26.1326376]]},"properties":{"osm_id":1256847805,"osm_type":"way","seamark_type":"pipeline_submarine","display_class":"OTHER","min_zoom":12,"importance":1,"name":null,"ref":null,"common":{"type":"pipeline_submarine"},"children":{"pipeline_submarine":{"category":"supply","product":"oil"}},"osm_tags":{"diameter":"10.75\"","location":"underwater","man_made":"pipeline","operator":"Shell Offshore Inc.","seamark:pipeline_submarine:category":"supply","seamark:pipeline_submarine:product":"oil","seamark:type":"pipeline_submarine","substance":"oil","usage":"gathering"}}},{"type":"Feature","geometry":{"type":"LineString","coordinates":[[-94.9081275,27.0175435],[-94.9080276,27.0173918],[-94.9071506,27.0165595],[-94.8994442,27.0094171],[-94.8952714,27.0054407],[-94.8918906,27.0022848],[-94.8850966,26.9958922],[-94.8842474,26.9951118],[-94.8791377,26.990291],[-94.8655806,26.9776298],[-94.8613095,26.9735985],[-94.853655,26.9664353],[-94.8468656,26.9600405],[-94.8434866,26.956904],[-94.8418099,26.9553248],[-94.8409647,26.9546935],[-94.8396406,26.9533105],[-94.8342752,26.948236],[-94.8328982,26.9469884],[-94.8301962,26.9444787],[-94.8289045,26.9431832],[-94.8235158,26.9381306],[-94.8209747,26.9356709],[-94.8168662,26.9319302],[-94.8128549,26.9281055],[-94.810202,26.9255371],[-94.8094272,26.9248785],[-94.8087984,26.9243198],[-94.8073773,26.9231606],[-94.80588,26.9220298],[-94.8050788,26.9214375],[-94.8035027,26.9203655],[-94.8028043,26.9198737],[-94.8019857,26.9193422],[-94.8012534,26.9188371],[-94.8003675,26.9183257],[-94.7987316,26.9173452],[-94.7970972,26.9164636],[-94.7963138,26.9160197],[-94.7953214,26.9155591],[-94.7945851,26.9151888],[-94.7928328,26.9144133],[-94.7919125,26.9140426],[-94.7900605,26.9133645],[-94.7882582,26.9127271],[-94.7855807,26.9118504],[-94.7827179,26.9110888],[-94.779952,26.9104442],[-94.7780525,26.9100582],[-94.7770653,26.9099193],[-94.7761452,26.9097576],[-94.774205,26.9095123],[-94.7731906,26.9094013],[-94.7712792,26.9092327],[-94.7683745,26.9091261],[-94.7664253,26.90909],[-94.7634957,26.9091513],[-94.7615516,26.9092499],[-94.7586375,26.9095201],[-94.7567329,26.9097886],[-94.7547985,26.9101153],[-94.753782,26.910271],[-94.7509583,26.910837],[-94.7500135,26.9110606],[-94.7490938,26.9113196],[-94.7481339,26.9115598],[-94.7472263,26.9118104],[-94.7453694,26.9123891],[-94.744371,26.9127206],[-94.7425794,26.9133645],[-94.7408721,26.9140953],[-94.7399943,26.9144886],[-94.7390947,26.9148601],[-94.7382382,26.915242],[-94.7347794,26.9168445],[-94.7279405,26.9201857],[-94.7245201,26.9219058],[-94.7176521,26.9251891],[-94.7159118,26.9259971],[-94.7141845,26.9268517],[-94.7124745,26.9276401],[-94.7090445,26.9293626],[-94.7056192,26.9309997],[-94.703901,26.9318569],[-94.7004851,26.9335213],[-94.699249,26.9341882],[-94.6977257,26.9349521],[-94.6959731,26.935782],[-94.6888514,26.9392514]]},"properties":{"osm_id":1256848290,"osm_type":"way","seamark_type":"pipeline_submarine","display_class":"OTHER","min_zoom":12,"importance":1,"name":null,"ref":null,"common":{"type":"pipeline_submarine"},"children":{"pipeline_submarine":{"category":"supply","product":"oil"}},"osm_tags":{"abandoned:man_made":"pipeline","diameter":"10.75\"","location":"underwater","operator":"Exxon Mobil Corporation","ref:US:BOEM:ROW":"G20522","seamark:pipeline_submarine:category":"supply","seamark:pipeline_submarine:product":"oil","seamark:type":"pipeline_submarine","substance":"oil","usage":"gathering"}}},{"type":"Feature","geometry":{"type":"LineString","coordinates":[[-94.8975303,26.129092],[-94.8976291,26.1291705]]},"properties":{"osm_id":1256848429,"osm_type":"way","seamark_type":"pipeline_submarine","display_class":"OTHER","min_zoom":12,"importance":1,"name":null,"ref":null,"common":{"type":"pipeline_submarine"},"children":{"pipeline_submarine":{"category":"supply","product":"oil"}},"osm_tags":{"diameter":"6.63\"","location":"underwater","man_made":"pipeline","operator":"Shell Offshore Inc.","seamark:pipeline_submarine:category":"supply","seamark:pipeline_submarine:product":"oil","seamark:type":"pipeline_submarine","substance":"oil","usage":"gathering"}}},{"type":"Feature","geometry":{"type":"LineString","coordinates":[[-94.908348,27.0173248],[-94.9072164,27.0147681],[-94.9066176,27.0135018],[-94.9054647,27.0109525],[-94.9042788,27.0084153],[-94.9041101,27.0080958],[-94.9036914,27.0071448],[-94.9030876,27.0058803],[-94.9019286,27.0033336],[-94.9000234,26.9992891],[-94.8997846,26.9986361],[-94.8993676,26.9973125],[-94.8989708,26.9959843],[-94.8986848,26.9946331],[-94.8985703,26.9939532],[-94.8984874,26.9932697],[-94.8984318,26.9925839],[-94.8983504,26.9905223],[-94.8983965,26.9884599],[-94.8984535,26.9877742],[-94.8986084,26.9864061],[-94.8988441,26.9850473],[-94.8991529,26.9834863],[-94.9052976,26.954965],[-94.9055507,26.9536087],[-94.9056487,26.9529267],[-94.9057877,26.9515571],[-94.9058501,26.9501831],[-94.9058511,26.9493873],[-94.9052135,26.90624]]},"properties":{"osm_id":1256848433,"osm_type":"way","seamark_type":"pipeline_submarine","display_class":"OTHER","min_zoom":12,"importance":1,"name":null,"ref":null,"common":{"type":"pipeline_submarine"},"children":{"pipeline_submarine":{"category":"supply","product":"gas"}},"osm_tags":{"abandoned:man_made":"pipeline","location":"underwater","operator":"Exxon Mobil Corporation","seamark:pipeline_submarine:category":"supply","seamark:pipeline_submarine:product":"gas","seamark:type":"pipeline_submarine","substance":"gas"}}},{"type":"Feature","geometry":{"type":"LineString","coordinates":[[-94.688505,26.9395145],[-94.6810974,26.9479332],[-94.6808542,26.9482993],[-94.679999,26.9492173],[-94.676194,26.9534774],[-94.6749901,26.9548976],[-94.6726083,26.9578421],[-94.6714541,26.9593084],[-94.6702985,26.9606748],[-94.6685578,26.9628841],[-94.6673417,26.964398],[-94.6661489,26.9658009],[-94.6631619,26.9693962],[-94.6614202,26.9715311],[-94.6602155,26.9731312],[-94.6597266,26.9738384],[-94.6591555,26.9746262],[-94.6582223,26.9759763],[-94.6576215,26.97691],[-94.6556636,26.9800512],[-94.6542982,26.9825063],[-94.6535445,26.9839678],[-94.653064,26.984963],[-94.6523105,26.9866183],[-94.6515869,26.988307],[-94.6508958,26.9899979],[-94.6502407,26.9917346],[-94.6496332,26.9934119],[-94.6479503,26.9986124],[-94.6452664,27.0070173]]},"properties":{"osm_id":1256848610,"osm_type":"way","seamark_type":"pipeline_submarine","display_class":"OTHER","min_zoom":12,"importance":1,"name":null,"ref":null,"common":{"type":"pipeline_submarine"},"children":{"pipeline_submarine":{"category":"supply","product":"oil"}},"osm_tags":{"diameter":"18\"","location":"underwater","man_made":"pipeline","operator":"ExxonMobil Pipeline Company","operator:wikidata":"Q129699985","ref:US:BOEM:ROW":"G20551","seamark:pipeline_submarine:category":"supply","seamark:pipeline_submarine:product":"oil","seamark:type":"pipeline_submarine","substance":"oil"}}},{"type":"Feature","geometry":{"type":"LineString","coordinates":[[-94.898265,26.1294853],[-94.8980615,26.1295465]]},"properties":{"osm_id":1256849289,"osm_type":"way","seamark_type":"pipeline_submarine","display_class":"OTHER","min_zoom":12,"importance":1,"name":null,"ref":null,"common":{"type":"pipeline_submarine"},"children":{"pipeline_submarine":{"category":"supply","product":"oil"}},"osm_tags":{"diameter":"10.75\"","location":"underwater","man_made":"pipeline","operator":"Shell Offshore Inc.","seamark:pipeline_submarine:category":"supply","seamark:pipeline_submarine:product":"oil","seamark:type":"pipeline_submarine","substance":"oil","usage":"gathering"}}},{"type":"Feature","geometry":{"type":"LineString","coordinates":[[-94.8959573,26.1029548],[-94.8961915,26.1029008]]},"properties":{"osm_id":1256849723,"osm_type":"way","seamark_type":"pipeline_submarine","display_class":"OTHER","min_zoom":12,"importance":1,"name":null,"ref":null,"common":{"type":"pipeline_submarine"},"children":{"pipeline_submarine":{"category":"supply","product":"oil"}},"osm_tags":{"diameter":"6.63\"","location":"underwater","man_made":"pipeline","operator":"Shell Offshore Inc.","seamark:pipeline_submarine:category":"supply","seamark:pipeline_submarine:product":"oil","seamark:type":"pipeline_submarine","substance":"oil","usage":"gathering"}}},{"type":"Feature","geometry":{"type":"LineString","coordinates":[[-94.8977616,26.1298141],[-94.8976148,26.1296631]]},"properties":{"osm_id":1256849936,"osm_type":"way","seamark_type":"pipeline_submarine","display_class":"OTHER","min_zoom":12,"importance":1,"name":null,"ref":null,"common":{"type":"pipeline_submarine"},"children":{"pipeline_submarine":{"category":"supply","product":"oil"}},"osm_tags":{"diameter":"8.63\"","location":"underwater","man_made":"pipeline","operator":"Shell Offshore Inc.","seamark:pipeline_submarine:category":"supply","seamark:pipeline_submarine:product":"oil","seamark:type":"pipeline_submarine","substance":"oil","usage":"gathering"}}},{"type":"Feature","geometry":{"type":"LineString","coordinates":[[-94.8978389,26.1291347],[-94.8977023,26.1291695]]},"properties":{"osm_id":1256849962,"osm_type":"way","seamark_type":"pipeline_submarine","display_class":"OTHER","min_zoom":12,"importance":1,"name":null,"ref":null,"common":{"type":"pipeline_submarine"},"children":{"pipeline_submarine":{"category":"supply","product":"oil"}},"osm_tags":{"diameter":"6.63\"","location":"underwater","man_made":"pipeline","operator":"Shell Offshore Inc.","seamark:pipeline_submarine:category":"supply","seamark:pipeline_submarine:product":"oil","seamark:type":"pipeline_submarine","substance":"oil","usage":"gathering"}}},{"type":"Feature","geometry":{"type":"LineString","coordinates":[[-94.8826913,26.1093732],[-94.8828504,26.1091342],[-94.882871,26.1090112],[-94.8828239,26.1088783],[-94.8826805,26.1086611],[-94.8826448,26.1085413]]},"properties":{"osm_id":1256850005,"osm_type":"way","seamark_type":"pipeline_submarine","display_class":"OTHER","min_zoom":12,"importance":1,"name":null,"ref":null,"common":{"type":"pipeline_submarine"},"children":{"pipeline_submarine":{"category":"supply","product":"oil"}},"osm_tags":{"location":"underwater","man_made":"pipeline","operator":"Shell Offshore Inc.","seamark:pipeline_submarine:category":"supply","seamark:pipeline_submarine:product":"oil","seamark:type":"pipeline_submarine","substance":"oil","usage":"gathering"}}},{"type":"Feature","geometry":{"type":"LineString","coordinates":[[-94.8964889,26.1029135],[-94.8962146,26.1029089]]},"properties":{"osm_id":1256850105,"osm_type":"way","seamark_type":"pipeline_submarine","display_class":"OTHER","min_zoom":12,"importance":1,"name":null,"ref":null,"common":{"type":"pipeline_submarine"},"children":{"pipeline_submarine":{"category":"supply","product":"oil"}},"osm_tags":{"diameter":"6.63\"","location":"underwater","man_made":"pipeline","operator":"Shell Offshore Inc.","seamark:pipeline_submarine:category":"supply","seamark:pipeline_submarine:product":"oil","seamark:type":"pipeline_submarine","substance":"oil","usage":"gathering"}}},{"type":"Feature","geometry":{"type":"LineString","coordinates":[[-94.8831257,26.1091631],[-94.8835182,26.1089479],[-94.883585,26.1088846],[-94.8836202,26.1088026],[-94.8836206,26.1087155],[-94.8835239,26.1084836],[-94.8834299,26.1084122],[-94.8832832,26.1083843],[-94.8827572,26.1084824],[-94.8826531,26.1085239]]},"properties":{"osm_id":1256850639,"osm_type":"way","seamark_type":"pipeline_submarine","display_class":"OTHER","min_zoom":12,"importance":1,"name":null,"ref":null,"common":{"type":"pipeline_submarine"},"children":{"pipeline_submarine":{"category":"supply","product":"oil"}},"osm_tags":{"location":"underwater","man_made":"pipeline","operator":"Shell Offshore Inc.","seamark:pipeline_submarine:category":"supply","seamark:pipeline_submarine:product":"oil","seamark:type":"pipeline_submarine","substance":"oil","usage":"gathering"}}}],"type":"FeatureCollection"}