{"type":"FeatureCollection","features":[{"type":"Feature","geometry":{"type":"Point","coordinates":[-76.9921308,26.499382]},"properties":{"osm_id":4056587528,"osm_type":"node","seamark_type":"anchorage","display_class":"OTHER","min_zoom":12,"importance":1,"name":null,"ref":null,"common":{"type":"anchorage"},"children":{},"osm_tags":{"seamark:type":"anchorage"}}},{"type":"Feature","geometry":{"type":"Point","coordinates":[-76.9909006,26.4856074]},"properties":{"osm_id":4056614868,"osm_type":"node","seamark_type":"anchorage","display_class":"OTHER","min_zoom":12,"importance":1,"name":null,"ref":null,"common":{"type":"anchorage"},"children":{},"osm_tags":{"seamark:type":"anchorage"}}},{"type":"Feature","geometry":{"type":"Point","coordinates":[-76.9900643,26.4410096]},"properties":{"osm_id":4056616717,"osm_type":"node","seamark_type":"anchorage","display_class":"OTHER","min_zoom":12,"importance":1,"name":null,"ref":null,"common":{"type":"anchorage"},"children":{},"osm_tags":{"seamark:type":"anchorage"}}},{"type":"Feature","geometry":{"type":"Point","coordinates":[-76.9921052,26.4744638]},"properties":{"osm_id":4056616718,"osm_type":"node","seamark_type":"anchorage","display_class":"OTHER","min_zoom":12,"importance":1,"name":null,"ref":null,"common":{"type":"anchorage"},"children":{},"osm_tags":{"seamark:type":"anchorage"}}},{"type":"Feature","geometry":{"type":"Point","coordinates":[-76.9901131,26.4595155]},"properties":{"osm_id":4056616719,"osm_type":"node","seamark_type":"anchorage","display_class":"OTHER","min_zoom":12,"importance":1,"name":null,"ref":null,"common":{"type":"anchorage"},"children":{},"osm_tags":{"seamark:type":"anchorage"}}},{"type":"Feature","geometry":{"type":"Point","coordinates":[-76.9602424,26.5369083]},"properties":{"osm_id":6772222900,"osm_type":"node","seamark_type":"mooring","display_class":"OTHER","min_zoom":12,"importance":1,"name":null,"ref":null,"common":{"type":"mooring"},"children":{"mooring":{"category":"buoy"}},"osm_tags":{"seamark:mooring:category":"buoy","seamark:type":"mooring"}}},{"type":"Feature","geometry":{"type":"Point","coordinates":[-76.960693,26.5371579]},"properties":{"osm_id":6772222901,"osm_type":"node","seamark_type":"mooring","display_class":"OTHER","min_zoom":12,"importance":1,"name":null,"ref":null,"common":{"type":"mooring"},"children":{"mooring":{"category":"buoy"}},"osm_tags":{"seamark:mooring:category":"buoy","seamark:type":"mooring"}}},{"type":"Feature","geometry":{"type":"Point","coordinates":[-76.9611651,26.5368939]},"properties":{"osm_id":6772222902,"osm_type":"node","seamark_type":"mooring","display_class":"OTHER","min_zoom":12,"importance":1,"name":null,"ref":null,"common":{"type":"mooring"},"children":{"mooring":{"category":"buoy"}},"osm_tags":{"seamark:mooring:category":"buoy","seamark:type":"mooring"}}},{"type":"Feature","geometry":{"type":"Point","coordinates":[-76.9617337,26.5367452]},"properties":{"osm_id":6772222903,"osm_type":"node","seamark_type":"mooring","display_class":"OTHER","min_zoom":12,"importance":1,"name":null,"ref":null,"common":{"type":"mooring"},"children":{"mooring":{"category":"buoy"}},"osm_tags":{"seamark:mooring:category":"buoy","seamark:type":"mooring"}}},{"type":"Feature","geometry":{"type":"Point","coordinates":[-76.9620556,26.5364908]},"properties":{"osm_id":6772222904,"osm_type":"node","seamark_type":"mooring","display_class":"OTHER","min_zoom":12,"importance":1,"name":null,"ref":null,"common":{"type":"mooring"},"children":{"mooring":{"category":"buoy"}},"osm_tags":{"seamark:mooring:category":"buoy","seamark:type":"mooring"}}},{"type":"Feature","geometry":{"type":"Point","coordinates":[-76.9622889,26.5363492]},"properties":{"osm_id":6772222905,"osm_type":"node","seamark_type":"mooring","display_class":"OTHER","min_zoom":12,"importance":1,"name":null,"ref":null,"common":{"type":"mooring"},"children":{"mooring":{"category":"buoy"}},"osm_tags":{"seamark:mooring:category":"buoy","seamark:type":"mooring"}}},{"type":"Feature","geometry":{"type":"Point","coordinates":[-76.9624257,26.5359941]},"properties":{"osm_id":6772222906,"osm_type":"node","seamark_type":"mooring","display_class":"OTHER","min_zoom":12,"importance":1,"name":null,"ref":null,"common":{"type":"mooring"},"children":{"mooring":{"category":"buoy"}},"osm_tags":{"seamark:mooring:category":"buoy","seamark:type":"mooring"}}},{"type":"Feature","geometry":{"type":"Point","coordinates":[-76.9611034,26.5365508]},"properties":{"osm_id":6772222907,"osm_type":"node","seamark_type":"mooring","display_class":"OTHER","min_zoom":12,"importance":1,"name":null,"ref":null,"common":{"type":"mooring"},"children":{"mooring":{"category":"buoy"}},"osm_tags":{"seamark:mooring:category":"buoy","seamark:type":"mooring"}}},{"type":"Feature","geometry":{"type":"Point","coordinates":[-76.9614387,26.5364476]},"properties":{"osm_id":6772222908,"osm_type":"node","seamark_type":"mooring","display_class":"OTHER","min_zoom":12,"importance":1,"name":null,"ref":null,"common":{"type":"mooring"},"children":{"mooring":{"category":"buoy"}},"osm_tags":{"seamark:mooring:category":"buoy","seamark:type":"mooring"}}},{"type":"Feature","geometry":{"type":"Point","coordinates":[-76.9616801,26.5363252]},"properties":{"osm_id":6772222909,"osm_type":"node","seamark_type":"mooring","display_class":"OTHER","min_zoom":12,"importance":1,"name":null,"ref":null,"common":{"type":"mooring"},"children":{"mooring":{"category":"buoy"}},"osm_tags":{"seamark:mooring:category":"buoy","seamark:type":"mooring"}}},{"type":"Feature","geometry":{"type":"Point","coordinates":[-76.9619966,26.5360901]},"properties":{"osm_id":6772222910,"osm_type":"node","seamark_type":"mooring","display_class":"OTHER","min_zoom":12,"importance":1,"name":null,"ref":null,"common":{"type":"mooring"},"children":{"mooring":{"category":"buoy"}},"osm_tags":{"seamark:mooring:category":"buoy","seamark:type":"mooring"}}},{"type":"Feature","geometry":{"type":"Point","coordinates":[-76.9621897,26.5359485]},"properties":{"osm_id":6772222911,"osm_type":"node","seamark_type":"mooring","display_class":"OTHER","min_zoom":12,"importance":1,"name":null,"ref":null,"common":{"type":"mooring"},"children":{"mooring":{"category":"buoy"}},"osm_tags":{"seamark:mooring:category":"buoy","seamark:type":"mooring"}}},{"type":"Feature","geometry":{"type":"Point","coordinates":[-76.9624096,26.5356989]},"properties":{"osm_id":6772222912,"osm_type":"node","seamark_type":"mooring","display_class":"OTHER","min_zoom":12,"importance":1,"name":null,"ref":null,"common":{"type":"mooring"},"children":{"mooring":{"category":"buoy"}},"osm_tags":{"seamark:mooring:category":"buoy","seamark:type":"mooring"}}},{"type":"Feature","geometry":{"type":"Polygon","coordinates":[[[-76.9779856,26.5166991],[-76.9743641,26.5148231],[-76.9743273,26.5145505],[-76.9743273,26.5141688],[-76.9743851,26.5138745],[-76.9744995,26.5134738],[-76.9747951,26.5128757],[-76.9757094,26.511425],[-76.9758753,26.5110671],[-76.9759938,26.510737],[-76.9760656,26.5103706],[-76.9761534,26.5099267],[-76.9762963,26.5097863],[-76.9764717,26.5096491],[-76.9764153,26.5102078],[-76.9764149,26.5106028],[-76.9763475,26.5108443],[-76.9763659,26.5111528],[-76.9763092,26.5114326],[-76.9757191,26.5125545],[-76.9757032,26.5126989],[-76.9758246,26.5129228],[-76.9760307,26.5131325],[-76.9760565,26.5132401],[-76.9759914,26.5133718],[-76.9755223,26.5135731],[-76.975407,26.5136741],[-76.9753822,26.5137828],[-76.975538,26.5140122],[-76.9757828,26.5140796],[-76.9760134,26.5140851],[-76.9769126,26.5142859],[-76.9775077,26.5142648],[-76.9781764,26.5143407],[-76.9784067,26.5150664],[-76.9784859,26.5156935],[-76.9783833,26.5163244],[-76.9779856,26.5166991]]]},"properties":{"osm_id":204829279,"osm_type":"way","seamark_type":"sea_area","display_class":"OTHER","min_zoom":12,"importance":1,"name":null,"ref":null,"common":{"type":"sea_area"},"children":{"sea_area":{"category":"shoal"}},"osm_tags":{"seamark:sea_area:category":"shoal","seamark:type":"sea_area"}}},{"type":"Feature","geometry":{"type":"Polygon","coordinates":[[[-76.9945834,26.493816],[-76.994802,26.4934237],[-76.9949025,26.493124],[-76.9948647,26.4928316],[-76.9946251,26.4922814],[-76.9942663,26.4922131],[-76.9939779,26.4921159],[-76.9935957,26.4919051],[-76.9935068,26.4918335],[-76.9934446,26.491738],[-76.9933913,26.4915829],[-76.9933691,26.4914358],[-76.9933567,26.4913086],[-76.9933544,26.491095],[-76.993363,26.4909458],[-76.9933913,26.4908108],[-76.9934392,26.4906999],[-76.9936846,26.4902505],[-76.9934215,26.4897386],[-76.9924215,26.4893076],[-76.991105,26.4893866],[-76.989677,26.4897123],[-76.9885835,26.4902885],[-76.9869258,26.4915333],[-76.985999,26.4924041],[-76.9856316,26.49285],[-76.9856005,26.4930368],[-76.9856549,26.4931462],[-76.9857434,26.4931758],[-76.9858656,26.4931462],[-76.9860486,26.493043],[-76.9862627,26.4928679],[-76.9866341,26.492622],[-76.9872431,26.492379],[-76.9877728,26.4923538],[-76.9883773,26.4924856],[-76.9891179,26.4927934],[-76.9896653,26.4932681],[-76.9900831,26.4938016],[-76.9903103,26.4944379],[-76.9904331,26.4950873],[-76.9906367,26.4968075],[-76.9940998,26.4965357],[-76.9941287,26.4958354],[-76.9941252,26.4953718],[-76.9941922,26.4948391],[-76.9943274,26.4942782],[-76.9945834,26.493816]]]},"properties":{"osm_id":204829281,"osm_type":"way","seamark_type":"sea_area","display_class":"OTHER","min_zoom":12,"importance":1,"name":null,"ref":null,"common":{"type":"sea_area"},"children":{"sea_area":{"category":"shoal"}},"osm_tags":{"seamark:sea_area:category":"shoal","seamark:type":"sea_area"}}},{"type":"Feature","geometry":{"type":"Polygon","coordinates":[[[-76.9740654,26.5104762],[-76.973824,26.5103433],[-76.9737639,26.5105036],[-76.9736854,26.5105339],[-76.973762,26.5106539],[-76.9737852,26.5107383],[-76.9738479,26.5108549],[-76.973872,26.5109415],[-76.9741898,26.5111324],[-76.9742898,26.5112199],[-76.9743675,26.5113113],[-76.974412,26.511377],[-76.9746831,26.5114127],[-76.9747653,26.5114147],[-76.9748453,26.5114008],[-76.9749297,26.511373],[-76.9750008,26.5113372],[-76.9750319,26.5112994],[-76.975043,26.5112596],[-76.975043,26.5112119],[-76.9750249,26.5109949],[-76.9749297,26.5108202],[-76.9740654,26.5104762]]]},"properties":{"osm_id":204829283,"osm_type":"way","seamark_type":"sea_area","display_class":"OTHER","min_zoom":12,"importance":1,"name":null,"ref":null,"common":{"type":"sea_area"},"children":{"sea_area":{"category":"shoal"}},"osm_tags":{"seamark:sea_area:category":"shoal","seamark:type":"sea_area"}}},{"type":"Feature","geometry":{"type":"Polygon","coordinates":[[[-76.994884,26.4780892],[-76.9944304,26.4783081],[-76.9939295,26.4785318],[-76.9938721,26.478525],[-76.9938638,26.4784752],[-76.9940584,26.4781778],[-76.994176,26.4779778],[-76.9941378,26.4778826],[-76.9941624,26.4778128],[-76.994292,26.4778162],[-76.9943738,26.4777921],[-76.994484,26.4778422],[-76.9945326,26.4779079],[-76.9945855,26.4779254],[-76.9946493,26.4779135],[-76.9946749,26.4778557],[-76.9946781,26.4777971],[-76.9947314,26.4776508],[-76.9947398,26.4775823],[-76.9948239,26.4775944],[-76.9948196,26.4776204],[-76.9948364,26.477669],[-76.9948481,26.4777067],[-76.9948491,26.4777379],[-76.9948724,26.4777739],[-76.9949055,26.477785],[-76.9950612,26.4779727],[-76.994884,26.4780892]]]},"properties":{"osm_id":204829300,"osm_type":"way","seamark_type":"sea_area","display_class":"OTHER","min_zoom":12,"importance":1,"name":null,"ref":null,"common":{"type":"sea_area"},"children":{"sea_area":{"category":"shoal"}},"osm_tags":{"seamark:sea_area:category":"shoal","seamark:type":"sea_area"}}},{"type":"Feature","geometry":{"type":"Polygon","coordinates":[[[-76.9936821,26.4781331],[-76.9938405,26.4778502],[-76.992968,26.4775999],[-76.9921335,26.4772544],[-76.9913066,26.4773234],[-76.9906438,26.4775862],[-76.9902867,26.4778793],[-76.9899557,26.4784457],[-76.9897346,26.4788945],[-76.9894858,26.4792277],[-76.9894429,26.4797022],[-76.989201,26.4806513],[-76.9891548,26.4813529],[-76.9892719,26.4818085],[-76.9897036,26.4822188],[-76.9902424,26.4826785],[-76.9904169,26.4829269],[-76.9907025,26.4830222],[-76.9911189,26.4829035],[-76.9916494,26.4826019],[-76.9920208,26.4821995],[-76.9919376,26.4816061],[-76.9921227,26.4811299],[-76.9930294,26.4807793],[-76.9935906,26.4802597],[-76.993612,26.4794056],[-76.9936821,26.4781331]]]},"properties":{"osm_id":204829302,"osm_type":"way","seamark_type":"sea_area","display_class":"OTHER","min_zoom":12,"importance":1,"name":null,"ref":null,"common":{"type":"sea_area"},"children":{"sea_area":{"category":"shoal"}},"osm_tags":{"seamark:sea_area:category":"shoal","seamark:type":"sea_area"}}},{"type":"Feature","geometry":{"type":"Polygon","coordinates":[[[-76.9594551,26.551264],[-76.9603285,26.550887],[-76.9609381,26.5505525],[-76.961212,26.5500069],[-76.961247,26.5496441],[-76.9607877,26.5493758],[-76.960298,26.5492988],[-76.9600024,26.5493835],[-76.9596601,26.5497225],[-76.9594771,26.5499849],[-76.9594988,26.5503841],[-76.9594253,26.5504389],[-76.9590813,26.5504586],[-76.9590834,26.5505543],[-76.9590661,26.5506926],[-76.9591081,26.5507886],[-76.959198,26.5508532],[-76.9592551,26.5508687],[-76.959602,26.55089],[-76.9597072,26.5509368],[-76.9598386,26.5510377],[-76.9592025,26.5513019],[-76.9592637,26.5513109],[-76.9593453,26.5513098],[-76.9594551,26.551264]]]},"properties":{"osm_id":204829311,"osm_type":"way","seamark_type":"sea_area","display_class":"OTHER","min_zoom":12,"importance":1,"name":null,"ref":null,"common":{"type":"sea_area"},"children":{"sea_area":{"category":"shoal"}},"osm_tags":{"seamark:sea_area:category":"shoal","seamark:type":"sea_area"}}},{"type":"Feature","geometry":{"type":"Polygon","coordinates":[[[-76.9949294,26.4782149],[-76.9949127,26.4782646],[-76.994924,26.4783076],[-76.994988,26.4783477],[-76.9950677,26.478355],[-76.9951366,26.4784019],[-76.9952555,26.4785369],[-76.9953022,26.4786713],[-76.995296,26.4787997],[-76.9952188,26.4789197],[-76.9951968,26.4790245],[-76.9952026,26.4791111],[-76.9952733,26.4791711],[-76.9953638,26.4792206],[-76.9954478,26.4792575],[-76.9955289,26.4793618],[-76.9955821,26.4794954],[-76.9956164,26.4796208],[-76.9956808,26.4796695],[-76.9958058,26.4796885],[-76.9956232,26.4799215],[-76.9954366,26.4801406],[-76.9953416,26.4804538],[-76.9952764,26.4807697],[-76.9951111,26.4810382],[-76.99486,26.4812204],[-76.9947144,26.4812119],[-76.9945845,26.4810835],[-76.9943327,26.4808253],[-76.9941461,26.4804652],[-76.9939948,26.4800347],[-76.9938151,26.4794146],[-76.9938558,26.4786762],[-76.9940527,26.4786407],[-76.9949294,26.4782149]]]},"properties":{"osm_id":204829317,"osm_type":"way","seamark_type":"sea_area","display_class":"OTHER","min_zoom":12,"importance":1,"name":null,"ref":null,"common":{"type":"sea_area"},"children":{"sea_area":{"category":"shoal"}},"osm_tags":{"seamark:sea_area:category":"shoal","seamark:type":"sea_area"}}},{"type":"Feature","geometry":{"type":"Polygon","coordinates":[[[-76.9616458,26.5432008],[-76.9610905,26.5425635],[-76.9608193,26.5422407],[-76.9607087,26.5420883],[-76.960646,26.5419677],[-76.9606084,26.5418647],[-76.9605569,26.5417013],[-76.9605448,26.5416448],[-76.9605436,26.5416057],[-76.9605552,26.5415706],[-76.9605876,26.5415495],[-76.9606263,26.5417092],[-76.9606846,26.5418074],[-76.9610256,26.5421885],[-76.961667,26.5428237],[-76.9619296,26.5429328],[-76.9616458,26.5432008]]]},"properties":{"osm_id":204829320,"osm_type":"way","seamark_type":"sea_area","display_class":"OTHER","min_zoom":12,"importance":1,"name":null,"ref":null,"common":{"type":"sea_area"},"children":{"sea_area":{"category":"shoal"}},"osm_tags":{"seamark:sea_area:category":"shoal","seamark:type":"sea_area"}}},{"type":"Feature","geometry":{"type":"Polygon","coordinates":[[[-76.9604561,26.5515924],[-76.960338,26.5513255],[-76.9603725,26.5512299],[-76.9606899,26.5510978],[-76.9609658,26.5510478],[-76.9611607,26.5511969],[-76.961382,26.5516266],[-76.960892,26.5518115],[-76.9607481,26.5515541],[-76.9606244,26.5515341],[-76.9604561,26.5515924]]]},"properties":{"osm_id":204829321,"osm_type":"way","seamark_type":"sea_area","display_class":"OTHER","min_zoom":12,"importance":1,"name":null,"ref":null,"common":{"type":"sea_area"},"children":{"sea_area":{"category":"shoal"}},"osm_tags":{"seamark:sea_area:category":"shoal","seamark:type":"sea_area"}}},{"type":"Feature","geometry":{"type":"Polygon","coordinates":[[[-76.9720188,26.5139527],[-76.972836,26.5144027],[-76.9723519,26.5147905],[-76.9721127,26.5144794],[-76.971969,26.5145796],[-76.972183,26.5147878],[-76.9722079,26.5148653],[-76.9721459,26.51493],[-76.9720475,26.5150382],[-76.9719042,26.5149163],[-76.9719611,26.5147981],[-76.9720206,26.5147548],[-76.9720351,26.5146957],[-76.9720172,26.5146349],[-76.9719884,26.5146051],[-76.9719609,26.5145953],[-76.9718839,26.5145701],[-76.9718698,26.5145503],[-76.9718743,26.5143546],[-76.9719611,26.5140088],[-76.9720188,26.5139527]]]},"properties":{"osm_id":204829324,"osm_type":"way","seamark_type":"sea_area","display_class":"OTHER","min_zoom":12,"importance":1,"name":null,"ref":null,"common":{"type":"sea_area"},"children":{"sea_area":{"category":"shoal"}},"osm_tags":{"seamark:sea_area:category":"shoal","seamark:type":"sea_area"}}},{"type":"Feature","geometry":{"type":"Polygon","coordinates":[[[-76.9741301,26.5120904],[-76.9747751,26.5121058],[-76.9748119,26.512126],[-76.9748229,26.5121772],[-76.9742644,26.5133252],[-76.9742042,26.5133387],[-76.97415,26.513314],[-76.9738745,26.512789],[-76.9739584,26.5127291],[-76.9739976,26.5126601],[-76.9740098,26.5126085],[-76.974003,26.5124754],[-76.9740635,26.5124114],[-76.9740949,26.5123603],[-76.9740949,26.5123196],[-76.9740792,26.5122726],[-76.9740378,26.5121916],[-76.9740832,26.5121583],[-76.9741168,26.5121117],[-76.9741301,26.5120904]]]},"properties":{"osm_id":204829325,"osm_type":"way","seamark_type":"sea_area","display_class":"OTHER","min_zoom":12,"importance":1,"name":null,"ref":null,"common":{"type":"sea_area"},"children":{"sea_area":{"category":"shoal"}},"osm_tags":{"seamark:sea_area:category":"shoal","seamark:type":"sea_area"}}},{"type":"Feature","geometry":{"type":"Polygon","coordinates":[[[-76.9723019,26.5163553],[-76.9721987,26.5159248],[-76.9721928,26.5157163],[-76.9722527,26.5155704],[-76.9723542,26.5154413],[-76.973246,26.5146186],[-76.977804,26.5169797],[-76.977705,26.5183668],[-76.9772798,26.5182957],[-76.9769663,26.5184715],[-76.976426,26.5185882],[-76.9760887,26.5185335],[-76.9758144,26.5184579],[-76.9756648,26.5184545],[-76.9753544,26.5185118],[-76.9752039,26.5185112],[-76.9751653,26.5184051],[-76.9750357,26.5183457],[-76.9748725,26.5182705],[-76.9747341,26.5182587],[-76.9743241,26.5183356],[-76.9739598,26.5182843],[-76.9737604,26.5182793],[-76.9736569,26.518306],[-76.9734775,26.518384],[-76.9733033,26.5185876],[-76.9731189,26.5184359],[-76.9732363,26.5183392],[-76.9732487,26.5181911],[-76.9734538,26.5179798],[-76.973743,26.5178304],[-76.9739376,26.5176698],[-76.9740772,26.5175383],[-76.9742492,26.5174005],[-76.9743454,26.517326],[-76.9744359,26.5171834],[-76.974475,26.5170511],[-76.9744821,26.5169254],[-76.9744123,26.5168234],[-76.9742632,26.5167563],[-76.974065,26.5167116],[-76.9737969,26.5167002],[-76.9737775,26.5169037],[-76.9737328,26.5170918],[-76.9736143,26.5172423],[-76.973441,26.5173181],[-76.9731906,26.51736],[-76.9729863,26.5173534],[-76.9727233,26.5172962],[-76.9725212,26.5172427],[-76.972142,26.5171018],[-76.9723229,26.5168736],[-76.9723508,26.5166651],[-76.9723019,26.5163553]]]},"properties":{"osm_id":204829326,"osm_type":"way","seamark_type":"sea_area","display_class":"OTHER","min_zoom":12,"importance":1,"name":null,"ref":null,"common":{"type":"sea_area"},"children":{"sea_area":{"category":"shoal"}},"osm_tags":{"seamark:sea_area:category":"shoal","seamark:type":"sea_area"}}},{"type":"Feature","geometry":{"type":"Polygon","coordinates":[[[-76.9950323,26.4918086],[-76.9946317,26.4917349],[-76.9942262,26.4915944],[-76.9941379,26.4915273],[-76.9940712,26.4914358],[-76.9940223,26.4913125],[-76.9939957,26.4911534],[-76.9940045,26.4909704],[-76.9940668,26.4908074],[-76.9942667,26.4904454],[-76.9951189,26.4893403],[-76.9965454,26.488288],[-76.9969509,26.488268],[-76.9964586,26.4889476],[-76.996048,26.4894366],[-76.9959112,26.4895831],[-76.9957677,26.4898996],[-76.995395,26.4903831],[-76.9951952,26.4906108],[-76.9951802,26.490966],[-76.9951371,26.4914517],[-76.9950323,26.4918086]]]},"properties":{"osm_id":204829327,"osm_type":"way","seamark_type":"sea_area","display_class":"OTHER","min_zoom":12,"importance":1,"name":null,"ref":null,"common":{"type":"sea_area"},"children":{"sea_area":{"category":"shoal"}},"osm_tags":{"seamark:sea_area:category":"shoal","seamark:type":"sea_area"}}},{"type":"Feature","geometry":{"type":"Polygon","coordinates":[[[-76.9603462,26.5439379],[-76.9592708,26.5431703],[-76.958519,26.5433233],[-76.9585308,26.543384],[-76.9586051,26.5434461],[-76.9587985,26.5434436],[-76.9589125,26.5443235],[-76.9589159,26.5447425],[-76.9588928,26.5448943],[-76.9587975,26.5451129],[-76.9587638,26.5453433],[-76.9588295,26.5454942],[-76.959039,26.5457293],[-76.959375,26.5459429],[-76.9604259,26.544309],[-76.9604589,26.5441158],[-76.9603462,26.5439379]]]},"properties":{"osm_id":204829328,"osm_type":"way","seamark_type":"sea_area","display_class":"OTHER","min_zoom":12,"importance":1,"name":null,"ref":null,"common":{"type":"sea_area"},"children":{"sea_area":{"category":"shoal"}},"osm_tags":{"seamark:sea_area:category":"shoal","seamark:type":"sea_area"}}},{"type":"Feature","geometry":{"type":"Polygon","coordinates":[[[-76.9600226,26.5412453],[-76.9600862,26.541044],[-76.959874,26.5413871],[-76.9597457,26.5415386],[-76.9596558,26.5416688],[-76.9595886,26.5418162],[-76.9595555,26.5419629],[-76.9595195,26.5421966],[-76.95949,26.54229],[-76.9593294,26.5424252],[-76.958931,26.5427079],[-76.9592456,26.5428893],[-76.9598944,26.5432967],[-76.9604892,26.5436914],[-76.9608504,26.543757],[-76.9610561,26.5437212],[-76.9612455,26.5435197],[-76.961098,26.5433325],[-76.9604581,26.542601],[-76.9602936,26.5423664],[-76.9601781,26.5421637],[-76.9600892,26.5419927],[-76.9600314,26.5418337],[-76.9599959,26.5416349],[-76.9599914,26.5414242],[-76.9600226,26.5412453]]]},"properties":{"osm_id":403291964,"osm_type":"way","seamark_type":"sea_area","display_class":"OTHER","min_zoom":12,"importance":1,"name":null,"ref":null,"common":{"type":"sea_area"},"children":{"sea_area":{"category":"shoal"}},"osm_tags":{"seamark:sea_area:category":"shoal","seamark:type":"sea_area"}}},{"type":"Feature","geometry":{"type":"Polygon","coordinates":[[[-76.9748949,26.5119896],[-76.9748658,26.5120075],[-76.9748287,26.5120093],[-76.974294,26.5119534],[-76.9743364,26.5119346],[-76.9743796,26.5119074],[-76.9743935,26.5118649],[-76.974391,26.5118236],[-76.9743443,26.5117896],[-76.9742718,26.5117665],[-76.9741189,26.5117543],[-76.9740637,26.5117348],[-76.9740419,26.5117134],[-76.97405,26.5116908],[-76.9740961,26.5116683],[-76.9741175,26.5116369],[-76.9741038,26.511612],[-76.9740721,26.5115853],[-76.9749439,26.5118148],[-76.9749537,26.5118251],[-76.9749541,26.5118367],[-76.9748949,26.5119896]]]},"properties":{"osm_id":403291965,"osm_type":"way","seamark_type":"sea_area","display_class":"OTHER","min_zoom":12,"importance":1,"name":null,"ref":null,"common":{"type":"sea_area"},"children":{"sea_area":{"category":"shoal"}},"osm_tags":{"seamark:sea_area:category":"shoal","seamark:type":"sea_area"}}},{"type":"Feature","geometry":{"type":"Polygon","coordinates":[[[-76.9899851,26.4967984],[-76.9884356,26.4992813],[-76.9872171,26.4999498],[-76.9868769,26.5002244],[-76.9864927,26.5002783],[-76.9857599,26.5003006],[-76.9846233,26.5003051],[-76.9838828,26.50001],[-76.9837562,26.4996813],[-76.9834205,26.499388],[-76.9832025,26.4992704],[-76.9835015,26.4987953],[-76.9838243,26.4980335],[-76.984186,26.4975355],[-76.984627,26.497041],[-76.9849202,26.4965843],[-76.9850234,26.4962381],[-76.9849927,26.4955679],[-76.9850985,26.4950891],[-76.985264,26.4945847],[-76.9857167,26.4940954],[-76.9863242,26.4936944],[-76.9871375,26.4932702],[-76.9877454,26.4931766],[-76.9883667,26.4932928],[-76.9888618,26.4936311],[-76.9892534,26.4939476],[-76.9895395,26.4943719],[-76.9898197,26.4948639],[-76.9899508,26.4952993],[-76.9900101,26.4959509],[-76.9899851,26.4967984]]]},"properties":{"osm_id":403299777,"osm_type":"way","seamark_type":"sea_area","display_class":"OTHER","min_zoom":12,"importance":1,"name":null,"ref":null,"common":{"type":"sea_area"},"children":{"sea_area":{"category":"shoal"}},"osm_tags":{"seamark:sea_area:category":"shoal","seamark:type":"sea_area"}}},{"type":"Feature","geometry":{"type":"Polygon","coordinates":[[[-76.9775792,26.5422501],[-76.9776888,26.542281],[-76.9777505,26.5422978],[-76.9778068,26.5423014],[-76.9778618,26.5423002],[-76.9779262,26.5422918],[-76.9779651,26.5422654],[-76.9780415,26.542221],[-76.9780684,26.5421766],[-76.9780603,26.5421334],[-76.9780254,26.5420722],[-76.9780187,26.5419978],[-76.9780281,26.5419271],[-76.9780885,26.5418875],[-76.9781381,26.5418899],[-76.9782186,26.5419055],[-76.9783205,26.5419367],[-76.9784693,26.5420158],[-76.9785766,26.5421106],[-76.9787014,26.5422222],[-76.9788153,26.5423638],[-76.978818,26.5424478],[-76.9787993,26.5424933],[-76.9786558,26.5425245],[-76.9785149,26.5425653],[-76.97835,26.5426097],[-76.9782065,26.5426277],[-76.9781287,26.5426301],[-76.9780246,26.5426151],[-76.9780815,26.5425655],[-76.9781258,26.5425372],[-76.9781535,26.5425154],[-76.9782052,26.5424726],[-76.9782285,26.542469],[-76.978239,26.5424625],[-76.9782407,26.542437],[-76.97824,26.5424086],[-76.9782621,26.5423874],[-76.9782976,26.542367],[-76.9783837,26.5423046],[-76.9783884,26.5422889],[-76.9783799,26.5422632],[-76.9783516,26.5422551],[-76.9782791,26.5422595],[-76.9782578,26.5422583],[-76.9782251,26.5422627],[-76.9781625,26.5422691],[-76.9781278,26.542292],[-76.9780496,26.5423227],[-76.9780118,26.5423365],[-76.977935,26.5423528],[-76.9778952,26.5423632],[-76.9778596,26.5423823],[-76.9778425,26.5423899],[-76.9777956,26.5423861],[-76.9777615,26.5423823],[-76.9777046,26.5423594],[-76.9776577,26.5423492],[-76.9776221,26.5423276],[-76.9775766,26.5423136],[-76.9775269,26.5423238],[-76.9775319,26.5422786],[-76.9775356,26.5422681],[-76.9775416,26.54226],[-76.977549,26.542254],[-76.9775587,26.5422507],[-76.9775681,26.5422492],[-76.9775792,26.5422501]]]},"properties":{"osm_id":722213748,"osm_type":"way","seamark_type":"sea_area","display_class":"OTHER","min_zoom":12,"importance":1,"name":null,"ref":null,"common":{"type":"sea_area"},"children":{"sea_area":{"category":"shoal"}},"osm_tags":{"seamark:sea_area:category":"shoal","seamark:type":"sea_area"}}},{"type":"Feature","geometry":{"type":"Point","coordinates":[-76.9618812,26.5381237]},"properties":{"osm_id":6771992230,"osm_type":"node","seamark_type":"berth","display_class":"OTHER","min_zoom":12,"importance":1,"name":"203","ref":null,"common":{"name":"203","type":"berth"},"children":{},"osm_tags":{"seamark:name":"203","seamark:type":"berth"}}},{"type":"Feature","geometry":{"type":"Point","coordinates":[-76.9618159,26.5380907]},"properties":{"osm_id":6771992223,"osm_type":"node","seamark_type":"berth","display_class":"OTHER","min_zoom":12,"importance":1,"name":"204","ref":null,"common":{"name":"204","type":"berth"},"children":{},"osm_tags":{"seamark:name":"204","seamark:type":"berth"}}},{"type":"Feature","geometry":{"type":"Point","coordinates":[-76.9617609,26.5380629]},"properties":{"osm_id":6771992224,"osm_type":"node","seamark_type":"berth","display_class":"OTHER","min_zoom":12,"importance":1,"name":"205","ref":null,"common":{"name":"205","type":"berth"},"children":{},"osm_tags":{"seamark:name":"205","seamark:type":"berth"}}},{"type":"Feature","geometry":{"type":"Point","coordinates":[-76.9616967,26.5380305]},"properties":{"osm_id":6771992225,"osm_type":"node","seamark_type":"berth","display_class":"OTHER","min_zoom":12,"importance":1,"name":"206","ref":null,"common":{"name":"206","type":"berth"},"children":{},"osm_tags":{"seamark:name":"206","seamark:type":"berth"}}},{"type":"Feature","geometry":{"type":"Point","coordinates":[-76.9616439,26.5380038]},"properties":{"osm_id":6771992226,"osm_type":"node","seamark_type":"berth","display_class":"OTHER","min_zoom":12,"importance":1,"name":"207","ref":null,"common":{"name":"207","type":"berth"},"children":{},"osm_tags":{"seamark:name":"207","seamark:type":"berth"}}},{"type":"Feature","geometry":{"type":"Point","coordinates":[-76.9615782,26.5379706]},"properties":{"osm_id":6771992227,"osm_type":"node","seamark_type":"berth","display_class":"OTHER","min_zoom":12,"importance":1,"name":"208","ref":null,"common":{"name":"208","type":"berth"},"children":{},"osm_tags":{"seamark:name":"208","seamark:type":"berth"}}},{"type":"Feature","geometry":{"type":"Point","coordinates":[-76.9615255,26.5379439]},"properties":{"osm_id":6771992228,"osm_type":"node","seamark_type":"berth","display_class":"OTHER","min_zoom":12,"importance":1,"name":"209","ref":null,"common":{"name":"209","type":"berth"},"children":{},"osm_tags":{"seamark:name":"209","seamark:type":"berth"}}},{"type":"Feature","geometry":{"type":"Point","coordinates":[-76.9614619,26.5379118]},"properties":{"osm_id":6771992229,"osm_type":"node","seamark_type":"berth","display_class":"OTHER","min_zoom":12,"importance":1,"name":"210","ref":null,"common":{"name":"210","type":"berth"},"children":{},"osm_tags":{"seamark:name":"210","seamark:type":"berth"}}},{"type":"Feature","geometry":{"type":"Point","coordinates":[-76.9614018,26.5378814]},"properties":{"osm_id":6771992231,"osm_type":"node","seamark_type":"berth","display_class":"OTHER","min_zoom":12,"importance":1,"name":"211","ref":null,"common":{"name":"211","type":"berth"},"children":{},"osm_tags":{"seamark:name":"211","seamark:type":"berth"}}},{"type":"Feature","geometry":{"type":"Point","coordinates":[-76.9613084,26.5379101]},"properties":{"osm_id":6771992235,"osm_type":"node","seamark_type":"berth","display_class":"OTHER","min_zoom":12,"importance":1,"name":"212","ref":null,"common":{"name":"212","type":"berth"},"children":{},"osm_tags":{"seamark:name":"212","seamark:type":"berth"}}},{"type":"Feature","geometry":{"type":"Point","coordinates":[-76.9613509,26.5378425]},"properties":{"osm_id":6771992232,"osm_type":"node","seamark_type":"berth","display_class":"OTHER","min_zoom":12,"importance":1,"name":"213","ref":null,"common":{"name":"213","type":"berth"},"children":{},"osm_tags":{"seamark:name":"213","seamark:type":"berth"}}},{"type":"Feature","geometry":{"type":"Point","coordinates":[-76.9613831,26.5377913]},"properties":{"osm_id":6771992233,"osm_type":"node","seamark_type":"berth","display_class":"OTHER","min_zoom":12,"importance":1,"name":"215","ref":null,"common":{"name":"215","type":"berth"},"children":{},"osm_tags":{"seamark:name":"215","seamark:type":"berth"}}},{"type":"Feature","geometry":{"type":"Point","coordinates":[-76.9614238,26.5377265]},"properties":{"osm_id":6771992234,"osm_type":"node","seamark_type":"berth","display_class":"OTHER","min_zoom":12,"importance":1,"name":"215","ref":null,"common":{"name":"215","type":"berth"},"children":{},"osm_tags":{"seamark:name":"215","seamark:type":"berth"}}},{"type":"Feature","geometry":{"type":"Point","coordinates":[-76.9614393,26.5376678]},"properties":{"osm_id":6771992209,"osm_type":"node","seamark_type":"berth","display_class":"OTHER","min_zoom":12,"importance":1,"name":"216","ref":null,"common":{"name":"216","type":"berth"},"children":{},"osm_tags":{"seamark:name":"216","seamark:type":"berth"}}},{"type":"Feature","geometry":{"type":"Point","coordinates":[-76.9614474,26.537813]},"properties":{"osm_id":6771992217,"osm_type":"node","seamark_type":"berth","display_class":"OTHER","min_zoom":12,"importance":1,"name":"217","ref":null,"common":{"name":"217","type":"berth"},"children":{},"osm_tags":{"seamark:name":"217","seamark:type":"berth"}}},{"type":"Feature","geometry":{"type":"Point","coordinates":[-76.9615165,26.5378476]},"properties":{"osm_id":6771992216,"osm_type":"node","seamark_type":"berth","display_class":"OTHER","min_zoom":12,"importance":1,"name":"218","ref":null,"common":{"name":"218","type":"berth"},"children":{},"osm_tags":{"seamark:name":"218","seamark:type":"berth"}}},{"type":"Feature","geometry":{"type":"Point","coordinates":[-76.9615658,26.5378723]},"properties":{"osm_id":6771992215,"osm_type":"node","seamark_type":"berth","display_class":"OTHER","min_zoom":12,"importance":1,"name":"219","ref":null,"common":{"name":"219","type":"berth"},"children":{},"osm_tags":{"seamark:name":"219","seamark:type":"berth"}}},{"type":"Feature","geometry":{"type":"Point","coordinates":[-76.9616374,26.537908]},"properties":{"osm_id":6771992214,"osm_type":"node","seamark_type":"berth","display_class":"OTHER","min_zoom":12,"importance":1,"name":"220","ref":null,"common":{"name":"220","type":"berth"},"children":{},"osm_tags":{"seamark:name":"220","seamark:type":"berth"}}},{"type":"Feature","geometry":{"type":"Point","coordinates":[-76.9616816,26.5379302]},"properties":{"osm_id":6771992213,"osm_type":"node","seamark_type":"berth","display_class":"OTHER","min_zoom":12,"importance":1,"name":"221","ref":null,"common":{"name":"221","type":"berth"},"children":{},"osm_tags":{"seamark:name":"221","seamark:type":"berth"}}},{"type":"Feature","geometry":{"type":"Point","coordinates":[-76.9617537,26.5379662]},"properties":{"osm_id":6771992212,"osm_type":"node","seamark_type":"berth","display_class":"OTHER","min_zoom":12,"importance":1,"name":"222","ref":null,"common":{"name":"222","type":"berth"},"children":{},"osm_tags":{"seamark:name":"222","seamark:type":"berth"}}},{"type":"Feature","geometry":{"type":"Point","coordinates":[-76.9617956,26.5379872]},"properties":{"osm_id":6771992211,"osm_type":"node","seamark_type":"berth","display_class":"OTHER","min_zoom":12,"importance":1,"name":"223","ref":null,"common":{"name":"223","type":"berth"},"children":{},"osm_tags":{"seamark:name":"223","seamark:type":"berth"}}},{"type":"Feature","geometry":{"type":"Point","coordinates":[-76.9618622,26.5380205]},"properties":{"osm_id":6771992210,"osm_type":"node","seamark_type":"berth","display_class":"OTHER","min_zoom":12,"importance":1,"name":"224","ref":null,"common":{"name":"224","type":"berth"},"children":{},"osm_tags":{"seamark:name":"224","seamark:type":"berth"}}},{"type":"Feature","geometry":{"type":"Point","coordinates":[-76.9619295,26.5380542]},"properties":{"osm_id":6771992218,"osm_type":"node","seamark_type":"berth","display_class":"OTHER","min_zoom":12,"importance":1,"name":"225","ref":null,"common":{"name":"225","type":"berth"},"children":{},"osm_tags":{"seamark:name":"225","seamark:type":"berth"}}},{"type":"Feature","geometry":{"type":"Point","coordinates":[-76.9617371,26.5375734]},"properties":{"osm_id":6771992221,"osm_type":"node","seamark_type":"berth","display_class":"OTHER","min_zoom":12,"importance":1,"name":"301","ref":null,"common":{"name":"301","type":"berth"},"children":{},"osm_tags":{"seamark:name":"301","seamark:type":"berth"}}},{"type":"Feature","geometry":{"type":"Point","coordinates":[-76.9615687,26.5375302]},"properties":{"osm_id":6771992220,"osm_type":"node","seamark_type":"berth","display_class":"OTHER","min_zoom":12,"importance":1,"name":"302","ref":null,"common":{"name":"302","type":"berth"},"children":{},"osm_tags":{"seamark:name":"302","seamark:type":"berth"}}},{"type":"Feature","geometry":{"type":"Point","coordinates":[-76.9617643,26.5374887]},"properties":{"osm_id":6771992222,"osm_type":"node","seamark_type":"berth","display_class":"OTHER","min_zoom":12,"importance":1,"name":"303","ref":null,"common":{"name":"303","type":"berth"},"children":{},"osm_tags":{"seamark:name":"303","seamark:type":"berth"}}},{"type":"Feature","geometry":{"type":"Point","coordinates":[-76.9615958,26.5374455]},"properties":{"osm_id":6771992219,"osm_type":"node","seamark_type":"berth","display_class":"OTHER","min_zoom":12,"importance":1,"name":"304","ref":null,"common":{"name":"304","type":"berth"},"children":{},"osm_tags":{"seamark:name":"304","seamark:type":"berth"}}},{"type":"Feature","geometry":{"type":"Point","coordinates":[-76.9619557,26.5373243]},"properties":{"osm_id":6772222956,"osm_type":"node","seamark_type":"berth","display_class":"OTHER","min_zoom":12,"importance":1,"name":"401","ref":null,"common":{"name":"401","type":"berth"},"children":{},"osm_tags":{"seamark:name":"401","seamark:type":"berth"}}},{"type":"Feature","geometry":{"type":"Point","coordinates":[-76.9619024,26.5372862]},"properties":{"osm_id":6772222955,"osm_type":"node","seamark_type":"berth","display_class":"OTHER","min_zoom":12,"importance":1,"name":"402","ref":null,"common":{"name":"402","type":"berth"},"children":{},"osm_tags":{"seamark:name":"402","seamark:type":"berth"}}},{"type":"Feature","geometry":{"type":"Point","coordinates":[-76.9618577,26.5372543]},"properties":{"osm_id":6772222954,"osm_type":"node","seamark_type":"berth","display_class":"OTHER","min_zoom":12,"importance":1,"name":"403","ref":null,"common":{"name":"403","type":"berth"},"children":{},"osm_tags":{"seamark:name":"403","seamark:type":"berth"}}},{"type":"Feature","geometry":{"type":"Point","coordinates":[-76.9618059,26.5372173]},"properties":{"osm_id":6772222953,"osm_type":"node","seamark_type":"berth","display_class":"OTHER","min_zoom":12,"importance":1,"name":"404","ref":null,"common":{"name":"404","type":"berth"},"children":{},"osm_tags":{"seamark:name":"404","seamark:type":"berth"}}},{"type":"Feature","geometry":{"type":"Point","coordinates":[-76.9617432,26.5371725]},"properties":{"osm_id":6772222952,"osm_type":"node","seamark_type":"berth","display_class":"OTHER","min_zoom":12,"importance":1,"name":"405","ref":null,"common":{"name":"405","type":"berth"},"children":{},"osm_tags":{"seamark:name":"405","seamark:type":"berth"}}},{"type":"Feature","geometry":{"type":"Point","coordinates":[-76.9618061,26.5372989]},"properties":{"osm_id":6772222951,"osm_type":"node","seamark_type":"berth","display_class":"OTHER","min_zoom":12,"importance":1,"name":"406","ref":null,"common":{"name":"406","type":"berth"},"children":{},"osm_tags":{"seamark:name":"406","seamark:type":"berth"}}},{"type":"Feature","geometry":{"type":"Point","coordinates":[-76.962195,26.5370637]},"properties":{"osm_id":6772222962,"osm_type":"node","seamark_type":"berth","display_class":"OTHER","min_zoom":12,"importance":1,"name":"501","ref":null,"common":{"name":"501","type":"berth"},"children":{},"osm_tags":{"seamark:name":"501","seamark:type":"berth"}}},{"type":"Feature","geometry":{"type":"Point","coordinates":[-76.9621446,26.5370242]},"properties":{"osm_id":6772222960,"osm_type":"node","seamark_type":"berth","display_class":"OTHER","min_zoom":12,"importance":1,"name":"502","ref":null,"common":{"name":"502","type":"berth"},"children":{},"osm_tags":{"seamark:name":"502","seamark:type":"berth"}}},{"type":"Feature","geometry":{"type":"Point","coordinates":[-76.9621017,26.5369907]},"properties":{"osm_id":6772222959,"osm_type":"node","seamark_type":"berth","display_class":"OTHER","min_zoom":12,"importance":1,"name":"503","ref":null,"common":{"name":"503","type":"berth"},"children":{},"osm_tags":{"seamark:name":"503","seamark:type":"berth"}}},{"type":"Feature","geometry":{"type":"Point","coordinates":[-76.9620581,26.5369565]},"properties":{"osm_id":6772222958,"osm_type":"node","seamark_type":"berth","display_class":"OTHER","min_zoom":12,"importance":1,"name":"504","ref":null,"common":{"name":"504","type":"berth"},"children":{},"osm_tags":{"seamark:name":"504","seamark:type":"berth"}}},{"type":"Feature","geometry":{"type":"Point","coordinates":[-76.9619858,26.5368999]},"properties":{"osm_id":6772222961,"osm_type":"node","seamark_type":"berth","display_class":"OTHER","min_zoom":12,"importance":1,"name":"505","ref":null,"common":{"name":"505","type":"berth"},"children":{},"osm_tags":{"seamark:name":"505","seamark:type":"berth"}}},{"type":"Feature","geometry":{"type":"Point","coordinates":[-76.9621186,26.5369257]},"properties":{"osm_id":6772222957,"osm_type":"node","seamark_type":"berth","display_class":"OTHER","min_zoom":12,"importance":1,"name":"506","ref":null,"common":{"name":"506","type":"berth"},"children":{},"osm_tags":{"seamark:name":"506","seamark:type":"berth"}}},{"type":"Feature","geometry":{"type":"Polygon","coordinates":[[[-76.9576078,26.5372214],[-76.9575942,26.5371481],[-76.9576688,26.537137],[-76.9576758,26.5371744],[-76.9576824,26.5372102],[-76.9576078,26.5372214]]]},"properties":{"osm_id":198597079,"osm_type":"way","seamark_type":"building","display_class":"OTHER","min_zoom":12,"importance":1,"name":"Harbour Master","ref":null,"common":{"name":"Harbour Master","type":"building"},"children":{"building":{"function":"harbour_master"}},"osm_tags":{"building":"yes","name":"Post Office dock","seamark:building:function":"harbour_master","seamark:name":"Harbour Master","seamark:type":"building"}}},{"type":"Feature","geometry":{"type":"Polygon","coordinates":[[[-76.9621398,26.5376788],[-76.9621315,26.5377095],[-76.9619698,26.5376744],[-76.9620009,26.5375601],[-76.9621625,26.5375952],[-76.9621398,26.5376788]]]},"properties":{"osm_id":721917089,"osm_type":"way","seamark_type":"building","display_class":"OTHER","min_zoom":12,"importance":1,"name":"Harbour Master","ref":null,"common":{"name":"Harbour Master","type":"building"},"children":{"building":{"function":"harbour_master"}},"osm_tags":{"building":"yes","name":"Harbour Master","seamark:building:function":"harbour_master","seamark:name":"Harbour Master","seamark:type":"building"}}},{"type":"Feature","geometry":{"type":"Polygon","coordinates":[[[-76.9618802,26.5373961],[-76.9616752,26.537255],[-76.9617896,26.537122],[-76.9618515,26.5370494],[-76.9619763,26.5369196],[-76.9621751,26.5370725],[-76.9621563,26.5370921],[-76.9618992,26.5373739],[-76.9618802,26.5373961]]]},"properties":{"osm_id":198597066,"osm_type":"way","seamark_type":"harbour","display_class":"OTHER","min_zoom":12,"importance":1,"name":"Hideways Marina","ref":null,"common":{"name":"Hideways Marina","type":"harbour"},"children":{"harbour":{"category":"marina"}},"osm_tags":{"leisure":"marina","name":"Hideways Marina","seamark:harbour:category":"marina","seamark:name":"Hideways Marina","seamark:type":"harbour"}}},{"type":"Feature","geometry":{"type":"Polygon","coordinates":[[[-76.9621536,26.5397834],[-76.9621426,26.5397832],[-76.9621249,26.5397773],[-76.9621156,26.5397702],[-76.962109,26.5397615],[-76.9621044,26.5397456],[-76.962105,26.5397419],[-76.9621066,26.5397311],[-76.962112,26.5397213],[-76.9621274,26.5397087],[-76.9621403,26.5397045],[-76.9621578,26.5397045],[-76.962177,26.5397126],[-76.962188,26.5397243],[-76.9621909,26.53973],[-76.9621933,26.5397388],[-76.9621902,26.539759],[-76.9621822,26.5397704],[-76.962165,26.539781],[-76.9621536,26.5397834]]]},"properties":{"osm_id":198522185,"osm_type":"way","seamark_type":"light_minor","display_class":"OTHER","min_zoom":12,"importance":1,"name":"Hope Town","ref":null,"common":{"type":"light_minor"},"children":{},"osm_tags":{"building":"yes","man_made":"lighthouse","name":"Hope Town","seamark:type":"light_minor","wikidata":"Q28375049"}}},{"type":"Feature","geometry":{"type":"Polygon","coordinates":[[[-76.9610357,26.5384644],[-76.9611725,26.53793],[-76.9612375,26.537813],[-76.9612884,26.5377019],[-76.9613021,26.5376799],[-76.96145,26.537513],[-76.9617417,26.5375832],[-76.9620886,26.5380533],[-76.9619899,26.5381608],[-76.9619712,26.5381984],[-76.9619138,26.5382611],[-76.9619006,26.5382907],[-76.9618118,26.538411],[-76.9617411,26.5385041],[-76.9616349,26.5384697],[-76.9616209,26.5384654],[-76.9615208,26.5384393],[-76.9614983,26.5384344],[-76.9613884,26.5384013],[-76.9613689,26.5383963],[-76.961265,26.5383628],[-76.9612535,26.5383603],[-76.9612012,26.538353],[-76.9611669,26.5383431],[-76.9611463,26.5384217],[-76.9611366,26.5384586],[-76.9611313,26.5384825],[-76.9610357,26.5384644]]]},"properties":{"osm_id":721917092,"osm_type":"way","seamark_type":"harbour","display_class":"OTHER","min_zoom":12,"importance":1,"name":"Hope Town Harbour","ref":null,"common":{"name":"Hope Town Harbour","type":"harbour"},"children":{"harbour":{"category":"marina"}},"osm_tags":{"leisure":"marina","name":"Hope Town Harbour","seamark:harbour:category":"marina","seamark:name":"Hope Town Harbour","seamark:type":"harbour"}}},{"type":"Feature","geometry":{"type":"Polygon","coordinates":[[[-76.9623422,26.5377228],[-76.9621398,26.5376788],[-76.9621625,26.5375952],[-76.9623877,26.5376428],[-76.9623835,26.5376744],[-76.9623727,26.5377014],[-76.9623422,26.5377228]]]},"properties":{"osm_id":721917090,"osm_type":"way","seamark_type":"small_craft_facility","display_class":"OTHER","min_zoom":12,"importance":1,"name":"Laundry","ref":null,"common":{"type":"small_craft_facility"},"children":{"small_craft_facility":{"category":"showers"}},"osm_tags":{"building":"yes","laundry_service":"no","name":"Laundry","seamark:small_craft_facility:category":"showers","seamark:type":"small_craft_facility","self_service":"yes","shop":"laundry"}}},{"type":"Feature","geometry":{"type":"Point","coordinates":[-76.959895,26.5398901]},"properties":{"osm_id":2086501372,"osm_type":"node","seamark_type":"harbour","display_class":"OTHER","min_zoom":12,"importance":1,"name":"Lower Public Dock","ref":null,"common":{"name":"Lower Public Dock","type":"harbour"},"children":{"harbour":{"category":"ferry"}},"osm_tags":{"amenity":"ferry_terminal","cargo":"passengers","ferry":"yes","name":"Lower Public Dock‎","public_transport":"station","seamark:harbour:category":"ferry","seamark:name":"Lower Public Dock","seamark:type":"harbour"}}},{"type":"Feature","geometry":{"type":"Polygon","coordinates":[[[-76.9951607,26.4924208],[-76.9953591,26.4924178],[-76.9956355,26.492308],[-76.9956509,26.4922756],[-76.9956348,26.4922161],[-76.9955838,26.4921423],[-76.9955181,26.4920973],[-76.9954396,26.4920856],[-76.9952425,26.4920901],[-76.9952285,26.4920878],[-76.9951999,26.4920841],[-76.9948869,26.4920755],[-76.9948886,26.4922075],[-76.994901,26.4922075],[-76.9949109,26.4922119],[-76.994915,26.4922193],[-76.9949391,26.492253],[-76.9949513,26.4922798],[-76.9950176,26.4923914],[-76.9950283,26.4924025],[-76.995036,26.4924067],[-76.9950521,26.4924133],[-76.995089,26.4924136],[-76.9951607,26.4924208]]]},"properties":{"osm_id":198944754,"osm_type":"way","seamark_type":"harbour","display_class":"OTHER","min_zoom":12,"importance":1,"name":"Lubbers Marina","ref":null,"common":{"name":"Lubbers Marina","type":"harbour"},"children":{"harbour":{"category":"marina"}},"osm_tags":{"leisure":"marina","name":"Lubbers Marina","seamark:harbour:category":"marina","seamark:name":"Lubbers Marina","seamark:type":"harbour"}}},{"type":"Feature","geometry":{"type":"Polygon","coordinates":[[[-76.9590496,26.5525695],[-76.9588877,26.5521922],[-76.9589744,26.5521625],[-76.9591421,26.5521049],[-76.959304,26.5524821],[-76.9590496,26.5525695]]]},"properties":{"osm_id":198597067,"osm_type":"way","seamark_type":"harbour","display_class":"OTHER","min_zoom":12,"importance":1,"name":"North End Boat Basin","ref":null,"common":{"name":"North End Boat Basin","type":"harbour"},"children":{"harbour":{"category":"marina"}},"osm_tags":{"leisure":"marina","name":"North End Boat Basin","natural":"water","seamark:harbour:category":"marina","seamark:name":"North End Boat Basin","seamark:type":"harbour"}}},{"type":"Feature","geometry":{"type":"Polygon","coordinates":[[[-76.9630707,26.5348642],[-76.9630388,26.5348876],[-76.9630237,26.5349014],[-76.9629765,26.5349456],[-76.9629617,26.5349599],[-76.9629238,26.5349931],[-76.9629137,26.5350053],[-76.9627988,26.5349288],[-76.9628089,26.5349166],[-76.9628481,26.5348684],[-76.9628652,26.5348534],[-76.9629108,26.5348028],[-76.9629259,26.534789],[-76.9630923,26.5346061],[-76.9630907,26.5345779],[-76.9630675,26.5345091],[-76.9629113,26.5342833],[-76.9630888,26.5342809],[-76.9630862,26.53431],[-76.9631605,26.5344024],[-76.9631642,26.5344286],[-76.9631826,26.5344807],[-76.9632106,26.5345722],[-76.9632123,26.5346004],[-76.9631968,26.5346549],[-76.9631876,26.5346987],[-76.963173,26.5347321],[-76.9631079,26.5348249],[-76.9630707,26.5348642]]]},"properties":{"osm_id":198922418,"osm_type":"way","seamark_type":"harbour","display_class":"OTHER","min_zoom":12,"importance":1,"name":"Sea Horse Marina","ref":null,"common":{"name":"Sea Horse Marina","type":"harbour"},"children":{"harbour":{"category":"marina"}},"osm_tags":{"leisure":"marina","name":"Sea Horse Marina","seamark:harbour:category":"marina","seamark:name":"Sea Horse Marina","seamark:type":"harbour"}}},{"type":"Feature","geometry":{"type":"Polygon","coordinates":[[[-76.9755725,26.5103092],[-76.9757301,26.5093747],[-76.975372,26.5093819],[-76.9753459,26.5091917],[-76.9753284,26.5090429],[-76.9753231,26.5090129],[-76.9752996,26.5090165],[-76.975175,26.5090677],[-76.9746896,26.5092215],[-76.9746595,26.5092315],[-76.9746904,26.5094356],[-76.9741364,26.5096504],[-76.9741503,26.5097033],[-76.9741561,26.5097243],[-76.9741842,26.5098303],[-76.9741871,26.5098427],[-76.9742147,26.5099466],[-76.9742203,26.509967],[-76.974248,26.510071],[-76.974252,26.5100877],[-76.9742799,26.5101914],[-76.9742844,26.51021],[-76.9742942,26.5102463],[-76.9743338,26.5103075],[-76.974434,26.5103215],[-76.9748882,26.5103444],[-76.9750829,26.510325],[-76.9752638,26.5102987],[-76.9754211,26.5103075],[-76.9755725,26.5103092]]]},"properties":{"osm_id":198597383,"osm_type":"way","seamark_type":"harbour","display_class":"OTHER","min_zoom":12,"importance":1,"name":"Sea Spray Marina","ref":null,"common":{"name":"Sea Spray Marina","type":"harbour"},"children":{"harbour":{"category":"marina"}},"osm_tags":{"leisure":"marina","name":"Sea Spray Marina","seamark:harbour:category":"marina","seamark:name":"Sea Spray Marina","seamark:type":"harbour"}}},{"type":"Feature","geometry":{"type":"Point","coordinates":[-76.9924834,26.4778766]},"properties":{"osm_id":2147951720,"osm_type":"node","seamark_type":"harbour","display_class":"OTHER","min_zoom":12,"importance":1,"name":"Tilloo Public Dock","ref":null,"common":{"name":"Tilloo Public Dock","type":"harbour"},"children":{"harbour":{"category":"marina_no_facilities"}},"osm_tags":{"name":"Tilloo Public Dock","seamark:harbour:category":"marina_no_facilities","seamark:name":"Tilloo Public Dock","seamark:type":"harbour"}}}],"type":"FeatureCollection"}