{"type":"FeatureCollection","features":[{"type":"Feature","geometry":{"type":"Point","coordinates":[-97.1655362,26.0762467]},"properties":{"osm_id":1305673394,"osm_type":"node","seamark_type":"harbour","display_class":"OTHER","min_zoom":12,"importance":1,"name":null,"ref":null,"common":{"type":"harbour"},"children":{"harbour":{"category":"marina"}},"osm_tags":{"leisure":"marina","seamark:harbour:category":"marina","seamark:type":"harbour"}}},{"type":"Feature","geometry":{"type":"Point","coordinates":[-97.1766467,26.131451]},"properties":{"osm_id":1529194520,"osm_type":"node","seamark_type":"buoy_lateral","display_class":"OTHER","min_zoom":12,"importance":1,"name":null,"ref":null,"common":{"type":"buoy_lateral"},"children":{"buoy_lateral":{"category":"port","colour":"green","system":"iala-b"}},"osm_tags":{"man_made":"buoy","seamark:buoy_lateral:category":"port","seamark:buoy_lateral:colour":"green","seamark:buoy_lateral:system":"iala-b","seamark:type":"buoy_lateral"}}},{"type":"Feature","geometry":{"type":"Point","coordinates":[-97.1720877,26.0910658]},"properties":{"osm_id":1529194521,"osm_type":"node","seamark_type":"buoy_lateral","display_class":"OTHER","min_zoom":12,"importance":1,"name":null,"ref":null,"common":{"type":"buoy_lateral"},"children":{"buoy_lateral":{"category":"port","colour":"green","system":"iala-b"}},"osm_tags":{"man_made":"buoy","seamark:buoy_lateral:category":"port","seamark:buoy_lateral:colour":"green","seamark:buoy_lateral:system":"iala-b","seamark:type":"buoy_lateral"}}},{"type":"Feature","geometry":{"type":"Point","coordinates":[-97.1773226,26.1328765]},"properties":{"osm_id":1529194523,"osm_type":"node","seamark_type":"buoy_lateral","display_class":"OTHER","min_zoom":12,"importance":1,"name":null,"ref":null,"common":{"type":"buoy_lateral"},"children":{"buoy_lateral":{"category":"port","colour":"green","system":"iala-b"}},"osm_tags":{"man_made":"buoy","seamark:buoy_lateral:category":"port","seamark:buoy_lateral:colour":"green","seamark:buoy_lateral:system":"iala-b","seamark:type":"buoy_lateral"}}},{"type":"Feature","geometry":{"type":"Point","coordinates":[-97.1728492,26.1210814]},"properties":{"osm_id":1529194524,"osm_type":"node","seamark_type":"buoy_lateral","display_class":"OTHER","min_zoom":12,"importance":1,"name":null,"ref":null,"common":{"type":"buoy_lateral"},"children":{"buoy_lateral":{"category":"port","colour":"green","system":"iala-b"}},"osm_tags":{"man_made":"buoy","seamark:buoy_lateral:category":"port","seamark:buoy_lateral:colour":"green","seamark:buoy_lateral:system":"iala-b","seamark:type":"buoy_lateral"}}},{"type":"Feature","geometry":{"type":"Point","coordinates":[-97.1752412,26.1286578]},"properties":{"osm_id":1529194525,"osm_type":"node","seamark_type":"buoy_lateral","display_class":"OTHER","min_zoom":12,"importance":1,"name":null,"ref":null,"common":{"type":"buoy_lateral"},"children":{"buoy_lateral":{"category":"port","colour":"green","system":"iala-b"}},"osm_tags":{"man_made":"buoy","seamark:buoy_lateral:category":"port","seamark:buoy_lateral:colour":"green","seamark:buoy_lateral:system":"iala-b","seamark:type":"buoy_lateral"}}},{"type":"Feature","geometry":{"type":"Point","coordinates":[-97.1711704,26.1049211]},"properties":{"osm_id":1529194527,"osm_type":"node","seamark_type":"buoy_lateral","display_class":"OTHER","min_zoom":12,"importance":1,"name":null,"ref":null,"common":{"type":"buoy_lateral"},"children":{"buoy_lateral":{"category":"port","colour":"green","system":"iala-b"}},"osm_tags":{"man_made":"buoy","seamark:buoy_lateral:category":"port","seamark:buoy_lateral:colour":"green","seamark:buoy_lateral:system":"iala-b","seamark:type":"buoy_lateral"}}},{"type":"Feature","geometry":{"type":"Point","coordinates":[-97.1692714,26.097618]},"properties":{"osm_id":1529194528,"osm_type":"node","seamark_type":"buoy_lateral","display_class":"OTHER","min_zoom":12,"importance":1,"name":null,"ref":null,"common":{"type":"buoy_lateral"},"children":{"buoy_lateral":{"category":"starboard","colour":"red","system":"iala-b"}},"osm_tags":{"man_made":"buoy","seamark:buoy_lateral:category":"starboard","seamark:buoy_lateral:colour":"red","seamark:buoy_lateral:system":"iala-b","seamark:type":"buoy_lateral"}}},{"type":"Feature","geometry":{"type":"Point","coordinates":[-97.1740787,26.1133735]},"properties":{"osm_id":1529194529,"osm_type":"node","seamark_type":"buoy_lateral","display_class":"OTHER","min_zoom":12,"importance":1,"name":null,"ref":null,"common":{"type":"buoy_lateral"},"children":{"buoy_lateral":{"category":"port","colour":"green","system":"iala-b"}},"osm_tags":{"man_made":"buoy","seamark:buoy_lateral:category":"port","seamark:buoy_lateral:colour":"green","seamark:buoy_lateral:system":"iala-b","seamark:type":"buoy_lateral"}}},{"type":"Feature","geometry":{"type":"Point","coordinates":[-97.1738363,26.1160435]},"properties":{"osm_id":1529194530,"osm_type":"node","seamark_type":"buoy_lateral","display_class":"OTHER","min_zoom":12,"importance":1,"name":null,"ref":null,"common":{"type":"buoy_lateral"},"children":{"buoy_lateral":{"category":"starboard","colour":"red","system":"iala-b"}},"osm_tags":{"man_made":"buoy","seamark:buoy_lateral:category":"starboard","seamark:buoy_lateral:colour":"red","seamark:buoy_lateral:system":"iala-b","seamark:type":"buoy_lateral"}}},{"type":"Feature","geometry":{"type":"Point","coordinates":[-97.1737129,26.1237404]},"properties":{"osm_id":1529194531,"osm_type":"node","seamark_type":"buoy_lateral","display_class":"OTHER","min_zoom":12,"importance":1,"name":null,"ref":null,"common":{"type":"buoy_lateral"},"children":{"buoy_lateral":{"category":"starboard","colour":"red","system":"iala-b"}},"osm_tags":{"man_made":"buoy","seamark:buoy_lateral:category":"starboard","seamark:buoy_lateral:colour":"red","seamark:buoy_lateral:system":"iala-b","seamark:type":"buoy_lateral"}}},{"type":"Feature","geometry":{"type":"Point","coordinates":[-97.1726564,26.1179124]},"properties":{"osm_id":1529194533,"osm_type":"node","seamark_type":"buoy_lateral","display_class":"OTHER","min_zoom":12,"importance":1,"name":null,"ref":null,"common":{"type":"buoy_lateral"},"children":{"buoy_lateral":{"category":"port","colour":"green","system":"iala-b"}},"osm_tags":{"man_made":"buoy","seamark:buoy_lateral:category":"port","seamark:buoy_lateral:colour":"green","seamark:buoy_lateral:system":"iala-b","seamark:type":"buoy_lateral"}}},{"type":"Feature","geometry":{"type":"Point","coordinates":[-97.1695128,26.0942696]},"properties":{"osm_id":1529194534,"osm_type":"node","seamark_type":"buoy_lateral","display_class":"OTHER","min_zoom":12,"importance":1,"name":null,"ref":null,"common":{"type":"buoy_lateral"},"children":{"buoy_lateral":{"category":"starboard","colour":"red","system":"iala-b"}},"osm_tags":{"man_made":"buoy","seamark:buoy_lateral:category":"starboard","seamark:buoy_lateral:colour":"red","seamark:buoy_lateral:system":"iala-b","seamark:type":"buoy_lateral"}}},{"type":"Feature","geometry":{"type":"Point","coordinates":[-97.1706554,26.0924921]},"properties":{"osm_id":1529194536,"osm_type":"node","seamark_type":"buoy_lateral","display_class":"OTHER","min_zoom":12,"importance":1,"name":null,"ref":null,"common":{"type":"buoy_lateral"},"children":{"buoy_lateral":{"category":"starboard","colour":"red","system":"iala-b"}},"osm_tags":{"man_made":"buoy","seamark:buoy_lateral:category":"starboard","seamark:buoy_lateral:colour":"red","seamark:buoy_lateral:system":"iala-b","seamark:type":"buoy_lateral"}}},{"type":"Feature","geometry":{"type":"Point","coordinates":[-97.1750266,26.1262593]},"properties":{"osm_id":1529194537,"osm_type":"node","seamark_type":"buoy_lateral","display_class":"OTHER","min_zoom":12,"importance":1,"name":null,"ref":null,"common":{"type":"buoy_lateral"},"children":{"buoy_lateral":{"category":"starboard","colour":"red","system":"iala-b"}},"osm_tags":{"man_made":"buoy","seamark:buoy_lateral:category":"starboard","seamark:buoy_lateral:colour":"red","seamark:buoy_lateral:system":"iala-b","seamark:type":"buoy_lateral"}}},{"type":"Feature","geometry":{"type":"Point","coordinates":[-97.1739967,26.087477]},"properties":{"osm_id":1529194538,"osm_type":"node","seamark_type":"buoy_lateral","display_class":"OTHER","min_zoom":12,"importance":1,"name":null,"ref":null,"common":{"type":"buoy_lateral"},"children":{"buoy_lateral":{"category":"starboard","colour":"red","system":"iala-b"}},"osm_tags":{"man_made":"buoy","seamark:buoy_lateral:category":"starboard","seamark:buoy_lateral:colour":"red","seamark:buoy_lateral:system":"iala-b","seamark:type":"buoy_lateral"}}},{"type":"Feature","geometry":{"type":"Point","coordinates":[-97.1697274,26.0964953]},"properties":{"osm_id":1529194539,"osm_type":"node","seamark_type":"buoy_lateral","display_class":"OTHER","min_zoom":12,"importance":1,"name":null,"ref":null,"common":{"type":"buoy_lateral"},"children":{"buoy_lateral":{"category":"port","colour":"green","system":"iala-b"}},"osm_tags":{"man_made":"buoy","seamark:buoy_lateral:category":"port","seamark:buoy_lateral:colour":"green","seamark:buoy_lateral:system":"iala-b","seamark:type":"buoy_lateral"}}},{"type":"Feature","geometry":{"type":"Point","coordinates":[-97.1698239,26.0945008]},"properties":{"osm_id":1529194541,"osm_type":"node","seamark_type":"buoy_lateral","display_class":"OTHER","min_zoom":12,"importance":1,"name":null,"ref":null,"common":{"type":"buoy_lateral"},"children":{"buoy_lateral":{"category":"port","colour":"green","system":"iala-b"}},"osm_tags":{"man_made":"buoy","seamark:buoy_lateral:category":"port","seamark:buoy_lateral:colour":"green","seamark:buoy_lateral:system":"iala-b","seamark:type":"buoy_lateral"}}},{"type":"Feature","geometry":{"type":"Point","coordinates":[-97.1748764,26.1153015]},"properties":{"osm_id":1529194542,"osm_type":"node","seamark_type":"buoy_lateral","display_class":"OTHER","min_zoom":12,"importance":1,"name":null,"ref":null,"common":{"type":"buoy_lateral"},"children":{"buoy_lateral":{"category":"port","colour":"green","system":"iala-b"}},"osm_tags":{"man_made":"buoy","seamark:buoy_lateral:category":"port","seamark:buoy_lateral:colour":"green","seamark:buoy_lateral:system":"iala-b","seamark:type":"buoy_lateral"}}},{"type":"Feature","geometry":{"type":"Point","coordinates":[-97.1748925,26.1285276]},"properties":{"osm_id":1529194543,"osm_type":"node","seamark_type":"buoy_lateral","display_class":"OTHER","min_zoom":12,"importance":1,"name":null,"ref":null,"common":{"type":"buoy_lateral"},"children":{"buoy_lateral":{"category":"starboard","colour":"red","system":"iala-b"}},"osm_tags":{"man_made":"buoy","seamark:buoy_lateral:category":"starboard","seamark:buoy_lateral:colour":"red","seamark:buoy_lateral:system":"iala-b","seamark:type":"buoy_lateral"}}},{"type":"Feature","geometry":{"type":"Point","coordinates":[-97.1750261,26.0866587]},"properties":{"osm_id":1529194544,"osm_type":"node","seamark_type":"buoy_lateral","display_class":"OTHER","min_zoom":12,"importance":1,"name":null,"ref":null,"common":{"type":"buoy_lateral"},"children":{"buoy_lateral":{"category":"port","colour":"green","system":"iala-b"}},"osm_tags":{"man_made":"buoy","seamark:buoy_lateral:category":"port","seamark:buoy_lateral:colour":"green","seamark:buoy_lateral:system":"iala-b","seamark:type":"buoy_lateral"}}},{"type":"Feature","geometry":{"type":"Point","coordinates":[-97.1741093,26.1235764]},"properties":{"osm_id":1529194546,"osm_type":"node","seamark_type":"buoy_lateral","display_class":"OTHER","min_zoom":12,"importance":1,"name":null,"ref":null,"common":{"type":"buoy_lateral"},"children":{"buoy_lateral":{"category":"port","colour":"green","system":"iala-b"}},"osm_tags":{"man_made":"buoy","seamark:buoy_lateral:category":"port","seamark:buoy_lateral:colour":"green","seamark:buoy_lateral:system":"iala-b","seamark:type":"buoy_lateral"}}},{"type":"Feature","geometry":{"type":"Point","coordinates":[-97.1698079,26.1024352]},"properties":{"osm_id":1529194547,"osm_type":"node","seamark_type":"buoy_lateral","display_class":"OTHER","min_zoom":12,"importance":1,"name":null,"ref":null,"common":{"type":"buoy_lateral"},"children":{"buoy_lateral":{"category":"port","colour":"green","system":"iala-b"}},"osm_tags":{"man_made":"buoy","seamark:buoy_lateral:category":"port","seamark:buoy_lateral:colour":"green","seamark:buoy_lateral:system":"iala-b","seamark:type":"buoy_lateral"}}},{"type":"Feature","geometry":{"type":"Point","coordinates":[-97.1748603,26.0861858]},"properties":{"osm_id":1529194548,"osm_type":"node","seamark_type":"buoy_lateral","display_class":"OTHER","min_zoom":12,"importance":1,"name":null,"ref":null,"common":{"type":"buoy_lateral"},"children":{"buoy_lateral":{"category":"starboard","colour":"red","shape":"pillar","system":"iala-b"}},"osm_tags":{"man_made":"buoy","seamark:buoy_lateral:category":"starboard","seamark:buoy_lateral:colour":"red","seamark:buoy_lateral:shape":"pillar","seamark:buoy_lateral:system":"iala-b","seamark:type":"buoy_lateral"}}},{"type":"Feature","geometry":{"type":"Point","coordinates":[-97.1731764,26.0886239]},"properties":{"osm_id":1529194549,"osm_type":"node","seamark_type":"buoy_lateral","display_class":"OTHER","min_zoom":12,"importance":1,"name":null,"ref":null,"common":{"type":"buoy_lateral"},"children":{"buoy_lateral":{"category":"starboard","colour":"red","system":"iala-b"}},"osm_tags":{"man_made":"buoy","seamark:buoy_lateral:category":"starboard","seamark:buoy_lateral:colour":"red","seamark:buoy_lateral:system":"iala-b","seamark:type":"buoy_lateral"}}},{"type":"Feature","geometry":{"type":"Point","coordinates":[-97.1737182,26.0886335]},"properties":{"osm_id":1529194550,"osm_type":"node","seamark_type":"buoy_lateral","display_class":"OTHER","min_zoom":12,"importance":1,"name":null,"ref":null,"common":{"type":"buoy_lateral"},"children":{"buoy_lateral":{"category":"port","colour":"green","system":"iala-b"}},"osm_tags":{"man_made":"buoy","seamark:buoy_lateral:category":"port","seamark:buoy_lateral:colour":"green","seamark:buoy_lateral:system":"iala-b","seamark:type":"buoy_lateral"}}},{"type":"Feature","geometry":{"type":"Point","coordinates":[-97.1697113,26.0980273]},"properties":{"osm_id":1529194551,"osm_type":"node","seamark_type":"buoy_lateral","display_class":"OTHER","min_zoom":12,"importance":1,"name":null,"ref":null,"common":{"type":"buoy_lateral"},"children":{"buoy_lateral":{"category":"port","colour":"green","system":"iala-b"}},"osm_tags":{"man_made":"buoy","seamark:buoy_lateral:category":"port","seamark:buoy_lateral:colour":"green","seamark:buoy_lateral:system":"iala-b","seamark:type":"buoy_lateral"}}},{"type":"Feature","geometry":{"type":"Point","coordinates":[-97.1693626,26.0965245]},"properties":{"osm_id":1529194553,"osm_type":"node","seamark_type":"buoy_lateral","display_class":"OTHER","min_zoom":12,"importance":1,"name":null,"ref":null,"common":{"type":"buoy_lateral"},"children":{"buoy_lateral":{"category":"starboard","colour":"red","system":"iala-b"}},"osm_tags":{"man_made":"buoy","seamark:buoy_lateral:category":"starboard","seamark:buoy_lateral:colour":"red","seamark:buoy_lateral:system":"iala-b","seamark:type":"buoy_lateral"}}},{"type":"Feature","geometry":{"type":"Point","coordinates":[-97.1764965,26.1317062]},"properties":{"osm_id":1529194554,"osm_type":"node","seamark_type":"buoy_lateral","display_class":"OTHER","min_zoom":12,"importance":1,"name":null,"ref":null,"common":{"type":"buoy_lateral"},"children":{"buoy_lateral":{"category":"starboard","colour":"red","system":"iala-b"}},"osm_tags":{"man_made":"buoy","seamark:buoy_lateral:category":"starboard","seamark:buoy_lateral:colour":"red","seamark:buoy_lateral:system":"iala-b","seamark:type":"buoy_lateral"}}},{"type":"Feature","geometry":{"type":"Point","coordinates":[-97.1753646,26.1262353]},"properties":{"osm_id":1529194555,"osm_type":"node","seamark_type":"buoy_lateral","display_class":"OTHER","min_zoom":12,"importance":1,"name":null,"ref":null,"common":{"type":"buoy_lateral"},"children":{"buoy_lateral":{"category":"port","colour":"green","system":"iala-b"}},"osm_tags":{"man_made":"buoy","seamark:buoy_lateral:category":"port","seamark:buoy_lateral:colour":"green","seamark:buoy_lateral:system":"iala-b","seamark:type":"buoy_lateral"}}},{"type":"Feature","geometry":{"type":"Point","coordinates":[-97.1744258,26.1150223]},"properties":{"osm_id":1529194557,"osm_type":"node","seamark_type":"buoy_lateral","display_class":"OTHER","min_zoom":12,"importance":1,"name":null,"ref":null,"common":{"type":"buoy_lateral"},"children":{"buoy_lateral":{"category":"starboard","colour":"red","system":"iala-b"}},"osm_tags":{"man_made":"buoy","seamark:buoy_lateral:category":"starboard","seamark:buoy_lateral:colour":"red","seamark:buoy_lateral:system":"iala-b","seamark:type":"buoy_lateral"}}},{"type":"Feature","geometry":{"type":"Point","coordinates":[-97.1740557,26.1162504]},"properties":{"osm_id":1529194558,"osm_type":"node","seamark_type":"buoy_lateral","display_class":"OTHER","min_zoom":12,"importance":1,"name":null,"ref":null,"common":{"type":"buoy_lateral"},"children":{"buoy_lateral":{"category":"port","colour":"green","system":"iala-b"}},"osm_tags":{"man_made":"buoy","seamark:buoy_lateral:category":"port","seamark:buoy_lateral:colour":"green","seamark:buoy_lateral:system":"iala-b","seamark:type":"buoy_lateral"}}},{"type":"Feature","geometry":{"type":"Point","coordinates":[-97.1721843,26.1074595]},"properties":{"osm_id":1529194559,"osm_type":"node","seamark_type":"buoy_lateral","display_class":"OTHER","min_zoom":12,"importance":1,"name":null,"ref":null,"common":{"type":"buoy_lateral"},"children":{"buoy_lateral":{"category":"port","colour":"green","system":"iala-b"}},"osm_tags":{"man_made":"buoy","seamark:buoy_lateral:category":"port","seamark:buoy_lateral:colour":"green","seamark:buoy_lateral:system":"iala-b","seamark:type":"buoy_lateral"}}},{"type":"Feature","geometry":{"type":"Point","coordinates":[-97.1729833,26.1110966]},"properties":{"osm_id":1529194561,"osm_type":"node","seamark_type":"buoy_lateral","display_class":"OTHER","min_zoom":12,"importance":1,"name":null,"ref":null,"common":{"type":"buoy_lateral"},"children":{"buoy_lateral":{"category":"port","colour":"green","system":"iala-b"}},"osm_tags":{"man_made":"buoy","seamark:buoy_lateral:category":"port","seamark:buoy_lateral:colour":"green","seamark:buoy_lateral:system":"iala-b","seamark:type":"buoy_lateral"}}},{"type":"Feature","geometry":{"type":"Point","coordinates":[-97.0509833,26.119273]},"properties":{"osm_id":4239915446,"osm_type":"node","seamark_type":"platform","display_class":"OTHER","min_zoom":12,"importance":1,"name":null,"ref":null,"common":{"type":"platform"},"children":{},"osm_tags":{"man_made":"pumping_rig","seamark:type":"platform"}}},{"type":"Feature","geometry":{"type":"Point","coordinates":[-97.0547352,26.120743]},"properties":{"osm_id":4239915448,"osm_type":"node","seamark_type":"platform","display_class":"OTHER","min_zoom":12,"importance":1,"name":null,"ref":null,"common":{"type":"platform"},"children":{},"osm_tags":{"man_made":"offshore_platform","seamark:type":"platform"}}},{"type":"Feature","geometry":{"type":"Polygon","coordinates":[[[-97.1673846,26.0727306],[-97.1673854,26.0727351],[-97.1673877,26.0727392],[-97.1673914,26.0727425],[-97.167396,26.0727446],[-97.167401,26.0727453],[-97.1674066,26.0727444],[-97.1674115,26.0727419],[-97.1674152,26.072738],[-97.1674172,26.0727333],[-97.1674172,26.0727282],[-97.1674154,26.0727234],[-97.1674118,26.0727194],[-97.167407,26.0727168],[-97.1674015,26.0727158],[-97.1673959,26.0727165],[-97.1673913,26.0727186],[-97.1673877,26.0727219],[-97.1673854,26.072726],[-97.1673846,26.0727306]]]},"properties":{"osm_id":1041821341,"osm_type":"way","seamark_type":"mooring","display_class":"OTHER","min_zoom":12,"importance":1,"name":null,"ref":null,"common":{"type":"mooring"},"children":{"mooring":{"category":"dolphin"}},"osm_tags":{"area":"yes","floating":"no","man_made":"pier","seamark:mooring:category":"dolphin","seamark:type":"mooring"}}},{"type":"Feature","geometry":{"type":"Polygon","coordinates":[[[-97.1671168,26.0725361],[-97.1671176,26.0725407],[-97.1671199,26.0725448],[-97.1671236,26.072548],[-97.1671281,26.0725501],[-97.1671332,26.0725508],[-97.1671388,26.0725499],[-97.1671437,26.0725474],[-97.1671474,26.0725436],[-97.1671494,26.0725388],[-97.1671494,26.0725337],[-97.1671476,26.0725289],[-97.167144,26.072525],[-97.1671392,26.0725223],[-97.1671337,26.0725213],[-97.1671281,26.072522],[-97.1671235,26.0725242],[-97.1671199,26.0725274],[-97.1671183,26.0725302],[-97.1671168,26.0725361]]]},"properties":{"osm_id":1041821342,"osm_type":"way","seamark_type":"mooring","display_class":"OTHER","min_zoom":12,"importance":1,"name":null,"ref":null,"common":{"type":"mooring"},"children":{"mooring":{"category":"dolphin"}},"osm_tags":{"area":"yes","floating":"no","man_made":"pier","seamark:mooring:category":"dolphin","seamark:type":"mooring"}}},{"type":"Feature","geometry":{"type":"LineString","coordinates":[[-97.0469034,26.8688693],[-97.0443127,26.8723572],[-97.0437592,26.8740447],[-97.0435843,26.8752797],[-97.0436523,26.8769974],[-97.0442276,26.8787382],[-97.0456119,26.8807078],[-97.0480448,26.8839325],[-97.0507211,26.8865673],[-97.0529628,26.8892731],[-97.0549111,26.8914003],[-97.0563098,26.892988],[-97.0586495,26.8954246],[-97.0614903,26.8986434],[-97.063243,26.9004699],[-97.0662168,26.9037828],[-97.0675897,26.9051723],[-97.0690076,26.9066714],[-97.0715683,26.9099648],[-97.0734223,26.911749]]},"properties":{"osm_id":1256849144,"osm_type":"way","seamark_type":"pipeline_submarine","display_class":"OTHER","min_zoom":12,"importance":1,"name":null,"ref":null,"common":{"type":"pipeline_submarine"},"children":{"pipeline_submarine":{"category":"supply","product":"gas"}},"osm_tags":{"abandoned:man_made":"pipeline","diameter":"10.75\"","location":"underwater","operator":"Transcontinental Gas Pipe Line Company, LLC","ref:US:BOEM:ROW":"G04619","seamark:pipeline_submarine:category":"supply","seamark:pipeline_submarine:product":"gas","seamark:type":"pipeline_submarine","substance":"gas"}}},{"type":"Feature","geometry":{"type":"Point","coordinates":[-97.2067465,26.0787101]},"properties":{"osm_id":8703012509,"osm_type":"node","seamark_type":"harbour","display_class":"OTHER","min_zoom":12,"importance":1,"name":"Black Dragon Cruises","ref":null,"common":{"type":"harbour"},"children":{"harbour":{"category":"marina"}},"osm_tags":{"addr:city":"Port Isabel","addr:housenumber":"501","addr:postcode":"78578","addr:state":"TX","addr:street":"East Maxan Street","leisure":"marina","name":"Black Dragon Cruises","seamark:harbour:category":"marina","seamark:type":"harbour"}}},{"type":"Feature","geometry":{"type":"Point","coordinates":[-97.2119941,26.0692616]},"properties":{"osm_id":13160634605,"osm_type":"node","seamark_type":"harbour","display_class":"OTHER","min_zoom":12,"importance":1,"name":"Cuevas Trawlers, Inc.","ref":null,"common":{"type":"harbour"},"children":{"harbour":{"category":"marina"}},"osm_tags":{"addr:city":"Port Isabel","addr:housenumber":"718","addr:postcode":"78578","addr:state":"TX","addr:street":"South Shore Drive","leisure":"marina","name":"Cuevas Trawlers, Inc.","phone":"+1-956-943-1419","seamark:harbour:category":"marina","seamark:type":"harbour"}}},{"type":"Feature","geometry":{"type":"Point","coordinates":[-97.2058617,26.077839]},"properties":{"osm_id":13158939813,"osm_type":"node","seamark_type":"harbour","display_class":"OTHER","min_zoom":12,"importance":1,"name":"Dolphin Docks","ref":null,"common":{"type":"harbour"},"children":{"harbour":{"category":"marina"}},"osm_tags":{"addr:city":"Port Isabel","addr:housenumber":"510","addr:postcode":"78578","addr:state":"TX","addr:street":"East Queen Isabella Boulevard","leisure":"marina","name":"Dolphin Docks","payment:cash":"yes","seamark:harbour:category":"marina","seamark:type":"harbour","website":"https://www.dolphinwatching.info/"}}},{"type":"Feature","geometry":{"type":"Point","coordinates":[-97.2066444,26.0783828]},"properties":{"osm_id":13159321834,"osm_type":"node","seamark_type":"harbour","display_class":"OTHER","min_zoom":12,"importance":1,"name":"George's Fishing Charters","ref":null,"common":{"type":"harbour"},"children":{"harbour":{"category":"marina"}},"osm_tags":{"addr:city":"Port Isabel","addr:housenumber":"110","addr:postcode":"78578","addr:state":"TX","addr:street":"North Garcia Street","leisure":"marina","name":"George's Fishing Charters","phone":"+19565597839","seamark:harbour:category":"marina","seamark:type":"harbour","website":"https://spicharterfishing.com/"}}},{"type":"Feature","geometry":{"type":"Point","coordinates":[-97.2128327,26.0723138]},"properties":{"osm_id":13160744352,"osm_type":"node","seamark_type":"harbour","display_class":"OTHER","min_zoom":12,"importance":1,"name":"Jimmy's Marina","ref":null,"common":{"type":"harbour"},"children":{"harbour":{"category":"marina"}},"osm_tags":{"addr:city":"Port Isabel","addr:housenumber":"101","addr:postcode":"78578","addr:state":"TX","addr:street":"Bridge Street","leisure":"marina","name":"Jimmy's Marina","phone":"+1956-443-8216","seamark:harbour:category":"marina","seamark:type":"harbour"}}},{"type":"Feature","geometry":{"type":"Point","coordinates":[-97.2097343,26.0664484]},"properties":{"osm_id":13158848836,"osm_type":"node","seamark_type":"harbour","display_class":"OTHER","min_zoom":12,"importance":1,"name":"Laguna Madre Yacht Club","ref":null,"common":{"type":"harbour"},"children":{"harbour":{"category":"marina_no_facilities"}},"osm_tags":{"addr:city":"Port Isabel","addr:housenumber":"500","addr:postcode":"78578","addr:state":"TX","addr:street":"South Point Avenue","email":"webmaster@lagunamadreyachtclub.org","leisure":"marina","name":"Laguna Madre Yacht Club","operator":"Chris Hughston","payment:cash":"yes","phone":"+1956-943-5692","seamark:harbour:category":"marina_no_facilities","seamark:type":"harbour","website":"https://www.lagunamadreyachtclub.org/"}}},{"type":"Feature","geometry":{"type":"Point","coordinates":[-97.2128852,26.0724013]},"properties":{"osm_id":13160808572,"osm_type":"node","seamark_type":"harbour","display_class":"OTHER","min_zoom":12,"importance":1,"name":"Lincoln Brothers Fishing, LLC","ref":null,"common":{"type":"harbour"},"children":{"harbour":{"category":"marina"}},"osm_tags":{"addr:city":"Port Isabel","addr:housenumber":"104","addr:postcode":"78578","addr:state":"TX","addr:street":"Bridge Street","leisure":"marina","name":"Lincoln Brothers Fishing, LLC","phone":"+12816677680","seamark:harbour:category":"marina","seamark:type":"harbour"}}},{"type":"Feature","geometry":{"type":"Point","coordinates":[-97.2067146,26.0786722]},"properties":{"osm_id":13159145520,"osm_type":"node","seamark_type":"harbour","display_class":"OTHER","min_zoom":12,"importance":1,"name":"Osprey Cruises","ref":null,"common":{"type":"harbour"},"children":{"harbour":{"category":"marina"}},"osm_tags":{"addr:city":"Port Isabel","addr:housenumber":"501","addr:postcode":"78578","addr:state":"TX","addr:street":"East Maxan Street","leisure":"marina","name":"Osprey Cruises","phone":"+19567616655","seamark:harbour:category":"marina","seamark:type":"harbour","website":"https://www.ospreycruises.com/"}}},{"type":"Feature","geometry":{"type":"Point","coordinates":[-97.2067818,26.078624]},"properties":{"osm_id":13159115410,"osm_type":"node","seamark_type":"harbour","display_class":"OTHER","min_zoom":12,"importance":1,"name":"Osprey Fishing Trips","ref":null,"common":{"type":"harbour"},"children":{"harbour":{"category":"marina"}},"osm_tags":{"addr:city":"Port Isabel","addr:housenumber":"501","addr:postcode":"78578","addr:state":"TX","addr:street":"East Maxan Street","leisure":"marina","name":"Osprey Fishing Trips","phone":"+19567616655","seamark:harbour:category":"marina","seamark:type":"harbour","website":"https://www.ospreycruises.com/schedule-prices/"}}},{"type":"Feature","geometry":{"type":"Point","coordinates":[-97.2069129,26.0788417]},"properties":{"osm_id":13159147755,"osm_type":"node","seamark_type":"harbour","display_class":"OTHER","min_zoom":12,"importance":1,"name":"Pirate's Landing Fishing Pier","ref":null,"common":{"type":"harbour"},"children":{"harbour":{"category":"marina"}},"osm_tags":{"access":"customers","addr:city":"Port Isabel","addr:housenumber":"501","addr:postcode":"78578","addr:state":"TX","addr:street":"East Maxan Street","fishing":"fee","leisure":"marina","name":"Pirate's Landing Fishing Pier","payment:cash":"yes","phone":"+1-956-943-7437","seamark:harbour:category":"marina","seamark:type":"harbour","website":"https://piratespier.com/contact-us/"}}},{"type":"Feature","geometry":{"type":"Point","coordinates":[-97.2068551,26.0788895]},"properties":{"osm_id":13159139170,"osm_type":"node","seamark_type":"harbour","display_class":"OTHER","min_zoom":12,"importance":1,"name":"REEL Therapy Charter Services","ref":null,"common":{"type":"harbour"},"children":{"harbour":{"category":"marina"}},"osm_tags":{"addr:city":"Port Isabel","addr:housenumber":"208258","addr:postcode":"78578","addr:state":"TX","addr:street":"North Garcia Street","email":"captjaimetx@gmail.com","leisure":"marina","name":"REEL Therapy Charter Services","phone":"+1-956-793-0419","seamark:harbour:category":"marina","seamark:type":"harbour","website":"https://www.fishsouthpadretx.com/contact-us"}}},{"type":"Feature","geometry":{"type":"Point","coordinates":[-97.2095301,26.0659375]},"properties":{"osm_id":13158889101,"osm_type":"node","seamark_type":"harbour","display_class":"OTHER","min_zoom":12,"importance":1,"name":"Sea Ranch Marina II","ref":null,"common":{"type":"harbour"},"children":{"harbour":{"category":"marina"}},"osm_tags":{"addr:city":"Port Isabel","addr:housenumber":"502","addr:postcode":"78578","addr:state":"TX","addr:street":"South Point Avenue","leisure":"marina","name":"Sea Ranch Marina II","phone":"+1956-943-7926","seamark:harbour:category":"marina","seamark:type":"harbour"}}},{"type":"Feature","geometry":{"type":"Point","coordinates":[-97.2099726,26.0652693]},"properties":{"osm_id":13158892322,"osm_type":"node","seamark_type":"harbour","display_class":"OTHER","min_zoom":12,"importance":1,"name":"Southpoint Marina","ref":null,"common":{"type":"harbour"},"children":{"harbour":{"category":"marina"}},"osm_tags":{"addr:city":"Port Isabel","addr:housenumber":"50296","addr:postcode":"78578","addr:state":"TX","addr:street":"South Point Avenue","leisure":"marina","name":"Southpoint Marina","phone":"+1956-943-7926","seamark:harbour:category":"marina","seamark:type":"harbour"}}},{"type":"Feature","geometry":{"type":"Polygon","coordinates":[[[-97.1652646,26.0738326],[-97.1652355,26.0738443],[-97.1649162,26.0739868],[-97.1642663,26.0742092],[-97.1641719,26.0742448],[-97.1641401,26.0742569],[-97.1641001,26.0741756],[-97.1634565,26.0728147],[-97.1633049,26.0728577],[-97.1624377,26.0730939],[-97.1623624,26.0731039],[-97.1623028,26.0727574],[-97.1618106,26.0713369],[-97.1613211,26.0699241],[-97.1620568,26.0697237],[-97.1630179,26.069462],[-97.1630241,26.0695974],[-97.1631425,26.0698719],[-97.1632343,26.0700008],[-97.1636737,26.0706181],[-97.1636862,26.0706357],[-97.1638815,26.0710322],[-97.1642473,26.0715012],[-97.1645156,26.071766],[-97.1647933,26.072204],[-97.1647715,26.0722149],[-97.1647912,26.0722454],[-97.1648045,26.0722378],[-97.1648277,26.0722341],[-97.1648801,26.0723126],[-97.1656849,26.072505],[-97.1664469,26.0726872],[-97.1664544,26.0727013],[-97.1664583,26.0727087],[-97.1665704,26.0729098],[-97.166636,26.07303],[-97.1666677,26.0730867],[-97.1666822,26.0731143],[-97.1667039,26.073155],[-97.1667106,26.073167],[-97.1660615,26.0734735],[-97.1655553,26.0737016],[-97.1653894,26.0737764],[-97.1652646,26.0738326]]]},"properties":{"osm_id":833889688,"osm_type":"way","seamark_type":"coastguard_station","display_class":"OTHER","min_zoom":12,"importance":1,"name":"U.S. Coast Guard - Station South Padre Isand","ref":null,"common":{"type":"coastguard_station"},"children":{},"osm_tags":{"addr:city":"South Padre Island","addr:housenumber":"1","addr:postcode":"78597","addr:state":"TX","addr:street":"Wallace Reed Road","description":"U.S. Coast Guard Boat Station, primary duties, include search and rescue, enforcement of laws and treaties, marine environmental protection and recreational boating safety.","landuse":"military","military_service":"coast_guard","name":"U.S. Coast Guard - Station South Padre Isand","note":"Cameron County Accessors Office GeoID: 67-6820-0010-0034-00","seamark:type":"coastguard_station","source_ref":"http://www.cameroncad.org/gis/map"}}}],"type":"FeatureCollection"}