{"type":"FeatureCollection","features":[{"type":"Feature","geometry":{"type":"Point","coordinates":[53.0004619,27.1280624]},"properties":{"osm_id":1293792204,"osm_type":"node","seamark_type":"light_minor","display_class":"OTHER","min_zoom":12,"importance":1,"name":null,"ref":null,"common":{"type":"light_minor"},"children":{"light":{"character":"Fl","colour":"white","group":"2","period":"10","reference":"D 7680.5"}},"osm_tags":{"seamark:light:character":"Fl","seamark:light:colour":"white","seamark:light:group":"2","seamark:light:period":"10","seamark:light:reference":"D 7680.5","seamark:type":"light_minor","source":"US NGA Pub. 112. 2009-11-12."}}},{"type":"Feature","geometry":{"type":"Point","coordinates":[53.1434167,27.0800837]},"properties":{"osm_id":1293792199,"osm_type":"node","seamark_type":"light_minor","display_class":"OTHER","min_zoom":12,"importance":1,"name":"Bandare Shiu","ref":null,"common":{"name":"Bandare Shiu","type":"light_minor"},"children":{"light":{"character":"Fl","colour":"white","group":"3","height":"46","period":"15","range":"7","reference":"D 7681"}},"osm_tags":{"seamark:light:character":"Fl","seamark:light:colour":"white","seamark:light:group":"3","seamark:light:height":"46","seamark:light:period":"15","seamark:light:range":"7","seamark:light:reference":"D 7681","seamark:name":"Bandare Shiu","seamark:type":"light_minor","source":"US NGA Pub. 112. 2009-11-12."}}}],"type":"FeatureCollection"}