{"type":"FeatureCollection","features":[{"type":"Feature","geometry":{"type":"Polygon","coordinates":[[[-78.3227507,27.2179522],[-78.3227563,27.2179892],[-78.3227697,27.2181525],[-78.322755,27.2182909],[-78.3227228,27.2183958],[-78.3225456,27.2183053],[-78.3226034,27.2182205],[-78.322641,27.2181275],[-78.3226463,27.2179844],[-78.3225471,27.2173189],[-78.3225377,27.2172521],[-78.3225404,27.2171913],[-78.3225565,27.2171448],[-78.3225887,27.2171007],[-78.3226624,27.2170303],[-78.3227724,27.216954],[-78.3228166,27.2169122],[-78.3228582,27.2168562],[-78.3228917,27.2167894],[-78.3229508,27.2165521],[-78.3230352,27.2165795],[-78.3229226,27.216886],[-78.3228461,27.2169731],[-78.3227603,27.2170327],[-78.3226959,27.2170852],[-78.3226544,27.2171305],[-78.3226302,27.2171734],[-78.3226141,27.2172116],[-78.3226088,27.2172712],[-78.3226168,27.2173273],[-78.3226919,27.2176672],[-78.3227039,27.2177185],[-78.3227228,27.2177065],[-78.3227617,27.2176803],[-78.3228099,27.21766],[-78.3229092,27.2176242],[-78.3231318,27.2175789],[-78.3232458,27.2175455],[-78.323279,27.2175309],[-78.3233055,27.2175121],[-78.3233263,27.2174942],[-78.323346,27.2174671],[-78.3233652,27.2174346],[-78.323404,27.2173815],[-78.3234403,27.2174072],[-78.3234097,27.2174537],[-78.3233913,27.2174999],[-78.3233759,27.2175205],[-78.3233541,27.2175419],[-78.3233263,27.2175634],[-78.323285,27.2175837],[-78.3232377,27.2176028],[-78.3229816,27.217685],[-78.3229145,27.2177256],[-78.3228327,27.2177816],[-78.3227845,27.2178425],[-78.3227603,27.2178985],[-78.3227507,27.2179522]]]},"properties":{"osm_id":721862804,"osm_type":"way","seamark_type":"fairway","display_class":"OTHER","min_zoom":12,"importance":1,"name":null,"ref":null,"common":{"type":"fairway"},"children":{},"osm_tags":{"seamark:type":"fairway"}}}],"type":"FeatureCollection"}