{"type":"FeatureCollection","features":[{"type":"Feature","geometry":{"type":"Point","coordinates":[-12.9375004,27.919774]},"properties":{"osm_id":1581749706,"osm_type":"node","seamark_type":"light_major","display_class":"LIGHTHOUSE","min_zoom":7,"importance":5,"name":"Tarfaya","ref":null,"common":{"information":"3 F.R. (vert.) on radio mast 1.5 miles NNE.","name":"Tarfaya","type":"light_major"},"children":{"light":{"character":"Fl","colour":"white","group":"2","period":"10","range":"25","reference":"D 2619"}},"osm_tags":{"seamark:information":"3 F.R. (vert.) on radio mast 1.5 miles NNE.","seamark:light:character":"Fl","seamark:light:colour":"white","seamark:light:group":"2","seamark:light:period":"10","seamark:light:range":"25","seamark:light:reference":"D 2619","seamark:name":"Tarfaya","seamark:type":"light_major","source":"US NGA Pub. 113. 2011-10-20."}}},{"type":"Feature","geometry":{"type":"Point","coordinates":[-12.9333858,27.9400494]},"properties":{"osm_id":9734325533,"osm_type":"node","seamark_type":"beacon_special_purpose","display_class":"BEACON","min_zoom":9,"importance":4,"name":null,"ref":null,"common":{"type":"beacon_special_purpose"},"children":{},"osm_tags":{"seamark:type":"beacon_special_purpose"}}},{"type":"Feature","geometry":{"type":"Point","coordinates":[-12.9355888,27.9389922]},"properties":{"osm_id":9734325538,"osm_type":"node","seamark_type":"beacon_special_purpose","display_class":"BEACON","min_zoom":9,"importance":4,"name":null,"ref":null,"common":{"type":"beacon_special_purpose"},"children":{},"osm_tags":{"seamark:type":"beacon_special_purpose"}}},{"type":"Feature","geometry":{"type":"Point","coordinates":[-12.9408677,27.9412526]},"properties":{"osm_id":9734325541,"osm_type":"node","seamark_type":"beacon_special_purpose","display_class":"BEACON","min_zoom":9,"importance":4,"name":null,"ref":null,"common":{"type":"beacon_special_purpose"},"children":{},"osm_tags":{"seamark:type":"beacon_special_purpose"}}},{"type":"Feature","geometry":{"type":"Point","coordinates":[-12.9390711,27.9388779]},"properties":{"osm_id":9734325542,"osm_type":"node","seamark_type":"beacon_special_purpose","display_class":"BEACON","min_zoom":9,"importance":4,"name":null,"ref":null,"common":{"type":"beacon_special_purpose"},"children":{},"osm_tags":{"seamark:type":"beacon_special_purpose"}}},{"type":"Feature","geometry":{"type":"Point","coordinates":[-12.9354583,27.9409652]},"properties":{"osm_id":9734325545,"osm_type":"node","seamark_type":"beacon_special_purpose","display_class":"BEACON","min_zoom":9,"importance":4,"name":null,"ref":null,"common":{"type":"beacon_special_purpose"},"children":{},"osm_tags":{"seamark:type":"beacon_special_purpose"}}},{"type":"Feature","geometry":{"type":"Point","coordinates":[-12.9708034,27.8978257]},"properties":{"osm_id":4972166862,"osm_type":"node","seamark_type":"wreck","display_class":"OTHER","min_zoom":12,"importance":1,"name":null,"ref":null,"common":{"type":"wreck"},"children":{},"osm_tags":{"historic":"wreck","seamark:type":"wreck","tourism":"attraction"}}},{"type":"Feature","geometry":{"type":"Point","coordinates":[-12.9325669,27.942881]},"properties":{"osm_id":9734325508,"osm_type":"node","seamark_type":"harbour","display_class":"OTHER","min_zoom":12,"importance":1,"name":null,"ref":null,"common":{"type":"harbour"},"children":{"harbour":{"category":"marina"}},"osm_tags":{"leisure":"marina","seamark:harbour:category":"marina","seamark:type":"harbour"}}},{"type":"Feature","geometry":{"type":"Point","coordinates":[-12.9177116,27.9498712]},"properties":{"osm_id":1581749707,"osm_type":"node","seamark_type":"light_minor","display_class":"OTHER","min_zoom":12,"importance":1,"name":"Tarfaya","ref":null,"common":{"name":"Tarfaya","type":"light_minor"},"children":{"light":{"character":"Fl","colour":"red","period":"2"}},"osm_tags":{"seamark:light:character":"Fl","seamark:light:colour":"red","seamark:light:period":"2","seamark:name":"Tarfaya","seamark:type":"light_minor","source":"US NGA Pub. 113. 2011-10-20."}}},{"type":"Feature","geometry":{"type":"Polygon","coordinates":[[[-12.9658126,27.915612],[-12.9658729,27.9155777],[-12.9658536,27.9154607],[-12.9654701,27.9149284],[-12.9653116,27.9148164],[-12.9652445,27.9148675],[-12.9653134,27.9150303],[-12.9656916,27.9155425],[-12.9658126,27.915612]]]},"properties":{"osm_id":1204791256,"osm_type":"way","seamark_type":"wreck","display_class":"OTHER","min_zoom":12,"importance":1,"name":"حطام سفينة السلامة","ref":null,"common":{"type":"wreck"},"children":{"wreck":{"category":"hull_showing"}},"osm_tags":{"building:levels":"4","building:material":"metal","building:part":"roof","height":"25","historic":"wreck","min_height":"22","name":"حطام سفينة السلامة","name:en":"Assalama Shipwreck","note":"The name popularity is known as “Assalama Shipwreck”, but also known as Assalama Armas.","seamark:type":"wreck","seamark:wreck:category":"hull_showing","wreck:date_sunk":"2008","wreck:visible_at_high_tide":"yes","wreck:visible_at_low_tide":"yes"}}}],"type":"FeatureCollection"}