{"type":"FeatureCollection","features":[{"type":"Feature","geometry":{"type":"LineString","coordinates":[[-95.9654356,27.8824871],[-95.9675619,27.8838841],[-95.9696276,27.8858737],[-95.9705816,27.8867072],[-95.9717529,27.88784],[-95.973833,27.8897667],[-95.974967,27.8909096],[-95.976069,27.891873],[-95.9769615,27.892694],[-95.9791018,27.8946879],[-95.981198,27.8967111],[-95.9822841,27.8976933],[-95.9844058,27.8996951],[-95.9865753,27.9016511],[-95.987108,27.9021805],[-95.98732,27.902664]]},"properties":{"osm_id":1256816341,"osm_type":"way","seamark_type":"pipeline_submarine","display_class":"OTHER","min_zoom":12,"importance":1,"name":null,"ref":null,"common":{"type":"pipeline_submarine"},"children":{"pipeline_submarine":{"category":"supply","product":"gas"}},"osm_tags":{"abandoned:man_made":"pipeline","diameter":"14\"","location":"underwater","operator":"Fieldwood Energy LLC","seamark:pipeline_submarine:category":"supply","seamark:pipeline_submarine:product":"gas","seamark:type":"pipeline_submarine","substance":"gas","usage":"gathering"}}},{"type":"Feature","geometry":{"type":"LineString","coordinates":[[-95.5594802,27.2714981],[-95.5592366,27.2714778],[-95.5601934,27.2746807],[-95.5608881,27.2767911],[-95.5612018,27.2778552],[-95.5622256,27.2810238],[-95.5625455,27.282085],[-95.5628439,27.2831521],[-95.5631944,27.2842072],[-95.5635204,27.2852683],[-95.5636651,27.2858019],[-95.5638587,27.2863264],[-95.563985,27.2868659],[-95.5641455,27.2879575],[-95.5642483,27.290153],[-95.5644088,27.2912418],[-95.5645135,27.2917817],[-95.5648427,27.2928427],[-95.5669012,27.2980247],[-95.5676819,27.3001114],[-95.5681945,27.3011141],[-95.5687558,27.3020938],[-95.5693353,27.3030622],[-95.5698906,27.3040448],[-95.5703543,27.305062],[-95.5707508,27.3061025],[-95.5711259,27.3071517],[-95.5714582,27.3082099],[-95.5729343,27.3124069],[-95.5737061,27.3144965],[-95.5740354,27.3155575],[-95.5747399,27.3176649],[-95.5758594,27.3208096],[-95.5769331,27.3239662],[-95.577699,27.3260586],[-95.5779977,27.3271257],[-95.5780934,27.3276684],[-95.578375,27.3298551],[-95.5786903,27.3320356],[-95.5788111,27.3331306],[-95.5788058,27.3342308],[-95.5787018,27.3353245],[-95.578622,27.3358677],[-95.5783573,27.3369397],[-95.5781786,27.3374655],[-95.5779595,27.3379783],[-95.5774312,27.3389698],[-95.5735529,27.3458479],[-95.5729381,27.3469621],[-95.5730794,27.3469457],[-95.5733041,27.3470736]]},"properties":{"osm_id":1256817097,"osm_type":"way","seamark_type":"pipeline_submarine","display_class":"OTHER","min_zoom":12,"importance":1,"name":null,"ref":null,"common":{"type":"pipeline_submarine"},"children":{"pipeline_submarine":{"category":"supply","product":"gas"}},"osm_tags":{"abandoned:man_made":"pipeline","diameter":"6.63\"","location":"underwater","operator":"Marubeni Oil & Gas (USA) LLC","ref:US:BOEM:ROW":"G25350","seamark:pipeline_submarine:category":"supply","seamark:pipeline_submarine:product":"gas","seamark:type":"pipeline_submarine","substance":"gas"}}},{"type":"Feature","geometry":{"type":"LineString","coordinates":[[-95.9199083,27.9720519],[-95.9195705,27.972286],[-95.9162475,27.9758299],[-95.912849,27.9791189],[-95.9117127,27.9801092],[-95.9078426,27.9839027],[-95.9051826,27.9864644],[-95.9024635,27.9891115],[-95.9008325,27.9907378],[-95.894756,27.9972564],[-95.8929381,27.9990215],[-95.8909848,28.0012065],[-95.8878346,28.0040071],[-95.8847714,28.006949],[-95.8820019,28.0097536],[-95.8787148,28.0131301],[-95.8773998,28.0148473]]},"properties":{"osm_id":1256818141,"osm_type":"way","seamark_type":"pipeline_submarine","display_class":"OTHER","min_zoom":12,"importance":1,"name":null,"ref":null,"common":{"type":"pipeline_submarine"},"children":{"pipeline_submarine":{"category":"supply","product":"gas"}},"osm_tags":{"abandoned:man_made":"pipeline","diameter":"16\"","location":"underwater","operator":"Transcontinental Gas Pipe Line Company, LLC","ref:US:BOEM:ROW":"G01991C","seamark:pipeline_submarine:category":"supply","seamark:pipeline_submarine:product":"gas","seamark:type":"pipeline_submarine","substance":"gas"}}},{"type":"Feature","geometry":{"type":"LineString","coordinates":[[-95.9873229,27.9026695],[-95.9861404,27.9029808],[-95.9854728,27.9030453],[-95.9843047,27.9032826],[-95.9825738,27.9036033],[-95.9812611,27.903807],[-95.9795087,27.9041217],[-95.9766739,27.9045985],[-95.975192,27.9048726],[-95.9736897,27.9052094],[-95.9721539,27.9054189],[-95.9706439,27.9057005],[-95.9660845,27.9064868],[-95.9654145,27.9066336],[-95.9647394,27.9067418],[-95.9643673,27.906758]]},"properties":{"osm_id":1256818478,"osm_type":"way","seamark_type":"pipeline_submarine","display_class":"OTHER","min_zoom":12,"importance":1,"name":null,"ref":null,"common":{"type":"pipeline_submarine"},"children":{"pipeline_submarine":{"category":"supply","product":"gas"}},"osm_tags":{"abandoned:man_made":"pipeline","diameter":"14\"","location":"underwater","operator":"Fieldwood Energy LLC","seamark:pipeline_submarine:category":"supply","seamark:pipeline_submarine:product":"gas","seamark:type":"pipeline_submarine","substance":"gas","usage":"gathering"}}},{"type":"Feature","geometry":{"type":"LineString","coordinates":[[-95.5733603,27.3470638],[-95.5734473,27.3468602],[-95.5734614,27.3468755],[-95.5736931,27.3466695],[-95.574335,27.3462492],[-95.5761462,27.3449009],[-95.5768481,27.3444341],[-95.5780373,27.3435875],[-95.5786756,27.3431652],[-95.579284,27.342731],[-95.580551,27.34188],[-95.5849505,27.3388685],[-95.5880487,27.3366751],[-95.5893107,27.3357249],[-95.5899003,27.3353357],[-95.592472,27.3334854],[-95.5936271,27.3327167],[-95.5948594,27.331849],[-95.5958446,27.3312034],[-95.5967371,27.3305864],[-95.5980121,27.3297588],[-95.5990382,27.3290567],[-95.6007067,27.3281541],[-95.6015999,27.3277571],[-95.6026658,27.3273446],[-95.6038473,27.3270022],[-95.6054769,27.3267059],[-95.6064749,27.3265998],[-95.6072405,27.3265556],[-95.6080318,27.3265448],[-95.6088297,27.3265905],[-95.6097044,27.3266773],[-95.6105249,27.3268349],[-95.6120008,27.3271617],[-95.613582,27.3275404],[-95.6144159,27.3277109],[-95.6182041,27.3286325],[-95.6204975,27.3291581],[-95.6212529,27.3293576],[-95.6219686,27.329508],[-95.6235347,27.3298726],[-95.6265808,27.3306536],[-95.6273295,27.3308774],[-95.6280649,27.3311298],[-95.6295731,27.3316668],[-95.6304054,27.3319851],[-95.6311331,27.3323333],[-95.6332923,27.3334915],[-95.6344581,27.334206],[-95.6357412,27.3351558],[-95.6369509,27.3359853],[-95.640027,27.338183],[-95.6418415,27.3395398],[-95.6424602,27.339952],[-95.6448416,27.3417036],[-95.645164,27.3419214],[-95.6460368,27.3425769],[-95.6466523,27.3429899],[-95.6508558,27.3460116],[-95.6532431,27.3477962],[-95.6544945,27.3486716],[-95.6562665,27.3499827],[-95.656828,27.3503762],[-95.6574339,27.3508916],[-95.6585829,27.3519133],[-95.6589958,27.3522957],[-95.6600912,27.3534943],[-95.6605927,27.3540215],[-95.6609099,27.3543822],[-95.6615293,27.3551216],[-95.6624969,27.3561965],[-95.6629587,27.3567572],[-95.6634344,27.3573045],[-95.6644054,27.3583919],[-95.6648515,27.3589579],[-95.6663079,27.3605909],[-95.6667401,27.3611607],[-95.6672105,27.3617226],[-95.6683501,27.3629991],[-95.6691705,27.3639972],[-95.6701213,27.3650528],[-95.6711892,27.3662979],[-95.6716882,27.3668309],[-95.6726964,27.3679715],[-95.6737638,27.369055],[-95.6743143,27.3695794],[-95.6754336,27.3706103],[-95.6766529,27.3716213],[-95.6790322,27.3735067],[-95.6815035,27.3753498],[-95.6821237,27.3757807],[-95.6833547,27.3767083],[-95.6846003,27.3776004],[-95.685856,27.3785268],[-95.6864854,27.3789557],[-95.6871239,27.3794326],[-95.6889059,27.380914],[-95.6905477,27.3825196],[-95.6911011,27.3830229],[-95.691926,27.3838566],[-95.6937702,27.3856333],[-95.6943038,27.3861837],[-95.6954459,27.3872464],[-95.6986852,27.3903922],[-95.7008563,27.3924536],[-95.7041507,27.3955203],[-95.7057679,27.397088],[-95.7084109,27.3996961],[-95.7095453,27.4007752],[-95.7104719,27.4016949],[-95.7111523,27.4023339],[-95.714602,27.4056839],[-95.7160945,27.4070928],[-95.717235,27.4081022],[-95.7178562,27.4086052],[-95.7184707,27.4090638],[-95.7189499,27.4094433],[-95.7212736,27.4111814],[-95.7239377,27.4132271],[-95.7245111,27.4137287],[-95.7256541,27.4147947],[-95.72844,27.4173453],[-95.7295597,27.4184333],[-95.7298789,27.4186673],[-95.7301364,27.4189747],[-95.731288,27.4200115],[-95.7340738,27.4226439],[-95.7357877,27.4242016],[-95.7361685,27.4245743],[-95.7374819,27.4257712],[-95.7386353,27.4268579],[-95.7419709,27.429945],[-95.7441913,27.4320332],[-95.7469545,27.4345925],[-95.7491542,27.4366579],[-95.751896,27.4392086],[-95.7529453,27.4401657],[-95.7541179,27.4412776],[-95.757138,27.4440649],[-95.7592258,27.4460193],[-95.7597229,27.4464536],[-95.7602717,27.4470033],[-95.7613306,27.4479491],[-95.7634497,27.449915],[-95.7636543,27.4500896],[-95.7655372,27.451861],[-95.7671527,27.4533473],[-95.7676173,27.4538209],[-95.7687929,27.4548773],[-95.7726585,27.4584812],[-95.773944,27.4596559],[-95.7788573,27.4642145],[-95.7824017,27.4674251],[-95.7834269,27.4684341],[-95.7843749,27.4694808],[-95.7849162,27.4701322],[-95.7853911,27.4707287],[-95.7858481,27.4713529],[-95.7862889,27.4719922],[-95.7871044,27.4732824],[-95.7875499,27.4740955],[-95.7881267,27.4752707],[-95.7886916,27.4765973],[-95.7906824,27.4817235],[-95.7907781,27.4820155],[-95.7915757,27.4840054],[-95.7920749,27.4853383],[-95.7931398,27.4880474],[-95.7939305,27.4901438],[-95.7947499,27.4922529],[-95.7963036,27.4963833],[-95.7968993,27.4977843],[-95.7972161,27.4984749],[-95.7977802,27.4995878],[-95.7982222,27.5003715],[-95.7986238,27.5010219],[-95.7994573,27.5023101],[-95.8034026,27.5083585],[-95.8039161,27.5091766],[-95.8042985,27.5098245],[-95.8046497,27.5104666],[-95.8049771,27.511115],[-95.805294,27.5117859],[-95.8065027,27.5144676],[-95.8130579,27.5288523],[-95.8150882,27.5332583],[-95.8233177,27.5512881],[-95.8279031,27.561379],[-95.8330866,27.5727164],[-95.8357756,27.5786641],[-95.8364115,27.5800207],[-95.8370068,27.5813506],[-95.8394231,27.5865964],[-95.8498539,27.6094668],[-95.8516689,27.6133916],[-95.852595,27.6154472],[-95.8538633,27.618192],[-95.8562306,27.6234377],[-95.8649233,27.6424217],[-95.8722422,27.6584789],[-95.8725908,27.6592045],[-95.8750135,27.66454],[-95.8756889,27.6659651],[-95.8759883,27.6665049],[-95.8763665,27.6671316],[-95.8784193,27.6702295],[-95.8791321,27.6713759]]},"properties":{"osm_id":1256820229,"osm_type":"way","seamark_type":"pipeline_submarine","display_class":"OTHER","min_zoom":12,"importance":1,"name":null,"ref":null,"common":{"type":"pipeline_submarine"},"children":{"pipeline_submarine":{"category":"supply","product":"gas"}},"osm_tags":{"abandoned:man_made":"pipeline","diameter":"10.75\"","location":"underwater","operator":"Marubeni Oil & Gas (USA) LLC","ref:US:BOEM:ROW":"G24259","seamark:pipeline_submarine:category":"supply","seamark:pipeline_submarine:product":"gas","seamark:type":"pipeline_submarine","substance":"gas"}}},{"type":"Feature","geometry":{"type":"LineString","coordinates":[[-95.5733281,27.3470456],[-95.5733024,27.3469015],[-95.5744572,27.3459357],[-95.57912,27.3424118],[-95.5826931,27.3398022],[-95.5850427,27.3380289],[-95.5862507,27.3371784],[-95.588625,27.3354298],[-95.5933197,27.3318791],[-95.5977354,27.3284604],[-95.598339,27.3280347],[-95.5989647,27.3276359],[-95.5996254,27.3272841],[-95.6003046,27.3269616],[-95.601003,27.3266737],[-95.6017312,27.3264544],[-95.6024672,27.3262541],[-95.6032148,27.3260919],[-95.6039747,27.3259868],[-95.6047379,27.3259083],[-95.6055062,27.3258732],[-95.6062743,27.3259051],[-95.6070408,27.3259583],[-95.6077999,27.326057],[-95.6085546,27.32619],[-95.6104896,27.3266402],[-95.6133905,27.3272899],[-95.6179261,27.3283851],[-95.6194128,27.3287353],[-95.6209056,27.3290648],[-95.6253613,27.3301277],[-95.6268321,27.3305317],[-95.6282873,27.3309754],[-95.6297103,27.3314974],[-95.6310949,27.3320944],[-95.6324219,27.3327879],[-95.6337173,27.3335237],[-95.6349496,27.3343462],[-95.6361577,27.3351946],[-95.6397086,27.3378243],[-95.6490194,27.3445406],[-95.6516555,27.3464765],[-95.6528547,27.3473358],[-95.6541245,27.348104],[-95.6555324,27.3486534],[-95.6569669,27.3491475],[-95.6583031,27.3498257],[-95.6594946,27.3506913],[-95.6605121,27.351719],[-95.6613418,27.3528728],[-95.6632109,27.3566401],[-95.6640632,27.3577802],[-95.665015,27.3588603],[-95.666883,27.3610443],[-95.6687744,27.3632115],[-95.6697415,27.3642804],[-95.6706859,27.3653658],[-95.6716275,27.3664525],[-95.6725479,27.3675524],[-95.6735271,27.368613],[-95.6745705,27.3696234],[-95.6756562,27.3705978],[-95.6767951,27.3715227],[-95.6862552,27.378565],[-95.6874256,27.3794579],[-95.6885623,27.3803845],[-95.6896354,27.3813696],[-95.692777,27.3843913],[-95.6948512,27.3864224],[-95.7032483,27.3944665],[-95.7042849,27.3954827],[-95.7053413,27.3964824],[-95.7095244,27.400516],[-95.7105819,27.4015147],[-95.7127987,27.4036762],[-95.7158052,27.4065598],[-95.7168746,27.4075485],[-95.7180053,27.4084807],[-95.7203299,27.410284],[-95.7238527,27.4129507],[-95.7249886,27.4138785],[-95.7260779,27.41485],[-95.7324544,27.4208173],[-95.737796,27.425766],[-95.7410143,27.4287224],[-95.7431192,27.4307283],[-95.7452704,27.4326958],[-95.7527237,27.4396454],[-95.7559433,27.4426037],[-95.7612768,27.4475608],[-95.7633935,27.4495584],[-95.7676797,27.4535082],[-95.77087,27.4564899],[-95.7740883,27.4594489],[-95.7783492,27.4634212],[-95.7826554,27.4673546],[-95.7836826,27.4683788],[-95.7846506,27.4694479],[-95.7855517,27.4705626],[-95.7863752,27.4717239],[-95.7868761,27.4725274],[-95.7876835,27.4739569],[-95.7883942,27.475428],[-95.7894314,27.4780162],[-95.7904444,27.4806122],[-95.7919374,27.4845139],[-95.7929577,27.4871076],[-95.7939527,27.4897093],[-95.7965157,27.4961898],[-95.7970609,27.4974752],[-95.7976798,27.4987338],[-95.7983502,27.4999711],[-95.7990663,27.5011877],[-95.8005868,27.5035785],[-95.8021338,27.505956],[-95.8037075,27.5083186],[-95.8044553,27.5095202],[-95.8051601,27.510742],[-95.8057757,27.5120016],[-95.8073705,27.5156716],[-95.8097733,27.5209346],[-95.8103695,27.5222017],[-95.8115208,27.5247513],[-95.8120796,27.5260322],[-95.8149893,27.5323953],[-95.8161374,27.5349465],[-95.819648,27.5425752],[-95.8208045,27.5451234],[-95.8230845,27.5502315],[-95.8270546,27.5588282],[-95.8295018,27.5642235],[-95.8330119,27.5718533],[-95.8382182,27.5833196],[-95.8452264,27.5985847],[-95.8504337,27.6100514],[-95.8527874,27.6151334],[-95.8556634,27.62151],[-95.858009,27.626595],[-95.859146,27.6291504],[-95.8620474,27.635518],[-95.8632394,27.6380535],[-95.8661176,27.6444293],[-95.8685052,27.6496062],[-95.8696165,27.6520642],[-95.8707957,27.6546045],[-95.8719331,27.6571599],[-95.8725192,27.6584313],[-95.8742394,27.6622593],[-95.8754212,27.6647985],[-95.8760799,27.6660408],[-95.8774828,27.6684892],[-95.8789103,27.6709264],[-95.8791931,27.6713084],[-95.8792337,27.6712886],[-95.8792982,27.6713923]]},"properties":{"osm_id":1256846508,"osm_type":"way","seamark_type":"pipeline_submarine","display_class":"OTHER","min_zoom":12,"importance":1,"name":null,"ref":null,"common":{"type":"pipeline_submarine"},"children":{"pipeline_submarine":{"category":"supply","product":"gas"}},"osm_tags":{"abandoned:man_made":"pipeline","diameter":"10.75\"","location":"underwater","operator":"Marubeni Oil & Gas (USA) LLC","ref:US:BOEM:ROW":"G25287","seamark:pipeline_submarine:category":"supply","seamark:pipeline_submarine:product":"gas","seamark:type":"pipeline_submarine","substance":"gas"}}},{"type":"Feature","geometry":{"type":"LineString","coordinates":[[-95.9224753,27.9716604],[-95.9225745,27.971752],[-95.9223227,27.9719637],[-95.920156,27.9724634],[-95.919805,27.9721105],[-95.9198661,27.9720628]]},"properties":{"osm_id":1256847830,"osm_type":"way","seamark_type":"pipeline_submarine","display_class":"OTHER","min_zoom":12,"importance":1,"name":null,"ref":null,"common":{"type":"pipeline_submarine"},"children":{"pipeline_submarine":{"category":"supply","product":"gas"}},"osm_tags":{"abandoned:man_made":"pipeline","diameter":"6.63\"","location":"underwater","operator":"Tarpon Operating & Development, L.L.C.","seamark:pipeline_submarine:category":"supply","seamark:pipeline_submarine:product":"gas","seamark:type":"pipeline_submarine","substance":"gas"}}},{"type":"Feature","geometry":{"type":"LineString","coordinates":[[-95.5784552,27.3274665],[-95.5782428,27.3274731],[-95.5788902,27.3329559],[-95.5789648,27.3340518],[-95.5789683,27.3346018],[-95.5789442,27.335155],[-95.5788459,27.3356986],[-95.5785226,27.3367633],[-95.5782333,27.3378357],[-95.5779863,27.3383408],[-95.577455,27.3393352],[-95.5768864,27.3403137],[-95.5757863,27.3422811],[-95.5740801,27.3452057],[-95.5731126,27.3469148],[-95.5733131,27.3470651]]},"properties":{"osm_id":1256848247,"osm_type":"way","seamark_type":"pipeline_submarine","display_class":"OTHER","min_zoom":12,"importance":1,"name":null,"ref":null,"common":{"type":"pipeline_submarine"},"children":{"pipeline_submarine":{"category":"supply","product":"gas"}},"osm_tags":{"abandoned:man_made":"pipeline","diameter":"6.63\"","location":"underwater","operator":"Marubeni Oil & Gas (USA) LLC","ref:US:BOEM:ROW":"G28639","seamark:pipeline_submarine:category":"supply","seamark:pipeline_submarine:product":"gas","seamark:type":"pipeline_submarine","substance":"gas"}}},{"type":"Feature","geometry":{"type":"LineString","coordinates":[[-96.0127546,27.8352065],[-96.0122578,27.8359145],[-96.0118281,27.8365834],[-96.0113022,27.8373316],[-96.0097981,27.8396958],[-96.0088996,27.8409395],[-96.0074217,27.843301],[-96.0061902,27.8450131],[-96.0036523,27.8486011],[-96.0030613,27.8493245],[-96.002316,27.8508344],[-96.0014806,27.8520154],[-96.0008677,27.8530377],[-95.9999639,27.8544101],[-95.9988897,27.8559148],[-95.998004,27.8575447],[-95.9963712,27.8597005],[-95.9945464,27.8619459],[-95.9940357,27.8631056],[-95.9931867,27.8642098],[-95.9921163,27.865803],[-95.9902341,27.868456],[-95.9875789,27.8719166],[-95.9862021,27.8741685],[-95.9847941,27.876422],[-95.984297,27.8772809],[-95.9829623,27.8791246],[-95.9818876,27.8807093],[-95.9811846,27.8818346],[-95.9803342,27.8830872],[-95.9795238,27.8841945],[-95.9786751,27.8853039],[-95.9780288,27.8863986],[-95.9772545,27.8875679],[-95.9766898,27.888728],[-95.9759094,27.889793],[-95.9747259,27.8912149],[-95.9736143,27.893036],[-95.9711995,27.8964165],[-95.9701819,27.8972398],[-95.9690022,27.8993003],[-95.9675402,27.9015133],[-95.9658236,27.9039665],[-95.9647432,27.9056559],[-95.9639318,27.9067719],[-95.9621573,27.9090524],[-95.9613866,27.9103235],[-95.959945,27.9124883],[-95.9591997,27.9138457],[-95.9578284,27.9158769],[-95.9571016,27.9170254],[-95.9562342,27.9180789],[-95.9554545,27.9192025],[-95.9548887,27.9203154],[-95.9533844,27.9225232],[-95.9522604,27.924238],[-95.95081,27.9261805],[-95.949513,27.928004],[-95.9485838,27.9291612],[-95.9469539,27.9317434],[-95.9462933,27.9328431],[-95.9451852,27.9344516],[-95.9439288,27.9361078],[-95.9424819,27.9372253],[-95.9412154,27.9401542],[-95.9404979,27.9413078],[-95.9398508,27.9422047],[-95.9390535,27.9435367],[-95.9377044,27.9453959],[-95.9368269,27.946696],[-95.9358661,27.9480047],[-95.9348922,27.9494848],[-95.9336135,27.9513604],[-95.9330234,27.9524867],[-95.9319951,27.9536136],[-95.9310217,27.9552717],[-95.9300086,27.9564913],[-95.9293455,27.9577039],[-95.928098,27.9592833],[-95.9274771,27.9602568],[-95.9268586,27.9611899],[-95.9259493,27.9622271],[-95.9253185,27.9633297],[-95.9249075,27.9643358],[-95.9239765,27.9656922],[-95.9217429,27.9687142],[-95.9207498,27.9706439],[-95.920021,27.9715623]]},"properties":{"osm_id":1256848474,"osm_type":"way","seamark_type":"pipeline_submarine","display_class":"OTHER","min_zoom":12,"importance":1,"name":null,"ref":null,"common":{"type":"pipeline_submarine"},"children":{"pipeline_submarine":{"category":"supply","product":"gas"}},"osm_tags":{"diameter":"30\"","location":"underwater","man_made":"pipeline","operator":"Transcontinental Gas Pipe Line Company, LLC","ref:US:BOEM:ROW":"G07559","seamark:pipeline_submarine:category":"supply","seamark:pipeline_submarine:product":"gas","seamark:type":"pipeline_submarine","substance":"gas","usage":"transmission"}}},{"type":"Feature","geometry":{"type":"LineString","coordinates":[[-95.8799706,27.671773],[-95.8801656,27.6722497],[-95.8806306,27.6736463],[-95.8815123,27.6761811],[-95.8837239,27.6824191],[-95.8863784,27.6900348],[-95.8878818,27.694257],[-95.8893338,27.698523],[-95.8896375,27.6993115],[-95.8903486,27.7009751],[-95.8907535,27.7017773],[-95.8911715,27.7025608],[-95.891626,27.7033363],[-95.892587,27.7048876],[-95.8936839,27.7063667],[-95.8942734,27.7070784],[-95.8948871,27.7077756],[-95.9005781,27.7139181],[-95.902464,27.7159817],[-95.9062868,27.7200699],[-95.9100508,27.7241777],[-95.9113215,27.7255302],[-95.9125654,27.7269025],[-95.9138422,27.7282708],[-95.9144884,27.7289379],[-95.9170228,27.7316902],[-95.9208474,27.7357573],[-95.9227421,27.7378327],[-95.9259262,27.7412515],[-95.9277965,27.7433047],[-95.9284464,27.7439805],[-95.9297062,27.7453454],[-95.9303559,27.746019],[-95.93352,27.7494369],[-95.9373495,27.753512],[-95.9379802,27.7541896],[-95.9386004,27.7548892],[-95.940492,27.7569356],[-95.9443198,27.7610103],[-95.9519431,27.7692711],[-95.9525976,27.7699527],[-95.9538219,27.7713441],[-95.9544651,27.7720513],[-95.9563998,27.7740998],[-95.9570264,27.7747906],[-95.9589813,27.7768131],[-95.9615121,27.7795712],[-95.9621716,27.7802573],[-95.9634255,27.7816281],[-95.9659922,27.7843898],[-95.9685175,27.7871669],[-95.9704487,27.7892128],[-95.9780671,27.7974058],[-95.9800111,27.7994559],[-95.9812759,27.8008486],[-95.9838413,27.8035934],[-95.9844785,27.8042929],[-95.9851272,27.8049653],[-95.9876419,27.8077545],[-95.9902148,27.8104755],[-95.9927557,27.8132234],[-95.993407,27.8138989],[-95.9959519,27.816635],[-95.996617,27.8173034],[-95.9972906,27.8179484],[-95.9979923,27.8185972],[-95.9986929,27.8192016],[-96.0001745,27.820409],[-96.0016892,27.8215868],[-96.0039168,27.8233652],[-96.0046282,27.8239877],[-96.0059903,27.8252873],[-96.0072836,27.8266421],[-96.0084978,27.8280427],[-96.0090528,27.8287806],[-96.0105761,27.8310901],[-96.0110745,27.8318669],[-96.0115443,27.8326464],[-96.0120371,27.8334254],[-96.0125386,27.834189],[-96.0131209,27.8350266],[-96.013218,27.8351255]]},"properties":{"osm_id":1256848660,"osm_type":"way","seamark_type":"pipeline_submarine","display_class":"OTHER","min_zoom":12,"importance":1,"name":null,"ref":null,"common":{"type":"pipeline_submarine"},"children":{"pipeline_submarine":{"category":"supply","product":"gas"}},"osm_tags":{"abandoned:man_made":"pipeline","diameter":"18\"","location":"underwater","operator":"Enterprise Field Services, LLC","ref:US:BOEM:ROW":"G24275","seamark:pipeline_submarine:category":"supply","seamark:pipeline_submarine:product":"gas","seamark:type":"pipeline_submarine","substance":"gas"}}},{"type":"Feature","geometry":{"type":"LineString","coordinates":[[-95.9872387,27.9025882],[-95.9867884,27.9022238],[-95.9867193,27.9023117]]},"properties":{"osm_id":1256848824,"osm_type":"way","seamark_type":"pipeline_submarine","display_class":"OTHER","min_zoom":12,"importance":1,"name":null,"ref":null,"common":{"type":"pipeline_submarine"},"children":{"pipeline_submarine":{"category":"supply","product":"gas"}},"osm_tags":{"abandoned:man_made":"pipeline","diameter":"8.63\"","location":"underwater","operator":"Union Oil Company of California","seamark:pipeline_submarine:category":"supply","seamark:pipeline_submarine:product":"gas","seamark:type":"pipeline_submarine","substance":"gas"}}},{"type":"Feature","geometry":{"type":"LineString","coordinates":[[-95.573301,27.3470709],[-95.5730973,27.3471874]]},"properties":{"osm_id":1256848906,"osm_type":"way","seamark_type":"pipeline_submarine","display_class":"OTHER","min_zoom":12,"importance":1,"name":null,"ref":null,"common":{"type":"pipeline_submarine"},"children":{"pipeline_submarine":{"category":"supply","product":"gas"}},"osm_tags":{"abandoned:man_made":"pipeline","diameter":"10.75\"","location":"underwater","operator":"Marubeni Oil & Gas (USA) LLC","seamark:pipeline_submarine:category":"supply","seamark:pipeline_submarine:product":"gas","seamark:type":"pipeline_submarine","substance":"gas"}}},{"type":"Feature","geometry":{"type":"LineString","coordinates":[[-95.4198893,27.2114463],[-95.4196606,27.2114313],[-95.4193592,27.212778],[-95.418793,27.2154763],[-95.4181802,27.2180354],[-95.41715,27.2221838],[-95.4167495,27.2239611],[-95.4166509,27.2246424],[-95.4166136,27.2253285],[-95.4166124,27.2260151],[-95.4166706,27.2267003],[-95.4167704,27.2273813],[-95.4169006,27.2280587],[-95.4170834,27.2287257],[-95.4173193,27.2293788],[-95.4176004,27.2300177],[-95.4206564,27.2353389],[-95.4226878,27.2390404],[-95.4247469,27.2427299],[-95.4260969,27.2451988],[-95.4267894,27.2464236],[-95.4287844,27.2501376],[-95.4301717,27.2525882],[-95.4308322,27.2538256],[-95.4321932,27.2562852],[-95.4342595,27.2599713],[-95.4379575,27.2666566],[-95.4383073,27.2672684],[-95.4386848,27.267866],[-95.439123,27.2684303],[-95.4395888,27.2689766],[-95.4401152,27.2694772],[-95.4438223,27.2725742],[-95.4593978,27.2858638],[-95.4616142,27.2877706],[-95.4627414,27.2887061],[-95.4682904,27.2934663],[-95.4738792,27.2981899],[-95.4761032,27.3000884],[-95.4783123,27.3019996],[-95.4794442,27.3029304],[-95.4807894,27.3040682],[-95.4825481,27.3055985],[-95.4831139,27.3060641],[-95.4837092,27.306499],[-95.4843375,27.3068946],[-95.4857605,27.3077121],[-95.4883264,27.3092293],[-95.4934449,27.3122797],[-95.4970131,27.3144355],[-95.4976309,27.3148442],[-95.4982322,27.3152724],[-95.4987932,27.3157423],[-95.4993291,27.3162352],[-95.4998145,27.3167685],[-95.5002728,27.3173198],[-95.5006964,27.3178933],[-95.5010738,27.3184917],[-95.5014248,27.3191028],[-95.5017257,27.3197348],[-95.5019756,27.3203844],[-95.5023916,27.3217056],[-95.5027815,27.3230346],[-95.5030314,27.323684],[-95.5033618,27.3243041],[-95.5037666,27.3248879],[-95.50428,27.3253987],[-95.5048611,27.3258487],[-95.505488,27.3262454],[-95.5061694,27.3265641],[-95.5104365,27.3281365],[-95.5132637,27.329223],[-95.5146686,27.3297844],[-95.5159078,27.3302592],[-95.5167812,27.3306147],[-95.5174688,27.330922],[-95.5181297,27.3312736],[-95.5187647,27.3316614],[-95.5211691,27.3333773],[-95.5217839,27.3337907],[-95.522416,27.3341825],[-95.5230862,27.3345202],[-95.5235003,27.3347026],[-95.5262937,27.3358555],[-95.5304672,27.3376186],[-95.5332589,27.3387757],[-95.5346346,27.3393917],[-95.5380537,27.3409676],[-95.5387579,27.3412445],[-95.5408874,27.3420414],[-95.5415825,27.3423364],[-95.5435825,27.3433666],[-95.5448996,27.3440779],[-95.5462287,27.3447712],[-95.546919,27.3450746],[-95.5476291,27.3453383],[-95.5490617,27.3458401],[-95.5497906,27.3460605],[-95.5505308,27.3462487],[-95.5528044,27.3466069],[-95.5558415,27.3470501],[-95.556589,27.3472127],[-95.5573235,27.3474181],[-95.5580668,27.3475955],[-95.5588219,27.3477273],[-95.5595846,27.3478184],[-95.5603539,27.3478175],[-95.5730973,27.3471874]]},"properties":{"osm_id":1256849783,"osm_type":"way","seamark_type":"pipeline_submarine","display_class":"OTHER","min_zoom":12,"importance":1,"name":null,"ref":null,"common":{"type":"pipeline_submarine"},"children":{"pipeline_submarine":{"category":"supply","product":"gas"}},"osm_tags":{"abandoned:man_made":"pipeline","location":"underwater","operator":"Marubeni Oil & Gas (USA) Inc.","ref:US:BOEM:ROW":"G25282","seamark:pipeline_submarine:category":"supply","seamark:pipeline_submarine:product":"gas","seamark:type":"pipeline_submarine","substance":"gas"}}}],"type":"FeatureCollection"}