{"type":"FeatureCollection","features":[{"type":"Feature","geometry":{"type":"Polygon","coordinates":[[[-17.9036515,27.7848803],[-17.9035642,27.7849475],[-17.9033774,27.7847134],[-17.9028238,27.7846373],[-17.9020422,27.7845299],[-17.9020153,27.784529],[-17.9020099,27.7845508],[-17.9019165,27.7845353],[-17.9019375,27.7844758],[-17.902036,27.7844012],[-17.9034342,27.7846006],[-17.9035745,27.7847764],[-17.9036515,27.7848803]]]},"properties":{"osm_id":1212373727,"osm_type":"way","seamark_type":"obstruction","display_class":"OTHER","min_zoom":12,"importance":1,"name":null,"ref":null,"common":{"type":"obstruction"},"children":{},"osm_tags":{"area":"yes","man_made":"breakwater","material":"rock","seamark:type":"obstruction"}}},{"type":"Feature","geometry":{"type":"Polygon","coordinates":[[[-17.9028238,27.7846373],[-17.9027355,27.7849453],[-17.9025693,27.7849232],[-17.9025804,27.7848628],[-17.9027448,27.7848824],[-17.9027525,27.7848358],[-17.9024534,27.7847977],[-17.9024587,27.7847739],[-17.9023648,27.7847603],[-17.9023723,27.7847247],[-17.9023758,27.7847081],[-17.9015109,27.7845759],[-17.9015244,27.7844849],[-17.9015411,27.7844731],[-17.9019165,27.7845353],[-17.9020099,27.7845508],[-17.9020153,27.784529],[-17.9020422,27.7845299],[-17.9028238,27.7846373]]]},"properties":{"osm_id":1212373728,"osm_type":"way","seamark_type":"obstruction","display_class":"OTHER","min_zoom":12,"importance":1,"name":null,"ref":null,"common":{"type":"obstruction"},"children":{},"osm_tags":{"area":"yes","man_made":"breakwater","material":"concrete","seamark:type":"obstruction"}}},{"type":"Feature","geometry":{"type":"Polygon","coordinates":[[[-17.8870014,27.8004219],[-17.8870349,27.8003288],[-17.8870029,27.8003293],[-17.88698,27.8003427],[-17.8869663,27.8003661],[-17.8869663,27.8003917],[-17.8869657,27.8004229],[-17.8869719,27.8004421],[-17.8869713,27.8004767],[-17.8869825,27.800487],[-17.8870014,27.8004219]]]},"properties":{"osm_id":1239498300,"osm_type":"way","seamark_type":"obstruction","display_class":"OTHER","min_zoom":12,"importance":1,"name":null,"ref":null,"common":{"type":"obstruction"},"children":{},"osm_tags":{"area":"yes","man_made":"breakwater","material":"stone","seamark:type":"obstruction"}}},{"type":"Feature","geometry":{"type":"Point","coordinates":[-17.9011747,27.7807173]},"properties":{"osm_id":1577345182,"osm_type":"node","seamark_type":"light_minor","display_class":"OTHER","min_zoom":12,"importance":1,"name":"Puerto de Hierro","ref":null,"common":{"name":"Puerto de Hierro","type":"light_minor"},"children":{"light":{"character":"Fl","colour":"green","height":"14","period":"5","range":"5","reference":"D 2838","sequence":"0.5+(4.5)"}},"osm_tags":{"seamark:light:character":"Fl","seamark:light:colour":"green","seamark:light:height":"14","seamark:light:period":"5","seamark:light:range":"5","seamark:light:reference":"D 2838","seamark:light:sequence":"0.5+(4.5)","seamark:name":"Puerto de Hierro","seamark:type":"light_minor","source":"US NGA Pub. 113. 2011-10-20."}}},{"type":"Feature","geometry":{"type":"Point","coordinates":[-17.9818807,27.6386885]},"properties":{"osm_id":1577345832,"osm_type":"node","seamark_type":"light_minor","display_class":"OTHER","min_zoom":12,"importance":1,"name":"Puerto de Restinga","ref":null,"common":{"name":"Puerto de Restinga","type":"light_minor"},"children":{"light":{"character":"Fl","colour":"green","group":"2","height":"15","period":"7","range":"1","reference":"D 2837","sequence":"0.5+(1.5)+0.5+(4.5)"}},"osm_tags":{"seamark:light:character":"Fl","seamark:light:colour":"green","seamark:light:group":"2","seamark:light:height":"15","seamark:light:period":"7","seamark:light:range":"1","seamark:light:reference":"D 2837","seamark:light:sequence":"0.5+(1.5)+0.5+(4.5)","seamark:name":"Puerto de Restinga","seamark:type":"light_minor","source":"US NGA Pub. 113. 2011-10-20."}}}],"type":"FeatureCollection"}