{"type":"FeatureCollection","features":[{"type":"Feature","geometry":{"type":"Point","coordinates":[51.2580576,28.0527474]},"properties":{"osm_id":2291408390,"osm_type":"node","seamark_type":"platform","display_class":"OTHER","min_zoom":12,"importance":1,"name":null,"ref":null,"common":{"type":"platform"},"children":{"platform":{"category":"production"}},"osm_tags":{"man_made":"pumping_rig","seamark:platform:category":"production","seamark:type":"platform","source":"Aramco"}}},{"type":"Feature","geometry":{"type":"Point","coordinates":[51.1163217,28.44945]},"properties":{"osm_id":1293792236,"osm_type":"node","seamark_type":"light_minor","display_class":"OTHER","min_zoom":12,"importance":1,"name":"Kalat","ref":null,"common":{"name":"Kalat","type":"light_minor"},"children":{"light":{"character":"Fl","colour":"white","height":"30","period":"5","range":"10","reference":"D 7674"},"radar_transponder":{"category":"racon","group":"O"}},"osm_tags":{"seamark:light:character":"Fl","seamark:light:colour":"white","seamark:light:height":"30","seamark:light:period":"5","seamark:light:range":"10","seamark:light:reference":"D 7674","seamark:name":"Kalat","seamark:radar_transponder:category":"racon","seamark:radar_transponder:group":"O","seamark:type":"light_minor","source":"US NGA Pub. 112. 2009-11-12."}}},{"type":"Feature","geometry":{"type":"Point","coordinates":[51.0908828,28.5140019]},"properties":{"osm_id":7073049844,"osm_type":"node","seamark_type":"harbour","display_class":"OTHER","min_zoom":12,"importance":1,"name":"اسکله عامری","ref":null,"common":{"type":"harbour"},"children":{"harbour":{"category":"marina"}},"osm_tags":{"leisure":"marina","name":"اسکله عامری","seamark:harbour:category":"marina","seamark:type":"harbour"}}}],"type":"FeatureCollection"}