{"type":"FeatureCollection","features":[{"type":"Feature","geometry":{"type":"Polygon","coordinates":[[[116.0369683,28.6789874],[116.0369712,28.6788476],[116.037182,28.6788516],[116.0372153,28.6785945],[116.0373204,28.6783952],[116.0374416,28.6782984],[116.0376042,28.678205],[116.0376209,28.6782331],[116.0376836,28.6782106],[116.037713,28.6782151],[116.0377462,28.6782488],[116.0377539,28.6782869],[116.0377309,28.6783105],[116.0376695,28.6783408],[116.0376874,28.6783902],[116.0376618,28.6784026],[116.0375918,28.678265],[116.0374776,28.6783229],[116.0375748,28.6784463],[116.0375582,28.6784654],[116.0374456,28.6783476],[116.0373547,28.678443],[116.037484,28.678535],[116.037475,28.6785519],[116.0373381,28.6784688],[116.0372734,28.6785841],[116.0374328,28.6786428],[116.0374341,28.6786607],[116.0372613,28.6786147],[116.0372396,28.6787404],[116.0374097,28.6787528],[116.0374097,28.6787708],[116.0372409,28.6787663],[116.0372372,28.6788619],[116.0383681,28.6789096],[116.0383765,28.678834],[116.0381847,28.6788229],[116.0381884,28.6787975],[116.0383675,28.678815],[116.0383693,28.678761],[116.0382553,28.6787562],[116.0382517,28.6787372],[116.0383663,28.6787349],[116.0383536,28.6785889],[116.0382125,28.6786063],[116.0382173,28.67858],[116.0383512,28.6785641],[116.0383168,28.6784308],[116.0381974,28.678453],[116.0381817,28.6784317],[116.0383174,28.6784063],[116.038274,28.6782698],[116.0381455,28.6782984],[116.0381347,28.6782825],[116.0382342,28.6782428],[116.0382197,28.6782047],[116.0382269,28.6781682],[116.0382885,28.6781745],[116.0383645,28.6783904],[116.0384133,28.6786683],[116.038426,28.6788207],[116.0384151,28.6790302],[116.0383807,28.6793366],[116.0383301,28.6795699],[116.0383102,28.6796731],[116.0381522,28.6796391],[116.0381603,28.6796194],[116.0382639,28.6796328],[116.0382806,28.6795644],[116.0381703,28.6795439],[116.0381782,28.6795184],[116.0382882,28.6795363],[116.0383062,28.6794611],[116.038191,28.6794454],[116.0381938,28.6794217],[116.0383113,28.6794342],[116.038319,28.679359],[116.0382089,28.6793466],[116.0382101,28.6793185],[116.0383241,28.6793343],[116.0383394,28.6792613],[116.0382217,28.6792478],[116.0382264,28.6792264],[116.0383422,28.6792359],[116.0383548,28.6791613],[116.0382354,28.6791518],[116.038239,28.6791232],[116.038353,28.6791343],[116.0383548,28.6790581],[116.0382426,28.6790534],[116.0382444,28.6790296],[116.0383603,28.6790327],[116.0383621,28.6789565],[116.0380641,28.6789413],[116.0380315,28.6793398],[116.0379076,28.6793355],[116.0379101,28.6793096],[116.0379997,28.6793153],[116.0380074,28.6792367],[116.0379076,28.6792322],[116.0379088,28.6792097],[116.0380125,28.6792142],[116.0380227,28.6791334],[116.0379152,28.6791267],[116.0379216,28.6791065],[116.0380214,28.6791132],[116.0380217,28.6790364],[116.037928,28.6790279],[116.0379321,28.6790083],[116.0380255,28.6790162],[116.0380304,28.6789381],[116.0379587,28.6789347],[116.0379587,28.6789583],[116.0377886,28.6789493],[116.0377873,28.6789257],[116.037754,28.6789235],[116.0377442,28.6789993],[116.0377225,28.6790015],[116.0377289,28.6789207],[116.0376278,28.6789207],[116.0376201,28.6789914],[116.0376048,28.6789903],[116.0376112,28.6789218],[116.0375139,28.6789139],[116.0375101,28.6789903],[116.0374922,28.6789903],[116.0375024,28.6789173],[116.0374141,28.6789162],[116.0374052,28.6789847],[116.0373885,28.6789824],[116.0373911,28.6789128],[116.0373122,28.6789107],[116.0373041,28.6789847],[116.0372772,28.6789824],[116.0372823,28.6789083],[116.0371992,28.6789038],[116.0371953,28.6789757],[116.0371736,28.6789824],[116.0371723,28.678905],[116.0371001,28.6789032],[116.0370784,28.6789739],[116.0370246,28.6789874],[116.0369683,28.6789874]]]},"properties":{"osm_id":312950988,"osm_type":"way","seamark_type":"harbour","display_class":"OTHER","min_zoom":12,"importance":1,"name":null,"ref":null,"common":{"type":"harbour"},"children":{"harbour":{"category":"marina"}},"osm_tags":{"leisure":"marina","seamark:harbour:category":"marina","seamark:type":"harbour"}}},{"type":"Feature","geometry":{"type":"Polygon","coordinates":[[[116.0371702,28.6791588],[116.0371908,28.6791436],[116.0372631,28.6792007],[116.0373084,28.6791452],[116.0373211,28.6791658],[116.0372831,28.6792118],[116.0373355,28.6792563],[116.0373808,28.6792102],[116.0374043,28.6792325],[116.0373554,28.6792817],[116.0374043,28.679323],[116.0374531,28.6792833],[116.0374712,28.6792976],[116.0374332,28.6793468],[116.0374803,28.6793865],[116.0375309,28.6793484],[116.0375472,28.6793563],[116.037502,28.6794007],[116.037549,28.6794468],[116.0375907,28.6794039],[116.0376142,28.6794214],[116.0375726,28.6794611],[116.0376287,28.679515],[116.0376721,28.6794706],[116.037692,28.6794928],[116.0376576,28.6795182],[116.037701,28.6795309],[116.0377408,28.6795722],[116.0377514,28.6796366],[116.03773,28.6796849],[116.0376685,28.6796865],[116.0376232,28.6796468],[116.0375925,28.6795944],[116.0376033,28.6795389],[116.0371702,28.6791588]]]},"properties":{"osm_id":312951729,"osm_type":"way","seamark_type":"harbour","display_class":"OTHER","min_zoom":12,"importance":1,"name":null,"ref":null,"common":{"type":"harbour"},"children":{"harbour":{"category":"marina"}},"osm_tags":{"leisure":"marina","seamark:harbour:category":"marina","seamark:type":"harbour"}}},{"type":"Feature","geometry":{"type":"Point","coordinates":[116.08383,28.9284345]},"properties":{"osm_id":9248188892,"osm_type":"node","seamark_type":"gate","display_class":"OTHER","min_zoom":12,"importance":1,"name":"三尖闸","ref":null,"common":{"type":"gate"},"children":{},"osm_tags":{"name":"三尖闸","seamark:type":"gate","waterway":"lock_gate"}}},{"type":"Feature","geometry":{"type":"Point","coordinates":[116.07889,28.9507362]},"properties":{"osm_id":9248188893,"osm_type":"node","seamark_type":"gate","display_class":"OTHER","min_zoom":12,"importance":1,"name":"圆圈北闸","ref":null,"common":{"type":"gate"},"children":{},"osm_tags":{"name":"圆圈北闸","seamark:type":"gate","waterway":"lock_gate"}}}],"type":"FeatureCollection"}