{"type":"FeatureCollection","features":[{"type":"Feature","geometry":{"type":"Point","coordinates":[122.2607778,28.8840556]},"properties":{"osm_id":6606879943,"osm_type":"node","seamark_type":"beacon_special_purpose","display_class":"BEACON","min_zoom":9,"importance":4,"name":"Yu Shan","ref":null,"common":{"information":"Reserve light range 15M","name":"Yu Shan","type":"beacon_special_purpose"},"children":{"beacon_special_purpose":{"colour":"white;red;white;red","colour_pattern":"horizontal","height":"15.8","shape":"tower"},"light":{"character":"Fl","colour":"white","group":"2","height":"103","period":"20","range":"25","reference":"P 3682"},"radar_transponder":{"category":"racon","group":"O","wavelength":"0.03-X"}},"osm_tags":{"man_made":"lighthouse","seamark:beacon_special_purpose:colour":"white;red;white;red","seamark:beacon_special_purpose:colour_pattern":"horizontal","seamark:beacon_special_purpose:height":"15.8","seamark:beacon_special_purpose:shape":"tower","seamark:information":"Reserve light range 15M","seamark:light:character":"Fl","seamark:light:colour":"white","seamark:light:group":"2","seamark:light:height":"103","seamark:light:period":"20","seamark:light:range":"25","seamark:light:reference":"P 3682","seamark:name":"Yu Shan","seamark:radar_transponder:category":"racon","seamark:radar_transponder:group":"O","seamark:radar_transponder:wavelength":"0.03-X","seamark:type":"beacon_special_purpose","source":"US NGA Pub. 112. 2024-05-18."}}},{"type":"Feature","geometry":{"type":"Polygon","coordinates":[[[122.0897222,28.7033333],[122.095,28.7036111],[122.0952778,28.6738889],[122.0836111,28.6738889],[122.0863889,28.6963889],[122.0897222,28.7033333]]]},"properties":{"osm_id":1178307200,"osm_type":"way","seamark_type":"anchorage","display_class":"OTHER","min_zoom":12,"importance":1,"name":null,"ref":null,"common":{"type":"anchorage"},"children":{},"osm_tags":{"seamark:type":"anchorage","source":"China MSA Notice No. 543/2023"}}},{"type":"Feature","geometry":{"type":"Point","coordinates":[122.0016287,28.8785001]},"properties":{"osm_id":12434026780,"osm_type":"node","seamark_type":"landmark","display_class":"OTHER","min_zoom":12,"importance":1,"name":"No.28","ref":"28","common":{"name":"No.28","type":"landmark"},"children":{"landmark":{"category":"windmotor"}},"osm_tags":{"generator:method":"wind_turbine","generator:source":"wind","generator:type":"horizontal_axis","offshore":"yes","power":"generator","ref":"28","seamark:landmark:category":"windmotor","seamark:name":"No.28","seamark:type":"landmark"}}},{"type":"Feature","geometry":{"type":"Point","coordinates":[122.0043753,28.8926287]},"properties":{"osm_id":12434026782,"osm_type":"node","seamark_type":"landmark","display_class":"OTHER","min_zoom":12,"importance":1,"name":"No.28","ref":"28","common":{"name":"No.28","type":"landmark"},"children":{"landmark":{"category":"windmotor"}},"osm_tags":{"generator:method":"wind_turbine","generator:source":"wind","generator:type":"horizontal_axis","offshore":"yes","power":"generator","ref":"28","seamark:landmark:category":"windmotor","seamark:name":"No.28","seamark:type":"landmark"}}},{"type":"Feature","geometry":{"type":"Point","coordinates":[122.0002554,28.9069057]},"properties":{"osm_id":12434026793,"osm_type":"node","seamark_type":"landmark","display_class":"OTHER","min_zoom":12,"importance":1,"name":"No.28","ref":"28","common":{"name":"No.28","type":"landmark"},"children":{"landmark":{"category":"windmotor"}},"osm_tags":{"generator:method":"wind_turbine","generator:source":"wind","generator:type":"horizontal_axis","offshore":"yes","power":"generator","ref":"28","seamark:landmark:category":"windmotor","seamark:name":"No.28","seamark:type":"landmark"}}},{"type":"Feature","geometry":{"type":"Point","coordinates":[122.0074652,28.9073565]},"properties":{"osm_id":12434026794,"osm_type":"node","seamark_type":"landmark","display_class":"OTHER","min_zoom":12,"importance":1,"name":"No.28","ref":"28","common":{"name":"No.28","type":"landmark"},"children":{"landmark":{"category":"windmotor"}},"osm_tags":{"generator:method":"wind_turbine","generator:source":"wind","generator:type":"horizontal_axis","offshore":"yes","power":"generator","ref":"28","seamark:landmark:category":"windmotor","seamark:name":"No.28","seamark:type":"landmark"}}},{"type":"Feature","geometry":{"type":"Point","coordinates":[122.0157049,28.907056]},"properties":{"osm_id":12434026795,"osm_type":"node","seamark_type":"landmark","display_class":"OTHER","min_zoom":12,"importance":1,"name":"No.28","ref":"28","common":{"name":"No.28","type":"landmark"},"children":{"landmark":{"category":"windmotor"}},"osm_tags":{"generator:method":"wind_turbine","generator:source":"wind","generator:type":"horizontal_axis","offshore":"yes","power":"generator","ref":"28","seamark:landmark:category":"windmotor","seamark:name":"No.28","seamark:type":"landmark"}}},{"type":"Feature","geometry":{"type":"Point","coordinates":[122.0103834,28.9217817]},"properties":{"osm_id":12434026797,"osm_type":"node","seamark_type":"landmark","display_class":"OTHER","min_zoom":12,"importance":1,"name":"No.28","ref":"28","common":{"name":"No.28","type":"landmark"},"children":{"landmark":{"category":"windmotor"}},"osm_tags":{"generator:method":"wind_turbine","generator:source":"wind","generator:type":"horizontal_axis","offshore":"yes","power":"generator","ref":"28","seamark:landmark:category":"windmotor","seamark:name":"No.28","seamark:type":"landmark"}}},{"type":"Feature","geometry":{"type":"Point","coordinates":[122.0031737,28.9217817]},"properties":{"osm_id":12434026798,"osm_type":"node","seamark_type":"landmark","display_class":"OTHER","min_zoom":12,"importance":1,"name":"No.28","ref":"28","common":{"name":"No.28","type":"landmark"},"children":{"landmark":{"category":"windmotor"}},"osm_tags":{"generator:method":"wind_turbine","generator:source":"wind","generator:type":"horizontal_axis","offshore":"yes","power":"generator","ref":"28","seamark:landmark:category":"windmotor","seamark:name":"No.28","seamark:type":"landmark"}}},{"type":"Feature","geometry":{"type":"Point","coordinates":[122.0064352,28.9360546]},"properties":{"osm_id":12434029409,"osm_type":"node","seamark_type":"landmark","display_class":"OTHER","min_zoom":12,"importance":1,"name":"No.28","ref":"28","common":{"name":"No.28","type":"landmark"},"children":{"landmark":{"category":"windmotor"}},"osm_tags":{"generator:method":"wind_turbine","generator:source":"wind","generator:type":"horizontal_axis","offshore":"yes","power":"generator","ref":"28","seamark:landmark:category":"windmotor","seamark:name":"No.28","seamark:type":"landmark"}}},{"type":"Feature","geometry":{"type":"Point","coordinates":[122.014675,28.9362049]},"properties":{"osm_id":12434029410,"osm_type":"node","seamark_type":"landmark","display_class":"OTHER","min_zoom":12,"importance":1,"name":"No.28","ref":"28","common":{"name":"No.28","type":"landmark"},"children":{"landmark":{"category":"windmotor"}},"osm_tags":{"generator:method":"wind_turbine","generator:source":"wind","generator:type":"horizontal_axis","offshore":"yes","power":"generator","ref":"28","seamark:landmark:category":"windmotor","seamark:name":"No.28","seamark:type":"landmark"}}},{"type":"Feature","geometry":{"type":"Point","coordinates":[122.0230864,28.9363551]},"properties":{"osm_id":12434029411,"osm_type":"node","seamark_type":"landmark","display_class":"OTHER","min_zoom":12,"importance":1,"name":"No.28","ref":"28","common":{"name":"No.28","type":"landmark"},"children":{"landmark":{"category":"windmotor"}},"osm_tags":{"generator:method":"wind_turbine","generator:source":"wind","generator:type":"horizontal_axis","offshore":"yes","power":"generator","ref":"28","seamark:landmark:category":"windmotor","seamark:name":"No.28","seamark:type":"landmark"}}},{"type":"Feature","geometry":{"type":"Point","coordinates":[122.0196531,28.9501754]},"properties":{"osm_id":12434029413,"osm_type":"node","seamark_type":"landmark","display_class":"OTHER","min_zoom":12,"importance":1,"name":"No.28","ref":"28","common":{"name":"No.28","type":"landmark"},"children":{"landmark":{"category":"windmotor"}},"osm_tags":{"generator:method":"wind_turbine","generator:source":"wind","generator:type":"horizontal_axis","offshore":"yes","power":"generator","ref":"28","seamark:landmark:category":"windmotor","seamark:name":"No.28","seamark:type":"landmark"}}},{"type":"Feature","geometry":{"type":"Point","coordinates":[122.012615,28.950626]},"properties":{"osm_id":12434029414,"osm_type":"node","seamark_type":"landmark","display_class":"OTHER","min_zoom":12,"importance":1,"name":"No.28","ref":"28","common":{"name":"No.28","type":"landmark"},"children":{"landmark":{"category":"windmotor"}},"osm_tags":{"generator:method":"wind_turbine","generator:source":"wind","generator:type":"horizontal_axis","offshore":"yes","power":"generator","ref":"28","seamark:landmark:category":"windmotor","seamark:name":"No.28","seamark:type":"landmark"}}},{"type":"Feature","geometry":{"type":"Point","coordinates":[122.0054053,28.9504758]},"properties":{"osm_id":12434029415,"osm_type":"node","seamark_type":"landmark","display_class":"OTHER","min_zoom":12,"importance":1,"name":"No.28","ref":"28","common":{"name":"No.28","type":"landmark"},"children":{"landmark":{"category":"windmotor"}},"osm_tags":{"generator:method":"wind_turbine","generator:source":"wind","generator:type":"horizontal_axis","offshore":"yes","power":"generator","ref":"28","seamark:landmark:category":"windmotor","seamark:name":"No.28","seamark:type":"landmark"}}},{"type":"Feature","geometry":{"type":"Point","coordinates":[122.0038603,28.9678988]},"properties":{"osm_id":12434029423,"osm_type":"node","seamark_type":"landmark","display_class":"OTHER","min_zoom":12,"importance":1,"name":"No.28","ref":"28","common":{"name":"No.28","type":"landmark"},"children":{"landmark":{"category":"windmotor"}},"osm_tags":{"generator:method":"wind_turbine","generator:source":"wind","generator:type":"horizontal_axis","offshore":"yes","power":"generator","ref":"28","seamark:landmark:category":"windmotor","seamark:name":"No.28","seamark:type":"landmark"}}},{"type":"Feature","geometry":{"type":"Point","coordinates":[122.0107268,28.9678988]},"properties":{"osm_id":12434029424,"osm_type":"node","seamark_type":"landmark","display_class":"OTHER","min_zoom":12,"importance":1,"name":"No.28","ref":"28","common":{"name":"No.28","type":"landmark"},"children":{"landmark":{"category":"windmotor"}},"osm_tags":{"generator:method":"wind_turbine","generator:source":"wind","generator:type":"horizontal_axis","offshore":"yes","power":"generator","ref":"28","seamark:landmark:category":"windmotor","seamark:name":"No.28","seamark:type":"landmark"}}},{"type":"Feature","geometry":{"type":"Point","coordinates":[122.0179365,28.9680489]},"properties":{"osm_id":12434029425,"osm_type":"node","seamark_type":"landmark","display_class":"OTHER","min_zoom":12,"importance":1,"name":"No.28","ref":"28","common":{"name":"No.28","type":"landmark"},"children":{"landmark":{"category":"windmotor"}},"osm_tags":{"generator:method":"wind_turbine","generator:source":"wind","generator:type":"horizontal_axis","offshore":"yes","power":"generator","ref":"28","seamark:landmark:category":"windmotor","seamark:name":"No.28","seamark:type":"landmark"}}},{"type":"Feature","geometry":{"type":"Point","coordinates":[122.0249747,28.9680489]},"properties":{"osm_id":12434029426,"osm_type":"node","seamark_type":"landmark","display_class":"OTHER","min_zoom":12,"importance":1,"name":"No.28","ref":"28","common":{"name":"No.28","type":"landmark"},"children":{"landmark":{"category":"windmotor"}},"osm_tags":{"generator:method":"wind_turbine","generator:source":"wind","generator:type":"horizontal_axis","offshore":"yes","power":"generator","ref":"28","seamark:landmark:category":"windmotor","seamark:name":"No.28","seamark:type":"landmark"}}},{"type":"Feature","geometry":{"type":"Point","coordinates":[122.0309828,28.9680489]},"properties":{"osm_id":12434029427,"osm_type":"node","seamark_type":"landmark","display_class":"OTHER","min_zoom":12,"importance":1,"name":"No.28","ref":"28","common":{"name":"No.28","type":"landmark"},"children":{"landmark":{"category":"windmotor"}},"osm_tags":{"generator:method":"wind_turbine","generator:source":"wind","generator:type":"horizontal_axis","offshore":"yes","power":"generator","ref":"28","seamark:landmark:category":"windmotor","seamark:name":"No.28","seamark:type":"landmark"}}},{"type":"Feature","geometry":{"type":"Point","coordinates":[122.0296095,28.9859194]},"properties":{"osm_id":12434029429,"osm_type":"node","seamark_type":"landmark","display_class":"OTHER","min_zoom":12,"importance":1,"name":"No.28","ref":"28","common":{"name":"No.28","type":"landmark"},"children":{"landmark":{"category":"windmotor"}},"osm_tags":{"generator:method":"wind_turbine","generator:source":"wind","generator:type":"horizontal_axis","offshore":"yes","power":"generator","ref":"28","seamark:landmark:category":"windmotor","seamark:name":"No.28","seamark:type":"landmark"}}},{"type":"Feature","geometry":{"type":"Point","coordinates":[122.7076667,28.7188333]},"properties":{"osm_id":13551342321,"osm_type":"node","seamark_type":"virtual_aton","display_class":"OTHER","min_zoom":12,"importance":1,"name":"STY 01202 WRECK","ref":null,"common":{"name":"STY 01202 WRECK","type":"virtual_aton"},"children":{"virtual_aton":{"category":"isolated_danger","mmsi":"994136596"}},"osm_tags":{"seamark:name":"STY 01202 WRECK","seamark:type":"virtual_aton","seamark:virtual_aton:category":"isolated_danger","seamark:virtual_aton:mmsi":"994136596","source":"China MSA Notice No. 138/2026"}}},{"type":"Feature","geometry":{"type":"Polygon","coordinates":[[[122.1061111,28.6955556],[122.1308333,28.6958333],[122.1308333,28.6741667],[122.1175,28.6738889],[122.1175,28.6841667],[122.1063889,28.6841667],[122.1061111,28.6955556]]]},"properties":{"osm_id":1178307199,"osm_type":"way","seamark_type":"anchorage","display_class":"OTHER","min_zoom":12,"importance":1,"name":"Toumendong Dangerous Goods Anchorage","ref":null,"common":{"name":"Toumendong Dangerous Goods Anchorage","type":"anchorage"},"children":{},"osm_tags":{"seamark:name":"Toumendong Dangerous Goods Anchorage","seamark:type":"anchorage","source":"China MSA Notice No. 543/2023"}}},{"type":"Feature","geometry":{"type":"Point","coordinates":[122.0380556,28.9863056]},"properties":{"osm_id":12434029428,"osm_type":"node","seamark_type":"landmark","display_class":"OTHER","min_zoom":12,"importance":1,"name":"Xiangshan Wind Farm No.11","ref":null,"common":{"name":"Xiangshan Wind Farm No.11","type":"landmark"},"children":{"landmark":{"category":"windmotor"},"light":{"character":"Mo","colour":"yellow","group":"C","height":"18.3","period":"12","range":"5","reference":"P 3682.003"},"radio_station":{"category":"ais","mmsi":"994121540"}},"osm_tags":{"generator:method":"wind_turbine","generator:source":"wind","generator:type":"horizontal_axis","offshore":"yes","power":"generator","seamark:landmark:category":"windmotor","seamark:light:character":"Mo","seamark:light:colour":"yellow","seamark:light:group":"C","seamark:light:height":"18.3","seamark:light:period":"12","seamark:light:range":"5","seamark:light:reference":"P 3682.003","seamark:name":"Xiangshan Wind Farm No.11","seamark:radio_station:category":"ais","seamark:radio_station:mmsi":"994121540","seamark:type":"landmark","source":"China MSA Notice No. 196/2025"}}},{"type":"Feature","geometry":{"type":"Point","coordinates":[122.0246667,28.9862222]},"properties":{"osm_id":12434029430,"osm_type":"node","seamark_type":"landmark","display_class":"OTHER","min_zoom":12,"importance":1,"name":"Xiangshan Wind Farm No.12","ref":null,"common":{"name":"Xiangshan Wind Farm No.12","type":"landmark"},"children":{"landmark":{"category":"windmotor"},"light":{"character":"Mo","colour":"yellow","group":"C","height":"18.3","period":"12","range":"5","reference":"P 3682.005"},"radar_transponder":{"category":"racon","group":"C"}},"osm_tags":{"generator:method":"wind_turbine","generator:source":"wind","generator:type":"horizontal_axis","offshore":"yes","power":"generator","seamark:landmark:category":"windmotor","seamark:light:character":"Mo","seamark:light:colour":"yellow","seamark:light:group":"C","seamark:light:height":"18.3","seamark:light:period":"12","seamark:light:range":"5","seamark:light:reference":"P 3682.005","seamark:name":"Xiangshan Wind Farm No.12","seamark:radar_transponder:category":"racon","seamark:radar_transponder:group":"C","seamark:type":"landmark","source":"China MSA Notice No. 196/2025"}}},{"type":"Feature","geometry":{"type":"Point","coordinates":[122.01325,28.8931667]},"properties":{"osm_id":12434026781,"osm_type":"node","seamark_type":"landmark","display_class":"OTHER","min_zoom":12,"importance":1,"name":"Xiangshan Wind Farm No.20","ref":null,"common":{"name":"Xiangshan Wind Farm No.20","type":"landmark"},"children":{"landmark":{"category":"windmotor"},"light":{"character":"Mo","colour":"yellow","group":"C","height":"18.3","period":"12","range":"5","reference":"P 3682.002"},"radio_station":{"category":"ais","mmsi":"994121544"}},"osm_tags":{"generator:method":"wind_turbine","generator:source":"wind","generator:type":"horizontal_axis","offshore":"yes","power":"generator","seamark:landmark:category":"windmotor","seamark:light:character":"Mo","seamark:light:colour":"yellow","seamark:light:group":"C","seamark:light:height":"18.3","seamark:light:period":"12","seamark:light:range":"5","seamark:light:reference":"P 3682.002","seamark:name":"Xiangshan Wind Farm No.20","seamark:radio_station:category":"ais","seamark:radio_station:mmsi":"994121544","seamark:type":"landmark","source":"China MSA Notice No. 196/2025"}}},{"type":"Feature","geometry":{"type":"Point","coordinates":[122.0209722,28.9220556]},"properties":{"osm_id":12434026796,"osm_type":"node","seamark_type":"landmark","display_class":"OTHER","min_zoom":12,"importance":1,"name":"Xiangshan Wind Farm No.21","ref":null,"common":{"name":"Xiangshan Wind Farm No.21","type":"landmark"},"children":{"landmark":{"category":"windmotor"},"light":{"character":"Mo","colour":"yellow","group":"C","height":"18.3","period":"12","range":"5"}},"osm_tags":{"generator:method":"wind_turbine","generator:source":"wind","generator:type":"horizontal_axis","offshore":"yes","power":"generator","seamark:landmark:category":"windmotor","seamark:light:character":"Mo","seamark:light:colour":"yellow","seamark:light:group":"C","seamark:light:height":"18.3","seamark:light:period":"12","seamark:light:range":"5","seamark:name":"Xiangshan Wind Farm No.21","seamark:type":"landmark","source":"China MSA Notice No. 196/2025"}}},{"type":"Feature","geometry":{"type":"Point","coordinates":[122.0286944,28.9509167]},"properties":{"osm_id":12434029412,"osm_type":"node","seamark_type":"landmark","display_class":"OTHER","min_zoom":12,"importance":1,"name":"Xiangshan Wind Farm No.22","ref":null,"common":{"name":"Xiangshan Wind Farm No.22","type":"landmark"},"children":{"landmark":{"category":"windmotor"},"light":{"character":"Mo","colour":"yellow","group":"C","height":"18.3","period":"12","range":"5"}},"osm_tags":{"generator:method":"wind_turbine","generator:source":"wind","generator:type":"horizontal_axis","offshore":"yes","power":"generator","seamark:landmark:category":"windmotor","seamark:light:character":"Mo","seamark:light:colour":"yellow","seamark:light:group":"C","seamark:light:height":"18.3","seamark:light:period":"12","seamark:light:range":"5","seamark:name":"Xiangshan Wind Farm No.22","seamark:type":"landmark","source":"China MSA Notice No. 196/2025"}}}],"type":"FeatureCollection"}