{"type":"FeatureCollection","features":[{"type":"Feature","geometry":{"type":"Point","coordinates":[49.5340054,29.0062549]},"properties":{"osm_id":2291409063,"osm_type":"node","seamark_type":"platform","display_class":"OTHER","min_zoom":12,"importance":1,"name":null,"ref":null,"common":{"type":"platform"},"children":{"platform":{"category":"production"}},"osm_tags":{"man_made":"pumping_rig","seamark:platform:category":"production","seamark:type":"platform","source":"Aramco"}}},{"type":"Feature","geometry":{"type":"Point","coordinates":[49.4567369,29.0182208]},"properties":{"osm_id":2291409077,"osm_type":"node","seamark_type":"platform","display_class":"OTHER","min_zoom":12,"importance":1,"name":null,"ref":null,"common":{"type":"platform"},"children":{"platform":{"category":"production"}},"osm_tags":{"man_made":"pumping_rig","seamark:platform:category":"production","seamark:type":"platform","source":"Aramco"}}},{"type":"Feature","geometry":{"type":"Point","coordinates":[49.499798,29.0401548]},"properties":{"osm_id":2291409114,"osm_type":"node","seamark_type":"platform","display_class":"OTHER","min_zoom":12,"importance":1,"name":null,"ref":null,"common":{"type":"platform"},"children":{"platform":{"category":"production"}},"osm_tags":{"man_made":"pumping_rig","seamark:platform:category":"production","seamark:type":"platform","source":"Aramco"}}},{"type":"Feature","geometry":{"type":"Point","coordinates":[49.4275768,29.0465904]},"properties":{"osm_id":2291409118,"osm_type":"node","seamark_type":"platform","display_class":"OTHER","min_zoom":12,"importance":1,"name":null,"ref":null,"common":{"type":"platform"},"children":{"platform":{"category":"production"}},"osm_tags":{"man_made":"pumping_rig","seamark:platform:category":"production","seamark:type":"platform","source":"Aramco"}}},{"type":"Feature","geometry":{"type":"Point","coordinates":[49.4563345,29.0466051]},"properties":{"osm_id":2291409122,"osm_type":"node","seamark_type":"platform","display_class":"OTHER","min_zoom":12,"importance":1,"name":null,"ref":null,"common":{"type":"platform"},"children":{"platform":{"category":"production"}},"osm_tags":{"man_made":"pumping_rig","seamark:platform:category":"production","seamark:type":"platform","source":"Aramco"}}},{"type":"Feature","geometry":{"type":"Point","coordinates":[49.5275664,29.0503578]},"properties":{"osm_id":2291409129,"osm_type":"node","seamark_type":"platform","display_class":"OTHER","min_zoom":12,"importance":1,"name":null,"ref":null,"common":{"type":"platform"},"children":{"platform":{"category":"production"}},"osm_tags":{"man_made":"pumping_rig","seamark:platform:category":"production","seamark:type":"platform","source":"Aramco"}}},{"type":"Feature","geometry":{"type":"Point","coordinates":[49.5002004,29.0538759]},"properties":{"osm_id":2291409138,"osm_type":"node","seamark_type":"platform","display_class":"OTHER","min_zoom":12,"importance":1,"name":null,"ref":null,"common":{"type":"platform"},"children":{"platform":{"category":"production"}},"osm_tags":{"man_made":"pumping_rig","seamark:platform:category":"production","seamark:type":"platform","source":"Aramco"}}},{"type":"Feature","geometry":{"type":"Point","coordinates":[49.5148224,29.0603253]},"properties":{"osm_id":2291409146,"osm_type":"node","seamark_type":"platform","display_class":"OTHER","min_zoom":12,"importance":1,"name":null,"ref":null,"common":{"type":"platform"},"children":{"platform":{"category":"production"}},"osm_tags":{"man_made":"pumping_rig","seamark:platform:category":"production","seamark:type":"platform","source":"Aramco"}}},{"type":"Feature","geometry":{"type":"Point","coordinates":[49.4855785,29.0606771]},"properties":{"osm_id":2291409151,"osm_type":"node","seamark_type":"platform","display_class":"OTHER","min_zoom":12,"importance":1,"name":null,"ref":null,"common":{"type":"platform"},"children":{"platform":{"category":"production"}},"osm_tags":{"man_made":"pumping_rig","seamark:platform:category":"production","seamark:type":"platform","source":"Aramco"}}},{"type":"Feature","geometry":{"type":"Point","coordinates":[49.3988024,29.0611314]},"properties":{"osm_id":2291409155,"osm_type":"node","seamark_type":"platform","display_class":"OTHER","min_zoom":12,"importance":1,"name":null,"ref":null,"common":{"type":"platform"},"children":{"platform":{"category":"production"}},"osm_tags":{"man_made":"pumping_rig","seamark:platform:category":"production","seamark:type":"platform","source":"Aramco"}}},{"type":"Feature","geometry":{"type":"Point","coordinates":[49.4563345,29.0619669]},"properties":{"osm_id":2291409159,"osm_type":"node","seamark_type":"platform","display_class":"OTHER","min_zoom":12,"importance":1,"name":null,"ref":null,"common":{"type":"platform"},"children":{"platform":{"category":"production"}},"osm_tags":{"man_made":"pumping_rig","seamark:platform:category":"production","seamark:type":"platform","source":"Aramco"}}},{"type":"Feature","geometry":{"type":"Point","coordinates":[49.4993956,29.0678296]},"properties":{"osm_id":2291409167,"osm_type":"node","seamark_type":"platform","display_class":"OTHER","min_zoom":12,"importance":1,"name":null,"ref":null,"common":{"type":"platform"},"children":{"platform":{"category":"production"}},"osm_tags":{"man_made":"pumping_rig","seamark:platform:category":"production","seamark:type":"platform","source":"Aramco"}}},{"type":"Feature","geometry":{"type":"Point","coordinates":[49.5864567,29.2467149]},"properties":{"osm_id":2291409607,"osm_type":"node","seamark_type":"platform","display_class":"OTHER","min_zoom":12,"importance":1,"name":null,"ref":null,"common":{"type":"platform"},"children":{"platform":{"category":"production"}},"osm_tags":{"man_made":"pumping_rig","seamark:platform:category":"production","seamark:type":"platform","source":"Aramco"}}},{"type":"Feature","geometry":{"type":"Point","coordinates":[49.5324627,29.2686587]},"properties":{"osm_id":2291409619,"osm_type":"node","seamark_type":"platform","display_class":"OTHER","min_zoom":12,"importance":1,"name":null,"ref":null,"common":{"type":"platform"},"children":{"platform":{"category":"production"}},"osm_tags":{"man_made":"pumping_rig","seamark:platform:category":"production","seamark:type":"platform","source":"Aramco"}}},{"type":"Feature","geometry":{"type":"Point","coordinates":[49.5727067,29.2722278]},"properties":{"osm_id":2291409626,"osm_type":"node","seamark_type":"platform","display_class":"OTHER","min_zoom":12,"importance":1,"name":null,"ref":null,"common":{"type":"platform"},"children":{"platform":{"category":"production"}},"osm_tags":{"man_made":"pumping_rig","seamark:platform:category":"production","seamark:type":"platform","source":"Aramco"}}},{"type":"Feature","geometry":{"type":"Point","coordinates":[49.5507066,29.2912413]},"properties":{"osm_id":2291409639,"osm_type":"node","seamark_type":"platform","display_class":"OTHER","min_zoom":12,"importance":1,"name":null,"ref":null,"common":{"type":"platform"},"children":{"platform":{"category":"production"}},"osm_tags":{"man_made":"pumping_rig","seamark:platform:category":"production","seamark:type":"platform","source":"Aramco"}}},{"type":"Feature","geometry":{"type":"Point","coordinates":[49.5521152,29.295336]},"properties":{"osm_id":2291409641,"osm_type":"node","seamark_type":"platform","display_class":"OTHER","min_zoom":12,"importance":1,"name":null,"ref":null,"common":{"type":"platform"},"children":{"platform":{"category":"production"}},"osm_tags":{"man_made":"pumping_rig","seamark:platform:category":"production","seamark:type":"platform","source":"Aramco"}}},{"type":"Feature","geometry":{"type":"Point","coordinates":[49.487205,29.3107922]},"properties":{"osm_id":2291409655,"osm_type":"node","seamark_type":"platform","display_class":"OTHER","min_zoom":12,"importance":1,"name":null,"ref":null,"common":{"type":"platform"},"children":{"platform":{"category":"production"}},"osm_tags":{"man_made":"pumping_rig","seamark:platform:category":"production","seamark:type":"platform","source":"Aramco"}}},{"type":"Feature","geometry":{"type":"Point","coordinates":[49.4968468,29.330661]},"properties":{"osm_id":2291409684,"osm_type":"node","seamark_type":"platform","display_class":"OTHER","min_zoom":12,"importance":1,"name":null,"ref":null,"common":{"type":"platform"},"children":{"platform":{"category":"production"}},"osm_tags":{"man_made":"pumping_rig","seamark:platform:category":"production","seamark:type":"platform","source":"Aramco"}}},{"type":"Feature","geometry":{"type":"Point","coordinates":[49.4946334,29.3353097]},"properties":{"osm_id":2291409706,"osm_type":"node","seamark_type":"platform","display_class":"OTHER","min_zoom":12,"importance":1,"name":null,"ref":null,"common":{"type":"platform"},"children":{"platform":{"category":"production"}},"osm_tags":{"man_made":"pumping_rig","seamark:platform:category":"production","seamark:type":"platform","source":"Aramco"}}},{"type":"Feature","geometry":{"type":"Point","coordinates":[49.3782109,29.4667145]},"properties":{"osm_id":2291409843,"osm_type":"node","seamark_type":"platform","display_class":"OTHER","min_zoom":12,"importance":1,"name":null,"ref":null,"common":{"type":"platform"},"children":{"platform":{"category":"production"}},"osm_tags":{"man_made":"pumping_rig","seamark:platform:category":"production","seamark:type":"platform","source":"Aramco"}}},{"type":"Feature","geometry":{"type":"Point","coordinates":[49.387467,29.4826556]},"properties":{"osm_id":2291409847,"osm_type":"node","seamark_type":"platform","display_class":"OTHER","min_zoom":12,"importance":1,"name":null,"ref":null,"common":{"type":"platform"},"children":{"platform":{"category":"production"}},"osm_tags":{"man_made":"pumping_rig","seamark:platform:category":"production","seamark:type":"platform","source":"Aramco"}}},{"type":"Feature","geometry":{"type":"Point","coordinates":[49.4014853,29.5000828]},"properties":{"osm_id":2291409851,"osm_type":"node","seamark_type":"platform","display_class":"OTHER","min_zoom":12,"importance":1,"name":null,"ref":null,"common":{"type":"platform"},"children":{"platform":{"category":"production"}},"osm_tags":{"man_made":"pumping_rig","seamark:platform:category":"production","seamark:type":"platform","source":"Aramco"}}},{"type":"Feature","geometry":{"type":"Point","coordinates":[49.405778,29.5112323]},"properties":{"osm_id":2291409855,"osm_type":"node","seamark_type":"platform","display_class":"OTHER","min_zoom":12,"importance":1,"name":null,"ref":null,"common":{"type":"platform"},"children":{"platform":{"category":"production"}},"osm_tags":{"man_made":"pumping_rig","seamark:platform:category":"production","seamark:type":"platform","source":"Aramco"}}},{"type":"Feature","geometry":{"type":"Point","coordinates":[49.4293878,29.5331774]},"properties":{"osm_id":2291409862,"osm_type":"node","seamark_type":"platform","display_class":"OTHER","min_zoom":12,"importance":1,"name":null,"ref":null,"common":{"type":"platform"},"children":{"platform":{"category":"production"}},"osm_tags":{"man_made":"pumping_rig","seamark:platform:category":"production","seamark:type":"platform","source":"Aramco"}}},{"type":"Feature","geometry":{"type":"Point","coordinates":[49.6712374,29.9220408]},"properties":{"osm_id":2291409995,"osm_type":"node","seamark_type":"platform","display_class":"OTHER","min_zoom":12,"importance":1,"name":null,"ref":null,"common":{"type":"platform"},"children":{"platform":{"category":"production"}},"osm_tags":{"man_made":"pumping_rig","seamark:platform:category":"production","seamark:type":"platform","source":"Aramco"}}},{"type":"Feature","geometry":{"type":"Point","coordinates":[49.6749935,29.9385492]},"properties":{"osm_id":2291409999,"osm_type":"node","seamark_type":"platform","display_class":"OTHER","min_zoom":12,"importance":1,"name":null,"ref":null,"common":{"type":"platform"},"children":{"platform":{"category":"production"}},"osm_tags":{"man_made":"pumping_rig","seamark:platform:category":"production","seamark:type":"platform","source":"Aramco"}}},{"type":"Feature","geometry":{"type":"Point","coordinates":[49.6733837,29.9438964]},"properties":{"osm_id":2291410003,"osm_type":"node","seamark_type":"platform","display_class":"OTHER","min_zoom":12,"importance":1,"name":null,"ref":null,"common":{"type":"platform"},"children":{"platform":{"category":"production"}},"osm_tags":{"man_made":"pumping_rig","seamark:platform:category":"production","seamark:type":"platform","source":"Aramco"}}},{"type":"Feature","geometry":{"type":"Point","coordinates":[49.6496398,29.9442451]},"properties":{"osm_id":2291410007,"osm_type":"node","seamark_type":"platform","display_class":"OTHER","min_zoom":12,"importance":1,"name":null,"ref":null,"common":{"type":"platform"},"children":{"platform":{"category":"production"}},"osm_tags":{"man_made":"pumping_rig","seamark:platform:category":"production","seamark:type":"platform","source":"Aramco"}}},{"type":"Feature","geometry":{"type":"Point","coordinates":[49.6815667,29.9459887]},"properties":{"osm_id":2291410014,"osm_type":"node","seamark_type":"platform","display_class":"OTHER","min_zoom":12,"importance":1,"name":null,"ref":null,"common":{"type":"platform"},"children":{"platform":{"category":"production"}},"osm_tags":{"man_made":"pumping_rig","seamark:platform:category":"production","seamark:type":"platform","source":"Aramco"}}},{"type":"Feature","geometry":{"type":"Point","coordinates":[49.6766032,29.9509867]},"properties":{"osm_id":2291410018,"osm_type":"node","seamark_type":"platform","display_class":"OTHER","min_zoom":12,"importance":1,"name":null,"ref":null,"common":{"type":"platform"},"children":{"platform":{"category":"production"}},"osm_tags":{"man_made":"pumping_rig","seamark:platform:category":"production","seamark:type":"platform","source":"Aramco"}}},{"type":"Feature","geometry":{"type":"Point","coordinates":[49.6705666,29.9561008]},"properties":{"osm_id":2291410023,"osm_type":"node","seamark_type":"platform","display_class":"OTHER","min_zoom":12,"importance":1,"name":null,"ref":null,"common":{"type":"platform"},"children":{"platform":{"category":"production"}},"osm_tags":{"man_made":"pumping_rig","seamark:platform:category":"production","seamark:type":"platform","source":"Aramco"}}},{"type":"Feature","geometry":{"type":"Point","coordinates":[49.6936399,29.9701631]},"properties":{"osm_id":2291410027,"osm_type":"node","seamark_type":"platform","display_class":"OTHER","min_zoom":12,"importance":1,"name":null,"ref":null,"common":{"type":"platform"},"children":{"platform":{"category":"production"}},"osm_tags":{"man_made":"pumping_rig","seamark:platform:category":"production","seamark:type":"platform","source":"Aramco"}}},{"type":"Feature","geometry":{"type":"LineString","coordinates":[[50.2628511,29.8280831],[50.2522032,29.8254646],[50.1671877,29.8049072],[50.0689962,29.7817865],[49.9710316,29.7587139],[49.8917844,29.7401084],[49.8713941,29.7348376],[49.8527476,29.7307024],[49.8119,29.7217906],[49.7840645,29.715616],[49.7703815,29.712412],[49.7640096,29.7102566],[49.7591803,29.707635],[49.7528754,29.7034986],[49.6670519,29.6541474],[49.5808205,29.6045373],[49.4971916,29.5564011],[49.4800879,29.5458401],[49.4077828,29.5056281],[49.4008072,29.5005494]]},"properties":{"osm_id":220018026,"osm_type":"way","seamark_type":"pipeline_submarine","display_class":"OTHER","min_zoom":12,"importance":1,"name":null,"ref":null,"common":{"type":"pipeline_submarine"},"children":{"pipeline_submarine":{"category":"supply","product":"oil"}},"osm_tags":{"man_made":"pipeline","seamark:pipeline_submarine:category":"supply","seamark:pipeline_submarine:product":"oil","seamark:type":"pipeline_submarine","source":"Aramco","submarine":"yes","substance":"oil"}}},{"type":"Feature","geometry":{"type":"LineString","coordinates":[[49.4713516,29.0672277],[49.4567296,29.0180879]]},"properties":{"osm_id":220018056,"osm_type":"way","seamark_type":"pipeline_submarine","display_class":"OTHER","min_zoom":12,"importance":1,"name":null,"ref":null,"common":{"type":"pipeline_submarine"},"children":{"pipeline_submarine":{"category":"supply","product":"oil"}},"osm_tags":{"man_made":"pipeline","seamark:pipeline_submarine:category":"supply","seamark:pipeline_submarine:product":"oil","seamark:type":"pipeline_submarine","source":"Aramco","submarine":"yes","substance":"oil"}}},{"type":"Feature","geometry":{"type":"LineString","coordinates":[[49.4992541,29.0526876],[49.4960346,29.046824],[49.4917419,29.0338058]]},"properties":{"osm_id":220018253,"osm_type":"way","seamark_type":"pipeline_submarine","display_class":"OTHER","min_zoom":12,"importance":1,"name":null,"ref":null,"common":{"type":"pipeline_submarine"},"children":{"pipeline_submarine":{"category":"supply","product":"oil"}},"osm_tags":{"man_made":"pipeline","seamark:pipeline_submarine:category":"supply","seamark:pipeline_submarine:product":"oil","seamark:type":"pipeline_submarine","source":"Aramco","submarine":"yes","substance":"oil"}}},{"type":"Feature","geometry":{"type":"LineString","coordinates":[[50.3101246,29.2052407],[50.289714,29.1869154],[50.2878024,29.1850562],[50.2737206,29.1724493],[50.2097381,29.119424],[49.9684754,29.1723956],[49.7584018,29.2372657],[49.5625478,29.2967133]]},"properties":{"osm_id":220018482,"osm_type":"way","seamark_type":"pipeline_submarine","display_class":"OTHER","min_zoom":12,"importance":1,"name":null,"ref":null,"common":{"type":"pipeline_submarine"},"children":{"pipeline_submarine":{"category":"supply","product":"oil"}},"osm_tags":{"man_made":"pipeline","seamark:pipeline_submarine:category":"supply","seamark:pipeline_submarine:product":"oil","seamark:type":"pipeline_submarine","source":"Aramco","submarine":"yes","substance":"oil"}}},{"type":"Feature","geometry":{"type":"LineString","coordinates":[[50.3971408,29.6666109],[50.1634575,29.6698746],[50.0829696,29.7756544],[49.7726885,29.7037875],[49.4954075,29.544029],[49.4935295,29.5406445],[49.4797124,29.5067935],[49.4530172,29.4826239],[49.4248464,29.4370713],[49.4047245,29.4235184],[49.3946635,29.4172086],[49.3789683,29.415339],[49.365822,29.4172086],[49.3520049,29.4212983],[49.337517,29.4305287],[49.3285292,29.4387069],[49.3218219,29.4494543],[49.320078,29.4609013],[49.3188707,29.4805219],[49.324639,29.4883457],[49.3351024,29.5066767],[49.348517,29.5210356],[49.3532122,29.5334084],[49.3681024,29.5472967],[49.3634073,29.5621166],[49.3668951,29.5715675],[49.3754805,29.5835841],[49.3850049,29.5934996],[49.3954683,29.5994484],[49.4100903,29.6049304],[49.4206879,29.6065632],[49.4283343,29.6053969],[49.4497977,29.5988652],[49.4717978,29.5889503],[49.4856148,29.5762343],[49.4920539,29.5653837],[49.7568592,29.7170116],[50.0702927,29.792478],[49.9994633,29.8847536],[49.8910729,29.9006867],[49.7342555,29.9284762],[49.7303653,29.9221981],[49.7244628,29.9028962],[49.7173531,29.8916156],[49.7125238,29.8856841],[49.6970969,29.8766117],[49.683414,29.8725405],[49.6765725,29.8718425],[49.6640969,29.8716099],[49.6493407,29.8749832],[49.6408895,29.8794033],[49.6298895,29.8878939],[49.6218407,29.8976631],[49.6158041,29.9066173],[49.5980968,29.9227794],[49.5938041,29.935219],[49.591926,29.949168],[49.596487,29.9623016],[49.6082919,29.9785708],[49.6187553,29.9877501],[49.63217,29.9921652],[49.6604749,30.010869],[49.6599383,30.0287563],[49.6673164,30.0479176],[49.6776457,30.0635924],[49.6858286,30.0681201],[49.6932067,30.0709064],[49.7102433,30.0799611],[49.7258043,30.0800772],[49.7424385,30.0772912],[49.7579995,30.0711386],[49.7708775,30.0646372],[49.7846946,30.05233],[49.7904629,30.0429244],[49.7935483,30.0314275],[49.7930117,30.0227168],[49.7916703,30.0092427],[49.7860361,29.999136],[49.7769141,29.9887958],[49.7671214,29.9839158],[49.7512921,29.9771764],[49.7515604,29.962011],[49.7504873,29.9533523],[49.7419019,29.9435886],[50.0997379,29.8855097],[50.2065186,29.8844629],[50.214232,29.8773096]]},"properties":{"osm_id":220138877,"osm_type":"way","seamark_type":"restricted_area","display_class":"OTHER","min_zoom":12,"importance":1,"name":null,"ref":null,"common":{"type":"restricted_area"},"children":{},"osm_tags":{"seamark:type":"restricted_area"}}},{"type":"Feature","geometry":{"type":"Point","coordinates":[49.4152153,29.4694704]},"properties":{"osm_id":4503684804,"osm_type":"node","seamark_type":"platform","display_class":"OTHER","min_zoom":12,"importance":1,"name":"Anchorage","ref":null,"common":{"type":"platform"},"children":{"anchorage":{"category":"limited_period"}},"osm_tags":{"man_made":"pumping_rig","name":"Anchorage","operator":"Iranian Offshore Oil Company","seamark:anchorage:category":"limited_period","seamark:type":"platform"}}},{"type":"Feature","geometry":{"type":"Point","coordinates":[49.6725,29.9227]},"properties":{"osm_id":4503684809,"osm_type":"node","seamark_type":"platform","display_class":"OTHER","min_zoom":12,"importance":1,"name":"BS۰۴","ref":null,"common":{"type":"platform"},"children":{},"osm_tags":{"man_made":"pumping_rig","name":"BS۰۴","operator":"Iranian Offshore Oil Company","seamark:type":"platform"}}},{"type":"Feature","geometry":{"type":"Point","coordinates":[49.6716,29.9541]},"properties":{"osm_id":4503684810,"osm_type":"node","seamark_type":"platform","display_class":"OTHER","min_zoom":12,"importance":1,"name":"BS۰۵","ref":null,"common":{"type":"platform"},"children":{},"osm_tags":{"man_made":"pumping_rig","name":"BS۰۵","operator":"Iranian Offshore Oil Company","seamark:type":"platform"}}},{"type":"Feature","geometry":{"type":"Point","coordinates":[49.6722,29.9375]},"properties":{"osm_id":4503684808,"osm_type":"node","seamark_type":"platform","display_class":"OTHER","min_zoom":12,"importance":1,"name":"BS۰۶","ref":null,"common":{"type":"platform"},"children":{},"osm_tags":{"man_made":"pumping_rig","name":"BS۰۶","operator":"Iranian Offshore Oil Company","seamark:type":"platform"}}},{"type":"Feature","geometry":{"type":"Point","coordinates":[49.6775,29.9388]},"properties":{"osm_id":4503684807,"osm_type":"node","seamark_type":"platform","display_class":"OTHER","min_zoom":12,"importance":1,"name":"BS۰۷","ref":null,"common":{"type":"platform"},"children":{},"osm_tags":{"man_made":"pumping_rig","name":"BS۰۷","operator":"Iranian Offshore Oil Company","seamark:type":"platform"}}},{"type":"Feature","geometry":{"type":"Point","coordinates":[49.483,29.125]},"properties":{"osm_id":4503684803,"osm_type":"node","seamark_type":"platform","display_class":"OTHER","min_zoom":12,"importance":1,"name":"Khalij E Fars","ref":null,"common":{"name":"Khalij E Fars","type":"platform"},"children":{"platform":{"category":"fpso"}},"osm_tags":{"man_made":"pumping_rig","operator":"Iranian Offshore Oil Company","seamark:name":"Khalij E Fars","seamark:platform:category":"fpso","seamark:type":"platform"}}},{"type":"Feature","geometry":{"type":"Point","coordinates":[49.3916,29.477]},"properties":{"osm_id":4503684834,"osm_type":"node","seamark_type":"platform","display_class":"OTHER","min_zoom":12,"importance":1,"name":"NLQ","ref":null,"common":{"type":"platform"},"children":{"platform":{"category":"accomodation"}},"osm_tags":{"man_made":"pumping_rig","name":"NLQ","operator":"Iranian Offshore Oil Company","seamark:platform:category":"accomodation","seamark:type":"platform"}}},{"type":"Feature","geometry":{"type":"Point","coordinates":[49.405,29.5]},"properties":{"osm_id":4503684806,"osm_type":"node","seamark_type":"platform","display_class":"OTHER","min_zoom":12,"importance":1,"name":"NPP1","ref":null,"common":{"type":"platform"},"children":{},"osm_tags":{"man_made":"pumping_rig","name":"NPP1","operator":"Iranian Offshore Oil Company","seamark:type":"platform"}}},{"type":"Feature","geometry":{"type":"Point","coordinates":[49.3908,29.476]},"properties":{"osm_id":4503684805,"osm_type":"node","seamark_type":"platform","display_class":"OTHER","min_zoom":12,"importance":1,"name":"NPP2","ref":null,"common":{"type":"platform"},"children":{},"osm_tags":{"man_made":"pumping_rig","name":"NPP2","operator":"Iranian Offshore Oil Company","seamark:type":"platform"}}},{"type":"Feature","geometry":{"type":"Point","coordinates":[49.378,29.466]},"properties":{"osm_id":4503684827,"osm_type":"node","seamark_type":"platform","display_class":"OTHER","min_zoom":12,"importance":1,"name":"NR11,NR12,NR13,NR33","ref":null,"common":{"type":"platform"},"children":{},"osm_tags":{"man_made":"pumping_rig","name":"NR11,NR12,NR13,NR33","operator":"Iranian Offshore Oil Company","seamark:type":"platform"}}},{"type":"Feature","geometry":{"type":"Point","coordinates":[49.4058,29.5089]},"properties":{"osm_id":4503684831,"osm_type":"node","seamark_type":"platform","display_class":"OTHER","min_zoom":12,"importance":1,"name":"NR14,NR15,NR34","ref":null,"common":{"type":"platform"},"children":{},"osm_tags":{"man_made":"pumping_rig","name":"NR14,NR15,NR34","operator":"Iranian Offshore Oil Company","seamark:type":"platform"}}},{"type":"Feature","geometry":{"type":"Point","coordinates":[49.39,29.467]},"properties":{"osm_id":4503684830,"osm_type":"node","seamark_type":"platform","display_class":"OTHER","min_zoom":12,"importance":1,"name":"NR2","ref":null,"common":{"type":"platform"},"children":{},"osm_tags":{"man_made":"pumping_rig","name":"NR2","operator":"Iranian Offshore Oil Company","seamark:type":"platform"}}},{"type":"Feature","geometry":{"type":"Point","coordinates":[49.435,29.5449]},"properties":{"osm_id":4503684832,"osm_type":"node","seamark_type":"platform","display_class":"OTHER","min_zoom":12,"importance":1,"name":"NR3","ref":null,"common":{"type":"platform"},"children":{},"osm_tags":{"man_made":"pumping_rig","name":"NR3","operator":"Iranian Offshore Oil Company","seamark:type":"platform"}}},{"type":"Feature","geometry":{"type":"Point","coordinates":[49.4228,29.553]},"properties":{"osm_id":4503684829,"osm_type":"node","seamark_type":"platform","display_class":"OTHER","min_zoom":12,"importance":1,"name":"NR4","ref":null,"common":{"type":"platform"},"children":{},"osm_tags":{"man_made":"pumping_rig","name":"NR4","operator":"Iranian Offshore Oil Company","seamark:type":"platform"}}},{"type":"Feature","geometry":{"type":"Point","coordinates":[49.3881,29.4839]},"properties":{"osm_id":4503684825,"osm_type":"node","seamark_type":"platform","display_class":"OTHER","min_zoom":12,"importance":1,"name":"NR5,NR6,NR7,NR8","ref":null,"common":{"type":"platform"},"children":{},"osm_tags":{"man_made":"pumping_rig","name":"NR5,NR6,NR7,NR8","operator":"Iranian Offshore Oil Company","seamark:type":"platform"}}},{"type":"Feature","geometry":{"type":"Point","coordinates":[49.4285,29.529]},"properties":{"osm_id":4503684828,"osm_type":"node","seamark_type":"platform","display_class":"OTHER","min_zoom":12,"importance":1,"name":"NR9,NR10","ref":null,"common":{"type":"platform"},"children":{},"osm_tags":{"man_made":"pumping_rig","name":"NR9,NR10","operator":"Iranian Offshore Oil Company","seamark:type":"platform"}}},{"type":"Feature","geometry":{"type":"Point","coordinates":[49.4276,29.526]},"properties":{"osm_id":4503684826,"osm_type":"node","seamark_type":"platform","display_class":"OTHER","min_zoom":12,"importance":1,"name":"NWP1","ref":null,"common":{"type":"platform"},"children":{},"osm_tags":{"man_made":"pumping_rig","name":"NWP1","operator":"Iranian Offshore Oil Company","seamark:type":"platform"}}},{"type":"Feature","geometry":{"type":"Point","coordinates":[49.499,29.053]},"properties":{"osm_id":4503684823,"osm_type":"node","seamark_type":"platform","display_class":"OTHER","min_zoom":12,"importance":1,"name":"PPS,SR02","ref":null,"common":{"type":"platform"},"children":{},"osm_tags":{"man_made":"pumping_rig","name":"PPS,SR02","operator":"Iranian Offshore Oil Company","seamark:type":"platform"}}},{"type":"Feature","geometry":{"type":"Point","coordinates":[49.478,29.072]},"properties":{"osm_id":4503684833,"osm_type":"node","seamark_type":"platform","display_class":"OTHER","min_zoom":12,"importance":1,"name":"SLQ","ref":null,"common":{"type":"platform"},"children":{},"osm_tags":{"man_made":"pumping_rig","name":"SLQ","operator":"Iranian Offshore Oil Company","seamark:type":"platform"}}},{"type":"Feature","geometry":{"type":"Point","coordinates":[49.456,29.049]},"properties":{"osm_id":4503684822,"osm_type":"node","seamark_type":"platform","display_class":"OTHER","min_zoom":12,"importance":1,"name":"SR03","ref":null,"common":{"type":"platform"},"children":{},"osm_tags":{"man_made":"pumping_rig","name":"SR03","operator":"Iranian Offshore Oil Company","seamark:type":"platform"}}},{"type":"Feature","geometry":{"type":"Point","coordinates":[49.533,29.002]},"properties":{"osm_id":4503684821,"osm_type":"node","seamark_type":"platform","display_class":"OTHER","min_zoom":12,"importance":1,"name":"SR04","ref":null,"common":{"type":"platform"},"children":{},"osm_tags":{"man_made":"pumping_rig","name":"SR04","operator":"Iranian Offshore Oil Company","seamark:type":"platform"}}},{"type":"Feature","geometry":{"type":"Point","coordinates":[49.528,29.049]},"properties":{"osm_id":4503684820,"osm_type":"node","seamark_type":"platform","display_class":"OTHER","min_zoom":12,"importance":1,"name":"SR05","ref":null,"common":{"type":"platform"},"children":{},"osm_tags":{"man_made":"pumping_rig","name":"SR05","operator":"Iranian Offshore Oil Company","seamark:type":"platform"}}},{"type":"Feature","geometry":{"type":"Point","coordinates":[49.499,29.068]},"properties":{"osm_id":4503684819,"osm_type":"node","seamark_type":"platform","display_class":"OTHER","min_zoom":12,"importance":1,"name":"SR06","ref":null,"common":{"type":"platform"},"children":{},"osm_tags":{"man_made":"pumping_rig","name":"SR06","operator":"Iranian Offshore Oil Company","seamark:type":"platform"}}},{"type":"Feature","geometry":{"type":"Point","coordinates":[49.486,29.06]},"properties":{"osm_id":4503684818,"osm_type":"node","seamark_type":"platform","display_class":"OTHER","min_zoom":12,"importance":1,"name":"SR07,SR16","ref":null,"common":{"type":"platform"},"children":{},"osm_tags":{"man_made":"pumping_rig","name":"SR07,SR16","operator":"Iranian Offshore Oil Company","seamark:type":"platform"}}},{"type":"Feature","geometry":{"type":"Point","coordinates":[49.514,29.06]},"properties":{"osm_id":4503684817,"osm_type":"node","seamark_type":"platform","display_class":"OTHER","min_zoom":12,"importance":1,"name":"SR08","ref":null,"common":{"type":"platform"},"children":{},"osm_tags":{"man_made":"pumping_rig","name":"SR08","operator":"Iranian Offshore Oil Company","seamark:type":"platform"}}},{"type":"Feature","geometry":{"type":"Point","coordinates":[49.5,29.038]},"properties":{"osm_id":4503684816,"osm_type":"node","seamark_type":"platform","display_class":"OTHER","min_zoom":12,"importance":1,"name":"SR09,SR15","ref":null,"common":{"type":"platform"},"children":{},"osm_tags":{"man_made":"pumping_rig","name":"SR09,SR15","operator":"Iranian Offshore Oil Company","seamark:type":"platform"}}},{"type":"Feature","geometry":{"type":"Point","coordinates":[49.458,29.06]},"properties":{"osm_id":4503684815,"osm_type":"node","seamark_type":"platform","display_class":"OTHER","min_zoom":12,"importance":1,"name":"SR10","ref":null,"common":{"type":"platform"},"children":{},"osm_tags":{"man_made":"pumping_rig","name":"SR10","operator":"Iranian Offshore Oil Company","seamark:type":"platform"}}},{"type":"Feature","geometry":{"type":"Point","coordinates":[49.441,29.081]},"properties":{"osm_id":4503684814,"osm_type":"node","seamark_type":"platform","display_class":"OTHER","min_zoom":12,"importance":1,"name":"SR11","ref":null,"common":{"name":"SR11","type":"platform"},"children":{"platform":{"category":"oil"}},"osm_tags":{"man_made":"pumping_rig","operator":"Iranian Offshore Oil Company","seamark:name":"SR11","seamark:platform:category":"oil","seamark:type":"platform"}}},{"type":"Feature","geometry":{"type":"Point","coordinates":[49.4,29.061]},"properties":{"osm_id":4503684813,"osm_type":"node","seamark_type":"platform","display_class":"OTHER","min_zoom":12,"importance":1,"name":"SR12","ref":null,"common":{"type":"platform"},"children":{},"osm_tags":{"man_made":"pumping_rig","name":"SR12","operator":"Iranian Offshore Oil Company","seamark:type":"platform"}}},{"type":"Feature","geometry":{"type":"Point","coordinates":[49.429,29.047]},"properties":{"osm_id":4503684812,"osm_type":"node","seamark_type":"platform","display_class":"OTHER","min_zoom":12,"importance":1,"name":"SR13","ref":null,"common":{"type":"platform"},"children":{},"osm_tags":{"man_made":"pumping_rig","name":"SR13","operator":"Iranian Offshore Oil Company","seamark:type":"platform"}}},{"type":"Feature","geometry":{"type":"Point","coordinates":[49.495,29.04]},"properties":{"osm_id":4503684824,"osm_type":"node","seamark_type":"platform","display_class":"OTHER","min_zoom":12,"importance":1,"name":"SWP2","ref":null,"common":{"type":"platform"},"children":{},"osm_tags":{"man_made":"pumping_rig","name":"SWP2","operator":"Iranian Offshore Oil Company","seamark:type":"platform"}}},{"type":"Feature","geometry":{"type":"Point","coordinates":[49.456,29.0188]},"properties":{"osm_id":4503684802,"osm_type":"node","seamark_type":"platform","display_class":"OTHER","min_zoom":12,"importance":1,"name":"Soorena FSO","ref":null,"common":{"type":"platform"},"children":{},"osm_tags":{"man_made":"pumping_rig","name":"Soorena FSO","operator":"Iranian Offshore Oil Company","seamark:type":"platform"}}}],"type":"FeatureCollection"}