{"type":"FeatureCollection","features":[{"type":"Feature","geometry":{"type":"Point","coordinates":[120.7951257,29.3898969]},"properties":{"osm_id":5282275783,"osm_type":"node","seamark_type":"gate","display_class":"OTHER","min_zoom":12,"importance":1,"name":null,"ref":null,"common":{"type":"gate"},"children":{},"osm_tags":{"seamark:type":"gate","waterway":"lock_gate"}}},{"type":"Feature","geometry":{"type":"Polygon","coordinates":[[[120.6126477,29.8655416],[120.6126169,29.8655466],[120.6126073,29.8655666],[120.6123419,29.8655833],[120.61234,29.8655283],[120.6125996,29.8655066],[120.6126054,29.8655299],[120.6126688,29.8655199],[120.6126624,29.8655432],[120.6126477,29.8655416]]]},"properties":{"osm_id":389638006,"osm_type":"way","seamark_type":"harbour","display_class":"OTHER","min_zoom":12,"importance":1,"name":null,"ref":null,"common":{"type":"harbour"},"children":{"harbour":{"category":"marina"}},"osm_tags":{"leisure":"marina","seamark:harbour:category":"marina","seamark:type":"harbour"}}},{"type":"Feature","geometry":{"type":"Polygon","coordinates":[[[120.61244,29.8654098],[120.6124477,29.8653498],[120.6126246,29.8653648],[120.6126227,29.8653998],[120.6126669,29.8654082],[120.6126534,29.8654249],[120.61244,29.8654098]]]},"properties":{"osm_id":389638007,"osm_type":"way","seamark_type":"harbour","display_class":"OTHER","min_zoom":12,"importance":1,"name":null,"ref":null,"common":{"type":"harbour"},"children":{"harbour":{"category":"marina"}},"osm_tags":{"leisure":"marina","seamark:harbour:category":"marina","seamark:type":"harbour"}}},{"type":"Feature","geometry":{"type":"Polygon","coordinates":[[[120.6126057,29.8651141],[120.6126865,29.8650753],[120.6126921,29.8650858],[120.6126638,29.8651005],[120.6126702,29.8651159],[120.6126978,29.8650999],[120.6127035,29.8651141],[120.6126765,29.8651264],[120.6126836,29.8651393],[120.6127106,29.8651276],[120.6127176,29.8651386],[120.6126907,29.8651522],[120.612702,29.8651706],[120.6127276,29.8651583],[120.6127332,29.86517],[120.6127042,29.8651823],[120.6127148,29.8652001],[120.6127439,29.8651915],[120.612751,29.8652038],[120.6127176,29.8652161],[120.6127283,29.8652358],[120.6127878,29.8652112],[120.612914,29.8651294],[120.6129445,29.8651682],[120.6128544,29.8652321],[120.6128686,29.8652456],[120.6128445,29.8652597],[120.6128268,29.8652382],[120.6127963,29.8652585],[120.6127793,29.8652388],[120.6126815,29.8652942],[120.6126652,29.8652726],[120.6127042,29.8652468],[120.6126964,29.8652278],[120.6126524,29.8652462],[120.6126468,29.8652308],[120.6126843,29.8652087],[120.6126829,29.8651927],[120.6126418,29.8652118],[120.6126333,29.8651983],[120.6126751,29.8651804],[120.6126659,29.8651663],[120.6126269,29.8651786],[120.6126177,29.8651688],[120.6126539,29.8651497],[120.6126503,29.8651393],[120.6126212,29.8651516],[120.6126149,29.865138],[120.6126411,29.8651264],[120.6126361,29.8651171],[120.6126099,29.865127],[120.6126057,29.8651141]]]},"properties":{"osm_id":389638008,"osm_type":"way","seamark_type":"harbour","display_class":"OTHER","min_zoom":12,"importance":1,"name":null,"ref":null,"common":{"type":"harbour"},"children":{"harbour":{"category":"marina"}},"osm_tags":{"leisure":"marina","seamark:harbour:category":"marina","seamark:type":"harbour"}}},{"type":"Feature","geometry":{"type":"LineString","coordinates":[[120.876426,29.9803782],[120.8764044,29.9794361]]},"properties":{"osm_id":1268148556,"osm_type":"way","seamark_type":"gate","display_class":"OTHER","min_zoom":12,"importance":1,"name":null,"ref":null,"common":{"type":"gate"},"children":{},"osm_tags":{"seamark:type":"gate","waterway":"lock_gate"}}},{"type":"Feature","geometry":{"type":"LineString","coordinates":[[120.8784663,29.982651],[120.8785156,29.98216]]},"properties":{"osm_id":1268148558,"osm_type":"way","seamark_type":"gate","display_class":"OTHER","min_zoom":12,"importance":1,"name":null,"ref":null,"common":{"type":"gate"},"children":{},"osm_tags":{"seamark:type":"gate","waterway":"lock_gate"}}},{"type":"Feature","geometry":{"type":"LineString","coordinates":[[120.8777396,29.960595],[120.8779544,29.9606152]]},"properties":{"osm_id":1268148575,"osm_type":"way","seamark_type":"gate","display_class":"OTHER","min_zoom":12,"importance":1,"name":null,"ref":null,"common":{"type":"gate"},"children":{},"osm_tags":{"seamark:type":"gate","waterway":"lock_gate"}}},{"type":"Feature","geometry":{"type":"Point","coordinates":[120.5856574,29.9941122]},"properties":{"osm_id":10561425900,"osm_type":"node","seamark_type":"harbour","display_class":"OTHER","min_zoom":12,"importance":1,"name":"乌篷船码头","ref":null,"common":{"type":"harbour"},"children":{"harbour":{"category":"marina"}},"osm_tags":{"leisure":"marina","name":"乌篷船码头","seamark:harbour:category":"marina","seamark:type":"harbour"}}}],"type":"FeatureCollection"}