{"type":"FeatureCollection","features":[{"type":"Feature","geometry":{"type":"Point","coordinates":[47.9382462,29.3943075]},"properties":{"osm_id":1293792771,"osm_type":"node","seamark_type":"beacon_special_purpose","display_class":"BEACON","min_zoom":9,"importance":4,"name":"Ra′s Al Akaz.","ref":null,"common":{"name":"Ra′s Al Akaz.","type":"beacon_special_purpose"},"children":{"beacon_special_purpose":{"colour":"yellow;black","colour_pattern":"horizontal"},"light":{"character":"Fl","colour":"white","height":"3","period":"3","reference":"D 7601"}},"osm_tags":{"seamark:beacon_special_purpose:colour":"yellow;black","seamark:beacon_special_purpose:colour_pattern":"horizontal","seamark:light:character":"Fl","seamark:light:colour":"white","seamark:light:height":"3","seamark:light:period":"3","seamark:light:reference":"D 7601","seamark:name":"Ra′s Al Akaz.","seamark:type":"beacon_special_purpose","source":"US NGA Pub. 112. 2009-11-12."}}},{"type":"Feature","geometry":{"type":"Point","coordinates":[47.9383788,29.3749373]},"properties":{"osm_id":1293792743,"osm_type":"node","seamark_type":"light_minor","display_class":"OTHER","min_zoom":12,"importance":1,"name":null,"ref":null,"common":{"type":"light_minor"},"children":{"light":{"category":"front","character":"Fl","colour":"blue","height":"11","period":"2.5","range":"5","reference":"D 7596"}},"osm_tags":{"seamark:light:category":"front","seamark:light:character":"Fl","seamark:light:colour":"blue","seamark:light:height":"11","seamark:light:period":"2.5","seamark:light:range":"5","seamark:light:reference":"D 7596","seamark:type":"light_minor","source":"US NGA Pub. 112. 2009-11-12."}}},{"type":"Feature","geometry":{"type":"Point","coordinates":[47.9323701,29.3697234]},"properties":{"osm_id":1293792745,"osm_type":"node","seamark_type":"light_minor","display_class":"OTHER","min_zoom":12,"importance":1,"name":null,"ref":null,"common":{"type":"light_minor"},"children":{"light":{"1:category":"upper","1:character":"Fl","1:colour":"green","1:period":"2","1:sector_end":"224","1:sector_start":"222","2:category":"upper","2:character":"Fl","2:colour":"white","2:period":"2","2:sector_end":"225","2:sector_start":"224","3:category":"upper","3:character":"Fl","3:colour":"red","3:period":"2","3:sector_end":"227","3:sector_start":"225","reference":"D 7596.1"}},"osm_tags":{"seamark:light:1:category":"upper","seamark:light:1:character":"Fl","seamark:light:1:colour":"green","seamark:light:1:period":"2","seamark:light:1:sector_end":"224","seamark:light:1:sector_start":"222","seamark:light:2:category":"upper","seamark:light:2:character":"Fl","seamark:light:2:colour":"white","seamark:light:2:period":"2","seamark:light:2:sector_end":"225","seamark:light:2:sector_start":"224","seamark:light:3:category":"upper","seamark:light:3:character":"Fl","seamark:light:3:colour":"red","seamark:light:3:period":"2","seamark:light:3:sector_end":"227","seamark:light:3:sector_start":"225","seamark:light:reference":"D 7596.1","seamark:type":"light_minor","source":"US NGA Pub. 112. 2009-11-12."}}},{"type":"Feature","geometry":{"type":"Point","coordinates":[47.9244922,29.4193759]},"properties":{"osm_id":2277981949,"osm_type":"node","seamark_type":"buoy_lateral","display_class":"OTHER","min_zoom":12,"importance":1,"name":null,"ref":null,"common":{"type":"buoy_lateral"},"children":{"buoy_lateral":{"category":"port","colour":"red","shape":"can","system":"iala-a"}},"osm_tags":{"seamark:buoy_lateral:category":"port","seamark:buoy_lateral:colour":"red","seamark:buoy_lateral:shape":"can","seamark:buoy_lateral:system":"iala-a","seamark:type":"buoy_lateral"}}},{"type":"Feature","geometry":{"type":"Point","coordinates":[47.9927782,29.4372349]},"properties":{"osm_id":2277981950,"osm_type":"node","seamark_type":"buoy_cardinal","display_class":"OTHER","min_zoom":12,"importance":1,"name":null,"ref":null,"common":{"type":"buoy_cardinal"},"children":{"buoy_cardinal":{"category":"south","colour":"yellow;black","colour_pattern":"horizontal","shape":"pillar"},"light":{"character":"VQ+LFl","colour":"white","group":"6","period":"10"},"topmark":{"colour":"black","shape":"2 cones down"}},"osm_tags":{"seamark:buoy_cardinal:category":"south","seamark:buoy_cardinal:colour":"yellow;black","seamark:buoy_cardinal:colour_pattern":"horizontal","seamark:buoy_cardinal:shape":"pillar","seamark:light:character":"VQ+LFl","seamark:light:colour":"white","seamark:light:group":"6","seamark:light:period":"10","seamark:topmark:colour":"black","seamark:topmark:shape":"2 cones down","seamark:type":"buoy_cardinal"}}},{"type":"Feature","geometry":{"type":"Point","coordinates":[47.9605283,29.4441618]},"properties":{"osm_id":2277981951,"osm_type":"node","seamark_type":"buoy_isolated_danger","display_class":"OTHER","min_zoom":12,"importance":1,"name":null,"ref":null,"common":{"type":"buoy_isolated_danger"},"children":{"buoy_isolated_danger":{"colour":"black;red;black","colour_pattern":"horizontal","shape":"pillar"},"light":{"character":"Fl","colour":"white","group":"2","period":"10"},"topmark":{"colour":"black","shape":"2 spheres"}},"osm_tags":{"seamark:buoy_isolated_danger:colour":"black;red;black","seamark:buoy_isolated_danger:colour_pattern":"horizontal","seamark:buoy_isolated_danger:shape":"pillar","seamark:light:character":"Fl","seamark:light:colour":"white","seamark:light:group":"2","seamark:light:period":"10","seamark:topmark:colour":"black","seamark:topmark:shape":"2 spheres","seamark:type":"buoy_isolated_danger"}}},{"type":"Feature","geometry":{"type":"Point","coordinates":[47.9369652,29.3530402]},"properties":{"osm_id":5212673840,"osm_type":"node","seamark_type":"mooring","display_class":"OTHER","min_zoom":12,"importance":1,"name":null,"ref":null,"common":{"type":"mooring"},"children":{"mooring":{"category":"dolphin"}},"osm_tags":{"seamark:mooring:category":"dolphin","seamark:type":"mooring"}}},{"type":"Feature","geometry":{"type":"Point","coordinates":[47.9367185,29.3536293]},"properties":{"osm_id":5212673841,"osm_type":"node","seamark_type":"mooring","display_class":"OTHER","min_zoom":12,"importance":1,"name":null,"ref":null,"common":{"type":"mooring"},"children":{"mooring":{"category":"dolphin"}},"osm_tags":{"seamark:mooring:category":"dolphin","seamark:type":"mooring"}}},{"type":"Feature","geometry":{"type":"Point","coordinates":[47.9335749,29.3559905]},"properties":{"osm_id":5212676670,"osm_type":"node","seamark_type":"mooring","display_class":"OTHER","min_zoom":12,"importance":1,"name":null,"ref":null,"common":{"type":"mooring"},"children":{"mooring":{"category":"dolphin"}},"osm_tags":{"seamark:mooring:category":"dolphin","seamark:type":"mooring"}}},{"type":"Feature","geometry":{"type":"Point","coordinates":[47.9331189,29.3554248]},"properties":{"osm_id":5212676671,"osm_type":"node","seamark_type":"mooring","display_class":"OTHER","min_zoom":12,"importance":1,"name":null,"ref":null,"common":{"type":"mooring"},"children":{"mooring":{"category":"dolphin"}},"osm_tags":{"seamark:mooring:category":"dolphin","seamark:type":"mooring"}}},{"type":"Feature","geometry":{"type":"Point","coordinates":[47.9326147,29.3551115]},"properties":{"osm_id":5212676672,"osm_type":"node","seamark_type":"mooring","display_class":"OTHER","min_zoom":12,"importance":1,"name":null,"ref":null,"common":{"type":"mooring"},"children":{"mooring":{"category":"dolphin"}},"osm_tags":{"seamark:mooring:category":"dolphin","seamark:type":"mooring"}}},{"type":"Feature","geometry":{"type":"Point","coordinates":[47.9317671,29.3550274]},"properties":{"osm_id":5212676673,"osm_type":"node","seamark_type":"mooring","display_class":"OTHER","min_zoom":12,"importance":1,"name":null,"ref":null,"common":{"type":"mooring"},"children":{"mooring":{"category":"dolphin"}},"osm_tags":{"seamark:mooring:category":"dolphin","seamark:type":"mooring"}}},{"type":"Feature","geometry":{"type":"Point","coordinates":[47.9313648,29.3543213]},"properties":{"osm_id":5212676674,"osm_type":"node","seamark_type":"mooring","display_class":"OTHER","min_zoom":12,"importance":1,"name":null,"ref":null,"common":{"type":"mooring"},"children":{"mooring":{"category":"dolphin"}},"osm_tags":{"seamark:mooring:category":"dolphin","seamark:type":"mooring"}}},{"type":"Feature","geometry":{"type":"Point","coordinates":[47.9308551,29.3540081]},"properties":{"osm_id":5212676675,"osm_type":"node","seamark_type":"mooring","display_class":"OTHER","min_zoom":12,"importance":1,"name":null,"ref":null,"common":{"type":"mooring"},"children":{"mooring":{"category":"dolphin"}},"osm_tags":{"seamark:mooring:category":"dolphin","seamark:type":"mooring"}}},{"type":"Feature","geometry":{"type":"Point","coordinates":[47.930088,29.3538631]},"properties":{"osm_id":5212676676,"osm_type":"node","seamark_type":"mooring","display_class":"OTHER","min_zoom":12,"importance":1,"name":null,"ref":null,"common":{"type":"mooring"},"children":{"mooring":{"category":"dolphin"}},"osm_tags":{"seamark:mooring:category":"dolphin","seamark:type":"mooring"}}},{"type":"Feature","geometry":{"type":"LineString","coordinates":[[47.924339,29.3649287],[47.9291263,29.3677692],[47.9421134,29.396298],[47.9520696,29.4066079],[47.9593135,29.4132689],[47.967966,29.4206378]]},"properties":{"osm_id":220018398,"osm_type":"way","seamark_type":"pipeline_submarine","display_class":"OTHER","min_zoom":12,"importance":1,"name":null,"ref":null,"common":{"type":"pipeline_submarine"},"children":{"pipeline_submarine":{"category":"supply","product":"oil"}},"osm_tags":{"man_made":"pipeline","seamark:pipeline_submarine:category":"supply","seamark:pipeline_submarine:product":"oil","seamark:type":"pipeline_submarine","source":"Aramco","submarine":"yes","substance":"oil"}}},{"type":"Feature","geometry":{"type":"LineString","coordinates":[[47.9836707,29.4140155],[47.9744397,29.406155],[47.9658271,29.3985531],[47.9609874,29.3936078],[47.953342,29.3796582],[47.9500188,29.3710972],[47.9477928,29.3641412],[47.9464062,29.3616148],[47.9450464,29.3585695]]},"properties":{"osm_id":220018492,"osm_type":"way","seamark_type":"pipeline_submarine","display_class":"OTHER","min_zoom":12,"importance":1,"name":null,"ref":null,"common":{"type":"pipeline_submarine"},"children":{"pipeline_submarine":{"category":"supply","product":"oil"}},"osm_tags":{"man_made":"pipeline","seamark:pipeline_submarine:category":"supply","seamark:pipeline_submarine:product":"oil","seamark:type":"pipeline_submarine","source":"Aramco","submarine":"yes","substance":"oil"}}},{"type":"Feature","geometry":{"type":"Polygon","coordinates":[[[47.9273039,29.3535779],[47.9287738,29.3544756],[47.9287416,29.3546814],[47.9285431,29.3548123],[47.9270947,29.3539146],[47.9270571,29.3537649],[47.9273039,29.3535779]]]},"properties":{"osm_id":538554569,"osm_type":"way","seamark_type":"floating_dock","display_class":"OTHER","min_zoom":12,"importance":1,"name":null,"ref":null,"common":{"type":"floating_dock"},"children":{},"osm_tags":{"seamark:type":"floating_dock","waterway":"dock"}}},{"type":"Feature","geometry":{"type":"Point","coordinates":[47.9354578,29.3527363]},"properties":{"osm_id":5212716206,"osm_type":"node","seamark_type":"berth","display_class":"OTHER","min_zoom":12,"importance":1,"name":"1","ref":null,"common":{"name":"1","type":"berth"},"children":{},"osm_tags":{"seamark:name":"1","seamark:type":"berth"}}},{"type":"Feature","geometry":{"type":"Point","coordinates":[47.9224223,29.3467979]},"properties":{"osm_id":5212716257,"osm_type":"node","seamark_type":"berth","display_class":"OTHER","min_zoom":12,"importance":1,"name":"10","ref":null,"common":{"name":"10","type":"berth"},"children":{},"osm_tags":{"seamark:name":"10","seamark:type":"berth"}}},{"type":"Feature","geometry":{"type":"Point","coordinates":[47.9216874,29.3478313]},"properties":{"osm_id":5212716256,"osm_type":"node","seamark_type":"berth","display_class":"OTHER","min_zoom":12,"importance":1,"name":"11","ref":null,"common":{"name":"11","type":"berth"},"children":{},"osm_tags":{"seamark:name":"11","seamark:type":"berth"}}},{"type":"Feature","geometry":{"type":"Point","coordinates":[47.9212314,29.3488039]},"properties":{"osm_id":5212716255,"osm_type":"node","seamark_type":"berth","display_class":"OTHER","min_zoom":12,"importance":1,"name":"12","ref":null,"common":{"name":"12","type":"berth"},"children":{},"osm_tags":{"seamark:name":"12","seamark:type":"berth"}}},{"type":"Feature","geometry":{"type":"Point","coordinates":[47.9193109,29.3490892]},"properties":{"osm_id":5212716254,"osm_type":"node","seamark_type":"berth","display_class":"OTHER","min_zoom":12,"importance":1,"name":"13","ref":null,"common":{"name":"13","type":"berth"},"children":{},"osm_tags":{"seamark:name":"13","seamark:type":"berth"}}},{"type":"Feature","geometry":{"type":"Point","coordinates":[47.9194504,29.3503703]},"properties":{"osm_id":5212716253,"osm_type":"node","seamark_type":"berth","display_class":"OTHER","min_zoom":12,"importance":1,"name":"14","ref":null,"common":{"name":"14","type":"berth"},"children":{},"osm_tags":{"seamark:name":"14","seamark:type":"berth"}}},{"type":"Feature","geometry":{"type":"Point","coordinates":[47.919547,29.3509127]},"properties":{"osm_id":5212716252,"osm_type":"node","seamark_type":"berth","display_class":"OTHER","min_zoom":12,"importance":1,"name":"15","ref":null,"common":{"name":"15","type":"berth"},"children":{},"osm_tags":{"seamark:name":"15","seamark:type":"berth"}}},{"type":"Feature","geometry":{"type":"Point","coordinates":[47.9182112,29.3518806]},"properties":{"osm_id":5212716251,"osm_type":"node","seamark_type":"berth","display_class":"OTHER","min_zoom":12,"importance":1,"name":"16","ref":null,"common":{"name":"16","type":"berth"},"children":{},"osm_tags":{"seamark:name":"16","seamark:type":"berth"}}},{"type":"Feature","geometry":{"type":"Point","coordinates":[47.9218429,29.3538631]},"properties":{"osm_id":5212716250,"osm_type":"node","seamark_type":"berth","display_class":"OTHER","min_zoom":12,"importance":1,"name":"17","ref":null,"common":{"name":"17","type":"berth"},"children":{},"osm_tags":{"seamark:name":"17","seamark:type":"berth"}}},{"type":"Feature","geometry":{"type":"Point","coordinates":[47.9222828,29.3540548]},"properties":{"osm_id":5212677741,"osm_type":"node","seamark_type":"berth","display_class":"OTHER","min_zoom":12,"importance":1,"name":"18","ref":null,"common":{"name":"18","type":"berth"},"children":{},"osm_tags":{"seamark:name":"18","seamark:type":"berth"}}},{"type":"Feature","geometry":{"type":"Point","coordinates":[47.9232994,29.3543926]},"properties":{"osm_id":5212677740,"osm_type":"node","seamark_type":"berth","display_class":"OTHER","min_zoom":12,"importance":1,"name":"19","ref":null,"common":{"name":"19","type":"berth"},"children":{},"osm_tags":{"seamark:name":"19","seamark:type":"berth"}}},{"type":"Feature","geometry":{"type":"Point","coordinates":[47.9338914,29.3517497]},"properties":{"osm_id":5212716205,"osm_type":"node","seamark_type":"berth","display_class":"OTHER","min_zoom":12,"importance":1,"name":"2","ref":null,"common":{"name":"2","type":"berth"},"children":{},"osm_tags":{"seamark:name":"2","seamark:type":"berth"}}},{"type":"Feature","geometry":{"type":"Point","coordinates":[47.9240853,29.3548216]},"properties":{"osm_id":5212677739,"osm_type":"node","seamark_type":"berth","display_class":"OTHER","min_zoom":12,"importance":1,"name":"20","ref":null,"common":{"name":"20","type":"berth"},"children":{},"osm_tags":{"seamark:name":"20","seamark:type":"berth"}}},{"type":"Feature","geometry":{"type":"Point","coordinates":[47.9250455,29.3552799]},"properties":{"osm_id":5212677738,"osm_type":"node","seamark_type":"berth","display_class":"OTHER","min_zoom":12,"importance":1,"name":"21","ref":null,"common":{"name":"21","type":"berth"},"children":{},"osm_tags":{"seamark:name":"21","seamark:type":"berth"}}},{"type":"Feature","geometry":{"type":"Point","coordinates":[47.9323518,29.3508005]},"properties":{"osm_id":5212716264,"osm_type":"node","seamark_type":"berth","display_class":"OTHER","min_zoom":12,"importance":1,"name":"3","ref":null,"common":{"name":"3","type":"berth"},"children":{},"osm_tags":{"seamark:name":"3","seamark:type":"berth"}}},{"type":"Feature","geometry":{"type":"Point","coordinates":[47.9308551,29.3498326]},"properties":{"osm_id":5212716263,"osm_type":"node","seamark_type":"berth","display_class":"OTHER","min_zoom":12,"importance":1,"name":"4","ref":null,"common":{"name":"4","type":"berth"},"children":{},"osm_tags":{"seamark:name":"4","seamark:type":"berth"}}},{"type":"Feature","geometry":{"type":"Point","coordinates":[47.9294175,29.3490143]},"properties":{"osm_id":5212716262,"osm_type":"node","seamark_type":"berth","display_class":"OTHER","min_zoom":12,"importance":1,"name":"5","ref":null,"common":{"name":"5","type":"berth"},"children":{},"osm_tags":{"seamark:name":"5","seamark:type":"berth"}}},{"type":"Feature","geometry":{"type":"Point","coordinates":[47.9272664,29.3479062]},"properties":{"osm_id":5212716261,"osm_type":"node","seamark_type":"berth","display_class":"OTHER","min_zoom":12,"importance":1,"name":"6","ref":null,"common":{"name":"6","type":"berth"},"children":{},"osm_tags":{"seamark:name":"6","seamark:type":"berth"}}},{"type":"Feature","geometry":{"type":"Point","coordinates":[47.9256946,29.3469382]},"properties":{"osm_id":5212716260,"osm_type":"node","seamark_type":"berth","display_class":"OTHER","min_zoom":12,"importance":1,"name":"7","ref":null,"common":{"name":"7","type":"berth"},"children":{},"osm_tags":{"seamark:name":"7","seamark:type":"berth"}}},{"type":"Feature","geometry":{"type":"Point","coordinates":[47.9234791,29.3455775]},"properties":{"osm_id":5212716259,"osm_type":"node","seamark_type":"berth","display_class":"OTHER","min_zoom":12,"importance":1,"name":"8","ref":null,"common":{"name":"8","type":"berth"},"children":{},"osm_tags":{"seamark:name":"8","seamark:type":"berth"}}},{"type":"Feature","geometry":{"type":"Point","coordinates":[47.9226959,29.3464613]},"properties":{"osm_id":5212716258,"osm_type":"node","seamark_type":"berth","display_class":"OTHER","min_zoom":12,"importance":1,"name":"9","ref":null,"common":{"name":"9","type":"berth"},"children":{},"osm_tags":{"seamark:name":"9","seamark:type":"berth"}}},{"type":"Feature","geometry":{"type":"Point","coordinates":[47.9265207,29.3551396]},"properties":{"osm_id":5212677737,"osm_type":"node","seamark_type":"berth","display_class":"OTHER","min_zoom":12,"importance":1,"name":"A+B","ref":null,"common":{"name":"A+B","type":"berth"},"children":{},"osm_tags":{"seamark:name":"A+B","seamark:type":"berth"}}},{"type":"Feature","geometry":{"type":"Point","coordinates":[47.9327337,29.3574337]},"properties":{"osm_id":1293792762,"osm_type":"node","seamark_type":"light_minor","display_class":"OTHER","min_zoom":12,"importance":1,"name":"Ash Shuwaykh","ref":null,"common":{"information":"Berths marked by Q.G. and Q.R. lights.","name":"Ash Shuwaykh","type":"light_minor"},"children":{"light":{"character":"Fl","colour":"yellow","height":"4","period":"3","range":"3","reference":"D 7599"}},"osm_tags":{"seamark:information":"Berths marked by Q.G. and Q.R. lights.","seamark:light:character":"Fl","seamark:light:colour":"yellow","seamark:light:height":"4","seamark:light:period":"3","seamark:light:range":"3","seamark:light:reference":"D 7599","seamark:name":"Ash Shuwaykh","seamark:type":"light_minor","source":"US NGA Pub. 112. 2009-11-12."}}},{"type":"Feature","geometry":{"type":"Point","coordinates":[47.9950145,29.4136558]},"properties":{"osm_id":1293792727,"osm_type":"node","seamark_type":"light_minor","display_class":"OTHER","min_zoom":12,"importance":1,"name":"Beacon.","ref":null,"common":{"information":"W. 180°-290°, R. elsewhere.","name":"Beacon.","type":"light_minor"},"children":{"light":{"1:character":"Q","1:colour":"white","1:height":"6","1:range":"7","1:sector_end":"290","1:sector_start":"180","2:character":"Q","2:colour":"red","2:height":"6","2:range":"7","2:sector_end":"180","2:sector_start":"290","reference":"D 7595"}},"osm_tags":{"seamark:information":"W. 180°-290°, R. elsewhere.","seamark:light:1:character":"Q","seamark:light:1:colour":"white","seamark:light:1:height":"6","seamark:light:1:range":"7","seamark:light:1:sector_end":"290","seamark:light:1:sector_start":"180","seamark:light:2:character":"Q","seamark:light:2:colour":"red","seamark:light:2:height":"6","seamark:light:2:range":"7","seamark:light:2:sector_end":"180","seamark:light:2:sector_start":"290","seamark:light:reference":"D 7595","seamark:name":"Beacon.","seamark:type":"light_minor","source":"US NGA Pub. 112. 2009-11-12."}}},{"type":"Feature","geometry":{"type":"Point","coordinates":[47.9280603,29.3554529]},"properties":{"osm_id":5212677736,"osm_type":"node","seamark_type":"berth","display_class":"OTHER","min_zoom":12,"importance":1,"name":"C","ref":null,"common":{"name":"C","type":"berth"},"children":{},"osm_tags":{"seamark:name":"C","seamark:type":"berth"}}},{"type":"Feature","geometry":{"type":"Point","coordinates":[47.9284733,29.355724]},"properties":{"osm_id":5212677735,"osm_type":"node","seamark_type":"berth","display_class":"OTHER","min_zoom":12,"importance":1,"name":"D","ref":null,"common":{"name":"D","type":"berth"},"children":{},"osm_tags":{"seamark:name":"D","seamark:type":"berth"}}},{"type":"Feature","geometry":{"type":"Point","coordinates":[47.9287577,29.3572389]},"properties":{"osm_id":5212677734,"osm_type":"node","seamark_type":"berth","display_class":"OTHER","min_zoom":12,"importance":1,"name":"E","ref":null,"common":{"name":"E","type":"berth"},"children":{},"osm_tags":{"seamark:name":"E","seamark:type":"berth"}}},{"type":"Feature","geometry":{"type":"Polygon","coordinates":[[[47.9362035,29.3526708],[47.9361324,29.3528293],[47.934876,29.3521037],[47.9351153,29.3516987],[47.936097,29.352315],[47.9359674,29.3525352],[47.9362035,29.3526708]]]},"properties":{"osm_id":538554567,"osm_type":"way","seamark_type":"harbour_basin","display_class":"OTHER","min_zoom":12,"importance":1,"name":"Eastern Basin","ref":null,"common":{"type":"harbour_basin"},"children":{},"osm_tags":{"landuse":"basin","name":"Eastern Basin","name:en":"Eastern Basin","seamark:type":"harbour_basin"}}},{"type":"Feature","geometry":{"type":"Point","coordinates":[47.9769589,29.4146116]},"properties":{"osm_id":1293792735,"osm_type":"node","seamark_type":"light_minor","display_class":"OTHER","min_zoom":12,"importance":1,"name":"Fasht al Hadiba.","ref":null,"common":{"name":"Fasht al Hadiba.","type":"light_minor"},"children":{"light":{"character":"Fl","colour":"white","group":"3","height":"6","period":"10","range":"8","reference":"D 7595.5"}},"osm_tags":{"seamark:light:character":"Fl","seamark:light:colour":"white","seamark:light:group":"3","seamark:light:height":"6","seamark:light:period":"10","seamark:light:range":"8","seamark:light:reference":"D 7595.5","seamark:name":"Fasht al Hadiba.","seamark:type":"light_minor","source":"US NGA Pub. 112. 2009-11-12."}}},{"type":"Feature","geometry":{"type":"Polygon","coordinates":[[[47.9245163,29.3460736],[47.9246914,29.3458394],[47.9251045,29.3452876],[47.9244905,29.3448915],[47.9238554,29.3456247],[47.9245163,29.3460736]]]},"properties":{"osm_id":538554566,"osm_type":"way","seamark_type":"harbour_basin","display_class":"OTHER","min_zoom":12,"importance":1,"name":"Fire Brigade Basin","ref":null,"common":{"type":"harbour_basin"},"children":{},"osm_tags":{"landuse":"basin","name":"Fire Brigade Basin","name:en":"Fire Brigade Basin","seamark:type":"harbour_basin"}}},{"type":"Feature","geometry":{"type":"Point","coordinates":[47.9908333,29.398]},"properties":{"osm_id":1293792780,"osm_type":"node","seamark_type":"light_minor","display_class":"OTHER","min_zoom":12,"importance":1,"name":"Medina","ref":null,"common":{"name":"Medina","type":"light_minor"},"children":{"light":{"character":"Fl","colour":"white","height":"5","period":"5","range":"8","reference":"D 7594.4"}},"osm_tags":{"seamark:light:character":"Fl","seamark:light:colour":"white","seamark:light:height":"5","seamark:light:period":"5","seamark:light:range":"8","seamark:light:reference":"D 7594.4","seamark:name":"Medina","seamark:type":"light_minor","source":"US NGA Pub. 112. 2009-11-12."}}},{"type":"Feature","geometry":{"type":"Point","coordinates":[47.7855667,29.3650667]},"properties":{"osm_id":1293792772,"osm_type":"node","seamark_type":"light_minor","display_class":"OTHER","min_zoom":12,"importance":1,"name":"Mina ad Dawhah","ref":null,"common":{"name":"Mina ad Dawhah","type":"light_minor"},"children":{"light":{"character":"Fl","colour":"white","group":"3","period":"20","range":"15","reference":"D 7602.9"}},"osm_tags":{"seamark:light:character":"Fl","seamark:light:colour":"white","seamark:light:group":"3","seamark:light:period":"20","seamark:light:range":"15","seamark:light:reference":"D 7602.9","seamark:name":"Mina ad Dawhah","seamark:type":"light_minor","source":"US NGA Pub. 112. 2009-11-12."}}},{"type":"Feature","geometry":{"type":"Polygon","coordinates":[[[47.9207826,29.350787],[47.9226108,29.3528443],[47.9214092,29.3542433],[47.9209972,29.3540188],[47.9216152,29.3532558],[47.9214084,29.3531431],[47.9208084,29.3538916],[47.9189802,29.352747],[47.9195552,29.3520214],[47.9194093,29.3518942],[47.9187484,29.3526722],[47.918036,29.3522084],[47.9188943,29.3510712],[47.9207826,29.350787]]]},"properties":{"osm_id":538554561,"osm_type":"way","seamark_type":"harbour_basin","display_class":"OTHER","min_zoom":12,"importance":1,"name":"North Basin","ref":null,"common":{"type":"harbour_basin"},"children":{},"osm_tags":{"landuse":"basin","name":"North Basin","name:en":"North Basin","seamark:type":"harbour_basin"}}},{"type":"Feature","geometry":{"type":"Point","coordinates":[47.9967,29.3923837]},"properties":{"osm_id":1293792789,"osm_type":"node","seamark_type":"light_minor","display_class":"OTHER","min_zoom":12,"importance":1,"name":"Ras Ajuza","ref":null,"common":{"name":"Ras Ajuza","type":"light_minor"},"children":{"light":{"1:character":"Mo","1:colour":"green","1:group":"KHC","1:height":"30","1:period":"30","1:range":"10","1:sector_end":"340","1:sector_start":"20","reference":"D 7594"}},"osm_tags":{"seamark:light:1:character":"Mo","seamark:light:1:colour":"green","seamark:light:1:group":"KHC","seamark:light:1:height":"30","seamark:light:1:period":"30","seamark:light:1:range":"10","seamark:light:1:sector_end":"340","seamark:light:1:sector_start":"20","seamark:light:reference":"D 7594","seamark:name":"Ras Ajuza","seamark:type":"light_minor","source":"US NGA Pub. 112. 2009-11-12."}}},{"type":"Feature","geometry":{"type":"Polygon","coordinates":[[[47.9244047,29.3462233],[47.9245163,29.3460736],[47.9246914,29.3458394],[47.9248041,29.3459142],[47.9252332,29.3453764],[47.929212,29.3477026],[47.9283786,29.3482433],[47.9252887,29.346313],[47.9250055,29.3466123],[47.9244047,29.3462233]]]},"properties":{"osm_id":538554564,"osm_type":"way","seamark_type":"harbour_basin","display_class":"OTHER","min_zoom":12,"importance":1,"name":"Western Basin (Coast Guard)","ref":null,"common":{"type":"harbour_basin"},"children":{},"osm_tags":{"landuse":"basin","name":"Western Basin (Coast Guard)","name:en":"Western Basin (Coast Guard)","seamark:type":"harbour_basin"}}}],"type":"FeatureCollection"}