{"type":"FeatureCollection","features":[{"type":"Feature","geometry":{"type":"Point","coordinates":[-81.4259739,30.3935709]},"properties":{"osm_id":9828352721,"osm_type":"node","seamark_type":"landmark","display_class":"LIGHTHOUSE","min_zoom":7,"importance":5,"name":"St. John's River Lighthouse","ref":null,"common":{"type":"landmark"},"children":{"landmark":{"category":"tower","conspicuity":"conspicuous","function":"tower"}},"osm_tags":{"disused":"yes","height":"24.7","heritage":"2","heritage:operator":"nrhp","heritage:website":"https://www.nps.gov/subjects/nationalregister/index.htm","historic":"maritime","man_made":"lighthouse","name":"St. John's River Lighthouse","nrhp:criteria":"(A), (C)","nrhp:inscription_date":"2018-03-20","protection_title":"U.S. Navy","ref:nrhp":"100002224","seamark:landmark:category":"tower","seamark:landmark:conspicuity":"conspicuous","seamark:landmark:function":"tower","seamark:type":"landmark","source_ref":"https://www.us-lighthouses.com/st-johns-river-lighthouse","start_date":"1859"}}},{"type":"Feature","geometry":{"type":"Point","coordinates":[-81.4551111,30.3779444]},"properties":{"osm_id":9510767577,"osm_type":"node","seamark_type":"beacon_lateral","display_class":"BEACON","min_zoom":9,"importance":4,"name":null,"ref":null,"common":{"type":"beacon_lateral"},"children":{"beacon_lateral":{"category":"starboard","system":"iala-b"},"light":{"character":"Fl","colour":"red","period":"4","range":"3"}},"osm_tags":{"seamark:beacon_lateral:category":"starboard","seamark:beacon_lateral:system":"iala-b","seamark:light:character":"Fl","seamark:light:colour":"red","seamark:light:period":"4","seamark:light:range":"3","seamark:type":"beacon_lateral"}}},{"type":"Feature","geometry":{"type":"Point","coordinates":[-81.4649557,30.7142495]},"properties":{"osm_id":3052470682,"osm_type":"node","seamark_type":"buoy_lateral","display_class":"OTHER","min_zoom":12,"importance":1,"name":null,"ref":null,"common":{"type":"buoy_lateral"},"children":{"buoy_lateral":{"category":"starboard","colour":"red","system":"iala-b"}},"osm_tags":{"man_made":"buoy","seamark:buoy_lateral:category":"starboard","seamark:buoy_lateral:colour":"red","seamark:buoy_lateral:system":"iala-b","seamark:type":"buoy_lateral"}}},{"type":"Feature","geometry":{"type":"Point","coordinates":[-81.4002579,30.3970069]},"properties":{"osm_id":9315031740,"osm_type":"node","seamark_type":"wreck","display_class":"OTHER","min_zoom":12,"importance":1,"name":null,"ref":null,"common":{"type":"wreck"},"children":{"wreck":{"category":"dangerous"}},"osm_tags":{"seamark:type":"wreck","seamark:wreck:category":"dangerous"}}},{"type":"Feature","geometry":{"type":"Point","coordinates":[-81.3945079,30.3989098]},"properties":{"osm_id":9503268594,"osm_type":"node","seamark_type":"buoy_lateral","display_class":"OTHER","min_zoom":12,"importance":1,"name":null,"ref":null,"common":{"type":"buoy_lateral"},"children":{"buoy_lateral":{"category":"preferred_channel_starboard","colour":"green;red","colour_pattern":"horizontal","system":"iala-b"},"light":{"character":"Fl","colour":"green","period":"6"}},"osm_tags":{"man_made":"buoy","seamark:buoy_lateral:category":"preferred_channel_starboard","seamark:buoy_lateral:colour":"green;red","seamark:buoy_lateral:colour_pattern":"horizontal","seamark:buoy_lateral:system":"iala-b","seamark:light:character":"Fl","seamark:light:colour":"green","seamark:light:period":"6","seamark:type":"buoy_lateral"}}},{"type":"Feature","geometry":{"type":"Polygon","coordinates":[[[-81.642209,30.3198531],[-81.6420985,30.319705],[-81.6418897,30.319636],[-81.641353,30.3194587],[-81.6409295,30.3193501],[-81.6405245,30.3192574],[-81.6403142,30.3199442],[-81.6405081,30.3199908],[-81.6408763,30.3200777],[-81.6414948,30.320226],[-81.6419145,30.3203256],[-81.6419857,30.3203404],[-81.642106,30.3199124],[-81.6421467,30.3198889],[-81.642209,30.3198531]]]},"properties":{"osm_id":326817910,"osm_type":"way","seamark_type":"harbour","display_class":"OTHER","min_zoom":12,"importance":1,"name":null,"ref":null,"common":{"type":"harbour"},"children":{"harbour":{"category":"marina"}},"osm_tags":{"leisure":"marina","old_name":"Metropolitan Park Marina","seamark:harbour:category":"marina","seamark:type":"harbour"}}},{"type":"Feature","geometry":{"type":"Polygon","coordinates":[[[-81.4330932,30.3910536],[-81.4331233,30.3910017],[-81.4332166,30.3907454],[-81.4332697,30.3905386],[-81.4333588,30.390167],[-81.4330803,30.3900313],[-81.4327579,30.3905242],[-81.4329055,30.3905926],[-81.4327788,30.3907903],[-81.4327464,30.3907762],[-81.4326886,30.390859],[-81.4326781,30.3908726],[-81.4330932,30.3910536]]]},"properties":{"osm_id":351672679,"osm_type":"way","seamark_type":"harbour","display_class":"OTHER","min_zoom":12,"importance":1,"name":null,"ref":null,"common":{"type":"harbour"},"children":{"harbour":{"category":"marina"}},"osm_tags":{"leisure":"marina","seamark:harbour:category":"marina","seamark:type":"harbour"}}},{"type":"Feature","geometry":{"type":"Polygon","coordinates":[[[-81.4298394,30.2563101],[-81.4297897,30.2566378],[-81.4299284,30.2566381],[-81.4299313,30.2568176],[-81.4308432,30.2568094],[-81.4308339,30.2566986],[-81.431579,30.256696],[-81.431581,30.256327],[-81.4324486,30.256115],[-81.4324612,30.2561432],[-81.4326645,30.2560981],[-81.4327411,30.2563254],[-81.4327584,30.2563212],[-81.433293,30.2561903],[-81.4333299,30.2562631],[-81.4339514,30.2561175],[-81.4339194,30.2560245],[-81.4339893,30.2559682],[-81.434084,30.2559664],[-81.4340797,30.2557496],[-81.4319738,30.2557752],[-81.4317051,30.2558302],[-81.431696,30.2559142],[-81.4314659,30.2559738],[-81.4309229,30.2559826],[-81.4307904,30.2559476],[-81.4306431,30.2559731],[-81.4305471,30.2560423],[-81.4304908,30.25616],[-81.4304703,30.2561649],[-81.43047,30.2563166],[-81.4303899,30.2563864],[-81.4300004,30.2563941],[-81.4298394,30.2563101]]]},"properties":{"osm_id":432173711,"osm_type":"way","seamark_type":"harbour","display_class":"OTHER","min_zoom":12,"importance":1,"name":null,"ref":null,"common":{"type":"harbour"},"children":{"harbour":{"category":"marina"}},"osm_tags":{"leisure":"marina","seamark:harbour:category":"marina","seamark:type":"harbour"}}},{"type":"Feature","geometry":{"type":"Polygon","coordinates":[[[-81.4341909,30.3884836],[-81.4341655,30.3885056],[-81.4341348,30.3885345],[-81.4339889,30.38846],[-81.4338254,30.3883653],[-81.433697,30.3882676],[-81.4336094,30.3882213],[-81.4335884,30.388188],[-81.4335592,30.3881608],[-81.4332872,30.3882072],[-81.433258,30.3881961],[-81.4332543,30.3881718],[-81.4332814,30.3881889],[-81.4335211,30.3881371],[-81.4335645,30.3881184],[-81.4339443,30.3883554],[-81.4339648,30.3883391],[-81.4341909,30.3884836]]]},"properties":{"osm_id":1071258008,"osm_type":"way","seamark_type":"obstruction","display_class":"OTHER","min_zoom":12,"importance":1,"name":null,"ref":null,"common":{"type":"obstruction"},"children":{"obstruction":{"category":"foul_area","water_level":"submerged"}},"osm_tags":{"area":"yes","natural":"reef","reef":"pilings","seamark:obstruction:category":"foul_area","seamark:obstruction:water_level":"submerged","seamark:type":"obstruction"}}},{"type":"Feature","geometry":{"type":"Polygon","coordinates":[[[-81.4335742,30.3893449],[-81.4335548,30.3892945],[-81.4336229,30.3892472],[-81.4337087,30.3891472],[-81.4337521,30.3891106],[-81.433792,30.3890741],[-81.4338348,30.3890901],[-81.4338685,30.3890405],[-81.4338835,30.388981],[-81.4339216,30.3889207],[-81.4339569,30.3888573],[-81.4339557,30.3889131],[-81.4339547,30.3889595],[-81.4339326,30.3890259],[-81.4339175,30.3890793],[-81.4338768,30.3891205],[-81.4337813,30.3891861],[-81.4335742,30.3893449]]]},"properties":{"osm_id":1071258010,"osm_type":"way","seamark_type":"obstruction","display_class":"OTHER","min_zoom":12,"importance":1,"name":null,"ref":null,"common":{"type":"obstruction"},"children":{"obstruction":{"category":"foul_area","water_level":"submerged"}},"osm_tags":{"area":"yes","natural":"reef","reef":"debris","seamark:obstruction:category":"foul_area","seamark:obstruction:water_level":"submerged","seamark:type":"obstruction"}}},{"type":"Feature","geometry":{"type":"Polygon","coordinates":[[[-81.4351501,30.3870497],[-81.4351532,30.3870944],[-81.4351784,30.3871106],[-81.4353198,30.3871379],[-81.4355076,30.3870555],[-81.4362087,30.3862738],[-81.4359657,30.3861406],[-81.435519,30.3859997],[-81.4352756,30.3863532],[-81.4351964,30.3867234],[-81.4352118,30.3867379],[-81.4352474,30.386787],[-81.4352621,30.3868489],[-81.435244,30.3869178],[-81.4351951,30.3870132],[-81.4351743,30.3870537],[-81.4351501,30.3870497]]]},"properties":{"osm_id":1071258014,"osm_type":"way","seamark_type":"obstruction","display_class":"OTHER","min_zoom":12,"importance":1,"name":null,"ref":null,"common":{"type":"obstruction"},"children":{"obstruction":{"category":"foul_area","water_level":"submerged"}},"osm_tags":{"area":"yes","natural":"reef","reef":"pilings","seamark:obstruction:category":"foul_area","seamark:obstruction:water_level":"submerged","seamark:type":"obstruction"}}},{"type":"Feature","geometry":{"type":"Polygon","coordinates":[[[-81.4395971,30.3819464],[-81.4396074,30.3819102],[-81.4388676,30.3817538],[-81.4388572,30.3817901],[-81.4395971,30.3819464]]]},"properties":{"osm_id":1071258016,"osm_type":"way","seamark_type":"obstruction","display_class":"OTHER","min_zoom":12,"importance":1,"name":null,"ref":null,"common":{"type":"obstruction"},"children":{"obstruction":{"category":"foul_area","water_level":"dry"}},"osm_tags":{"area":"yes","natural":"reef","reef":"pilings","seamark:obstruction:category":"foul_area","seamark:obstruction:water_level":"dry","seamark:type":"obstruction"}}},{"type":"Feature","geometry":{"type":"Polygon","coordinates":[[[-81.4376695,30.3838951],[-81.4374113,30.3837215],[-81.4375526,30.3835886],[-81.4377264,30.3834462],[-81.4377772,30.3834426],[-81.437948,30.3835093],[-81.4379012,30.383604],[-81.4376695,30.3838951]]]},"properties":{"osm_id":1071258018,"osm_type":"way","seamark_type":"obstruction","display_class":"OTHER","min_zoom":12,"importance":1,"name":null,"ref":null,"common":{"type":"obstruction"},"children":{"obstruction":{"category":"foul_area","water_level":"submerged"}},"osm_tags":{"area":"yes","natural":"reef","reef":"pilings","seamark:obstruction:category":"foul_area","seamark:obstruction:water_level":"submerged","seamark:type":"obstruction"}}},{"type":"Feature","geometry":{"type":"Polygon","coordinates":[[[-81.4378781,30.3835226],[-81.4378865,30.3834952],[-81.4378323,30.3834726],[-81.4378166,30.3835011],[-81.4378781,30.3835226]]]},"properties":{"osm_id":1071258019,"osm_type":"way","seamark_type":"wreck","display_class":"OTHER","min_zoom":12,"importance":1,"name":null,"ref":null,"common":{"type":"wreck"},"children":{"wreck":{"category":"hull_visible","water_level":"covers"}},"osm_tags":{"area":"yes","natural":"reef","reef":"pilings","seamark:type":"wreck","seamark:wreck:category":"hull_visible","seamark:wreck:water_level":"covers"}}},{"type":"Feature","geometry":{"type":"Polygon","coordinates":[[[-81.4783176,30.631793],[-81.478672,30.631678],[-81.4791068,30.6314222],[-81.4793185,30.6312977],[-81.4791343,30.6306785],[-81.4786581,30.6307852],[-81.4781065,30.6309103],[-81.4776244,30.6310196],[-81.4766309,30.6312449],[-81.4766422,30.6315785],[-81.4766545,30.6319385],[-81.4766658,30.6322715],[-81.476679,30.632661],[-81.4766847,30.6328279],[-81.4776678,30.6327991],[-81.477635,30.6318146],[-81.4783176,30.631793]]]},"properties":{"osm_id":1092932351,"osm_type":"way","seamark_type":"harbour","display_class":"OTHER","min_zoom":12,"importance":1,"name":null,"ref":null,"common":{"type":"harbour"},"children":{"harbour":{"category":"marina"}},"osm_tags":{"leisure":"marina","seamark:harbour:category":"marina","seamark:type":"harbour"}}},{"type":"Feature","geometry":{"type":"Polygon","coordinates":[[[-81.5059309,30.666287],[-81.5058955,30.666097],[-81.5059006,30.6658809],[-81.5059174,30.6658084],[-81.5058719,30.6656402],[-81.5057337,30.6653821],[-81.5056005,30.6651994],[-81.5053358,30.664818],[-81.5048992,30.6644149],[-81.5048621,30.664325],[-81.5048048,30.6642206],[-81.5047542,30.6641437],[-81.5038758,30.6647542],[-81.504843,30.6656241],[-81.5050433,30.6659912],[-81.5051696,30.6664793],[-81.5058435,30.6665545],[-81.5059272,30.666435],[-81.5059309,30.666287]]]},"properties":{"osm_id":1104537256,"osm_type":"way","seamark_type":"harbour","display_class":"OTHER","min_zoom":12,"importance":1,"name":null,"ref":null,"common":{"type":"harbour"},"children":{"harbour":{"category":"marina"}},"osm_tags":{"leisure":"marina","seamark:harbour:category":"marina","seamark:type":"harbour"}}},{"type":"Feature","geometry":{"type":"Polygon","coordinates":[[[-81.4598767,30.6959803],[-81.4599061,30.696102],[-81.4598986,30.6961752],[-81.4579589,30.6963945],[-81.4577548,30.6957847],[-81.4585106,30.6956751],[-81.4583351,30.6951525],[-81.4575961,30.6953108],[-81.4573873,30.694687],[-81.4584093,30.6944832],[-81.45874,30.6955739],[-81.4598074,30.6953476],[-81.4598075,30.6953798],[-81.4598079,30.6954689],[-81.4598087,30.6956343],[-81.4598092,30.6957234],[-81.4598207,30.6957912],[-81.4601845,30.6957584],[-81.4602252,30.6957547],[-81.4602472,30.6958754],[-81.4602264,30.6959495],[-81.4598767,30.6959803]]]},"properties":{"osm_id":1177150985,"osm_type":"way","seamark_type":"harbour","display_class":"OTHER","min_zoom":12,"importance":1,"name":null,"ref":null,"common":{"type":"harbour"},"children":{"harbour":{"category":"marina"}},"osm_tags":{"leisure":"marina","seamark:harbour:category":"marina","seamark:type":"harbour"}}},{"type":"Feature","geometry":{"type":"Polygon","coordinates":[[[-81.4527244,30.6916491],[-81.4527136,30.6916307],[-81.4526987,30.6915798],[-81.4526839,30.6915799],[-81.4526536,30.6915975],[-81.4525864,30.6915486],[-81.4519068,30.690883],[-81.4519588,30.6908378],[-81.451988,30.6907868],[-81.4519803,30.6907104],[-81.4519433,30.690666],[-81.4519355,30.6905833],[-81.4519498,30.6904942],[-81.4519792,30.6904686],[-81.4519936,30.6903985],[-81.4520593,30.6902838],[-81.4520739,30.6902583],[-81.4521104,30.6901881],[-81.4521175,30.6901308],[-81.4521246,30.6900799],[-81.4521389,30.6899844],[-81.4521387,30.6899271],[-81.4521382,30.6898253],[-81.4521377,30.6897234],[-81.452174,30.6896151],[-81.4521884,30.6895451],[-81.4522176,30.6894877],[-81.45207,30.6894118],[-81.452056,30.689318],[-81.4520958,30.6892485],[-81.4521338,30.6891486],[-81.4521279,30.6890583],[-81.4520308,30.6889028],[-81.4519125,30.6888014],[-81.4518238,30.6887253],[-81.4517353,30.6887002],[-81.4516173,30.6886751],[-81.451529,30.6886754],[-81.4514259,30.6886758],[-81.4513527,30.6887652],[-81.4512793,30.6888163],[-81.4512057,30.6888293],[-81.4511173,30.6888296],[-81.4510583,30.6888044],[-81.4509549,30.6887538],[-81.4508812,30.6887286],[-81.4507633,30.6887163],[-81.4506749,30.6887039],[-81.4505862,30.6886405],[-81.450527,30.6885644],[-81.4504818,30.6883609],[-81.4504074,30.6881957],[-81.4502743,30.6880816],[-81.4501415,30.6880184],[-81.4499938,30.6879298],[-81.4498757,30.6878666],[-81.4497428,30.6877907],[-81.4496983,30.6877144],[-81.449698,30.6876508],[-81.4496973,30.6875],[-81.4497188,30.6873834],[-81.4496817,30.6873199],[-81.4504191,30.6874319],[-81.4503973,30.6875747],[-81.4512604,30.6877468],[-81.4517395,30.6883596],[-81.4519699,30.68864],[-81.4519737,30.688665],[-81.4519886,30.6886628],[-81.4525196,30.6893117],[-81.4525199,30.6893344],[-81.4525376,30.6893342],[-81.4531007,30.6900517],[-81.4530998,30.6900737],[-81.4531147,30.6900744],[-81.4532363,30.6903043],[-81.4532929,30.6904957],[-81.4533122,30.6905925],[-81.4533217,30.6907378],[-81.4533226,30.69089],[-81.453309,30.6910226],[-81.4532766,30.6911591],[-81.453239,30.6912739],[-81.4531404,30.6914826],[-81.4529799,30.691706],[-81.4529116,30.6917855],[-81.4527244,30.6916491]]]},"properties":{"osm_id":1177150986,"osm_type":"way","seamark_type":"harbour","display_class":"OTHER","min_zoom":12,"importance":1,"name":null,"ref":null,"common":{"type":"harbour"},"children":{"harbour":{"category":"marina"}},"osm_tags":{"leisure":"marina","seamark:harbour:category":"marina","seamark:type":"harbour"}}},{"type":"Feature","geometry":{"type":"Polygon","coordinates":[[[-81.4558979,30.6908749],[-81.4557373,30.6908611],[-81.4555389,30.6908379],[-81.4554373,30.6908024],[-81.4553317,30.6908151],[-81.4553198,30.6908359],[-81.4552919,30.6908706],[-81.4552642,30.6909364],[-81.4552885,30.6909882],[-81.4554529,30.6910534],[-81.4555485,30.6910958],[-81.4555612,30.6911014],[-81.4556219,30.6912361],[-81.4556221,30.6912707],[-81.4556224,30.691277],[-81.4556264,30.6913434],[-81.4556226,30.6913849],[-81.4555747,30.6914197],[-81.4555627,30.6914232],[-81.4555027,30.6914337],[-81.4554707,30.6914373],[-81.4554108,30.6914687],[-81.4554271,30.6915274],[-81.4554396,30.6915476],[-81.455483,30.6916181],[-81.4554348,30.6916407],[-81.4554023,30.6915671],[-81.4551696,30.691042],[-81.4550882,30.6909832],[-81.4550204,30.6908194],[-81.455005,30.6907616],[-81.4549543,30.6907432],[-81.454533,30.6907086],[-81.45447,30.6907624],[-81.4544401,30.6908674],[-81.4544572,30.6909985],[-81.4544208,30.6910609],[-81.4544027,30.6910702],[-81.4543565,30.6910939],[-81.4542939,30.691234],[-81.454286,30.691433],[-81.4543001,30.691492],[-81.4543421,30.6915344],[-81.4544187,30.6915932],[-81.4544948,30.6916137],[-81.4547631,30.6916266],[-81.4547445,30.6919166],[-81.4547108,30.6919334],[-81.4546234,30.6919553],[-81.4545349,30.691994],[-81.4545237,30.6919989],[-81.4544115,30.6920532],[-81.4543581,30.6920643],[-81.4541745,30.6921268],[-81.4541745,30.6921359],[-81.4539971,30.6921341],[-81.4539995,30.6921087],[-81.4539099,30.6916663],[-81.4535845,30.6915379],[-81.4532946,30.6920643],[-81.45322,30.69201],[-81.4532244,30.6920034],[-81.453197,30.6919933],[-81.4529684,30.6918268],[-81.4530131,30.6917748],[-81.4530154,30.6917764],[-81.4530568,30.6917238],[-81.4530546,30.6917219],[-81.4531991,30.6915208],[-81.4533032,30.6913019],[-81.4533444,30.6911767],[-81.4533784,30.6910321],[-81.4533924,30.6908953],[-81.4533919,30.6907734],[-81.4543463,30.6908044],[-81.4543604,30.6908194],[-81.4543753,30.6908054],[-81.4543957,30.690806],[-81.4543964,30.6907855],[-81.4544557,30.6907297],[-81.4545253,30.6907063],[-81.4546865,30.6907088],[-81.4551471,30.6907519],[-81.4553741,30.6907695],[-81.4554862,30.6907859],[-81.4556901,30.6908228],[-81.4558513,30.690811],[-81.4558688,30.6908046],[-81.455973,30.6907307],[-81.4559947,30.6907329],[-81.4559967,30.6907139],[-81.4560123,30.6907028],[-81.4559997,30.690685],[-81.4560435,30.6902647],[-81.4567232,30.6903667],[-81.4566736,30.6906018],[-81.4565952,30.6906878],[-81.4565303,30.6906818],[-81.4564124,30.6906695],[-81.4563241,30.6906698],[-81.4561772,30.6907721],[-81.4561333,30.6908232],[-81.4560939,30.6909279],[-81.4562516,30.691258],[-81.4561459,30.6913075],[-81.4559872,30.6909532],[-81.4558979,30.6908749]]]},"properties":{"osm_id":1177150987,"osm_type":"way","seamark_type":"harbour","display_class":"OTHER","min_zoom":12,"importance":1,"name":null,"ref":null,"common":{"type":"harbour"},"children":{"harbour":{"category":"marina"}},"osm_tags":{"leisure":"marina","seamark:harbour:category":"marina","seamark:type":"harbour"}}},{"type":"Feature","geometry":{"type":"Polygon","coordinates":[[[-81.4657097,30.6680601],[-81.4654882,30.6683163],[-81.4654986,30.6683633],[-81.4661506,30.6686559],[-81.467455,30.6692267],[-81.4662473,30.6710558],[-81.4661366,30.6720706],[-81.4652973,30.6720074],[-81.4647967,30.6719637],[-81.4648959,30.671466],[-81.4650353,30.6706104],[-81.4651016,30.6702642],[-81.4651334,30.6700504],[-81.4652028,30.6694294],[-81.465287,30.6689467],[-81.4653416,30.6685301],[-81.4654636,30.6683184],[-81.4657321,30.6679593],[-81.4657564,30.667963],[-81.4657097,30.6680601]]]},"properties":{"osm_id":1177150988,"osm_type":"way","seamark_type":"harbour","display_class":"OTHER","min_zoom":12,"importance":1,"name":null,"ref":null,"common":{"type":"harbour"},"children":{"harbour":{"category":"marina"}},"osm_tags":{"leisure":"marina","seamark:harbour:category":"marina","seamark:type":"harbour"}}},{"type":"Feature","geometry":{"type":"Polygon","coordinates":[[[-81.7073058,30.0386212],[-81.7073112,30.0386199],[-81.7073863,30.0385735],[-81.7073981,30.0385614],[-81.7074713,30.038437],[-81.7075917,30.0383068],[-81.707749,30.0382505],[-81.7087533,30.0382933],[-81.7086868,30.0392785],[-81.7085714,30.0394449],[-81.7082528,30.0394005],[-81.7082568,30.039448],[-81.7082346,30.0394442],[-81.7081997,30.0394696],[-81.7081606,30.0397544],[-81.7080793,30.0407661],[-81.7077687,30.0407415],[-81.7079045,30.0396965],[-81.7079576,30.0395186],[-81.7079715,30.0393881],[-81.7079464,30.0393553],[-81.7077413,30.0393231],[-81.7073363,30.039228],[-81.7073058,30.0386212]]]},"properties":{"osm_id":1183317738,"osm_type":"way","seamark_type":"harbour","display_class":"OTHER","min_zoom":12,"importance":1,"name":null,"ref":null,"common":{"type":"harbour"},"children":{"harbour":{"category":"marina"}},"osm_tags":{"leisure":"marina","seamark:harbour:category":"marina","seamark:type":"harbour"}}},{"type":"Feature","geometry":{"type":"Point","coordinates":[-81.3931239,30.3976235]},"properties":{"osm_id":9503268596,"osm_type":"node","seamark_type":"buoy_lateral","display_class":"OTHER","min_zoom":12,"importance":1,"name":"1","ref":null,"common":{"name":"1","type":"buoy_lateral"},"children":{"buoy_lateral":{"category":"port","colour":"green","system":"iala-b"},"light":{"character":"Fl","colour":"green","period":"4"}},"osm_tags":{"man_made":"buoy","seamark:buoy_lateral:category":"port","seamark:buoy_lateral:colour":"green","seamark:buoy_lateral:system":"iala-b","seamark:light:character":"Fl","seamark:light:colour":"green","seamark:light:period":"4","seamark:name":"1","seamark:type":"buoy_lateral"}}},{"type":"Feature","geometry":{"type":"Polygon","coordinates":[[[-81.2874186,30.4431224],[-81.2871944,30.4431311],[-81.286971,30.4431494],[-81.286749,30.4431775],[-81.2865289,30.4432152],[-81.2863113,30.4432625],[-81.2860968,30.4433192],[-81.2858858,30.4433852],[-81.2856791,30.4434603],[-81.2854769,30.4435443],[-81.28528,30.443637],[-81.2850887,30.4437382],[-81.2849036,30.4438476],[-81.2847252,30.4439649],[-81.2845539,30.4440899],[-81.2843901,30.4442221],[-81.2842343,30.4443614],[-81.2840869,30.4445072],[-81.2839482,30.4446593],[-81.2838186,30.4448172],[-81.2836984,30.4449806],[-81.283588,30.445149],[-81.2834876,30.445322],[-81.2833974,30.4454991],[-81.2833178,30.44568],[-81.2832489,30.4458641],[-81.2831908,30.446051],[-81.2831438,30.4462401],[-81.283108,30.4464311],[-81.2830834,30.4466234],[-81.2830701,30.4468165],[-81.2830681,30.4470099],[-81.2830775,30.4472032],[-81.2830982,30.4473958],[-81.2831302,30.4475873],[-81.2831734,30.4477771],[-81.2832277,30.4479648],[-81.2832929,30.4481499],[-81.2833688,30.448332],[-81.2834554,30.4485104],[-81.2835523,30.4486849],[-81.2836593,30.448855],[-81.2837762,30.4490201],[-81.2839026,30.4491799],[-81.2840382,30.4493341],[-81.2841826,30.4494821],[-81.2843356,30.4496236],[-81.2844967,30.4497583],[-81.2846654,30.4498858],[-81.28484,30.4500048],[-81.2850212,30.4501161],[-81.2852086,30.4502194],[-81.2854019,30.4503145],[-81.2856004,30.4504011],[-81.2858037,30.4504791],[-81.2860113,30.4505481],[-81.2862227,30.4506081],[-81.2864372,30.4506589],[-81.2866545,30.4507003],[-81.2868739,30.4507323],[-81.2870949,30.4507548],[-81.2873169,30.4507677],[-81.2875393,30.450771],[-81.2877617,30.4507646],[-81.2879835,30.4507487],[-81.288204,30.4507232],[-81.2884228,30.4506882],[-81.2886392,30.4506438],[-81.2888528,30.45059],[-81.289063,30.4505272],[-81.2892693,30.4504553],[-81.2894712,30.4503746],[-81.2896681,30.4502852],[-81.2898595,30.4501875],[-81.2900451,30.4500816],[-81.2902242,30.4499678],[-81.2903965,30.4498464],[-81.2905615,30.4497178],[-81.2907216,30.4495796],[-81.2908734,30.4494345],[-81.2910163,30.449283],[-81.2911501,30.4491254],[-81.2912744,30.4489621],[-81.2913888,30.4487935],[-81.2914932,30.4486201],[-81.2915871,30.4484424],[-81.2916703,30.4482607],[-81.2917427,30.4480756],[-81.2918041,30.4478876],[-81.2918542,30.4476971],[-81.291893,30.4475047],[-81.2919203,30.4473108],[-81.2919361,30.447116],[-81.2919404,30.4469207],[-81.2919331,30.4467254],[-81.2919142,30.4465308],[-81.2918838,30.4463372],[-81.291842,30.4461453],[-81.2917889,30.4459554],[-81.2917247,30.4457681],[-81.2916494,30.4455839],[-81.2915633,30.4454032],[-81.2914666,30.4452265],[-81.2913596,30.4450544],[-81.2912425,30.4448872],[-81.2911157,30.4447253],[-81.2909794,30.4445692],[-81.2908341,30.4444194],[-81.2906801,30.4442761],[-81.2905179,30.4441398],[-81.2903477,30.4440108],[-81.2901702,30.4438895],[-81.2899857,30.4437761],[-81.2897947,30.443671],[-81.2895977,30.4435745],[-81.2893953,30.4434867],[-81.289188,30.443408],[-81.2889762,30.4433385],[-81.2887607,30.4432784],[-81.2885418,30.4432278],[-81.2883202,30.443187],[-81.2880966,30.443156],[-81.2878713,30.4431349],[-81.2876451,30.4431237],[-81.2874186,30.4431224]]]},"properties":{"osm_id":1032032672,"osm_type":"way","seamark_type":"anchorage","display_class":"OTHER","min_zoom":12,"importance":1,"name":"1","ref":null,"common":{"name":"1","type":"anchorage"},"children":{},"osm_tags":{"seamark:name":"1","seamark:type":"anchorage"}}},{"type":"Feature","geometry":{"type":"Point","coordinates":[-81.4021039,30.402417]},"properties":{"osm_id":9503268603,"osm_type":"node","seamark_type":"buoy_lateral","display_class":"OTHER","min_zoom":12,"importance":1,"name":"10","ref":null,"common":{"name":"10","type":"buoy_lateral"},"children":{"buoy_lateral":{"category":"starboard","colour":"red","system":"iala-b"},"light":{"character":"Fl","colour":"red","period":"4"}},"osm_tags":{"man_made":"buoy","seamark:buoy_lateral:category":"starboard","seamark:buoy_lateral:colour":"red","seamark:buoy_lateral:system":"iala-b","seamark:light:character":"Fl","seamark:light:colour":"red","seamark:light:period":"4","seamark:name":"10","seamark:type":"buoy_lateral"}}},{"type":"Feature","geometry":{"type":"Point","coordinates":[-81.4181703,30.4017785]},"properties":{"osm_id":9503268604,"osm_type":"node","seamark_type":"buoy_lateral","display_class":"OTHER","min_zoom":12,"importance":1,"name":"11","ref":null,"common":{"name":"11","type":"buoy_lateral"},"children":{"buoy_lateral":{"category":"port","colour":"green","system":"iala-b"},"light":{"character":"Fl","colour":"green","period":"4"}},"osm_tags":{"man_made":"buoy","seamark:buoy_lateral:category":"port","seamark:buoy_lateral:colour":"green","seamark:buoy_lateral:system":"iala-b","seamark:light:character":"Fl","seamark:light:colour":"green","seamark:light:period":"4","seamark:name":"11","seamark:type":"buoy_lateral"}}},{"type":"Feature","geometry":{"type":"Point","coordinates":[-81.3985902,30.3963279]},"properties":{"osm_id":9503268597,"osm_type":"node","seamark_type":"buoy_lateral","display_class":"OTHER","min_zoom":12,"importance":1,"name":"1A","ref":null,"common":{"name":"1A","type":"buoy_lateral"},"children":{"buoy_lateral":{"category":"port","colour":"green","system":"iala-b"}},"osm_tags":{"man_made":"buoy","seamark:buoy_lateral:category":"port","seamark:buoy_lateral:colour":"green","seamark:buoy_lateral:system":"iala-b","seamark:name":"1A","seamark:type":"buoy_lateral"}}},{"type":"Feature","geometry":{"type":"Point","coordinates":[-81.3987994,30.3978734]},"properties":{"osm_id":9503268595,"osm_type":"node","seamark_type":"buoy_lateral","display_class":"OTHER","min_zoom":12,"importance":1,"name":"2","ref":null,"common":{"name":"2","type":"buoy_lateral"},"children":{"buoy_lateral":{"category":"port","colour":"green","system":"iala-b"}},"osm_tags":{"man_made":"buoy","seamark:buoy_lateral:category":"port","seamark:buoy_lateral:colour":"green","seamark:buoy_lateral:system":"iala-b","seamark:name":"2","seamark:type":"buoy_lateral"}}},{"type":"Feature","geometry":{"type":"Polygon","coordinates":[[[-81.2900727,30.4357061],[-81.2898733,30.4357917],[-81.2896792,30.4358859],[-81.2894908,30.4359884],[-81.2893086,30.436099],[-81.289133,30.4362172],[-81.2889646,30.436343],[-81.2888038,30.4364759],[-81.2886509,30.4366155],[-81.2885063,30.4367617],[-81.2883704,30.4369139],[-81.2882436,30.4370718],[-81.2881261,30.437235],[-81.2880183,30.4374031],[-81.2879204,30.4375756],[-81.2878327,30.4377522],[-81.2877555,30.4379323],[-81.2876888,30.4381156],[-81.2876328,30.4383015],[-81.2875878,30.4384896],[-81.2875538,30.4386794],[-81.287531,30.4388705],[-81.2875192,30.4390623],[-81.2875187,30.4392544],[-81.2875294,30.4394462],[-81.2875512,30.4396374],[-81.2875842,30.4398273],[-81.2876282,30.4400156],[-81.2876831,30.4402017],[-81.2877488,30.4403853],[-81.2878251,30.4405657],[-81.2879118,30.4407426],[-81.2880088,30.4409156],[-81.2881156,30.4410841],[-81.2882322,30.4412477],[-81.2883582,30.4414061],[-81.2884932,30.4415589],[-81.288637,30.4417056],[-81.2887892,30.4418459],[-81.2889493,30.4419794],[-81.289117,30.4421058],[-81.2892919,30.4422248],[-81.2894735,30.4423361],[-81.2896613,30.4424393],[-81.289855,30.4425343],[-81.2900558,30.4426216],[-81.2902616,30.4426999],[-81.2904717,30.4427692],[-81.2906856,30.4428292],[-81.2909028,30.4428797],[-81.2911226,30.4429207],[-81.2913446,30.442952],[-81.2915682,30.4429736],[-81.2917927,30.4429853],[-81.2920176,30.4429872],[-81.2922424,30.4429793],[-81.2924664,30.4429615],[-81.292689,30.442934],[-81.2929098,30.4428968],[-81.2931281,30.4428499],[-81.2933433,30.4427936],[-81.2935549,30.4427279],[-81.2937625,30.442653],[-81.2939653,30.4425692],[-81.2941629,30.4424766],[-81.2943549,30.4423755],[-81.2945406,30.4422661],[-81.2947196,30.4421487],[-81.2948916,30.4420236],[-81.2950559,30.4418912],[-81.2952122,30.4417518],[-81.2953601,30.4416057],[-81.2954992,30.4414533],[-81.2956292,30.441295],[-81.2957501,30.4411306],[-81.2958612,30.4409611],[-81.2959621,30.440787],[-81.2960526,30.4406087],[-81.2961324,30.4404266],[-81.2962013,30.4402413],[-81.2962593,30.4400531],[-81.296306,30.4398627],[-81.2963414,30.4396705],[-81.2963655,30.4394769],[-81.296378,30.4392826],[-81.2963791,30.439088],[-81.2963686,30.4388935],[-81.2963467,30.4386998],[-81.2963134,30.4385073],[-81.2962688,30.4383165],[-81.2962129,30.4381279],[-81.296146,30.437942],[-81.2960681,30.4377593],[-81.2959796,30.4375802],[-81.2958806,30.4374053],[-81.2957714,30.4372349],[-81.2956523,30.4370695],[-81.2955236,30.4369096],[-81.2953856,30.4367556],[-81.2952386,30.4366078],[-81.2950832,30.4364666],[-81.2949196,30.4363325],[-81.2947482,30.4362057],[-81.2945697,30.4360866],[-81.2943843,30.4359755],[-81.2941926,30.4358727],[-81.293995,30.4357785],[-81.2937922,30.435693],[-81.2935846,30.4356166],[-81.2933727,30.4355494],[-81.2931571,30.4354915],[-81.2929384,30.4354432],[-81.2927171,30.4354046],[-81.2924939,30.4353758],[-81.2922692,30.4353567],[-81.2920437,30.4353476],[-81.2918179,30.4353484],[-81.2915925,30.4353591],[-81.291368,30.4353797],[-81.291145,30.4354101],[-81.2909241,30.4354503],[-81.2907058,30.4355001],[-81.2904908,30.4355595],[-81.2902796,30.4356282],[-81.2900727,30.4357061]]]},"properties":{"osm_id":1032032671,"osm_type":"way","seamark_type":"anchorage","display_class":"OTHER","min_zoom":12,"importance":1,"name":"2","ref":null,"common":{"name":"2","type":"anchorage"},"children":{},"osm_tags":{"seamark:name":"2","seamark:type":"anchorage"}}},{"type":"Feature","geometry":{"type":"Point","coordinates":[-81.4733333,30.3913889]},"properties":{"osm_id":9308417493,"osm_type":"node","seamark_type":"buoy_lateral","display_class":"OTHER","min_zoom":12,"importance":1,"name":"25","ref":null,"common":{"name":"25","type":"buoy_lateral"},"children":{"buoy_lateral":{"category":"port","colour":"green","system":"iala-b"},"light":{"character":"Fl","colour":"green","period":"4"}},"osm_tags":{"man_made":"buoy","seamark:buoy_lateral:category":"port","seamark:buoy_lateral:colour":"green","seamark:buoy_lateral:system":"iala-b","seamark:light:character":"Fl","seamark:light:colour":"green","seamark:light:period":"4","seamark:name":"25","seamark:type":"buoy_lateral"}}},{"type":"Feature","geometry":{"type":"Point","coordinates":[-81.485,30.3925]},"properties":{"osm_id":9948207005,"osm_type":"node","seamark_type":"buoy_lateral","display_class":"OTHER","min_zoom":12,"importance":1,"name":"27","ref":null,"common":{"name":"27","type":"buoy_lateral"},"children":{"buoy_lateral":{"category":"port","colour":"green","system":"iala-b"},"light":{"character":"Fl","colour":"green","period":"4"}},"osm_tags":{"man_made":"buoy","seamark:buoy_lateral:category":"port","seamark:buoy_lateral:colour":"green","seamark:buoy_lateral:system":"iala-b","seamark:light:character":"Fl","seamark:light:colour":"green","seamark:light:period":"4","seamark:name":"27","seamark:type":"buoy_lateral"}}},{"type":"Feature","geometry":{"type":"Polygon","coordinates":[[[-81.2828016,30.4350614],[-81.282577,30.4350651],[-81.2823529,30.4350786],[-81.2821299,30.4351018],[-81.2819085,30.4351347],[-81.2816893,30.4351772],[-81.2814729,30.4352292],[-81.2812599,30.4352906],[-81.2810507,30.4353611],[-81.2808459,30.4354408],[-81.280646,30.4355292],[-81.2804516,30.4356262],[-81.2802632,30.4357316],[-81.2800811,30.4358451],[-81.279906,30.4359664],[-81.2797381,30.4360951],[-81.2795781,30.436231],[-81.2794262,30.4363737],[-81.2792829,30.4365229],[-81.2791485,30.4366781],[-81.2790234,30.4368389],[-81.2789078,30.437005],[-81.2788022,30.437176],[-81.2787067,30.4373513],[-81.2786217,30.4375305],[-81.2785472,30.4377133],[-81.2784836,30.437899],[-81.2784309,30.4380873],[-81.2783894,30.4382776],[-81.278359,30.4384695],[-81.27834,30.4386625],[-81.2783323,30.4388561],[-81.2783359,30.4390497],[-81.2783509,30.439243],[-81.2783773,30.4394353],[-81.2784148,30.4396263],[-81.2784636,30.4398153],[-81.2785233,30.440002],[-81.2785939,30.4401859],[-81.2786753,30.4403664],[-81.2787671,30.4405432],[-81.2788691,30.4407157],[-81.2789812,30.4408836],[-81.2791029,30.4410464],[-81.279234,30.4412036],[-81.2793742,30.441355],[-81.2795231,30.4415],[-81.2796803,30.4416383],[-81.2798454,30.4417697],[-81.280018,30.4418936],[-81.2801979,30.4420101],[-81.2803845,30.4421185],[-81.2805771,30.4422187],[-81.2807754,30.4423103],[-81.2809789,30.4423931],[-81.2811869,30.442467],[-81.281399,30.4425316],[-81.2816146,30.442587],[-81.2818332,30.4426328],[-81.2820542,30.4426691],[-81.2822771,30.4426956],[-81.2825012,30.4427124],[-81.2827261,30.4427194],[-81.282951,30.4427165],[-81.2831755,30.4427038],[-81.283399,30.4426814],[-81.2836209,30.4426492],[-81.2838405,30.4426074],[-81.2840575,30.442556],[-81.2842711,30.4424953],[-81.2844809,30.4424252],[-81.2846864,30.4423462],[-81.2848869,30.4422582],[-81.285082,30.4421616],[-81.2852712,30.4420566],[-81.2854539,30.4419435],[-81.2856298,30.4418225],[-81.2857984,30.4416941],[-81.2859595,30.4415581],[-81.2861124,30.4414153],[-81.2862566,30.441266],[-81.286392,30.4411105],[-81.286518,30.4409494],[-81.2866343,30.4407829],[-81.2867407,30.4406115],[-81.2868369,30.4404358],[-81.2869226,30.440256],[-81.2869976,30.4400727],[-81.2870618,30.4398864],[-81.2871148,30.4396975],[-81.2871567,30.4395065],[-81.2871873,30.4393139],[-81.2872066,30.4391203],[-81.2872144,30.438926],[-81.2872108,30.4387317],[-81.2871957,30.4385378],[-81.2871692,30.4383448],[-81.2871314,30.4381531],[-81.2870824,30.4379634],[-81.2870223,30.4377761],[-81.2869513,30.4375916],[-81.2868694,30.4374105],[-81.286777,30.4372332],[-81.2866743,30.4370602],[-81.2865616,30.4368919],[-81.2864391,30.4367287],[-81.2863071,30.4365711],[-81.2861661,30.4364195],[-81.2860163,30.4362743],[-81.2858581,30.4361358],[-81.285692,30.4360044],[-81.2855184,30.4358804],[-81.2853377,30.4357642],[-81.2851504,30.435656],[-81.284957,30.4355562],[-81.2847579,30.4354649],[-81.2845537,30.4353825],[-81.284345,30.4353091],[-81.2841322,30.435245],[-81.2839159,30.4351902],[-81.2836966,30.435145],[-81.283475,30.4351094],[-81.2832516,30.4350836],[-81.2830269,30.4350676],[-81.2828016,30.4350614]]]},"properties":{"osm_id":1032032670,"osm_type":"way","seamark_type":"anchorage","display_class":"OTHER","min_zoom":12,"importance":1,"name":"3","ref":null,"common":{"name":"3","type":"anchorage"},"children":{},"osm_tags":{"seamark:name":"3","seamark:type":"anchorage"}}},{"type":"Feature","geometry":{"type":"Point","coordinates":[-81.4997222,30.3913889]},"properties":{"osm_id":9948207006,"osm_type":"node","seamark_type":"buoy_lateral","display_class":"OTHER","min_zoom":12,"importance":1,"name":"34","ref":null,"common":{"name":"34","type":"buoy_lateral"},"children":{"buoy_lateral":{"category":"starboard","colour":"red","system":"iala-b"},"light":{"character":"Fl","colour":"red","period":"4"}},"osm_tags":{"man_made":"buoy","seamark:buoy_lateral:category":"starboard","seamark:buoy_lateral:colour":"red","seamark:buoy_lateral:system":"iala-b","seamark:light:character":"Fl","seamark:light:colour":"red","seamark:light:period":"4","seamark:name":"34","seamark:type":"buoy_lateral"}}},{"type":"Feature","geometry":{"type":"Point","coordinates":[-81.4023936,30.3970868]},"properties":{"osm_id":9503268602,"osm_type":"node","seamark_type":"buoy_lateral","display_class":"OTHER","min_zoom":12,"importance":1,"name":"4","ref":null,"common":{"name":"4","type":"buoy_lateral"},"children":{"buoy_lateral":{"category":"starboard","colour":"red","system":"iala-b"},"light":{"character":"Fl","colour":"red","period":"4"}},"osm_tags":{"man_made":"buoy","seamark:buoy_lateral:category":"starboard","seamark:buoy_lateral:colour":"red","seamark:buoy_lateral:system":"iala-b","seamark:light:character":"Fl","seamark:light:colour":"red","seamark:light:period":"4","seamark:name":"4","seamark:type":"buoy_lateral"}}},{"type":"Feature","geometry":{"type":"Point","coordinates":[-81.3739729,30.396439]},"properties":{"osm_id":9503268598,"osm_type":"node","seamark_type":"buoy_lateral","display_class":"OTHER","min_zoom":12,"importance":1,"name":"5","ref":null,"common":{"name":"5","type":"buoy_lateral"},"children":{"buoy_lateral":{"category":"port","colour":"green","system":"iala-b"},"light":{"character":"Q","colour":"green"}},"osm_tags":{"man_made":"buoy","seamark:buoy_lateral:category":"port","seamark:buoy_lateral:colour":"green","seamark:buoy_lateral:system":"iala-b","seamark:light:character":"Q","seamark:light:colour":"green","seamark:name":"5","seamark:type":"buoy_lateral"}}},{"type":"Feature","geometry":{"type":"Point","coordinates":[-81.582,30.4037778]},"properties":{"osm_id":9363492529,"osm_type":"node","seamark_type":"buoy_lateral","display_class":"OTHER","min_zoom":12,"importance":1,"name":"53A","ref":null,"common":{"name":"53A","type":"buoy_lateral"},"children":{"buoy_lateral":{"category":"port","colour":"green","shape":"can","system":"iala-b"}},"osm_tags":{"man_made":"buoy","seamark:buoy_lateral:category":"port","seamark:buoy_lateral:colour":"green","seamark:buoy_lateral:shape":"can","seamark:buoy_lateral:system":"iala-b","seamark:name":"53A","seamark:type":"buoy_lateral"}}},{"type":"Feature","geometry":{"type":"Point","coordinates":[-81.3738013,30.3998352]},"properties":{"osm_id":9503268600,"osm_type":"node","seamark_type":"buoy_lateral","display_class":"OTHER","min_zoom":12,"importance":1,"name":"6","ref":null,"common":{"name":"6","type":"buoy_lateral"},"children":{"buoy_lateral":{"category":"starboard","colour":"red","system":"iala-b"},"light":{"character":"Q","colour":"red"}},"osm_tags":{"man_made":"buoy","seamark:buoy_lateral:category":"starboard","seamark:buoy_lateral:colour":"red","seamark:buoy_lateral:system":"iala-b","seamark:light:character":"Q","seamark:light:colour":"red","seamark:name":"6","seamark:type":"buoy_lateral"}}},{"type":"Feature","geometry":{"type":"Point","coordinates":[-81.3847232,30.3980214]},"properties":{"osm_id":9503268599,"osm_type":"node","seamark_type":"buoy_lateral","display_class":"OTHER","min_zoom":12,"importance":1,"name":"7","ref":null,"common":{"name":"7","type":"buoy_lateral"},"children":{"buoy_lateral":{"category":"port","colour":"green","system":"iala-b"},"light":{"character":"Fl","colour":"green","period":"4"}},"osm_tags":{"man_made":"buoy","seamark:buoy_lateral:category":"port","seamark:buoy_lateral:colour":"green","seamark:buoy_lateral:system":"iala-b","seamark:light:character":"Fl","seamark:light:colour":"green","seamark:light:period":"4","seamark:name":"7","seamark:type":"buoy_lateral"}}},{"type":"Feature","geometry":{"type":"Point","coordinates":[-81.383661,30.4004737]},"properties":{"osm_id":9503268601,"osm_type":"node","seamark_type":"buoy_lateral","display_class":"OTHER","min_zoom":12,"importance":1,"name":"8","ref":null,"common":{"name":"8","type":"buoy_lateral"},"children":{"buoy_lateral":{"category":"starboard","colour":"red","system":"iala-b"},"fog_signal":{"category":"bell"},"light":{"character":"Fl","colour":"red","period":"4"}},"osm_tags":{"man_made":"buoy","seamark:buoy_lateral:category":"starboard","seamark:buoy_lateral:colour":"red","seamark:buoy_lateral:system":"iala-b","seamark:fog_signal:category":"bell","seamark:light:character":"Fl","seamark:light:colour":"red","seamark:light:period":"4","seamark:name":"8","seamark:type":"buoy_lateral"}}},{"type":"Feature","geometry":{"type":"Point","coordinates":[-81.3951978,30.3255345]},"properties":{"osm_id":12895465522,"osm_type":"node","seamark_type":"rescue_station","display_class":"OTHER","min_zoom":12,"importance":1,"name":"Atlantic Beach Ocean Rescue","ref":null,"common":{"type":"rescue_station"},"children":{"rescue_station":{"category":"lifeboat;first_aid"}},"osm_tags":{"addr:housenumber":"1","addr:street":"Ahern Street","check_date":"2025-06-07","emergency":"water_rescue","name":"Atlantic Beach Ocean Rescue","note":"Dispatched via Atlantic Beach Police Dept at the phone number provided here.","phone":"+1 904-247-5859","seamark:rescue_station:category":"lifeboat;first_aid","seamark:type":"rescue_station","source":"survey"}}},{"type":"Feature","geometry":{"type":"Polygon","coordinates":[[[-81.6419755,30.3892155],[-81.6414635,30.388833],[-81.6411092,30.3892036],[-81.6397948,30.3906439],[-81.6402054,30.3909419],[-81.6416262,30.3896089],[-81.6419755,30.3892155]]]},"properties":{"osm_id":893832691,"osm_type":"way","seamark_type":"harbour","display_class":"OTHER","min_zoom":12,"importance":1,"name":"Bill Dye Marina","ref":null,"common":{"type":"harbour"},"children":{"harbour":{"category":"marina"}},"osm_tags":{"leisure":"marina","name":"Bill Dye Marina","seamark:harbour:category":"marina","seamark:type":"harbour"}}},{"type":"Feature","geometry":{"type":"Point","coordinates":[-81.6330039,30.1345449]},"properties":{"osm_id":4566861844,"osm_type":"node","seamark_type":"harbour","display_class":"OTHER","min_zoom":12,"importance":1,"name":"Bull Bay Pier","ref":null,"common":{"type":"harbour"},"children":{"harbour":{"category":"marina"}},"osm_tags":{"addr:city":"Jacksonville","addr:housenumber":"12750","addr:postcode":"32223","addr:state":"FL","addr:street":"San Jose Blvd","fixme":"This could possibly do with scouting","leisure":"marina","name":"Bull Bay Pier","note":"JaxGis says this area is owned by Bull Bay Pier LLC. Not sure what here is owned by them exactly. I think it might just be the west-most pier below","phone":"+1-904-268-5191","seamark:harbour:category":"marina","seamark:type":"harbour","website":"https://bull-bay-pier.business.site/"}}},{"type":"Feature","geometry":{"type":"Polygon","coordinates":[[[-81.4660621,30.6720853],[-81.4661453,30.6712222],[-81.465842,30.6711917],[-81.4656606,30.6715111],[-81.4655848,30.6720582],[-81.4660621,30.6720853]]]},"properties":{"osm_id":1031402764,"osm_type":"way","seamark_type":"harbour","display_class":"OTHER","min_zoom":12,"importance":1,"name":"Fernandina Harbor Marina","ref":null,"common":{"type":"harbour"},"children":{"harbour":{"category":"marina"}},"osm_tags":{"leisure":"marina","name":"Fernandina Harbor Marina","seamark:harbour:category":"marina","seamark:type":"harbour"}}},{"type":"Feature","geometry":{"type":"Polygon","coordinates":[[[-81.4428571,30.3217838],[-81.4428432,30.3219146],[-81.4425484,30.3220778],[-81.442522,30.3218076],[-81.4423614,30.3215093],[-81.442017,30.3211245],[-81.4418882,30.3209412],[-81.4416529,30.3209366],[-81.441489,30.3207937],[-81.4400378,30.3220165],[-81.4395454,30.3216034],[-81.4389417,30.3217497],[-81.4389477,30.3210885],[-81.4390349,30.321057],[-81.4390418,30.3210004],[-81.4390032,30.3208831],[-81.4403995,30.3197294],[-81.4404411,30.3196906],[-81.441517,30.3206902],[-81.4415655,30.3206982],[-81.4417293,30.3205655],[-81.4418416,30.320512],[-81.4419634,30.3206891],[-81.4423766,30.3211746],[-81.4427177,30.3215683],[-81.4428571,30.3217838]]]},"properties":{"osm_id":453729755,"osm_type":"way","seamark_type":"harbour","display_class":"OTHER","min_zoom":12,"importance":1,"name":"Harbortown Marina","ref":null,"common":{"type":"harbour"},"children":{"harbour":{"category":"marina"}},"osm_tags":{"leisure":"marina","name":"Harbortown Marina","seamark:harbour:category":"marina","seamark:type":"harbour"}}},{"type":"Feature","geometry":{"type":"Polygon","coordinates":[[[-81.5843206,30.8677979],[-81.5852645,30.8677495],[-81.5852464,30.8675147],[-81.5842912,30.8675562],[-81.5843206,30.8677979]]]},"properties":{"osm_id":553554901,"osm_type":"way","seamark_type":"harbour","display_class":"OTHER","min_zoom":12,"importance":1,"name":"Harriets Bluff Public Boat Ramp","ref":null,"common":{"type":"harbour"},"children":{"harbour":{"category":"marina"}},"osm_tags":{"capacity":"12","fee":"no","internet_access":"no","leisure":"marina","name":"Harriets Bluff Public Boat Ramp","operator":"Self","power_supply":"no","sanitary_dump_station":"no","seamark:harbour:category":"marina","seamark:type":"harbour"}}},{"type":"Feature","geometry":{"type":"Polygon","coordinates":[[[-81.459805,30.3948489],[-81.4597131,30.394724],[-81.4593149,30.3949377],[-81.4589028,30.3952187],[-81.4585408,30.3954973],[-81.4583181,30.3957039],[-81.4584796,30.3957904],[-81.4587218,30.3955814],[-81.4589613,30.3953965],[-81.4590129,30.3954613],[-81.459223,30.3953285],[-81.4591534,30.3952452],[-81.4594681,30.3950314],[-81.459805,30.3948489]]]},"properties":{"osm_id":365349153,"osm_type":"way","seamark_type":"harbour","display_class":"OTHER","min_zoom":12,"importance":1,"name":"Jim King Marina","ref":null,"common":{"type":"harbour"},"children":{"harbour":{"category":"marina"}},"osm_tags":{"leisure":"marina","name":"Jim King Marina","seamark:harbour:category":"marina","seamark:type":"harbour"}}},{"type":"Feature","geometry":{"type":"Polygon","coordinates":[[[-81.6310961,30.134141],[-81.6294939,30.1323884],[-81.6291399,30.1326361],[-81.6297884,30.1335404],[-81.6307827,30.1343022],[-81.6310961,30.134141]]]},"properties":{"osm_id":575070138,"osm_type":"way","seamark_type":"harbour","display_class":"OTHER","min_zoom":12,"importance":1,"name":"Julington Creek Pier 3 Marina And Dry Storage","ref":null,"common":{"type":"harbour"},"children":{"harbour":{"category":"marina"}},"osm_tags":{"fixme":"I suspect the big warehouse looking building just north of the outline I've made is the dry storage mentioned on the website, but can't prove 100% either way.","leisure":"marina","name":"Julington Creek Pier 3 Marina And Dry Storage","seamark:harbour:category":"marina","seamark:type":"harbour","website":"https://julingtoncreekpier3.net/"}}},{"type":"Feature","geometry":{"type":"Polygon","coordinates":[[[-81.6328031,30.1340869],[-81.6330106,30.1326385],[-81.6327778,30.1319897],[-81.6307746,30.1324287],[-81.6315564,30.1336605],[-81.6314286,30.1337935],[-81.6316656,30.1341038],[-81.6322528,30.1340951],[-81.6328031,30.1340869]]]},"properties":{"osm_id":575065936,"osm_type":"way","seamark_type":"harbour","display_class":"OTHER","min_zoom":12,"importance":1,"name":"Mandarin Holiday Marina","ref":null,"common":{"type":"harbour"},"children":{"harbour":{"category":"marina"}},"osm_tags":{"fixme":"Tidy and work out which onshore buildings/facilities are part of this marina","leisure":"marina","name":"Mandarin Holiday Marina","seamark:harbour:category":"marina","seamark:type":"harbour","website":"http://mandarinyachtclub.home.mindspring.com/"}}},{"type":"Feature","geometry":{"type":"Point","coordinates":[-81.6801301,30.1578974]},"properties":{"osm_id":10158004742,"osm_type":"node","seamark_type":"wreck","display_class":"OTHER","min_zoom":12,"importance":1,"name":"Maple Leaf","ref":null,"common":{"type":"wreck"},"children":{"wreck":{"category":"non-dangerous"}},"osm_tags":{"access":"no","architect":"George Thurston","fixme":"Not 100% sure on location but maps and museum information suggests it is roughly here","heritage":"2","heritage:operator":"nrhp","heritage:website":"https://npgallery.nps.gov/AssetDetail/NRIS/94001650","historic":"wreck","name":"Maple Leaf","nrhp:criteria":"(A),(D)","nrhp:inscription_date":"1994-10-12","nrhp:nhl":"yes","ref:nrhp":"94001650","seamark:type":"wreck","seamark:wreck:category":"non-dangerous","wikidata":"Q6753927","wikipedia":"en:Maple Leaf (shipwreck)","wreck:date_sunk":"1864"}}},{"type":"Feature","geometry":{"type":"Polygon","coordinates":[[[-81.4286005,30.3954106],[-81.4296541,30.3960834],[-81.4296387,30.3961105],[-81.430129,30.3964253],[-81.4297974,30.3968465],[-81.4296316,30.3967466],[-81.4294658,30.3969092],[-81.4291511,30.3966507],[-81.429084,30.3966044],[-81.4289397,30.3965165],[-81.4284771,30.3961427],[-81.4284039,30.3960956],[-81.4281563,30.3959006],[-81.4278601,30.3956378],[-81.4279487,30.3956084],[-81.4286005,30.3954106]]]},"properties":{"osm_id":351674308,"osm_type":"way","seamark_type":"harbour","display_class":"OTHER","min_zoom":12,"importance":1,"name":"Morningstar Marina","ref":null,"common":{"type":"harbour"},"children":{"harbour":{"category":"marina"}},"osm_tags":{"leisure":"marina","name":"Morningstar Marina","seamark:harbour:category":"marina","seamark:type":"harbour"}}},{"type":"Feature","geometry":{"type":"Polygon","coordinates":[[[-81.6622518,30.3196824],[-81.6622053,30.3195982],[-81.6621612,30.3195184],[-81.6620481,30.3195734],[-81.6620132,30.3195272],[-81.6619752,30.3195394],[-81.6619357,30.3195409],[-81.661896,30.3195303],[-81.6618618,30.3195133],[-81.6618346,30.3194893],[-81.6618168,30.3194628],[-81.6618102,30.3194092],[-81.661793,30.3194123],[-81.6618314,30.3187121],[-81.6617837,30.3186107],[-81.6614689,30.3186193],[-81.6614702,30.3186539],[-81.6614674,30.3190733],[-81.6613855,30.319071],[-81.6613887,30.3195009],[-81.661422,30.3194998],[-81.6614326,30.3194995],[-81.6614326,30.3194279],[-81.6616001,30.3194251],[-81.6616016,30.3194771],[-81.6616094,30.3194774],[-81.6616205,30.3194769],[-81.6616229,30.3196301],[-81.6620799,30.3196298],[-81.6621362,30.3197277],[-81.6622518,30.3196824]]]},"properties":{"osm_id":492185758,"osm_type":"way","seamark_type":"harbour","display_class":"OTHER","min_zoom":12,"importance":1,"name":"Saint Johns Marina","ref":null,"common":{"type":"harbour"},"children":{"harbour":{"category":"marina"}},"osm_tags":{"fee":"no","leisure":"marina","name":"Saint Johns Marina","seamark:harbour:category":"marina","seamark:type":"harbour","website":"https://www.coj.net/departments/parks-and-recreation/recreation-and-community-programming/parks/st-johns-marina"}}},{"type":"Feature","geometry":{"type":"Polygon","coordinates":[[[-81.5241053,30.7461927],[-81.5239899,30.7432534],[-81.5248777,30.7432096],[-81.5249555,30.7434609],[-81.5250145,30.7433041],[-81.5253579,30.7436177],[-81.5254678,30.7438551],[-81.5252827,30.7444176],[-81.5250923,30.7444775],[-81.5251889,30.7448348],[-81.5254169,30.7447795],[-81.5255349,30.7451737],[-81.5253015,30.7452498],[-81.5253471,30.7454918],[-81.5258058,30.7459782],[-81.5256368,30.7460612],[-81.5246176,30.7462203],[-81.5241053,30.7461927]]]},"properties":{"osm_id":1346433753,"osm_type":"way","seamark_type":"harbour","display_class":"OTHER","min_zoom":12,"importance":1,"name":"St. Marys Boat Services","ref":null,"common":{"type":"harbour"},"children":{"harbour":{"category":"marina"}},"osm_tags":{"leisure":"marina","name":"St. Marys Boat Services","seamark:harbour:category":"marina","seamark:type":"harbour"}}},{"type":"Feature","geometry":{"type":"Polygon","coordinates":[[[-81.6889759,30.2509517],[-81.6887166,30.2511379],[-81.6886781,30.2512502],[-81.6886328,30.2513821],[-81.6885929,30.2514985],[-81.6885538,30.2516123],[-81.6885156,30.2517237],[-81.6884797,30.2518284],[-81.6884399,30.2519444],[-81.6883609,30.2521746],[-81.6885226,30.2522796],[-81.6886109,30.252337],[-81.6886935,30.2523906],[-81.6887833,30.2524489],[-81.6888671,30.2525033],[-81.6889539,30.2525597],[-81.6890421,30.2526169],[-81.689125,30.2526708],[-81.6893024,30.252786],[-81.6892969,30.2526739],[-81.689346,30.2524492],[-81.6893698,30.2523645],[-81.6894042,30.2522867],[-81.6894282,30.25222],[-81.6894819,30.2521474],[-81.689507,30.2521121],[-81.6895474,30.2520552],[-81.6897362,30.2518591],[-81.6898667,30.2517714],[-81.6897144,30.2516313],[-81.6896503,30.2515722],[-81.6895859,30.251513],[-81.6895216,30.2514539],[-81.6894592,30.2513964],[-81.6893925,30.2513351],[-81.6893255,30.2512734],[-81.6892639,30.2512167],[-81.6889759,30.2509517]]]},"properties":{"osm_id":658966490,"osm_type":"way","seamark_type":"harbour","display_class":"OTHER","min_zoom":12,"importance":1,"name":"The Florida Yacht Club","ref":null,"common":{"type":"harbour"},"children":{"harbour":{"category":"marina"}},"osm_tags":{"leisure":"marina","name":"The Florida Yacht Club","seamark:harbour:category":"marina","seamark:type":"harbour"}}},{"type":"Feature","geometry":{"type":"Polygon","coordinates":[[[-81.4254256,30.2859634],[-81.4254899,30.2858797],[-81.4272951,30.285395],[-81.427545,30.2855434],[-81.4275651,30.2874918],[-81.4273276,30.2873648],[-81.4273155,30.2870228],[-81.4272921,30.2863619],[-81.4272823,30.2860852],[-81.4272368,30.2860755],[-81.426924,30.2860088],[-81.4268242,30.2859875],[-81.4267416,30.2860035],[-81.4264739,30.2860553],[-81.4264355,30.2860627],[-81.4264032,30.2863786],[-81.4263693,30.2867095],[-81.4263541,30.2868582],[-81.4263289,30.2871039],[-81.4260664,30.2871243],[-81.4259054,30.2871329],[-81.4258705,30.2871008],[-81.4254764,30.2871926],[-81.4254872,30.2872379],[-81.4253388,30.2872819],[-81.4254277,30.2875183],[-81.4254404,30.2875539],[-81.4250876,30.2875202],[-81.4250783,30.2874909],[-81.4248648,30.2869514],[-81.4251721,30.2868705],[-81.4253093,30.2868314],[-81.4253992,30.2867761],[-81.4256483,30.2867061],[-81.4256237,30.2866462],[-81.4256081,30.2866029],[-81.425512,30.2865052],[-81.4255055,30.286474],[-81.4254565,30.2862404],[-81.4254482,30.2862009],[-81.4254485,30.2861621],[-81.4254256,30.2859634]]]},"properties":{"osm_id":436926340,"osm_type":"way","seamark_type":"harbour","display_class":"OTHER","min_zoom":12,"importance":1,"name":"The Moorings","ref":null,"common":{"type":"harbour"},"children":{"harbour":{"category":"marina"}},"osm_tags":{"leisure":"marina","name":"The Moorings","seamark:harbour:category":"marina","seamark:type":"harbour"}}},{"type":"Feature","geometry":{"type":"Point","coordinates":[-81.5306082,30.2521002]},"properties":{"osm_id":3531455034,"osm_type":"node","seamark_type":"small_craft_facility","display_class":"OTHER","min_zoom":12,"importance":1,"name":"West Marine","ref":null,"common":{"type":"small_craft_facility"},"children":{"small_craft_facility":{"category":"chandler"}},"osm_tags":{"brand":"West Marine","brand:wikidata":"Q7985852","name":"West Marine","seamark:small_craft_facility:category":"chandler","seamark:type":"small_craft_facility","shop":"boat"}}}],"type":"FeatureCollection"}