{"type":"FeatureCollection","features":[{"type":"Feature","geometry":{"type":"Point","coordinates":[16.5828214,31.2127884]},"properties":{"osm_id":13134947528,"osm_type":"node","seamark_type":"harbour","display_class":"OTHER","min_zoom":12,"importance":1,"name":null,"ref":null,"common":{"type":"harbour"},"children":{"harbour":{"category":"marina"}},"osm_tags":{"leisure":"marina","seamark:harbour:category":"marina","seamark:type":"harbour"}}},{"type":"Feature","geometry":{"type":"Point","coordinates":[16.6296007,31.2152577]},"properties":{"osm_id":4508519989,"osm_type":"node","seamark_type":"harbour","display_class":"OTHER","min_zoom":12,"importance":1,"name":"ميناء سرت البحري","ref":null,"common":{"type":"harbour"},"children":{},"osm_tags":{"harbour":"yes","name":"ميناء سرت البحري","name:ar":"ميناء سرت البحري","name:en":"Port of Sirte","seamark:type":"harbour"}}}],"type":"FeatureCollection"}