{"type":"FeatureCollection","features":[{"type":"Feature","geometry":{"type":"Point","coordinates":[47.4504917,31.3599301]},"properties":{"osm_id":2487896302,"osm_type":"node","seamark_type":"gate","display_class":"OTHER","min_zoom":12,"importance":1,"name":"ناظم الكسارة","ref":null,"common":{"type":"gate"},"children":{},"osm_tags":{"alt_name":"ناظم الكسارة","int_name":"Nāz̧im al Kassārah, ناظم الكساره, Nazim al Kassarah, ناظم الكساره","is_in":"Iraq , جمهورية العراق","name":"ناظم الكسارة","name:ar":"ناظم الكسارة","name:ar1":"ناظم الكسارة","name:de":"Nazim al Kassarah","name:en":"Nazim al Kassarah","name:fr":"Nazim al Kassarah","note":"at this location should be a way tagged waterway=dock","place":"locality","seamark:type":"gate","waterway":"lock_gate"}}}],"type":"FeatureCollection"}