{"type":"FeatureCollection","features":[{"type":"Feature","geometry":{"type":"Point","coordinates":[130.5345651,31.5054177]},"properties":{"osm_id":6372403059,"osm_type":"node","seamark_type":"light_major","display_class":"LIGHTHOUSE","min_zoom":7,"importance":5,"name":null,"ref":null,"common":{"type":"light_major"},"children":{},"osm_tags":{"man_made":"lighthouse","seamark:type":"light_major"}}},{"type":"Feature","geometry":{"type":"Point","coordinates":[130.5374906,31.5019445]},"properties":{"osm_id":6372403060,"osm_type":"node","seamark_type":"light_major","display_class":"LIGHTHOUSE","min_zoom":7,"importance":5,"name":null,"ref":null,"common":{"type":"light_major"},"children":{},"osm_tags":{"man_made":"lighthouse","seamark:type":"light_major"}}},{"type":"Feature","geometry":{"type":"Point","coordinates":[130.1093263,31.4160406]},"properties":{"osm_id":6813940027,"osm_type":"node","seamark_type":"light_major","display_class":"LIGHTHOUSE","min_zoom":7,"importance":5,"name":"薩摩野間岬灯台","ref":null,"common":{"type":"light_major"},"children":{},"osm_tags":{"man_made":"lighthouse","name":"薩摩野間岬灯台","operator":"海上保安庁","seamark:type":"light_major"}}},{"type":"Feature","geometry":{"type":"Point","coordinates":[130.5981354,31.5808936]},"properties":{"osm_id":4809689763,"osm_type":"node","seamark_type":"harbour","display_class":"OTHER","min_zoom":12,"importance":1,"name":null,"ref":null,"common":{"type":"harbour"},"children":{"harbour":{"category":"marina"}},"osm_tags":{"leisure":"marina","seamark:harbour:category":"marina","seamark:type":"harbour"}}},{"type":"Feature","geometry":{"type":"Point","coordinates":[130.5378443,31.5041218]},"properties":{"osm_id":6440865273,"osm_type":"node","seamark_type":"buoy_lateral","display_class":"OTHER","min_zoom":12,"importance":1,"name":null,"ref":null,"common":{"type":"buoy_lateral"},"children":{"buoy_lateral":{"colour":"red"}},"osm_tags":{"seamark:buoy_lateral:colour":"red","seamark:type":"buoy_lateral"}}},{"type":"Feature","geometry":{"type":"Point","coordinates":[130.5390467,31.5020213]},"properties":{"osm_id":6440865274,"osm_type":"node","seamark_type":"buoy_lateral","display_class":"OTHER","min_zoom":12,"importance":1,"name":null,"ref":null,"common":{"type":"buoy_lateral"},"children":{"buoy_lateral":{"colour":"green"}},"osm_tags":{"seamark:buoy_lateral:colour":"green","seamark:type":"buoy_lateral"}}},{"type":"Feature","geometry":{"type":"Point","coordinates":[130.5140833,31.5193326]},"properties":{"osm_id":7528736443,"osm_type":"node","seamark_type":"gate","display_class":"OTHER","min_zoom":12,"importance":1,"name":null,"ref":null,"common":{"type":"gate"},"children":{},"osm_tags":{"seamark:type":"gate","waterway":"lock_gate"}}},{"type":"Feature","geometry":{"type":"Polygon","coordinates":[[[130.5618134,31.5559749],[130.5620759,31.5565272],[130.5612291,31.5568731],[130.5611955,31.557245],[130.5615181,31.557885],[130.5609682,31.5580787],[130.5606852,31.5574507],[130.560758,31.556791],[130.5608,31.555797],[130.560793,31.555539],[130.560755,31.555269],[130.5618617,31.5553257],[130.5618134,31.5559749]]]},"properties":{"osm_id":173446388,"osm_type":"way","seamark_type":"harbour","display_class":"OTHER","min_zoom":12,"importance":1,"name":null,"ref":null,"common":{"type":"harbour"},"children":{"harbour":{"category":"marina"}},"osm_tags":{"leisure":"marina","seamark:harbour:category":"marina","seamark:type":"harbour"}}},{"type":"Feature","geometry":{"type":"Polygon","coordinates":[[[130.3218668,31.5062647],[130.3221423,31.5062473],[130.3223638,31.5060694],[130.3224419,31.5061851],[130.32273,31.5064755],[130.3230066,31.5062692],[130.3229605,31.5059668],[130.3224944,31.5054788],[130.322296,31.5057157],[130.3222947,31.5058063],[130.3219259,31.5060672],[130.3217964,31.5060156],[130.3218668,31.5062647]]]},"properties":{"osm_id":778292390,"osm_type":"way","seamark_type":"harbour","display_class":"OTHER","min_zoom":12,"importance":1,"name":null,"ref":null,"common":{"type":"harbour"},"children":{"harbour":{"category":"marina"}},"osm_tags":{"harbour":"yes","leisure":"marina","seamark:harbour:category":"marina","seamark:type":"harbour"}}},{"type":"Feature","geometry":{"type":"LineString","coordinates":[[130.7526806,31.7992907],[130.7527069,31.7994525]]},"properties":{"osm_id":1474677707,"osm_type":"way","seamark_type":"gate","display_class":"OTHER","min_zoom":12,"importance":1,"name":null,"ref":null,"common":{"type":"gate"},"children":{},"osm_tags":{"seamark:type":"gate","waterway":"lock_gate"}}},{"type":"Feature","geometry":{"type":"LineString","coordinates":[[130.7536182,31.7989148],[130.7536141,31.7989774]]},"properties":{"osm_id":1474677708,"osm_type":"way","seamark_type":"gate","display_class":"OTHER","min_zoom":12,"importance":1,"name":null,"ref":null,"common":{"type":"gate"},"children":{},"osm_tags":{"seamark:type":"gate","waterway":"lock_gate"}}},{"type":"Feature","geometry":{"type":"LineString","coordinates":[[130.7507378,31.7907986],[130.7506773,31.7906665]]},"properties":{"osm_id":1474677733,"osm_type":"way","seamark_type":"gate","display_class":"OTHER","min_zoom":12,"importance":1,"name":null,"ref":null,"common":{"type":"gate"},"children":{},"osm_tags":{"seamark:type":"gate","waterway":"lock_gate"}}},{"type":"Feature","geometry":{"type":"LineString","coordinates":[[130.3119814,31.8001832],[130.3119907,31.80012]]},"properties":{"osm_id":1475481584,"osm_type":"way","seamark_type":"gate","display_class":"OTHER","min_zoom":12,"importance":1,"name":null,"ref":null,"common":{"type":"gate"},"children":{},"osm_tags":{"seamark:type":"gate","waterway":"lock_gate"}}},{"type":"Feature","geometry":{"type":"LineString","coordinates":[[130.3719828,31.6311789],[130.3720651,31.6311595]]},"properties":{"osm_id":1489320582,"osm_type":"way","seamark_type":"gate","display_class":"OTHER","min_zoom":12,"importance":1,"name":null,"ref":null,"common":{"type":"gate"},"children":{},"osm_tags":{"seamark:type":"gate","waterway":"lock_gate"}}},{"type":"Feature","geometry":{"type":"Point","coordinates":[130.6869131,31.0236415]},"properties":{"osm_id":1223941434,"osm_type":"node","seamark_type":"light_minor","display_class":"OTHER","min_zoom":12,"importance":1,"name":"Odomari Ko","ref":null,"common":{"name":"Odomari Ko","type":"light_minor"},"children":{"light":{"character":"FFl","colour":"red","height":"16","period":"5","range":"7","reference":"M 4837"}},"osm_tags":{"man_made":"lighthouse","seamark:light:character":"FFl","seamark:light:colour":"red","seamark:light:height":"16","seamark:light:period":"5","seamark:light:range":"7","seamark:light:reference":"M 4837","seamark:name":"Odomari Ko","seamark:type":"light_minor","source":"US NGA Pub. 112. 2009-11-12."}}}],"type":"FeatureCollection"}