{"type":"FeatureCollection","features":[{"type":"Feature","geometry":{"type":"Point","coordinates":[-83.9355917,31.9634986]},"properties":{"osm_id":14049935418,"osm_type":"node","seamark_type":"mooring","display_class":"OTHER","min_zoom":12,"importance":1,"name":"Rick's on the River - Lake Blackshear","ref":null,"common":{"type":"mooring"},"children":{"harbour":{"category":"marina"}},"osm_tags":{"addr:city":"Cobb","addr:housenumber":"4262","addr:postcode":"31735","addr:state":"GA","addr:street":"US-280","charge":"5 USD","fee":"yes","leisure":"marina","name":"Rick's on the River - Lake Blackshear","payment:cash":"yes","seamark:harbour:category":"marina","seamark:type":"mooring"}}}],"type":"FeatureCollection"}