{"type":"FeatureCollection","features":[{"type":"Feature","geometry":{"type":"Point","coordinates":[124.0940278,32.8853333]},"properties":{"osm_id":13807589308,"osm_type":"node","seamark_type":"buoy_special_purpose","display_class":"OTHER","min_zoom":12,"importance":1,"name":null,"ref":null,"common":{"type":"buoy_special_purpose"},"children":{"buoy_special_purpose":{"category":"odas","colour":"yellow","shape":"super-buoy"},"light":{"character":"Fl","colour":"yellow","group":"5","period":"20"}},"osm_tags":{"seamark:buoy_special_purpose:category":"odas","seamark:buoy_special_purpose:colour":"yellow","seamark:buoy_special_purpose:shape":"super-buoy","seamark:light:character":"Fl","seamark:light:colour":"yellow","seamark:light:group":"5","seamark:light:period":"20","seamark:type":"buoy_special_purpose"}}},{"type":"Feature","geometry":{"type":"Point","coordinates":[124.7333333,32.8333333]},"properties":{"osm_id":13807650117,"osm_type":"node","seamark_type":"buoy_special_purpose","display_class":"OTHER","min_zoom":12,"importance":1,"name":"Jeju","ref":null,"common":{"name":"Jeju","type":"buoy_special_purpose"},"children":{"buoy_special_purpose":{"category":"odas","colour":"yellow","shape":"pillar"},"light":{"character":"Fl","colour":"yellow","group":"5","period":"20"}},"osm_tags":{"seamark:buoy_special_purpose:category":"odas","seamark:buoy_special_purpose:colour":"yellow","seamark:buoy_special_purpose:shape":"pillar","seamark:light:character":"Fl","seamark:light:colour":"yellow","seamark:light:group":"5","seamark:light:period":"20","seamark:name":"Jeju","seamark:type":"buoy_special_purpose"}}}],"type":"FeatureCollection"}