{"type":"FeatureCollection","features":[{"type":"Feature","geometry":{"type":"Polygon","coordinates":[[[-80.8456538,32.0222896],[-80.8456003,32.0223218],[-80.8455754,32.022292],[-80.8455555,32.0222683],[-80.8456085,32.0222364],[-80.8456119,32.0222188],[-80.8456484,32.0221984],[-80.8456921,32.0222056],[-80.8457175,32.0222361],[-80.8457081,32.0222732],[-80.8456735,32.0222923],[-80.8456538,32.0222896]]]},"properties":{"osm_id":456451300,"osm_type":"way","seamark_type":"beacon_special_purpose","display_class":"LIGHTHOUSE","min_zoom":7,"importance":5,"name":"Tybee Island Lighthouse","ref":null,"common":{"construction":"masonry","information":"Octagonal","status":"permanent","type":"beacon_special_purpose"},"children":{"beacon_special_purpose":{"category":"leading","colour":"black;white;black","colour_pattern":"horizontal","shape":"tower"},"light":{"character":"F","colour":"white","exhibition":"night","height":"44","range":"19","sequence":"0.5+(9.5)"}},"osm_tags":{"addr:city":"Tybee Island","addr:housenumber":"30","addr:postcode":"31328","addr:state":"GA","addr:street":"Taylor Street","building":"yes","height":"44.2","heritage":"2","heritage:operator":"nrhp","heritage:website":"https://www.nps.gov/subjects/nationalregister/index.htm","historic":"lighthouse","man_made":"lighthouse","name":"Tybee Island Lighthouse","nrhp:criteria":"(A), (B), (C)","nrhp:inscription_date":"1982-05-25","phone":"+1-912-786-5801","protection_title":"private","ref:nrhp":"82002393","seamark:beacon_special_purpose:category":"leading","seamark:beacon_special_purpose:colour":"black;white;black","seamark:beacon_special_purpose:colour_pattern":"horizontal","seamark:beacon_special_purpose:shape":"tower","seamark:construction":"masonry","seamark:information":"Octagonal","seamark:light:character":"F","seamark:light:colour":"white","seamark:light:exhibition":"night","seamark:light:height":"44","seamark:light:range":"19","seamark:light:sequence":"0.5+(9.5)","seamark:status":"permanent","seamark:type":"beacon_special_purpose","source_ref":"https://catalog.archives.gov/id/93207306","start_date":"1867","website":"https://www.tybeelighthouse.org"}}},{"type":"Feature","geometry":{"type":"Point","coordinates":[-80.9198548,32.0357552]},"properties":{"osm_id":12969380450,"osm_type":"node","seamark_type":"beacon_lateral","display_class":"BEACON","min_zoom":9,"importance":4,"name":null,"ref":null,"common":{"type":"beacon_lateral"},"children":{},"osm_tags":{"seamark:type":"beacon_lateral"}}},{"type":"Feature","geometry":{"type":"Point","coordinates":[-80.6744017,32.4299796]},"properties":{"osm_id":1583783634,"osm_type":"node","seamark_type":"harbour","display_class":"OTHER","min_zoom":12,"importance":1,"name":null,"ref":null,"common":{"type":"harbour"},"children":{"harbour":{"category":"marina"}},"osm_tags":{"leisure":"marina","seamark:harbour:category":"marina","seamark:type":"harbour"}}},{"type":"Feature","geometry":{"type":"Point","coordinates":[-80.7613513,32.1756114]},"properties":{"osm_id":7233499592,"osm_type":"node","seamark_type":"gate","display_class":"OTHER","min_zoom":12,"importance":1,"name":null,"ref":null,"common":{"type":"gate"},"children":{},"osm_tags":{"seamark:type":"gate","waterway":"lock_gate"}}},{"type":"Feature","geometry":{"type":"Point","coordinates":[-80.7615434,32.175793]},"properties":{"osm_id":7233499593,"osm_type":"node","seamark_type":"gate","display_class":"OTHER","min_zoom":12,"importance":1,"name":null,"ref":null,"common":{"type":"gate"},"children":{},"osm_tags":{"seamark:type":"gate","waterway":"lock_gate"}}},{"type":"Feature","geometry":{"type":"Point","coordinates":[-80.8305556,32.0530556]},"properties":{"osm_id":9308446773,"osm_type":"node","seamark_type":"wreck","display_class":"OTHER","min_zoom":12,"importance":1,"name":null,"ref":null,"common":{"status":"existence_doubtful","type":"wreck"},"children":{"wreck":{"category":"dangerous"}},"osm_tags":{"seamark:status":"existence_doubtful","seamark:type":"wreck","seamark:wreck:category":"dangerous"}}},{"type":"Feature","geometry":{"type":"Point","coordinates":[-80.4166667,32.0516667]},"properties":{"osm_id":9370347667,"osm_type":"node","seamark_type":"obstruction","display_class":"OTHER","min_zoom":12,"importance":1,"name":null,"ref":null,"common":{"type":"obstruction"},"children":{},"osm_tags":{"seamark:type":"obstruction"}}},{"type":"Feature","geometry":{"type":"Point","coordinates":[-80.5483333,32.1683333]},"properties":{"osm_id":9370378426,"osm_type":"node","seamark_type":"obstruction","display_class":"OTHER","min_zoom":12,"importance":1,"name":null,"ref":null,"common":{"type":"obstruction"},"children":{},"osm_tags":{"seamark:type":"obstruction"}}},{"type":"Feature","geometry":{"type":"Point","coordinates":[-80.8129654,32.138412]},"properties":{"osm_id":11419392086,"osm_type":"node","seamark_type":"small_craft_facility","display_class":"OTHER","min_zoom":12,"importance":1,"name":null,"ref":null,"common":{"type":"small_craft_facility"},"children":{"small_craft_facility":{"category":"fuel_station"}},"osm_tags":{"seamark:small_craft_facility:category":"fuel_station","seamark:type":"small_craft_facility","waterway":"fuel"}}},{"type":"Feature","geometry":{"type":"Point","coordinates":[-80.9067491,32.0349075]},"properties":{"osm_id":13739851387,"osm_type":"node","seamark_type":"mooring","display_class":"OTHER","min_zoom":12,"importance":1,"name":null,"ref":null,"common":{"type":"mooring"},"children":{"mooring":{"category":"dolphin"}},"osm_tags":{"man_made":"tower","seamark:mooring:category":"dolphin","seamark:type":"mooring","tower:construction":"freestanding"}}},{"type":"Feature","geometry":{"type":"Point","coordinates":[-80.9024267,32.0343833]},"properties":{"osm_id":13739874701,"osm_type":"node","seamark_type":"mooring","display_class":"OTHER","min_zoom":12,"importance":1,"name":null,"ref":null,"common":{"type":"mooring"},"children":{"mooring":{"category":"dolphin"}},"osm_tags":{"man_made":"tower","seamark:mooring:category":"dolphin","seamark:type":"mooring","tower:construction":"freestanding"}}},{"type":"Feature","geometry":{"type":"Point","coordinates":[-80.9024303,32.0343622]},"properties":{"osm_id":13739874702,"osm_type":"node","seamark_type":"mooring","display_class":"OTHER","min_zoom":12,"importance":1,"name":null,"ref":null,"common":{"type":"mooring"},"children":{"mooring":{"category":"dolphin"}},"osm_tags":{"man_made":"tower","seamark:mooring:category":"dolphin","seamark:type":"mooring","tower:construction":"freestanding"}}},{"type":"Feature","geometry":{"type":"Point","coordinates":[-80.9023317,32.0343704]},"properties":{"osm_id":13739874703,"osm_type":"node","seamark_type":"mooring","display_class":"OTHER","min_zoom":12,"importance":1,"name":null,"ref":null,"common":{"type":"mooring"},"children":{"mooring":{"category":"dolphin"}},"osm_tags":{"man_made":"tower","seamark:mooring:category":"dolphin","seamark:type":"mooring","tower:construction":"freestanding"}}},{"type":"Feature","geometry":{"type":"Point","coordinates":[-80.9023317,32.034351]},"properties":{"osm_id":13739874704,"osm_type":"node","seamark_type":"mooring","display_class":"OTHER","min_zoom":12,"importance":1,"name":null,"ref":null,"common":{"type":"mooring"},"children":{"mooring":{"category":"dolphin"}},"osm_tags":{"man_made":"tower","seamark:mooring:category":"dolphin","seamark:type":"mooring","tower:construction":"freestanding"}}},{"type":"Feature","geometry":{"type":"Point","coordinates":[-80.8989762,32.0374987]},"properties":{"osm_id":13739985092,"osm_type":"node","seamark_type":"mooring","display_class":"OTHER","min_zoom":12,"importance":1,"name":null,"ref":null,"common":{"type":"mooring"},"children":{"mooring":{"category":"dolphin"}},"osm_tags":{"man_made":"tower","seamark:mooring:category":"dolphin","seamark:type":"mooring","tower:construction":"freestanding"}}},{"type":"Feature","geometry":{"type":"Point","coordinates":[-80.9014342,32.0379926]},"properties":{"osm_id":13739985093,"osm_type":"node","seamark_type":"mooring","display_class":"OTHER","min_zoom":12,"importance":1,"name":null,"ref":null,"common":{"type":"mooring"},"children":{"mooring":{"category":"dolphin"}},"osm_tags":{"man_made":"tower","seamark:mooring:category":"dolphin","seamark:type":"mooring","tower:construction":"freestanding"}}},{"type":"Feature","geometry":{"type":"Point","coordinates":[-80.9015781,32.0380095]},"properties":{"osm_id":13739985094,"osm_type":"node","seamark_type":"mooring","display_class":"OTHER","min_zoom":12,"importance":1,"name":null,"ref":null,"common":{"type":"mooring"},"children":{"mooring":{"category":"dolphin"}},"osm_tags":{"man_made":"tower","seamark:mooring:category":"dolphin","seamark:type":"mooring","tower:construction":"freestanding"}}},{"type":"Feature","geometry":{"type":"Point","coordinates":[-80.9026501,32.0378897]},"properties":{"osm_id":13739985095,"osm_type":"node","seamark_type":"mooring","display_class":"OTHER","min_zoom":12,"importance":1,"name":null,"ref":null,"common":{"type":"mooring"},"children":{"mooring":{"category":"post"}},"osm_tags":{"man_made":"tower","seamark:mooring:category":"post","seamark:type":"mooring","tower:construction":"freestanding"}}},{"type":"Feature","geometry":{"type":"Polygon","coordinates":[[[-80.7824824,32.2156035],[-80.7822409,32.2157208],[-80.7822127,32.2156799],[-80.7819292,32.215811],[-80.7819578,32.2158586],[-80.7819402,32.2158953],[-80.7815666,32.2160483],[-80.7815702,32.2167605],[-80.7814839,32.2168342],[-80.780333,32.2168328],[-80.7802423,32.2167627],[-80.7802397,32.2161258],[-80.7801173,32.2160245],[-80.7796488,32.2160245],[-80.7795493,32.2161496],[-80.7795396,32.2167732],[-80.7794533,32.2168402],[-80.7778569,32.2168328],[-80.7777733,32.2167478],[-80.777783,32.21621],[-80.7766048,32.215202],[-80.7762931,32.2151975],[-80.7754883,32.215871],[-80.7753527,32.2158948],[-80.7752399,32.2158606],[-80.7751572,32.215801],[-80.7751308,32.2157041],[-80.7751589,32.2156058],[-80.7752012,32.2155521],[-80.776117,32.2147774],[-80.7761152,32.2143989],[-80.7762807,32.2144004],[-80.7778182,32.2157592],[-80.7781827,32.2154419],[-80.7788202,32.2159917],[-80.7792587,32.2159813],[-80.7795881,32.2156266],[-80.7805972,32.2156207],[-80.7810903,32.2158889],[-80.7811583,32.2157479],[-80.781191,32.215756],[-80.7812335,32.2157657],[-80.7811695,32.2158999],[-80.7813949,32.2159321],[-80.7818669,32.2157265],[-80.7818924,32.2157654],[-80.7821714,32.2156318],[-80.782162,32.2155918],[-80.7823756,32.2154752],[-80.7823982,32.2154993],[-80.7824935,32.2156011],[-80.7824824,32.2156035]]]},"properties":{"osm_id":330425143,"osm_type":"way","seamark_type":"harbour","display_class":"OTHER","min_zoom":12,"importance":1,"name":null,"ref":null,"common":{"type":"harbour"},"children":{"harbour":{"category":"marina"}},"osm_tags":{"leisure":"marina","natural":"water","seamark:harbour:category":"marina","seamark:type":"harbour","water":"lagoon"}}},{"type":"Feature","geometry":{"type":"LineString","coordinates":[[-80.7509856,32.2370256],[-80.7572463,32.2285189]]},"properties":{"osm_id":880520057,"osm_type":"way","seamark_type":"seaplane_landing_area","display_class":"OTHER","min_zoom":12,"importance":1,"name":null,"ref":"6W/24W","common":{"type":"seaplane_landing_area"},"children":{},"osm_tags":{"length":"1524","ref":"6W/24W","seamark:type":"seaplane_landing_area","surface":"water","width":"61"}}},{"type":"Feature","geometry":{"type":"Polygon","coordinates":[[[-80.7516667,32.0508333],[-80.7519444,32.0511111],[-80.7502778,32.0516667],[-80.7483333,32.0513889],[-80.7502778,32.0508333],[-80.7516667,32.0508333]]]},"properties":{"osm_id":1015878044,"osm_type":"way","seamark_type":"obstruction","display_class":"OTHER","min_zoom":12,"importance":1,"name":null,"ref":null,"common":{"type":"obstruction"},"children":{},"osm_tags":{"seamark:type":"obstruction"}}},{"type":"Feature","geometry":{"type":"Polygon","coordinates":[[[-80.998122,32.0083113],[-80.9970904,32.0075043],[-80.996936,32.0077653],[-80.9966989,32.0077293],[-80.9965361,32.0081344],[-80.9969997,32.0083535],[-80.9977784,32.0088937],[-80.998122,32.0083113]]]},"properties":{"osm_id":1054826704,"osm_type":"way","seamark_type":"harbour","display_class":"OTHER","min_zoom":12,"importance":1,"name":null,"ref":null,"common":{"type":"harbour"},"children":{"harbour":{"category":"marina"}},"osm_tags":{"leisure":"marina","seamark:harbour:category":"marina","seamark:type":"harbour"}}},{"type":"Feature","geometry":{"type":"Polygon","coordinates":[[[-80.9886355,32.0118204],[-80.9890518,32.0119103],[-80.9889059,32.0123449],[-80.988565,32.0123123],[-80.9885969,32.0122376],[-80.9886327,32.0121539],[-80.9885658,32.0119741],[-80.9886355,32.0118204]]]},"properties":{"osm_id":1054826705,"osm_type":"way","seamark_type":"harbour","display_class":"OTHER","min_zoom":12,"importance":1,"name":null,"ref":null,"common":{"type":"harbour"},"children":{"harbour":{"category":"marina"}},"osm_tags":{"leisure":"marina","seamark:harbour:category":"marina","seamark:type":"harbour"}}},{"type":"Feature","geometry":{"type":"Polygon","coordinates":[[[-80.9883748,32.0126489],[-80.9885837,32.0126043],[-80.9887331,32.0125776],[-80.9887775,32.0124548],[-80.9889187,32.0124716],[-80.9888312,32.013126],[-80.9885661,32.0130983],[-80.9885194,32.0129993],[-80.9883583,32.0130114],[-80.9883748,32.0126489]]]},"properties":{"osm_id":1054826706,"osm_type":"way","seamark_type":"harbour","display_class":"OTHER","min_zoom":12,"importance":1,"name":null,"ref":null,"common":{"type":"harbour"},"children":{"harbour":{"category":"marina"}},"osm_tags":{"leisure":"marina","seamark:harbour:category":"marina","seamark:type":"harbour"}}},{"type":"Feature","geometry":{"type":"Polygon","coordinates":[[[-80.9883772,32.0132428],[-80.9884264,32.0138441],[-80.9889005,32.0138348],[-80.9888226,32.0131821],[-80.9883772,32.0132428]]]},"properties":{"osm_id":1054826707,"osm_type":"way","seamark_type":"harbour","display_class":"OTHER","min_zoom":12,"importance":1,"name":null,"ref":null,"common":{"type":"harbour"},"children":{"harbour":{"category":"marina"}},"osm_tags":{"leisure":"marina","seamark:harbour:category":"marina","seamark:type":"harbour"}}},{"type":"Feature","geometry":{"type":"Polygon","coordinates":[[[-80.0125089,32.7524597],[-80.0106855,32.7525933],[-80.0106194,32.7519172],[-80.012221,32.7516573],[-80.0122311,32.7517395],[-80.0123577,32.752216],[-80.0125089,32.7524597]]]},"properties":{"osm_id":1087382178,"osm_type":"way","seamark_type":"harbour","display_class":"OTHER","min_zoom":12,"importance":1,"name":null,"ref":null,"common":{"type":"harbour"},"children":{"harbour":{"category":"marina"}},"osm_tags":{"leisure":"marina","seamark:harbour:category":"marina","seamark:type":"harbour"}}},{"type":"Feature","geometry":{"type":"Polygon","coordinates":[[[-80.0122698,32.7556949],[-80.0111088,32.7557847],[-80.0110267,32.7531911],[-80.0125549,32.7530814],[-80.0126455,32.7532201],[-80.0126793,32.7535297],[-80.0127428,32.7538545],[-80.0127327,32.754018],[-80.0126936,32.7542269],[-80.0126869,32.7544029],[-80.0126086,32.7548427],[-80.0125173,32.7551836],[-80.0124326,32.7554036],[-80.0122698,32.7556949]]]},"properties":{"osm_id":1087382179,"osm_type":"way","seamark_type":"harbour","display_class":"OTHER","min_zoom":12,"importance":1,"name":null,"ref":null,"common":{"type":"harbour"},"children":{"harbour":{"category":"marina"}},"osm_tags":{"leisure":"marina","seamark:harbour:category":"marina","seamark:type":"harbour"}}},{"type":"Feature","geometry":{"type":"Polygon","coordinates":[[[-80.0617955,32.7723244],[-80.062742,32.773281],[-80.0637356,32.7725858],[-80.062789,32.7716293],[-80.0623028,32.7719695],[-80.0622695,32.7719928],[-80.0621478,32.772078],[-80.0618583,32.7722805],[-80.0617955,32.7723244]]]},"properties":{"osm_id":1087382286,"osm_type":"way","seamark_type":"harbour","display_class":"OTHER","min_zoom":12,"importance":1,"name":null,"ref":null,"common":{"type":"harbour"},"children":{"harbour":{"category":"marina"}},"osm_tags":{"leisure":"marina","seamark:harbour:category":"marina","seamark:type":"harbour"}}},{"type":"Feature","geometry":{"type":"Polygon","coordinates":[[[-80.8863708,32.031864],[-80.8864257,32.031828],[-80.8864062,32.031801],[-80.8863036,32.0318055],[-80.8862593,32.031831],[-80.8862593,32.031864],[-80.8862788,32.0318895],[-80.8863708,32.031864]]]},"properties":{"osm_id":1500729946,"osm_type":"way","seamark_type":"obstruction","display_class":"OTHER","min_zoom":12,"importance":1,"name":null,"ref":null,"common":{"type":"obstruction"},"children":{"obstruction":{"category":"reef","water_level":"submerged"}},"osm_tags":{"area":"yes","natural":"reef","reef":"rock","seamark:obstruction:category":"reef","seamark:obstruction:water_level":"submerged","seamark:type":"obstruction"}}},{"type":"Feature","geometry":{"type":"Polygon","coordinates":[[[-80.8860346,32.031951],[-80.8861655,32.0319045],[-80.8861974,32.0318565],[-80.8861744,32.0318355],[-80.8861213,32.0318355],[-80.8860187,32.0318595],[-80.885955,32.0318805],[-80.8858877,32.031912],[-80.8858523,32.031936],[-80.8858895,32.0319645],[-80.8860346,32.031951]]]},"properties":{"osm_id":1500729947,"osm_type":"way","seamark_type":"obstruction","display_class":"OTHER","min_zoom":12,"importance":1,"name":null,"ref":null,"common":{"type":"obstruction"},"children":{"obstruction":{"category":"reef","water_level":"submerged"}},"osm_tags":{"area":"yes","natural":"reef","reef":"rock","seamark:obstruction:category":"reef","seamark:obstruction:water_level":"submerged","seamark:type":"obstruction"}}},{"type":"Feature","geometry":{"type":"Point","coordinates":[-80.8333333,32.0652778]},"properties":{"osm_id":9334378135,"osm_type":"node","seamark_type":"buoy_lateral","display_class":"OTHER","min_zoom":12,"importance":1,"name":"3","ref":null,"common":{"name":"3","type":"buoy_lateral"},"children":{"buoy_lateral":{"category":"port","colour":"green","shape":"pillar","system":"iala-b"},"light":{"character":"Q","colour":"green"}},"osm_tags":{"man_made":"buoy","seamark:buoy_lateral:category":"port","seamark:buoy_lateral:colour":"green","seamark:buoy_lateral:shape":"pillar","seamark:buoy_lateral:system":"iala-b","seamark:light:character":"Q","seamark:light:colour":"green","seamark:name":"3","seamark:type":"buoy_lateral"}}},{"type":"Feature","geometry":{"type":"Point","coordinates":[-80.9744305,32.0129919]},"properties":{"osm_id":8300014847,"osm_type":"node","seamark_type":"gate","display_class":"OTHER","min_zoom":12,"importance":1,"name":"Betz Creek Canal Tide Gate","ref":null,"common":{"type":"gate"},"children":{},"osm_tags":{"name":"Betz Creek Canal Tide Gate","seamark:type":"gate","waterway":"lock_gate"}}},{"type":"Feature","geometry":{"type":"Polygon","coordinates":[[[-80.1554982,32.6071121],[-80.1559399,32.6072825],[-80.15624,32.6068252],[-80.1563985,32.6069104],[-80.1570593,32.6061918],[-80.1575111,32.6058652],[-80.1585665,32.6052062],[-80.1594533,32.6049136],[-80.1604783,32.6046779],[-80.1601561,32.60409],[-80.1599057,32.6041533],[-80.1595517,32.6041774],[-80.1592811,32.6042186],[-80.1588507,32.6043129],[-80.1583465,32.6044857],[-80.158089,32.6046112],[-80.157512,32.6049707],[-80.15673,32.6054939],[-80.1564165,32.6057791],[-80.1560588,32.6062129],[-80.1557549,32.6066638],[-80.1554982,32.6071121]]]},"properties":{"osm_id":1081650912,"osm_type":"way","seamark_type":"harbour","display_class":"OTHER","min_zoom":12,"importance":1,"name":"Bohicket Marina","ref":null,"common":{"type":"harbour"},"children":{"harbour":{"category":"marina"}},"osm_tags":{"leisure":"marina","name":"Bohicket Marina","seamark:harbour:category":"marina","seamark:type":"harbour"}}},{"type":"Feature","geometry":{"type":"Polygon","coordinates":[[[-80.9595819,32.0346843],[-80.9593263,32.0344745],[-80.9588624,32.0341767],[-80.9583892,32.0338728],[-80.9576531,32.0343168],[-80.9588829,32.0352919],[-80.9595819,32.0346843]]]},"properties":{"osm_id":1054825844,"osm_type":"way","seamark_type":"harbour","display_class":"OTHER","min_zoom":12,"importance":1,"name":"Bull River Marina","ref":null,"common":{"type":"harbour"},"children":{"harbour":{"category":"marina"}},"osm_tags":{"leisure":"marina","name":"Bull River Marina","seamark:harbour:category":"marina","seamark:type":"harbour"}}},{"type":"Feature","geometry":{"type":"Polygon","coordinates":[[[-80.5770793,32.4503478],[-80.577,32.450178],[-80.5774187,32.4500271],[-80.577498,32.4502157],[-80.5774147,32.4502398],[-80.5774533,32.4503221],[-80.5772907,32.4503701],[-80.5772561,32.4502929],[-80.5770793,32.4503478]]]},"properties":{"osm_id":1028841014,"osm_type":"way","seamark_type":"harbour","display_class":"OTHER","min_zoom":12,"importance":1,"name":"Dataw Island Marina","ref":null,"common":{"type":"harbour"},"children":{"harbour":{"category":"marina"}},"osm_tags":{"addr:city":"St Helena Island","addr:housenumber":"100","addr:postcode":"29920","addr:state":"SC","addr:street":"Marina Road","leisure":"marina","name":"Dataw Island Marina","seamark:harbour:category":"marina","seamark:type":"harbour","website":"https://datawmarina.com/"}}},{"type":"Feature","geometry":{"type":"Point","coordinates":[-80.4066667,32.28]},"properties":{"osm_id":9308378915,"osm_type":"node","seamark_type":"buoy_special_purpose","display_class":"OTHER","min_zoom":12,"importance":1,"name":"E","ref":null,"common":{"name":"E","type":"buoy_special_purpose"},"children":{"buoy_special_purpose":{"colour":"yellow"},"light":{"character":"Fl","colour":"yellow","period":"5"}},"osm_tags":{"man_made":"buoy","seamark:buoy_special_purpose:colour":"yellow","seamark:light:character":"Fl","seamark:light:colour":"yellow","seamark:light:period":"5","seamark:name":"E","seamark:type":"buoy_special_purpose"}}},{"type":"Feature","geometry":{"type":"Point","coordinates":[-80.3408714,32.494674]},"properties":{"osm_id":2765677293,"osm_type":"node","seamark_type":"harbour","display_class":"OTHER","min_zoom":12,"importance":1,"name":"Edisto Marina","ref":null,"common":{"type":"harbour"},"children":{"harbour":{"category":"marina"}},"osm_tags":{"leisure":"marina","name":"Edisto Marina","seamark:harbour:category":"marina","seamark:type":"harbour"}}},{"type":"Feature","geometry":{"type":"Polygon","coordinates":[[[-80.8715146,32.1325693],[-80.8712929,32.1324824],[-80.8710493,32.1326658],[-80.8708051,32.133043],[-80.8703399,32.1334335],[-80.871166,32.1340025],[-80.8721262,32.132944],[-80.8715146,32.1325693]]]},"properties":{"osm_id":487117291,"osm_type":"way","seamark_type":"harbour","display_class":"OTHER","min_zoom":12,"importance":1,"name":"Freeport Marina","ref":null,"common":{"type":"harbour"},"children":{"harbour":{"category":"marina"}},"osm_tags":{"leisure":"marina","name":"Freeport Marina","seamark:harbour:category":"marina","seamark:type":"harbour"}}},{"type":"Feature","geometry":{"type":"Polygon","coordinates":[[[-80.4883081,32.3240154],[-80.4901217,32.3231341],[-80.4898074,32.3225834],[-80.4892524,32.3228961],[-80.4892872,32.3229837],[-80.4891213,32.3230698],[-80.488994,32.3228756],[-80.4878888,32.3235288],[-80.4883081,32.3240154]]]},"properties":{"osm_id":1034562260,"osm_type":"way","seamark_type":"harbour","display_class":"OTHER","min_zoom":12,"importance":1,"name":"Fripp Island Marina","ref":null,"common":{"type":"harbour"},"children":{"harbour":{"category":"marina"}},"osm_tags":{"leisure":"marina","name":"Fripp Island Marina","seamark:harbour:category":"marina","seamark:type":"harbour","tourism":"attraction"}}},{"type":"Feature","geometry":{"type":"Polygon","coordinates":[[[-80.7732196,32.2223284],[-80.773643,32.2227679],[-80.7722636,32.2238706],[-80.7721483,32.2238229],[-80.7720947,32.2238592],[-80.7719605,32.2238025],[-80.7717004,32.2236482],[-80.7716843,32.2235642],[-80.7718881,32.2233963],[-80.7728725,32.2225318],[-80.7732196,32.2223284]]]},"properties":{"osm_id":1108632847,"osm_type":"way","seamark_type":"harbour","display_class":"OTHER","min_zoom":12,"importance":1,"name":"Hilton Head Harbor Marina","ref":null,"common":{"type":"harbour"},"children":{"harbour":{"category":"marina"}},"osm_tags":{"leisure":"marina","name":"Hilton Head Harbor Marina","seamark:harbour:category":"marina","seamark:type":"harbour"}}},{"type":"Feature","geometry":{"type":"Point","coordinates":[-80.6580494,32.4191863]},"properties":{"osm_id":1102564699,"osm_type":"node","seamark_type":"harbour","display_class":"OTHER","min_zoom":12,"importance":1,"name":"Ladys Island Marina","ref":null,"common":{"type":"harbour"},"children":{"harbour":{"category":"marina"}},"osm_tags":{"leisure":"marina","name":"Ladys Island Marina","seamark:harbour:category":"marina","seamark:type":"harbour"}}},{"type":"Feature","geometry":{"type":"Point","coordinates":[-80.1067537,32.7851969]},"properties":{"osm_id":4675010726,"osm_type":"node","seamark_type":"harbour","display_class":"OTHER","min_zoom":12,"importance":1,"name":"Limehouse Boat Landing","ref":null,"common":{"type":"harbour"},"children":{"harbour":{"category":"marina"}},"osm_tags":{"leisure":"marina","name":"Limehouse Boat Landing","seamark:harbour:category":"marina","seamark:type":"harbour"}}},{"type":"Feature","geometry":{"type":"Polygon","coordinates":[[[-80.7734092,32.1787569],[-80.7735016,32.1784907],[-80.7735863,32.1782256],[-80.7736232,32.1781102],[-80.7723664,32.1778173],[-80.7720662,32.1777538],[-80.7718635,32.1777093],[-80.7715444,32.1776333],[-80.7706352,32.1774646],[-80.7706167,32.177552],[-80.7704362,32.1777703],[-80.7703406,32.1780457],[-80.7703146,32.1781508],[-80.77338,32.1788524],[-80.7734092,32.1787569]]]},"properties":{"osm_id":426014217,"osm_type":"way","seamark_type":"harbour","display_class":"OTHER","min_zoom":12,"importance":1,"name":"Palmetto Bay Marina","ref":null,"common":{"type":"harbour"},"children":{"harbour":{"category":"marina"}},"osm_tags":{"leisure":"marina","name":"Palmetto Bay Marina","seamark:harbour:category":"marina","seamark:type":"harbour"}}},{"type":"Feature","geometry":{"type":"Polygon","coordinates":[[[-80.6748968,32.4308607],[-80.6753947,32.4298091],[-80.6735892,32.4292809],[-80.673314,32.4301903],[-80.673399,32.4304303],[-80.6748968,32.4308607]]]},"properties":{"osm_id":736650505,"osm_type":"way","seamark_type":"harbour","display_class":"OTHER","min_zoom":12,"importance":1,"name":"Safe Harbor Beaufort","ref":null,"common":{"type":"harbour"},"children":{"harbour":{"category":"marina"}},"osm_tags":{"leisure":"marina","name":"Safe Harbor Beaufort","seamark:harbour:category":"marina","seamark:type":"harbour"}}},{"type":"Feature","geometry":{"type":"Polygon","coordinates":[[[-80.6795238,32.3943894],[-80.6777278,32.3942798],[-80.6775131,32.3967852],[-80.6788317,32.3968659],[-80.6793617,32.3962856],[-80.6795238,32.3943894]]]},"properties":{"osm_id":1028892174,"osm_type":"way","seamark_type":"harbour","display_class":"OTHER","min_zoom":12,"importance":1,"name":"Safe Harbor Port Royal Landing","ref":null,"common":{"type":"harbour"},"children":{"harbour":{"category":"marina"}},"osm_tags":{"leisure":"marina","name":"Safe Harbor Port Royal Landing","seamark:harbour:category":"marina","seamark:type":"harbour"}}},{"type":"Feature","geometry":{"type":"Polygon","coordinates":[[[-80.9612025,32.0359755],[-80.9603837,32.0365911],[-80.9595991,32.03592],[-80.9603191,32.0352776],[-80.9606955,32.0349047],[-80.9623221,32.0333668],[-80.9627452,32.0336065],[-80.963133,32.0339131],[-80.9625578,32.0342248],[-80.9620172,32.0344071],[-80.9613854,32.0347218],[-80.960962,32.0350917],[-80.9606998,32.0355458],[-80.9612025,32.0359755]]]},"properties":{"osm_id":1054825843,"osm_type":"way","seamark_type":"harbour","display_class":"OTHER","min_zoom":12,"importance":1,"name":"Savannah Boathouse Marina","ref":null,"common":{"type":"harbour"},"children":{"harbour":{"category":"marina"}},"osm_tags":{"leisure":"marina","name":"Savannah Boathouse Marina","seamark:harbour:category":"marina","seamark:type":"harbour"}}},{"type":"Feature","geometry":{"type":"Polygon","coordinates":[[[-80.8237665,32.1156861],[-80.8238755,32.11615],[-80.824569,32.1166461],[-80.8247444,32.116517],[-80.8249477,32.1163149],[-80.8249341,32.1162706],[-80.8248893,32.1162546],[-80.8248694,32.1162052],[-80.8249493,32.116133],[-80.8248819,32.1161025],[-80.8248109,32.116049],[-80.8249757,32.1159001],[-80.8249757,32.1158801],[-80.8249147,32.1158316],[-80.8249271,32.1158011],[-80.8249419,32.1157555],[-80.8247779,32.1156162],[-80.8247618,32.1156031],[-80.8245712,32.1154575],[-80.8245303,32.1154925],[-80.8244551,32.1154285],[-80.8243684,32.1154892],[-80.824072,32.1155646],[-80.8240088,32.1155113],[-80.8237665,32.1156861]]]},"properties":{"osm_id":487571460,"osm_type":"way","seamark_type":"harbour","display_class":"OTHER","min_zoom":12,"importance":1,"name":"South Beach Marina","ref":null,"common":{"type":"harbour"},"children":{"harbour":{"category":"marina"}},"osm_tags":{"leisure":"marina","name":"South Beach Marina","seamark:harbour:category":"marina","seamark:type":"harbour"}}},{"type":"Feature","geometry":{"type":"Point","coordinates":[-80.8829667,32.0133157]},"properties":{"osm_id":3698957800,"osm_type":"node","seamark_type":"harbour","display_class":"OTHER","min_zoom":12,"importance":1,"name":"Tybee Island Marina","ref":null,"common":{"type":"harbour"},"children":{"harbour":{"category":"marina"}},"osm_tags":{"leisure":"marina","name":"Tybee Island Marina","phone":"+1-912-786-5554","seamark:harbour:category":"marina","seamark:type":"harbour"}}},{"type":"Feature","geometry":{"type":"Point","coordinates":[-80.8984612,32.0333518]},"properties":{"osm_id":12171882222,"osm_type":"node","seamark_type":"light_minor","display_class":"OTHER","min_zoom":12,"importance":1,"name":"Tybee Knoll Cut Range Front Light","ref":null,"common":{"information":"KRW on square skeleton tower on piles, visible 2° each side of rangeline.","name":"Tybee Knoll Cut Range Front Light","reference":"LLNR 4710","type":"light_minor"},"children":{"daymark":{"colour":"red/white","colour_pattern":"stripes","shape":"rectangle"},"light":{"category":"front range light","character":"Q","colour":"white","height":"10.7"}},"osm_tags":{"man_made":"tower","name":"Tybee Knoll Cut Front Range","operator":"United States Coast Guard","operator:short":"USCG","operator:type":"military","operator:wikidata":"Q11224","seamark:daymark:colour":"red/white","seamark:daymark:colour_pattern":"stripes","seamark:daymark:shape":"rectangle","seamark:information":"KRW on square skeleton tower on piles, visible 2° each side of rangeline.","seamark:light:category":"front range light","seamark:light:character":"Q","seamark:light:colour":"white","seamark:light:height":"10.7","seamark:name":"Tybee Knoll Cut Range Front Light","seamark:reference":"LLNR 4710","seamark:type":"light_minor","source":"U.S. Coast Guard, Light List vol. III, Atlantic and Gulf Coasts, COMDTPUB P16502.1, 2025","tower:type":"navigation"}}},{"type":"Feature","geometry":{"type":"Point","coordinates":[-80.9071749,32.0325325]},"properties":{"osm_id":13739985096,"osm_type":"node","seamark_type":"light_minor","display_class":"OTHER","min_zoom":12,"importance":1,"name":"Tybee Knoll Cut Range Rear Light","ref":null,"common":{"information":"KRW on square skeleton tower on piles, visible 2° each side of rangeline.","name":"Tybee Knoll Cut Range Rear Light","reference":"LLNR 4715","type":"light_minor"},"children":{"daymark":{"colour":"red/white","colour_pattern":"stripes","shape":"rectangle"},"light":{"category":"rear range light","character":"Iso","colour":"white","height":"21.3","period":"06"}},"osm_tags":{"man_made":"tower","name":"Tybee Knoll Cut Rear Range","operator":"United States Coast Guard","operator:short":"USCG","operator:type":"military","operator:wikidata":"Q11224","seamark:daymark:colour":"red/white","seamark:daymark:colour_pattern":"stripes","seamark:daymark:shape":"rectangle","seamark:information":"KRW on square skeleton tower on piles, visible 2° each side of rangeline.","seamark:light:category":"rear range light","seamark:light:character":"Iso","seamark:light:colour":"white","seamark:light:height":"21.3","seamark:light:period":"06","seamark:name":"Tybee Knoll Cut Range Rear Light","seamark:reference":"LLNR 4715","seamark:type":"light_minor","source":"U.S. Coast Guard, Light List vol. III, Atlantic and Gulf Coasts, COMDTPUB P16502.1, 2025","tower:type":"navigation"}}},{"type":"Feature","geometry":{"type":"Point","coordinates":[-80.906597,32.0349339]},"properties":{"osm_id":7713457708,"osm_type":"node","seamark_type":"berth","display_class":"OTHER","min_zoom":12,"importance":1,"name":"USCGC Ibis","ref":null,"common":{"type":"berth"},"children":{},"osm_tags":{"addr:city":"Tybee Island","addr:postcode":"31328","addr:state":"GA","addr:street":"Tybee Coast Guard Station Drive","description":"A multi-mission vessel, capable of performing search and rescue, law enforcement, fishery patrols, drug interdiction, illegal immigrant interdiction, and homeland security duties up to 200 miles offshore.","landuse":"military","military_service":"coast_guard","name":"USCGC Ibis","seamark:type":"berth"}}},{"type":"Feature","geometry":{"type":"Point","coordinates":[-80.0173768,32.8973068]},"properties":{"osm_id":13147700387,"osm_type":"node","seamark_type":"small_craft_facility","display_class":"OTHER","min_zoom":12,"importance":1,"name":"West Marine","ref":null,"common":{"type":"small_craft_facility"},"children":{"small_craft_facility":{"category":"chandler"}},"osm_tags":{"brand":"West Marine","brand:wikidata":"Q7985852","name":"West Marine","seamark:small_craft_facility:category":"chandler","seamark:type":"small_craft_facility","shop":"boat"}}},{"type":"Feature","geometry":{"type":"Polygon","coordinates":[[[-80.7815744,32.2157412],[-80.7815452,32.2156997],[-80.7813928,32.2157764],[-80.7813011,32.2157702],[-80.7812964,32.2158199],[-80.7813907,32.2158263],[-80.7814215,32.2158182],[-80.7815744,32.2157412]]]},"properties":{"osm_id":978681944,"osm_type":"way","seamark_type":"harbour","display_class":"OTHER","min_zoom":12,"importance":1,"name":"Windmill Harbour Marina","ref":null,"common":{"type":"harbour"},"children":{"harbour":{"category":"marina"}},"osm_tags":{"leisure":"marina","name":"Windmill Harbour Marina","seamark:harbour:category":"marina","seamark:type":"harbour"}}}],"type":"FeatureCollection"}