{"type":"FeatureCollection","features":[{"type":"Feature","geometry":{"type":"Point","coordinates":[129.677305,33.739954]},"properties":{"osm_id":3072745863,"osm_type":"node","seamark_type":"light_major","display_class":"LIGHTHOUSE","min_zoom":7,"importance":5,"name":null,"ref":null,"common":{"type":"light_major"},"children":{},"osm_tags":{"man_made":"lighthouse","seamark:type":"light_major"}}},{"type":"Feature","geometry":{"type":"Point","coordinates":[129.6832478,33.7424457]},"properties":{"osm_id":3072745869,"osm_type":"node","seamark_type":"light_major","display_class":"LIGHTHOUSE","min_zoom":7,"importance":5,"name":null,"ref":null,"common":{"type":"light_major"},"children":{},"osm_tags":{"man_made":"lighthouse","seamark:type":"light_major"}}},{"type":"Feature","geometry":{"type":"Point","coordinates":[129.7620422,33.803948]},"properties":{"osm_id":3072746892,"osm_type":"node","seamark_type":"light_major","display_class":"LIGHTHOUSE","min_zoom":7,"importance":5,"name":null,"ref":null,"common":{"type":"light_major"},"children":{},"osm_tags":{"man_made":"lighthouse","seamark:type":"light_major"}}},{"type":"Feature","geometry":{"type":"Point","coordinates":[129.7600476,33.8064646]},"properties":{"osm_id":3072746902,"osm_type":"node","seamark_type":"light_major","display_class":"LIGHTHOUSE","min_zoom":7,"importance":5,"name":null,"ref":null,"common":{"type":"light_major"},"children":{},"osm_tags":{"man_made":"lighthouse","seamark:type":"light_major"}}},{"type":"Feature","geometry":{"type":"Point","coordinates":[129.765567,33.8074782]},"properties":{"osm_id":3072746906,"osm_type":"node","seamark_type":"light_major","display_class":"LIGHTHOUSE","min_zoom":7,"importance":5,"name":null,"ref":null,"common":{"type":"light_major"},"children":{},"osm_tags":{"man_made":"lighthouse","seamark:type":"light_major"}}},{"type":"Feature","geometry":{"type":"Point","coordinates":[129.75932,33.8082584]},"properties":{"osm_id":3072746907,"osm_type":"node","seamark_type":"light_major","display_class":"LIGHTHOUSE","min_zoom":7,"importance":5,"name":null,"ref":null,"common":{"type":"light_major"},"children":{},"osm_tags":{"man_made":"lighthouse","seamark:type":"light_major"}}},{"type":"Feature","geometry":{"type":"Point","coordinates":[129.7887307,33.741336]},"properties":{"osm_id":4404246677,"osm_type":"node","seamark_type":"light_major","display_class":"LIGHTHOUSE","min_zoom":7,"importance":5,"name":null,"ref":null,"common":{"type":"light_major"},"children":{},"osm_tags":{"man_made":"lighthouse","seamark:type":"light_major","source":"GSImaps/std"}}},{"type":"Feature","geometry":{"type":"Point","coordinates":[129.6900915,33.8625863]},"properties":{"osm_id":7048412503,"osm_type":"node","seamark_type":"light_major","display_class":"LIGHTHOUSE","min_zoom":7,"importance":5,"name":null,"ref":null,"common":{"type":"light_major"},"children":{},"osm_tags":{"man_made":"lighthouse","seamark:type":"light_major"}}},{"type":"Feature","geometry":{"type":"Point","coordinates":[129.5528903,33.6047702]},"properties":{"osm_id":7071970356,"osm_type":"node","seamark_type":"light_major","display_class":"LIGHTHOUSE","min_zoom":7,"importance":5,"name":null,"ref":null,"common":{"type":"light_major"},"children":{},"osm_tags":{"man_made":"lighthouse","seamark:type":"light_major"}}},{"type":"Feature","geometry":{"type":"Point","coordinates":[129.0151618,33.2121722]},"properties":{"osm_id":7072252481,"osm_type":"node","seamark_type":"light_major","display_class":"LIGHTHOUSE","min_zoom":7,"importance":5,"name":null,"ref":null,"common":{"type":"light_major"},"children":{},"osm_tags":{"man_made":"lighthouse","seamark:type":"light_major"}}},{"type":"Feature","geometry":{"type":"Point","coordinates":[129.0519212,33.1794414]},"properties":{"osm_id":7074108010,"osm_type":"node","seamark_type":"light_major","display_class":"LIGHTHOUSE","min_zoom":7,"importance":5,"name":null,"ref":null,"common":{"type":"light_major"},"children":{},"osm_tags":{"man_made":"lighthouse","seamark:type":"light_major"}}},{"type":"Feature","geometry":{"type":"Point","coordinates":[129.06419,33.1824145]},"properties":{"osm_id":7074108016,"osm_type":"node","seamark_type":"light_major","display_class":"LIGHTHOUSE","min_zoom":7,"importance":5,"name":null,"ref":null,"common":{"type":"light_major"},"children":{},"osm_tags":{"man_made":"lighthouse","seamark:type":"light_major"}}},{"type":"Feature","geometry":{"type":"Point","coordinates":[129.134007,33.255417]},"properties":{"osm_id":7111623411,"osm_type":"node","seamark_type":"light_major","display_class":"LIGHTHOUSE","min_zoom":7,"importance":5,"name":null,"ref":null,"common":{"type":"light_major"},"children":{},"osm_tags":{"man_made":"lighthouse","seamark:type":"light_major"}}},{"type":"Feature","geometry":{"type":"Point","coordinates":[129.1317753,33.2578721]},"properties":{"osm_id":7111623412,"osm_type":"node","seamark_type":"light_major","display_class":"LIGHTHOUSE","min_zoom":7,"importance":5,"name":null,"ref":null,"common":{"type":"light_major"},"children":{},"osm_tags":{"man_made":"lighthouse","seamark:type":"light_major"}}},{"type":"Feature","geometry":{"type":"Point","coordinates":[129.1706496,33.30276]},"properties":{"osm_id":7112347639,"osm_type":"node","seamark_type":"light_major","display_class":"LIGHTHOUSE","min_zoom":7,"importance":5,"name":null,"ref":null,"common":{"type":"light_major"},"children":{},"osm_tags":{"man_made":"lighthouse","seamark:type":"light_major"}}},{"type":"Feature","geometry":{"type":"Point","coordinates":[129.1255767,33.3015459]},"properties":{"osm_id":7112369605,"osm_type":"node","seamark_type":"light_major","display_class":"LIGHTHOUSE","min_zoom":7,"importance":5,"name":null,"ref":null,"common":{"type":"light_major"},"children":{},"osm_tags":{"man_made":"lighthouse","seamark:type":"light_major"}}},{"type":"Feature","geometry":{"type":"Point","coordinates":[129.4976192,33.4723592]},"properties":{"osm_id":7115760333,"osm_type":"node","seamark_type":"light_major","display_class":"LIGHTHOUSE","min_zoom":7,"importance":5,"name":null,"ref":null,"common":{"type":"light_major"},"children":{},"osm_tags":{"man_made":"lighthouse","seamark:type":"light_major"}}},{"type":"Feature","geometry":{"type":"Point","coordinates":[129.5211761,33.4716214]},"properties":{"osm_id":7115760336,"osm_type":"node","seamark_type":"light_major","display_class":"LIGHTHOUSE","min_zoom":7,"importance":5,"name":null,"ref":null,"common":{"type":"light_major"},"children":{},"osm_tags":{"man_made":"lighthouse","seamark:type":"light_major"}}},{"type":"Feature","geometry":{"type":"Point","coordinates":[129.5563741,33.51056]},"properties":{"osm_id":7115760343,"osm_type":"node","seamark_type":"light_major","display_class":"LIGHTHOUSE","min_zoom":7,"importance":5,"name":null,"ref":null,"common":{"type":"light_major"},"children":{},"osm_tags":{"man_made":"lighthouse","seamark:type":"light_major"}}},{"type":"Feature","geometry":{"type":"Point","coordinates":[129.40004,33.3609207]},"properties":{"osm_id":7115869684,"osm_type":"node","seamark_type":"light_major","display_class":"LIGHTHOUSE","min_zoom":7,"importance":5,"name":null,"ref":null,"common":{"type":"light_major"},"children":{},"osm_tags":{"man_made":"lighthouse","seamark:type":"light_major"}}},{"type":"Feature","geometry":{"type":"Point","coordinates":[129.761827,33.8039204]},"properties":{"osm_id":1223942398,"osm_type":"node","seamark_type":"light_major","display_class":"LIGHTHOUSE","min_zoom":7,"importance":5,"name":"Ashibe Ko","ref":null,"common":{"name":"Ashibe Ko","type":"light_major"},"children":{"light":{"character":"Oc","colour":"white","height":"42","period":"8","range":"18","reference":"M 5261"}},"osm_tags":{"seamark:light:character":"Oc","seamark:light:colour":"white","seamark:light:height":"42","seamark:light:period":"8","seamark:light:range":"18","seamark:light:reference":"M 5261","seamark:name":"Ashibe Ko","seamark:type":"light_major","source":"US NGA Pub. 112. 2009-11-12."}}},{"type":"Feature","geometry":{"type":"Point","coordinates":[129.8464199,33.5554833]},"properties":{"osm_id":2910212503,"osm_type":"node","seamark_type":"light_major","display_class":"LIGHTHOUSE","min_zoom":7,"importance":5,"name":"波戸岬灯台","ref":null,"common":{"type":"light_major"},"children":{},"osm_tags":{"man_made":"lighthouse","name":"波戸岬灯台","seamark:type":"light_major"}}},{"type":"Feature","geometry":{"type":"Point","coordinates":[129.7600427,33.8065572]},"properties":{"osm_id":1223942411,"osm_type":"node","seamark_type":"light_minor","display_class":"OTHER","min_zoom":12,"importance":1,"name":null,"ref":null,"common":{"type":"light_minor"},"children":{"light":{"character":"Iso","colour":"green","height":"13","period":"4","range":"12","reference":"M 5261.4"}},"osm_tags":{"seamark:light:character":"Iso","seamark:light:colour":"green","seamark:light:height":"13","seamark:light:period":"4","seamark:light:range":"12","seamark:light:reference":"M 5261.4","seamark:type":"light_minor","source":"US NGA Pub. 112. 2009-11-12."}}},{"type":"Feature","geometry":{"type":"Point","coordinates":[129.7655576,33.8074743]},"properties":{"osm_id":1223942420,"osm_type":"node","seamark_type":"light_minor","display_class":"OTHER","min_zoom":12,"importance":1,"name":null,"ref":null,"common":{"type":"light_minor"},"children":{"light":{"character":"Fl","colour":"red","height":"16","period":"4","range":"12","reference":"M 5261.3"}},"osm_tags":{"seamark:light:character":"Fl","seamark:light:colour":"red","seamark:light:height":"16","seamark:light:period":"4","seamark:light:range":"12","seamark:light:reference":"M 5261.3","seamark:type":"light_minor","source":"US NGA Pub. 112. 2009-11-12."}}},{"type":"Feature","geometry":{"type":"Point","coordinates":[129.7593271,33.8083958]},"properties":{"osm_id":1223942422,"osm_type":"node","seamark_type":"light_minor","display_class":"OTHER","min_zoom":12,"importance":1,"name":null,"ref":null,"common":{"type":"light_minor"},"children":{"light":{"character":"Iso","colour":"red","height":"13","period":"4","range":"12","reference":"M 5261.2"}},"osm_tags":{"seamark:light:character":"Iso","seamark:light:colour":"red","seamark:light:height":"13","seamark:light:period":"4","seamark:light:range":"12","seamark:light:reference":"M 5261.2","seamark:type":"light_minor","source":"US NGA Pub. 112. 2009-11-12."}}},{"type":"Feature","geometry":{"type":"Point","coordinates":[129.677304,33.7399593]},"properties":{"osm_id":1223942433,"osm_type":"node","seamark_type":"light_minor","display_class":"OTHER","min_zoom":12,"importance":1,"name":null,"ref":null,"common":{"type":"light_minor"},"children":{"light":{"character":"Fl","colour":"red","height":"13","period":"3","range":"11","reference":"M 5259.27"}},"osm_tags":{"seamark:light:character":"Fl","seamark:light:colour":"red","seamark:light:height":"13","seamark:light:period":"3","seamark:light:range":"11","seamark:light:reference":"M 5259.27","seamark:type":"light_minor","source":"US NGA Pub. 112. 2009-11-12."}}},{"type":"Feature","geometry":{"type":"Point","coordinates":[129.6645607,33.7468566]},"properties":{"osm_id":1223942434,"osm_type":"node","seamark_type":"light_minor","display_class":"OTHER","min_zoom":12,"importance":1,"name":null,"ref":null,"common":{"type":"light_minor"},"children":{"light":{"character":"Iso","colour":"green","height":"9","period":"6","range":"6","reference":"M 5259.29"}},"osm_tags":{"seamark:light:character":"Iso","seamark:light:colour":"green","seamark:light:height":"9","seamark:light:period":"6","seamark:light:range":"6","seamark:light:reference":"M 5259.29","seamark:type":"light_minor","source":"US NGA Pub. 112. 2009-11-12."}}},{"type":"Feature","geometry":{"type":"Point","coordinates":[129.5473266,33.438801]},"properties":{"osm_id":8695594071,"osm_type":"node","seamark_type":"light_minor","display_class":"OTHER","min_zoom":12,"importance":1,"name":null,"ref":null,"common":{"type":"light_minor"},"children":{"light":{"character":"Fl","colour":"white","group":"2","height":"13","period":"6","range":"5","reference":"M 5250.8"}},"osm_tags":{"man_made":"lighthouse","seamark:light:character":"Fl","seamark:light:colour":"white","seamark:light:group":"2","seamark:light:height":"13","seamark:light:period":"6","seamark:light:range":"5","seamark:light:reference":"M 5250.8","seamark:type":"light_minor"}}},{"type":"Feature","geometry":{"type":"Point","coordinates":[129.8332291,33.3298917]},"properties":{"osm_id":9202910340,"osm_type":"node","seamark_type":"mooring","display_class":"OTHER","min_zoom":12,"importance":1,"name":null,"ref":null,"common":{"type":"mooring"},"children":{"mooring":{"category":"dolphin"}},"osm_tags":{"seamark:mooring:category":"dolphin","seamark:type":"mooring"}}},{"type":"Feature","geometry":{"type":"Point","coordinates":[129.8328445,33.3305431]},"properties":{"osm_id":9202910341,"osm_type":"node","seamark_type":"mooring","display_class":"OTHER","min_zoom":12,"importance":1,"name":null,"ref":null,"common":{"type":"mooring"},"children":{"mooring":{"category":"dolphin"}},"osm_tags":{"seamark:mooring:category":"dolphin","seamark:type":"mooring"}}},{"type":"Feature","geometry":{"type":"Point","coordinates":[129.8330167,33.3300599]},"properties":{"osm_id":9202910342,"osm_type":"node","seamark_type":"mooring","display_class":"OTHER","min_zoom":12,"importance":1,"name":null,"ref":null,"common":{"type":"mooring"},"children":{"mooring":{"category":"dolphin"}},"osm_tags":{"seamark:mooring:category":"dolphin","seamark:type":"mooring"}}},{"type":"Feature","geometry":{"type":"Point","coordinates":[129.832875,33.3302998]},"properties":{"osm_id":9202910343,"osm_type":"node","seamark_type":"mooring","display_class":"OTHER","min_zoom":12,"importance":1,"name":null,"ref":null,"common":{"type":"mooring"},"children":{"mooring":{"category":"dolphin"}},"osm_tags":{"seamark:mooring:category":"dolphin","seamark:type":"mooring"}}},{"type":"Feature","geometry":{"type":"Polygon","coordinates":[[[129.8309433,33.3301518],[129.8332232,33.3294929],[129.8327511,33.3303893],[129.8310775,33.3314247],[129.8309433,33.3301518]]]},"properties":{"osm_id":996671301,"osm_type":"way","seamark_type":"anchorage","display_class":"OTHER","min_zoom":12,"importance":1,"name":null,"ref":null,"common":{"type":"anchorage"},"children":{},"osm_tags":{"seamark:type":"anchorage"}}},{"type":"Feature","geometry":{"type":"Polygon","coordinates":[[[129.8350243,33.3282728],[129.8377254,33.3277907],[129.8379268,33.327531],[129.837285,33.3250205],[129.8369742,33.3248522],[129.8310053,33.3259175],[129.8296226,33.3252976],[129.8290956,33.3287106],[129.8341627,33.3278063],[129.8350243,33.3282728]]]},"properties":{"osm_id":996671563,"osm_type":"way","seamark_type":"anchorage","display_class":"OTHER","min_zoom":12,"importance":1,"name":null,"ref":null,"common":{"type":"anchorage"},"children":{},"osm_tags":{"seamark:type":"anchorage"}}},{"type":"Feature","geometry":{"type":"Polygon","coordinates":[[[129.8383164,33.3395961],[129.8426965,33.3413717],[129.8416323,33.3432038],[129.8412004,33.3433289],[129.8402407,33.3429398],[129.8397289,33.343821],[129.8393167,33.3439403],[129.8364646,33.3427842],[129.8325914,33.3421153],[129.8332393,33.3402089],[129.8383164,33.3395961]]]},"properties":{"osm_id":996671564,"osm_type":"way","seamark_type":"anchorage","display_class":"OTHER","min_zoom":12,"importance":1,"name":null,"ref":null,"common":{"type":"anchorage"},"children":{},"osm_tags":{"seamark:type":"anchorage"}}},{"type":"Feature","geometry":{"type":"Polygon","coordinates":[[[129.8874331,33.5412484],[129.8874816,33.5411711],[129.8874199,33.5411219],[129.8871517,33.5410638],[129.8869908,33.5409833],[129.8867762,33.5409967],[129.8866528,33.5408268],[129.8866347,33.5407102],[129.8863846,33.5401249],[129.8862612,33.5400891],[129.886229,33.540022],[129.8862773,33.5399728],[129.8861271,33.5398745],[129.8861057,33.5400131],[129.8859608,33.5399952],[129.8859447,33.5398387],[129.8858321,33.5397985],[129.8854887,33.5398163],[129.8854566,33.5399371],[129.8850006,33.5399728],[129.8849308,33.5400533],[129.8844849,33.5400982],[129.8844425,33.5404852],[129.8843462,33.5405551],[129.8843139,33.5410951],[129.8855853,33.5412114],[129.885596,33.5421101],[129.8871893,33.5420922],[129.8875326,33.5416629],[129.8874331,33.5412484]]]},"properties":{"osm_id":1324735494,"osm_type":"way","seamark_type":"harbour","display_class":"OTHER","min_zoom":12,"importance":1,"name":null,"ref":null,"common":{"type":"harbour"},"children":{"harbour":{"category":"shipyard"}},"osm_tags":{"industrial":"port","landuse":"industrial","seamark:harbour:category":"shipyard","seamark:type":"harbour"}}},{"type":"Feature","geometry":{"type":"Polygon","coordinates":[[[129.8759473,33.5205132],[129.8762684,33.5203941],[129.875729,33.5193833],[129.8754079,33.5195024],[129.8759473,33.5205132]]]},"properties":{"osm_id":1324983604,"osm_type":"way","seamark_type":"marine_farm","display_class":"OTHER","min_zoom":12,"importance":1,"name":null,"ref":null,"common":{"type":"marine_farm"},"children":{},"osm_tags":{"landuse":"aquaculture","seamark:type":"marine_farm"}}},{"type":"Feature","geometry":{"type":"Polygon","coordinates":[[[129.8776916,33.5219595],[129.8780205,33.5218562],[129.8775526,33.520821],[129.8772237,33.5209243],[129.8776916,33.5219595]]]},"properties":{"osm_id":1324983605,"osm_type":"way","seamark_type":"marine_farm","display_class":"OTHER","min_zoom":12,"importance":1,"name":null,"ref":null,"common":{"type":"marine_farm"},"children":{},"osm_tags":{"landuse":"aquaculture","seamark:type":"marine_farm"}}},{"type":"Feature","geometry":{"type":"Polygon","coordinates":[[[129.8812989,33.5369575],[129.8809012,33.5353896],[129.8807265,33.5354203],[129.8811242,33.5369883],[129.8812989,33.5369575]]]},"properties":{"osm_id":1324983994,"osm_type":"way","seamark_type":"marine_farm","display_class":"OTHER","min_zoom":12,"importance":1,"name":null,"ref":null,"common":{"type":"marine_farm"},"children":{},"osm_tags":{"landuse":"aquaculture","seamark:type":"marine_farm"}}},{"type":"Feature","geometry":{"type":"Polygon","coordinates":[[[129.8816663,33.5370149],[129.8819269,33.5369634],[129.8814309,33.5352221],[129.8811703,33.5352737],[129.8816663,33.5370149]]]},"properties":{"osm_id":1324983995,"osm_type":"way","seamark_type":"marine_farm","display_class":"OTHER","min_zoom":12,"importance":1,"name":null,"ref":null,"common":{"type":"marine_farm"},"children":{},"osm_tags":{"landuse":"aquaculture","seamark:type":"marine_farm"}}},{"type":"Feature","geometry":{"type":"Polygon","coordinates":[[[129.8912223,33.5535436],[129.891254,33.5535142],[129.89162,33.5538408],[129.8916954,33.5542572],[129.8917131,33.5542885],[129.8917168,33.554331],[129.8912957,33.5543713],[129.8913601,33.5547557],[129.8910972,33.5549323],[129.8907727,33.554986],[129.8907217,33.5548608],[129.8905939,33.5547557],[129.8904024,33.5546446],[129.8902883,33.5545337],[129.8902356,33.5544414],[129.890211,33.5543516],[129.8902058,33.5542469],[129.890246,33.5542251],[129.8907781,33.5542148],[129.8912223,33.5535436]]]},"properties":{"osm_id":1326294608,"osm_type":"way","seamark_type":"harbour","display_class":"OTHER","min_zoom":12,"importance":1,"name":null,"ref":null,"common":{"type":"harbour"},"children":{"harbour":{"category":"fishing"}},"osm_tags":{"harbour":"yes","industrial":"port","landuse":"industrial","port":"fishing","seamark:harbour:category":"fishing","seamark:type":"harbour"}}},{"type":"Feature","geometry":{"type":"Polygon","coordinates":[[[129.8826846,33.5468788],[129.883018,33.5468953],[129.8830894,33.5458944],[129.882756,33.5458779],[129.8826846,33.5468788]]]},"properties":{"osm_id":1326294924,"osm_type":"way","seamark_type":"marine_farm","display_class":"OTHER","min_zoom":12,"importance":1,"name":null,"ref":null,"common":{"type":"marine_farm"},"children":{},"osm_tags":{"landuse":"aquaculture","seamark:type":"marine_farm"}}},{"type":"Feature","geometry":{"type":"Polygon","coordinates":[[[129.9604293,33.4611188],[129.9594085,33.4633043],[129.9598189,33.4636332],[129.9609983,33.4611081],[129.9604293,33.4611188]]]},"properties":{"osm_id":1332821421,"osm_type":"way","seamark_type":"harbour","display_class":"OTHER","min_zoom":12,"importance":1,"name":null,"ref":null,"common":{"type":"harbour"},"children":{"harbour":{"category":"marina"}},"osm_tags":{"harbour":"yes","leisure":"marina","seamark:harbour:category":"marina","seamark:type":"harbour"}}},{"type":"Feature","geometry":{"type":"Polygon","coordinates":[[[129.8638648,33.4075182],[129.8640042,33.4073122],[129.8637521,33.4071645],[129.8635483,33.4063181],[129.8633176,33.4063226],[129.8632747,33.4067032],[129.8635322,33.4072719],[129.8638648,33.4075182]]]},"properties":{"osm_id":1443535900,"osm_type":"way","seamark_type":"marine_farm","display_class":"OTHER","min_zoom":12,"importance":1,"name":null,"ref":null,"common":{"type":"marine_farm"},"children":{},"osm_tags":{"landuse":"aquaculture","seamark:type":"marine_farm","source":"Japan GSI seamlessphoto Imagery"}}},{"type":"Feature","geometry":{"type":"Polygon","coordinates":[[[129.8633498,33.4085795],[129.8635751,33.4085347],[129.863677,33.4079795],[129.8640472,33.4079033],[129.8640311,33.4077869],[129.863382,33.4078451],[129.8633498,33.4085795]]]},"properties":{"osm_id":1443535901,"osm_type":"way","seamark_type":"marine_farm","display_class":"OTHER","min_zoom":12,"importance":1,"name":null,"ref":null,"common":{"type":"marine_farm"},"children":{},"osm_tags":{"landuse":"aquaculture","seamark:type":"marine_farm","source":"Japan GSI seamlessphoto Imagery"}}},{"type":"Feature","geometry":{"type":"Polygon","coordinates":[[[129.8616922,33.4074779],[129.8611987,33.4076391],[129.8612738,33.4079974],[129.8617029,33.4080063],[129.8613596,33.4088751],[129.8614561,33.4093945],[129.86166,33.4094214],[129.8626256,33.4072988],[129.8622823,33.4061882],[129.861896,33.4058479],[129.8612201,33.4043432],[129.8603403,33.4032505],[129.8596108,33.401701],[129.8591494,33.4018712],[129.859879,33.4037431],[129.8595464,33.4039849],[129.8597824,33.4043611],[129.8594069,33.4047015],[129.8595357,33.4049702],[129.8604369,33.4044238],[129.8608661,33.4044955],[129.8612523,33.4053642],[129.861145,33.4057941],[129.8616922,33.4059643],[129.8616922,33.4074779]]]},"properties":{"osm_id":1443535902,"osm_type":"way","seamark_type":"marine_farm","display_class":"OTHER","min_zoom":12,"importance":1,"name":null,"ref":null,"common":{"type":"marine_farm"},"children":{},"osm_tags":{"landuse":"aquaculture","seamark:type":"marine_farm","source":"Japan GSI seamlessphoto Imagery"}}},{"type":"Feature","geometry":{"type":"Polygon","coordinates":[[[129.8447926,33.4054514],[129.8507544,33.4041629],[129.8510272,33.4050424],[129.8522247,33.4047836],[129.8521208,33.4044489],[129.8526499,33.4043345],[129.8524407,33.4036601],[129.8513589,33.4038939],[129.8512366,33.4034996],[129.8446301,33.4049274],[129.8447926,33.4054514]]]},"properties":{"osm_id":1444668120,"osm_type":"way","seamark_type":"marine_farm","display_class":"OTHER","min_zoom":12,"importance":1,"name":null,"ref":null,"common":{"type":"marine_farm"},"children":{},"osm_tags":{"landuse":"aquaculture","seamark:type":"marine_farm","source":"Japan GSI seamlessphoto Imagery"}}},{"type":"Feature","geometry":{"type":"LineString","coordinates":[[129.7280278,33.4561111],[129.7287222,33.45575],[129.7346111,33.4565278],[129.7360556,33.4550833],[129.7386944,33.4546667],[129.7422778,33.4591667],[129.7459444,33.4597222],[129.7532778,33.4569167],[129.7541389,33.4570833],[129.7544167,33.4577778],[129.7549444,33.4576667]]},"properties":{"osm_id":1474967135,"osm_type":"way","seamark_type":"cable_submarine","display_class":"OTHER","min_zoom":12,"importance":1,"name":null,"ref":null,"common":{"type":"cable_submarine"},"children":{"cable_submarine":{"category":"power"}},"osm_tags":{"location":"underwater","power":"cable","seamark:cable_submarine:category":"power","seamark:type":"cable_submarine"}}},{"type":"Feature","geometry":{"type":"Point","coordinates":[129.6832537,33.7424391]},"properties":{"osm_id":1223942432,"osm_type":"node","seamark_type":"light_minor","display_class":"OTHER","min_zoom":12,"importance":1,"name":"Gonovra Ko","ref":null,"common":{"name":"Gonovra Ko","type":"light_minor"},"children":{"light":{"character":"F","colour":"green","height":"14","period":"3","reference":"M 5259.3"}},"osm_tags":{"seamark:light:character":"F","seamark:light:colour":"green","seamark:light:height":"14","seamark:light:period":"3","seamark:light:reference":"M 5259.3","seamark:name":"Gonovra Ko","seamark:type":"light_minor","source":"US NGA Pub. 112. 2009-11-12."}}},{"type":"Feature","geometry":{"type":"Point","coordinates":[129.6500605,33.2062536]},"properties":{"osm_id":11434296681,"osm_type":"node","seamark_type":"harbour","display_class":"OTHER","min_zoom":12,"importance":1,"name":"佐々港","ref":null,"common":{"type":"harbour"},"children":{"harbour":{"category":"marina_no_facilities"}},"osm_tags":{"leisure":"marina","name":"佐々港","seamark:harbour:category":"marina_no_facilities","seamark:type":"harbour"}}},{"type":"Feature","geometry":{"type":"Polygon","coordinates":[[[129.9661178,33.4610788],[129.9676057,33.460218],[129.9677193,33.4601523],[129.968241,33.460778],[129.9692682,33.4613942],[129.9692375,33.4614154],[129.9679661,33.4621143],[129.9679285,33.4621636],[129.9666931,33.4614267],[129.9665731,33.4613486],[129.9661178,33.4610788]]]},"properties":{"osm_id":1332821422,"osm_type":"way","seamark_type":"harbour","display_class":"OTHER","min_zoom":12,"importance":1,"name":"佐賀県ヨットハーバー","ref":null,"common":{"type":"harbour"},"children":{"harbour":{"category":"marina"}},"osm_tags":{"harbour":"yes","leisure":"marina","name":"佐賀県ヨットハーバー","name:en":"Saga Prefecture Yacht Harbor","seamark:harbour:category":"marina","seamark:type":"harbour","website":"https://saga-yh.jp/"}}},{"type":"Feature","geometry":{"type":"Polygon","coordinates":[[[129.8905845,33.5566149],[129.8902905,33.557158],[129.8906758,33.5576139],[129.8906645,33.5577157],[129.8901379,33.557647],[129.8900646,33.5576374],[129.8896366,33.557809],[129.8895469,33.5578403],[129.8892921,33.557581],[129.8890185,33.5571943],[129.8888415,33.5572726],[129.8887315,33.5572614],[129.8885089,33.5571318],[129.8883775,33.5566646],[129.8884016,33.5566154],[129.8882031,33.5562086],[129.8881415,33.5560142],[129.8881227,33.5557214],[129.8882675,33.5556655],[129.8883238,33.5557348],[129.8885438,33.5555805],[129.8886645,33.5556811],[129.8889193,33.5554822],[129.8888764,33.5553548],[129.8891607,33.5552631],[129.8892546,33.5553101],[129.8892733,33.5553928],[129.8893994,33.5554911],[129.8894557,33.555623],[129.8894477,33.5557102],[129.8894852,33.5557594],[129.8896247,33.5558868],[129.8898286,33.5561662],[129.8898822,33.5562287],[129.8900592,33.5561595],[129.8902201,33.5563227],[129.8905018,33.556459],[129.8905689,33.5565324],[129.890619,33.5565512],[129.8905845,33.5566149]]]},"properties":{"osm_id":1326294607,"osm_type":"way","seamark_type":"harbour","display_class":"OTHER","min_zoom":12,"importance":1,"name":"加部島漁港","ref":null,"common":{"type":"harbour"},"children":{"harbour":{"category":"fishing"}},"osm_tags":{"harbour":"yes","industrial":"port","landuse":"industrial","name":"加部島漁港","name:en":"Kabeshima Fishery Port","name:ja":"加部島漁港","name:ja-Hira":"かべしまぎょこう","name:ja-Latn":"Kabeshima Gyokō","port":"fishing","seamark:harbour:category":"fishing","seamark:type":"harbour"}}},{"type":"Feature","geometry":{"type":"Point","coordinates":[129.7549723,33.7415743]},"properties":{"osm_id":4404221039,"osm_type":"node","seamark_type":"harbour","display_class":"OTHER","min_zoom":12,"importance":1,"name":"印通寺港","ref":null,"common":{"type":"harbour"},"children":{"harbour":{"category":"marina"}},"osm_tags":{"harbour":"yes","leisure":"marina","name":"印通寺港","seamark:harbour:category":"marina","seamark:type":"harbour","source":"GSImaps/std","wikidata":"Q11409125","wikipedia":"ja:印通寺港"}}},{"type":"Feature","geometry":{"type":"Polygon","coordinates":[[[129.8947518,33.539429],[129.8946753,33.5379429],[129.8946418,33.537935],[129.8945828,33.5378355],[129.8941107,33.5377137],[129.893357,33.5374991],[129.8930298,33.5372554],[129.8931089,33.5372185],[129.8928904,33.5370017],[129.8928957,33.5369871],[129.8927616,33.536834],[129.8926087,33.5366282],[129.8924048,33.5362292],[129.8925925,33.5361531],[129.8924705,33.5358301],[129.8924813,33.5356513],[129.8922613,33.5355562],[129.8919649,33.535981],[129.8919877,33.5360246],[129.8920253,33.5365724],[129.8919788,33.5366299],[129.8917356,33.5369052],[129.8913939,33.5366954],[129.8912471,33.5368758],[129.8910713,33.5370749],[129.8912193,33.5372241],[129.891226,33.5372755],[129.8913749,33.5373716],[129.8913681,33.5374052],[129.891623,33.5376142],[129.8918027,33.5377361],[129.8920239,33.5379406],[129.8922372,33.5380714],[129.8925081,33.5383341],[129.8925872,33.5384559],[129.892948,33.5388405],[129.8930445,33.5389634],[129.8930982,33.5391915],[129.8931532,33.5393781],[129.8930861,33.5395794],[129.8931169,33.5396006],[129.8930566,33.5398018],[129.8930217,33.5398409],[129.8929426,33.5400231],[129.8929158,33.540164],[129.8929614,33.5402635],[129.8928729,33.5405206],[129.8927468,33.5406144],[129.8924813,33.5407732],[129.892197,33.540923],[129.8920575,33.5409565],[129.8917946,33.5410526],[129.8915747,33.5412684],[129.8909363,33.5416372],[129.8907015,33.541329],[129.8905796,33.5411689],[129.8903945,33.5411733],[129.8902416,33.5412628],[129.8901826,33.5414327],[129.8901973,33.5415222],[129.8896623,33.5437375],[129.8926502,33.542271],[129.8930224,33.5423164],[129.8932998,33.5421133],[129.8934232,33.5420698],[129.8934852,33.5420331],[129.8935837,33.5419804],[129.8940052,33.5412275],[129.8942215,33.5408171],[129.8946348,33.5400763],[129.8947469,33.5398789],[129.8947647,33.5398102],[129.8947518,33.539429]]]},"properties":{"osm_id":1324735496,"osm_type":"way","seamark_type":"harbour","display_class":"OTHER","min_zoom":12,"importance":1,"name":"呼子港","ref":null,"common":{"type":"harbour"},"children":{"harbour":{"category":"seaplane"}},"osm_tags":{"industrial":"port","landuse":"industrial","name":"呼子港","name:en":"Yobuko Port","name:ja":"呼子港","name:ja-Hira":"よぶここう","name:ja-Latn":"Yobuko-kō","port":"seaplane","ref:LOCODE":"JPYBK","seamark:harbour:category":"seaplane","seamark:type":"harbour","wikidata":"Q30933508","wikipedia":"ja:呼子港"}}},{"type":"Feature","geometry":{"type":"Polygon","coordinates":[[[129.9061203,33.5466437],[129.9055892,33.5466973],[129.9054524,33.5467689],[129.9053746,33.5469276],[129.9056429,33.5479246],[129.9057314,33.5479402],[129.9060692,33.5484243],[129.9059701,33.5484834],[129.9051627,33.5484231],[129.9050293,33.5485085],[129.9046627,33.5481994],[129.9034666,33.547188],[129.9033305,33.5470729],[129.9025171,33.5468899],[129.9023062,33.5463978],[129.9036527,33.546362],[129.9040765,33.5457182],[129.9048375,33.5455323],[129.9048257,33.5454247],[129.9048073,33.5452576],[129.9047904,33.5451045],[129.9048343,33.5451011],[129.9050664,33.5450838],[129.9056604,33.545045],[129.9060305,33.5450215],[129.9062034,33.5450095],[129.9062759,33.5452443],[129.9062651,33.5452711],[129.9061887,33.5453138],[129.9061213,33.5453023],[129.9060733,33.5465435],[129.9061111,33.5466052],[129.9061203,33.5466437]]]},"properties":{"osm_id":1327876938,"osm_type":"way","seamark_type":"harbour","display_class":"OTHER","min_zoom":12,"importance":1,"name":"小友漁港","ref":null,"common":{"type":"harbour"},"children":{"harbour":{"category":"fishing"}},"osm_tags":{"harbour":"yes","industrial":"port","landuse":"industrial","name":"小友漁港","name:en":"Kodomo Fishery Port","name:ja":"小友漁港","name:ja-Hira":"こどもぎょこう","port":"fishing","seamark:harbour:category":"fishing","seamark:type":"harbour"}}},{"type":"Feature","geometry":{"type":"Polygon","coordinates":[[[129.9007325,33.5935838],[129.9007941,33.5936071],[129.9008256,33.5935374],[129.9004018,33.5933788],[129.9000807,33.5933202],[129.8994094,33.5931978],[129.8987645,33.5926268],[129.8977024,33.5928325],[129.894831,33.5929549],[129.894834,33.5929989],[129.8948657,33.5934518],[129.8948733,33.5934627],[129.8948934,33.5937556],[129.8949046,33.5939842],[129.8945627,33.594011],[129.8945895,33.5943395],[129.8946525,33.5943942],[129.8954558,33.5943886],[129.8954719,33.5944355],[129.8954988,33.594516],[129.8958635,33.5946366],[129.8962069,33.5946455],[129.8964376,33.5946609],[129.8967299,33.5946813],[129.8968291,33.5947461],[129.8969847,33.5947617],[129.8971081,33.5947483],[129.8972475,33.5946478],[129.8972743,33.5944847],[129.8973709,33.5944735],[129.8973977,33.5943774],[129.8976552,33.5943685],[129.8976727,33.5943473],[129.8978081,33.594354],[129.8982775,33.5945685],[129.8982976,33.5946176],[129.8982494,33.5951069],[129.8982802,33.5952175],[129.898244,33.5954097],[129.8986141,33.5954286],[129.8988488,33.5954365],[129.8988086,33.5956811],[129.8989548,33.5956833],[129.8989789,33.5955482],[129.8994778,33.5955169],[129.8997286,33.5954018],[129.899856,33.5952533],[129.8999177,33.5952242],[129.9000733,33.5948399],[129.8999351,33.5944813],[129.900552,33.5939529],[129.9005735,33.5939664],[129.900717,33.5938468],[129.9008203,33.5938222],[129.9005796,33.5937213],[129.9006427,33.5936645],[129.9007325,33.5935838]]]},"properties":{"osm_id":1502927985,"osm_type":"way","seamark_type":"harbour","display_class":"OTHER","min_zoom":12,"importance":1,"name":"小川島漁港","ref":null,"common":{"type":"harbour"},"children":{"harbour":{"category":"fishing"}},"osm_tags":{"harbour":"yes","industrial":"port","landuse":"industrial","name":"小川島漁港","name:en":"Ogawashima Fishing Port","name:ja":"小川島漁港","name:ja-Hira":"おがわしまぎょこう","port":"fishing","seamark:harbour:category":"fishing","seamark:type":"harbour"}}},{"type":"Feature","geometry":{"type":"Polygon","coordinates":[[[129.9302508,33.537081],[129.9305114,33.5373266],[129.9305181,33.537354],[129.9306289,33.5373354],[129.9306384,33.5373996],[129.9299812,33.5375069],[129.9293433,33.5375327],[129.9290867,33.5375259],[129.9291015,33.537479],[129.9292248,33.5370173],[129.9298632,33.5364226],[129.9299442,33.5364879],[129.9302334,33.5367132],[129.9302508,33.537081]]]},"properties":{"osm_id":1327877260,"osm_type":"way","seamark_type":"harbour","display_class":"OTHER","min_zoom":12,"importance":1,"name":"屋形石漁港","ref":null,"common":{"type":"harbour"},"children":{"harbour":{"category":"fishing"}},"osm_tags":{"harbour":"yes","industrial":"port","landuse":"industrial","name":"屋形石漁港","name:en":"Yakataishi Fishery Port","name:ja":"屋形石漁港","name:ja-Hira":"やかたいしぎょこう","port":"fishing","seamark:harbour:category":"fishing","seamark:type":"harbour"}}},{"type":"Feature","geometry":{"type":"Polygon","coordinates":[[[129.9585628,33.5228172],[129.9576942,33.5220231],[129.9575428,33.5218847],[129.957446,33.5217887],[129.9572807,33.5217416],[129.9567926,33.5217729],[129.9566692,33.522001],[129.9559075,33.5226137],[129.9558511,33.5227121],[129.9557492,33.5228194],[129.9556178,33.5228999],[129.9553737,33.5232152],[129.9554354,33.5232711],[129.9553791,33.5243668],[129.9553013,33.5247939],[129.9557519,33.5248073],[129.955709,33.5251158],[129.9557734,33.5255116],[129.9560469,33.5259655],[129.9561274,33.5260169],[129.9570635,33.5262025],[129.9570554,33.526283],[129.9572512,33.5263188],[129.9573129,33.5264105],[129.9576141,33.5264518],[129.9578481,33.5261471],[129.9591476,33.5246507],[129.9590564,33.5245859],[129.9580143,33.5249829],[129.9578609,33.5247938],[129.9585628,33.5228172]]]},"properties":{"osm_id":1193576108,"osm_type":"way","seamark_type":"harbour","display_class":"OTHER","min_zoom":12,"importance":1,"name":"湊浜漁港","ref":null,"common":{"type":"harbour"},"children":{"harbour":{"category":"fishing"}},"osm_tags":{"harbour":"yes","industrial":"port","landuse":"industrial","loc_name":"湊漁港","name":"湊浜漁港","name:en":"Minatohama Fishing Port","name:ja":"湊浜漁港","name:ja-Hira":"みなとはまぎょこう","port":"fishing","seamark:harbour:category":"fishing","seamark:type":"harbour"}}},{"type":"Feature","geometry":{"type":"Polygon","coordinates":[[[129.9617758,33.5044676],[129.9613422,33.5038564],[129.9612533,33.5038607],[129.9596815,33.5035387],[129.9596644,33.5035969],[129.9592039,33.504811],[129.9597513,33.5049267],[129.9597913,33.5049335],[129.9598235,33.5048396],[129.961575,33.5049514],[129.9617144,33.5050834],[129.9618512,33.5049827],[129.9619773,33.505023],[129.9621216,33.5049864],[129.9617758,33.5044676]]]},"properties":{"osm_id":1329955665,"osm_type":"way","seamark_type":"harbour","display_class":"OTHER","min_zoom":12,"importance":1,"name":"相賀漁港","ref":null,"common":{"type":"harbour"},"children":{"harbour":{"category":"fishing"}},"osm_tags":{"harbour":"yes","industrial":"port","landuse":"industrial","name":"相賀漁港","name:en":"Oka Fishery Port","name:ja":"相賀漁港","name:ja-Hira":"おうかぎょこう","port":"fishing","seamark:harbour:category":"fishing","seamark:type":"harbour"}}},{"type":"Feature","geometry":{"type":"Polygon","coordinates":[[[129.1399121,33.1885767],[129.139995,33.1885818],[129.1400435,33.1883802],[129.1401084,33.1883678],[129.1396544,33.188248],[129.1392762,33.1882144],[129.1391072,33.1881852],[129.1386566,33.1879383],[129.1380799,33.1884478],[129.138008,33.188621],[129.138001,33.18874],[129.138028,33.188797],[129.138015,33.188865],[129.138062,33.189045],[129.138048,33.189083],[129.138089,33.189152],[129.138068,33.18931],[129.138089,33.189343],[129.138062,33.189405],[129.138223,33.18949],[129.13843,33.189568],[129.138718,33.189495],[129.138692,33.189405],[129.138705,33.189208],[129.138692,33.189095],[129.138678,33.189095],[129.138692,33.188993],[129.138765,33.188937],[129.138987,33.188948],[129.139047,33.188988],[129.139074,33.188988],[129.1392065,33.1889881],[129.1392456,33.1893372],[129.13936,33.1893962],[129.1394459,33.1894276],[129.1395724,33.1895011],[129.1398055,33.1892637],[129.1398264,33.1890428],[129.1398385,33.188991],[129.1399121,33.1885767]]]},"properties":{"osm_id":1283260232,"osm_type":"way","seamark_type":"harbour","display_class":"OTHER","min_zoom":12,"importance":1,"name":"野崎港","ref":null,"common":{"type":"harbour"},"children":{"harbour":{"category":"passenger"}},"osm_tags":{"name":"野崎港","name:en":"Nozaki Harbor","name:fr":"Port de Nozaki","name:ja-Hira":"のさきこう","name:ja-Latn":"Nozaki-kō","natural":"water","seamark:harbour:category":"passenger","seamark:type":"harbour"}}}],"type":"FeatureCollection"}