{"type":"FeatureCollection","features":[{"type":"Feature","geometry":{"type":"Point","coordinates":[130.3653002,33.7568841]},"properties":{"osm_id":3519366405,"osm_type":"node","seamark_type":"light_major","display_class":"LIGHTHOUSE","min_zoom":7,"importance":5,"name":null,"ref":null,"common":{"type":"light_major"},"children":{"light":{"character":"Fl","colour":"green","period":"3"}},"osm_tags":{"light":"yes","seamark:light:character":"Fl","seamark:light:colour":"green","seamark:light:period":"3","seamark:type":"light_major","source":"survey"}}},{"type":"Feature","geometry":{"type":"Point","coordinates":[130.3608653,33.7611044]},"properties":{"osm_id":3519384891,"osm_type":"node","seamark_type":"light_major","display_class":"LIGHTHOUSE","min_zoom":7,"importance":5,"name":null,"ref":null,"common":{"type":"light_major"},"children":{"light":{"character":"Iso","colour":"white","height":"87","period":"6","range":"5"}},"osm_tags":{"light":"yes","seamark:light:character":"Iso","seamark:light:colour":"white","seamark:light:height":"87","seamark:light:period":"6","seamark:light:range":"5","seamark:type":"light_major","source":"survey"}}},{"type":"Feature","geometry":{"type":"Point","coordinates":[130.3176309,33.6646725]},"properties":{"osm_id":3519402130,"osm_type":"node","seamark_type":"light_major","display_class":"LIGHTHOUSE","min_zoom":7,"importance":5,"name":null,"ref":null,"common":{"type":"light_major"},"children":{"light":{"character":"Fl","colour":"red","period":"3"}},"osm_tags":{"seamark:light:character":"Fl","seamark:light:colour":"red","seamark:light:period":"3","seamark:type":"light_major","source":"survey"}}},{"type":"Feature","geometry":{"type":"Point","coordinates":[130.2902065,33.668006]},"properties":{"osm_id":3519407521,"osm_type":"node","seamark_type":"light_major","display_class":"LIGHTHOUSE","min_zoom":7,"importance":5,"name":null,"ref":null,"common":{"type":"light_major"},"children":{"light":{"character":"Fl","colour":"green","period":"3"}},"osm_tags":{"seamark:light:character":"Fl","seamark:light:colour":"green","seamark:light:period":"3","seamark:type":"light_major","source":"survey"}}},{"type":"Feature","geometry":{"type":"Point","coordinates":[130.2387599,33.6806384]},"properties":{"osm_id":3519423577,"osm_type":"node","seamark_type":"light_major","display_class":"LIGHTHOUSE","min_zoom":7,"importance":5,"name":null,"ref":null,"common":{"type":"light_major"},"children":{"light":{"character":"Fl","colour":"red","group":"2","period":"7"}},"osm_tags":{"seamark:light:character":"Fl","seamark:light:colour":"red","seamark:light:group":"2","seamark:light:period":"7","seamark:type":"light_major","source":"survey"}}},{"type":"Feature","geometry":{"type":"Point","coordinates":[130.2349362,33.6918798]},"properties":{"osm_id":3519462832,"osm_type":"node","seamark_type":"light_major","display_class":"LIGHTHOUSE","min_zoom":7,"importance":5,"name":null,"ref":null,"common":{"type":"light_major"},"children":{"light":{"character":"Fl","colour":"white","height":"79","period":"15","range":"19"}},"osm_tags":{"seamark:light:character":"Fl","seamark:light:colour":"white","seamark:light:height":"79","seamark:light:period":"15","seamark:light:range":"19","seamark:type":"light_major","source":"survey"}}},{"type":"Feature","geometry":{"type":"Point","coordinates":[130.4554338,33.7841371]},"properties":{"osm_id":3519671987,"osm_type":"node","seamark_type":"light_major","display_class":"LIGHTHOUSE","min_zoom":7,"importance":5,"name":null,"ref":null,"common":{"type":"light_major"},"children":{"light":{"character":"Fl","colour":"red","height":"12","period":"3","range":"5"}},"osm_tags":{"seamark:light:character":"Fl","seamark:light:colour":"red","seamark:light:height":"12","seamark:light:period":"3","seamark:light:range":"5","seamark:type":"light_major","source":"survey"}}},{"type":"Feature","geometry":{"type":"Point","coordinates":[130.3777267,33.6059208]},"properties":{"osm_id":8973336582,"osm_type":"node","seamark_type":"light_major","display_class":"LIGHTHOUSE","min_zoom":7,"importance":5,"name":null,"ref":null,"common":{"type":"light_major"},"children":{"light":{"character":"Iso","colour":"red","period":"6"}},"osm_tags":{"light":"yes","man_made":"lighthouse","seamark:light:character":"Iso","seamark:light:colour":"red","seamark:light:period":"6","seamark:type":"light_major","source":"photograph"}}},{"type":"Feature","geometry":{"type":"Point","coordinates":[130.4029068,33.6958818]},"properties":{"osm_id":1223942302,"osm_type":"node","seamark_type":"light_major","display_class":"LIGHTHOUSE","min_zoom":7,"importance":5,"name":"Nata Ko","ref":null,"common":{"name":"Nata Ko","type":"light_major"},"children":{"light":{"character":"Fl","colour":"green","height":"11","period":"3","range":"3","reference":"M 5283"}},"osm_tags":{"seamark:light:character":"Fl","seamark:light:colour":"green","seamark:light:height":"11","seamark:light:period":"3","seamark:light:range":"3","seamark:light:reference":"M 5283","seamark:name":"Nata Ko","seamark:type":"light_major","source":"US NGA Pub. 112. 2009-11-12."}}},{"type":"Feature","geometry":{"type":"Point","coordinates":[130.3115891,33.6582447]},"properties":{"osm_id":1223942291,"osm_type":"node","seamark_type":"light_major","display_class":"LIGHTHOUSE","min_zoom":7,"importance":5,"name":"Shike Shima Ko","ref":null,"common":{"name":"Shike Shima Ko","type":"light_major"},"children":{"light":{"character":"Fl","colour":"red","height":"8","period":"3","range":"6","reference":"M 5275.2"}},"osm_tags":{"seamark:light:character":"Fl","seamark:light:colour":"red","seamark:light:height":"8","seamark:light:period":"3","seamark:light:range":"6","seamark:light:reference":"M 5275.2","seamark:name":"Shike Shima Ko","seamark:type":"light_major","source":"US NGA Pub. 112. 2009-11-12."}}},{"type":"Feature","geometry":{"type":"Point","coordinates":[130.3130884,33.6601065]},"properties":{"osm_id":1223942292,"osm_type":"node","seamark_type":"light_major","display_class":"LIGHTHOUSE","min_zoom":7,"importance":5,"name":"Shike Shima Ko","ref":null,"common":{"name":"Shike Shima Ko","type":"light_major"},"children":{"light":{"character":"Iso","colour":"green","height":"11","period":"6","range":"11","reference":"M 5275"}},"osm_tags":{"seamark:light:character":"Iso","seamark:light:colour":"green","seamark:light:height":"11","seamark:light:period":"6","seamark:light:range":"11","seamark:light:reference":"M 5275","seamark:name":"Shike Shima Ko","seamark:type":"light_major","source":"US NGA Pub. 112. 2009-11-12."}}},{"type":"Feature","geometry":{"type":"Point","coordinates":[130.4493425,33.7863923]},"properties":{"osm_id":1223942309,"osm_type":"node","seamark_type":"light_major","display_class":"LIGHTHOUSE","min_zoom":7,"importance":5,"name":"Tsuyazaki Hana","ref":null,"common":{"information":"F.W. light illuminates reef","name":"Tsuyazaki Hana","type":"light_major"},"children":{"light":{"character":"Fl","colour":"white","height":"65","period":"4","range":"12","reference":"M 5285"}},"osm_tags":{"man_made":"lighthouse","note":"positioned by bing,2012","seamark:information":"F.W. light illuminates reef","seamark:light:character":"Fl","seamark:light:colour":"white","seamark:light:height":"65","seamark:light:period":"4","seamark:light:range":"12","seamark:light:reference":"M 5285","seamark:name":"Tsuyazaki Hana","seamark:type":"light_major","source":"US NGA Pub. 112. 2009-11-12."}}},{"type":"Feature","geometry":{"type":"Point","coordinates":[130.3365635,33.6429995]},"properties":{"osm_id":2342747618,"osm_type":"node","seamark_type":"beacon_isolated_danger","display_class":"BEACON","min_zoom":9,"importance":4,"name":null,"ref":null,"common":{"type":"beacon_isolated_danger"},"children":{"light":{"character":"Fl","colour":"white"}},"osm_tags":{"man_made":"lighthouse","seamark:light:character":"Fl","seamark:light:colour":"white","seamark:type":"beacon_isolated_danger","source":"bing,2011","source:name":"wikipedia","wikidata":"Q2344806","wikipedia":"ja:博多湾"}}},{"type":"Feature","geometry":{"type":"Point","coordinates":[130.3454739,33.6366342]},"properties":{"osm_id":3032761787,"osm_type":"node","seamark_type":"beacon_lateral","display_class":"BEACON","min_zoom":9,"importance":4,"name":null,"ref":null,"common":{"type":"beacon_lateral"},"children":{"beacon_lateral":{"category":"port"},"light":{"character":"Fl","colour":"green","period":"3"}},"osm_tags":{"seamark:beacon_lateral:category":"port","seamark:light:character":"Fl","seamark:light:colour":"green","seamark:light:period":"3","seamark:type":"beacon_lateral","source":"photograph"}}},{"type":"Feature","geometry":{"type":"Point","coordinates":[130.3718474,33.6395551]},"properties":{"osm_id":3032761788,"osm_type":"node","seamark_type":"beacon_lateral","display_class":"BEACON","min_zoom":9,"importance":4,"name":null,"ref":null,"common":{"type":"beacon_lateral"},"children":{"beacon_lateral":{"category":"starboard"},"light":{"character":"Fl","colour":"red","period":"3"}},"osm_tags":{"seamark:beacon_lateral:category":"starboard","seamark:light:character":"Fl","seamark:light:colour":"red","seamark:light:period":"3","seamark:type":"beacon_lateral","source":"photograph"}}},{"type":"Feature","geometry":{"type":"Point","coordinates":[130.3700056,33.6427917]},"properties":{"osm_id":3032761789,"osm_type":"node","seamark_type":"beacon_lateral","display_class":"BEACON","min_zoom":9,"importance":4,"name":null,"ref":null,"common":{"type":"beacon_lateral"},"children":{"beacon_lateral":{"category":"port"},"light":{"character":"Fl","colour":"green","period":"3"}},"osm_tags":{"seamark:beacon_lateral:category":"port","seamark:light:character":"Fl","seamark:light:colour":"green","seamark:light:period":"3","seamark:type":"beacon_lateral","source":"photograph"}}},{"type":"Feature","geometry":{"type":"Point","coordinates":[130.332698,33.6486883]},"properties":{"osm_id":3032761790,"osm_type":"node","seamark_type":"beacon_isolated_danger","display_class":"BEACON","min_zoom":9,"importance":4,"name":null,"ref":null,"common":{"type":"beacon_isolated_danger"},"children":{},"osm_tags":{"seamark:type":"beacon_isolated_danger","source":"photograph"}}},{"type":"Feature","geometry":{"type":"Point","coordinates":[130.3598163,33.6300415]},"properties":{"osm_id":13738919317,"osm_type":"node","seamark_type":"beacon_lateral","display_class":"BEACON","min_zoom":9,"importance":4,"name":"No.5","ref":null,"common":{"name":"No.5","radar_reflector":"yes","type":"beacon_lateral"},"children":{"beacon_lateral":{"category":"port","colour":"green","system":"iala-b"},"light":{"character":"Fl","colour":"green","period":"3","range":"5","reference":"M 5280.2"},"topmark":{"colour":"green","shape":"cylinder"}},"osm_tags":{"seamark:beacon_lateral:category":"port","seamark:beacon_lateral:colour":"green","seamark:beacon_lateral:system":"iala-b","seamark:light:character":"Fl","seamark:light:colour":"green","seamark:light:period":"3","seamark:light:range":"5","seamark:light:reference":"M 5280.2","seamark:name":"No.5","seamark:radar_reflector":"yes","seamark:topmark:colour":"green","seamark:topmark:shape":"cylinder","seamark:type":"beacon_lateral"}}},{"type":"Feature","geometry":{"type":"Point","coordinates":[130.3586617,33.6275317]},"properties":{"osm_id":13738919316,"osm_type":"node","seamark_type":"beacon_lateral","display_class":"BEACON","min_zoom":9,"importance":4,"name":"No.6","ref":null,"common":{"name":"No.6","radar_reflector":"yes","type":"beacon_lateral"},"children":{"beacon_lateral":{"category":"starboard","colour":"red","system":"iala-b"},"light":{"character":"Fl","colour":"red","period":"3","range":"5","reference":"M 5280.3"},"topmark":{"colour":"red","shape":"cone, point up"}},"osm_tags":{"seamark:beacon_lateral:category":"starboard","seamark:beacon_lateral:colour":"red","seamark:beacon_lateral:system":"iala-b","seamark:light:character":"Fl","seamark:light:colour":"red","seamark:light:period":"3","seamark:light:range":"5","seamark:light:reference":"M 5280.3","seamark:name":"No.6","seamark:radar_reflector":"yes","seamark:topmark:colour":"red","seamark:topmark:shape":"cone, point up","seamark:type":"beacon_lateral"}}},{"type":"Feature","geometry":{"type":"Point","coordinates":[130.3599046,33.6346725]},"properties":{"osm_id":13738919315,"osm_type":"node","seamark_type":"beacon_lateral","display_class":"BEACON","min_zoom":9,"importance":4,"name":"No.E2","ref":null,"common":{"name":"No.E2","radar_reflector":"yes","type":"beacon_lateral"},"children":{"beacon_lateral":{"category":"starboard","colour":"red","system":"iala-b"},"light":{"character":"Fl","colour":"red","group":"2","period":"6","range":"5","reference":"M 5281.1"},"topmark":{"colour":"red","shape":"cone, point up"}},"osm_tags":{"seamark:beacon_lateral:category":"starboard","seamark:beacon_lateral:colour":"red","seamark:beacon_lateral:system":"iala-b","seamark:light:character":"Fl","seamark:light:colour":"red","seamark:light:group":"2","seamark:light:period":"6","seamark:light:range":"5","seamark:light:reference":"M 5281.1","seamark:name":"No.E2","seamark:radar_reflector":"yes","seamark:topmark:colour":"red","seamark:topmark:shape":"cone, point up","seamark:type":"beacon_lateral"}}},{"type":"Feature","geometry":{"type":"Point","coordinates":[130.962309,33.9548882]},"properties":{"osm_id":1223939636,"osm_type":"node","seamark_type":"light_minor","display_class":"OTHER","min_zoom":12,"importance":1,"name":null,"ref":null,"common":{"type":"light_minor"},"children":{"light":{"character":"Fl","colour":"green","height":"10","period":"3","range":"3","reference":"M 5354"}},"osm_tags":{"man_made":"lighthouse","seamark:light:character":"Fl","seamark:light:colour":"green","seamark:light:height":"10","seamark:light:period":"3","seamark:light:range":"3","seamark:light:reference":"M 5354","seamark:type":"light_minor","source":"US NGA Pub. 112. 2009-11-12."}}},{"type":"Feature","geometry":{"type":"Point","coordinates":[130.9169105,33.8866315]},"properties":{"osm_id":1223939648,"osm_type":"node","seamark_type":"light_minor","display_class":"OTHER","min_zoom":12,"importance":1,"name":null,"ref":null,"common":{"type":"light_minor"},"children":{"light":{"category":"upper","character":"F","colour":"yellow","height":"79","range":"20","reference":"M 5340.1"}},"osm_tags":{"seamark:light:category":"upper","seamark:light:character":"F","seamark:light:colour":"yellow","seamark:light:height":"79","seamark:light:range":"20","seamark:light:reference":"M 5340.1","seamark:type":"light_minor","source":"US NGA Pub. 112. 2009-11-12."}}},{"type":"Feature","geometry":{"type":"Point","coordinates":[130.3819196,33.6180655]},"properties":{"osm_id":2342748843,"osm_type":"node","seamark_type":"light_minor","display_class":"OTHER","min_zoom":12,"importance":1,"name":null,"ref":null,"common":{"type":"light_minor"},"children":{"light":{"character":"Fl","colour":"red","height":"17","period":"3","range":"7","reference":"M 5282"}},"osm_tags":{"light":"yes","man_made":"lighthouse","seamark:light:character":"Fl","seamark:light:colour":"red","seamark:light:height":"17","seamark:light:period":"3","seamark:light:range":"7","seamark:light:reference":"M 5282","seamark:type":"light_minor","source":"photograph"}}},{"type":"Feature","geometry":{"type":"Point","coordinates":[130.4257101,33.7179263]},"properties":{"osm_id":2400794652,"osm_type":"node","seamark_type":"light_minor","display_class":"OTHER","min_zoom":12,"importance":1,"name":null,"ref":null,"common":{"type":"light_minor"},"children":{"light":{"character":"Fl","colour":"green","period":"4"}},"osm_tags":{"seamark:light:character":"Fl","seamark:light:colour":"green","seamark:light:period":"4","seamark:type":"light_minor","source":"survey"}}},{"type":"Feature","geometry":{"type":"Point","coordinates":[130.4252282,33.7181836]},"properties":{"osm_id":2400794655,"osm_type":"node","seamark_type":"light_minor","display_class":"OTHER","min_zoom":12,"importance":1,"name":null,"ref":null,"common":{"type":"light_minor"},"children":{"light":{"character":"Fl","colour":"white","period":"4"}},"osm_tags":{"light":"yes","seamark:light:character":"Fl","seamark:light:colour":"white","seamark:light:period":"4","seamark:type":"light_minor","source":"survey"}}},{"type":"Feature","geometry":{"type":"Point","coordinates":[130.4256399,33.7190087]},"properties":{"osm_id":2400794659,"osm_type":"node","seamark_type":"light_minor","display_class":"OTHER","min_zoom":12,"importance":1,"name":null,"ref":null,"common":{"type":"light_minor"},"children":{"light":{"character":"Fl","colour":"red","period":"4"}},"osm_tags":{"seamark:light:character":"Fl","seamark:light:colour":"red","seamark:light:period":"4","seamark:type":"light_minor","source":"survey"}}},{"type":"Feature","geometry":{"type":"Point","coordinates":[130.4260815,33.7192643]},"properties":{"osm_id":2400794663,"osm_type":"node","seamark_type":"light_minor","display_class":"OTHER","min_zoom":12,"importance":1,"name":null,"ref":null,"common":{"type":"light_minor"},"children":{"light":{"character":"Fl","colour":"red","period":"4"}},"osm_tags":{"seamark:light:character":"Fl","seamark:light:colour":"red","seamark:light:period":"4","seamark:type":"light_minor","source":"survey"}}},{"type":"Feature","geometry":{"type":"Point","coordinates":[130.391109,33.6141489]},"properties":{"osm_id":3032761786,"osm_type":"node","seamark_type":"buoy_cardinal","display_class":"OTHER","min_zoom":12,"importance":1,"name":null,"ref":null,"common":{"type":"buoy_cardinal"},"children":{"buoy_cardinal":{"category":"north","colour":"black;yellow"},"light":{"character":"Q","colour":"white"},"topmark":{"shape":"2 cones up"}},"osm_tags":{"seamark:buoy_cardinal:category":"north","seamark:buoy_cardinal:colour":"black;yellow","seamark:light:character":"Q","seamark:light:colour":"white","seamark:topmark:shape":"2 cones up","seamark:type":"buoy_cardinal","source":"photograph"}}},{"type":"Feature","geometry":{"type":"Point","coordinates":[130.4392419,33.7225156]},"properties":{"osm_id":3509375792,"osm_type":"node","seamark_type":"light_minor","display_class":"OTHER","min_zoom":12,"importance":1,"name":null,"ref":null,"common":{"type":"light_minor"},"children":{"light":{"character":"Fl","colour":"yellow","period":"4"}},"osm_tags":{"seamark:light:character":"Fl","seamark:light:colour":"yellow","seamark:light:period":"4","seamark:type":"light_minor","source":"survey"}}},{"type":"Feature","geometry":{"type":"Point","coordinates":[130.441018,33.7236242]},"properties":{"osm_id":3509384493,"osm_type":"node","seamark_type":"light_minor","display_class":"OTHER","min_zoom":12,"importance":1,"name":null,"ref":null,"common":{"type":"light_minor"},"children":{"light":{"character":"Fl","colour":"yellow","period":"4"}},"osm_tags":{"seamark:light:character":"Fl","seamark:light:colour":"yellow","seamark:light:period":"4","seamark:type":"light_minor","source":"survey"}}},{"type":"Feature","geometry":{"type":"Point","coordinates":[130.4045473,33.695724]},"properties":{"osm_id":3509386650,"osm_type":"node","seamark_type":"light_minor","display_class":"OTHER","min_zoom":12,"importance":1,"name":null,"ref":null,"common":{"type":"light_minor"},"children":{"light":{"character":"Fl","colour":"red","period":"4"}},"osm_tags":{"seamark:light:character":"Fl","seamark:light:colour":"red","seamark:light:period":"4","seamark:type":"light_minor","source":"survey"}}},{"type":"Feature","geometry":{"type":"Point","coordinates":[130.4040585,33.6961475]},"properties":{"osm_id":3509386651,"osm_type":"node","seamark_type":"light_minor","display_class":"OTHER","min_zoom":12,"importance":1,"name":null,"ref":null,"common":{"type":"light_minor"},"children":{"light":{"character":"Fl","colour":"green","period":"4"}},"osm_tags":{"light":"yes","seamark:light:character":"Fl","seamark:light:colour":"green","seamark:light:period":"4","seamark:type":"light_minor","source":"survey"}}},{"type":"Feature","geometry":{"type":"Point","coordinates":[130.4034851,33.6966128]},"properties":{"osm_id":3509386652,"osm_type":"node","seamark_type":"light_minor","display_class":"OTHER","min_zoom":12,"importance":1,"name":null,"ref":null,"common":{"type":"light_minor"},"children":{"light":{"character":"Fl","colour":"red","period":"4"}},"osm_tags":{"seamark:light:character":"Fl","seamark:light:colour":"red","seamark:light:period":"4","seamark:type":"light_minor","source":"survey"}}},{"type":"Feature","geometry":{"type":"Point","coordinates":[130.3864471,33.6199275]},"properties":{"osm_id":3519313593,"osm_type":"node","seamark_type":"light_minor","display_class":"OTHER","min_zoom":12,"importance":1,"name":null,"ref":null,"common":{"type":"light_minor"},"children":{"light":{"character":"Fl","colour":"green","height":"12","period":"3","range":"7","reference":"M 5281.9"}},"osm_tags":{"light":"yes","man_made":"lighthouse","seamark:light:character":"Fl","seamark:light:colour":"green","seamark:light:height":"12","seamark:light:period":"3","seamark:light:range":"7","seamark:light:reference":"M 5281.9","seamark:type":"light_minor","source":"photograph"}}},{"type":"Feature","geometry":{"type":"Point","coordinates":[130.3108443,33.5927554]},"properties":{"osm_id":3519332507,"osm_type":"node","seamark_type":"light_minor","display_class":"OTHER","min_zoom":12,"importance":1,"name":null,"ref":null,"common":{"type":"light_minor"},"children":{"light":{"character":"Fl","colour":"red","period":"2"}},"osm_tags":{"seamark:light:character":"Fl","seamark:light:colour":"red","seamark:light:period":"2","seamark:type":"light_minor","source":"survey"}}},{"type":"Feature","geometry":{"type":"Point","coordinates":[130.3103265,33.5933125]},"properties":{"osm_id":3519332508,"osm_type":"node","seamark_type":"light_minor","display_class":"OTHER","min_zoom":12,"importance":1,"name":null,"ref":null,"common":{"type":"light_minor"},"children":{"light":{"character":"Fl","colour":"green","period":"2"}},"osm_tags":{"seamark:light:character":"Fl","seamark:light:colour":"green","seamark:light:period":"2","seamark:type":"light_minor","source":"survey"}}},{"type":"Feature","geometry":{"type":"Point","coordinates":[130.399752,33.6057505]},"properties":{"osm_id":3519332509,"osm_type":"node","seamark_type":"light_minor","display_class":"OTHER","min_zoom":12,"importance":1,"name":null,"ref":null,"common":{"type":"light_minor"},"children":{"light":{"character":"F","colour":"yellow"}},"osm_tags":{"seamark:light:character":"F","seamark:light:colour":"yellow","seamark:type":"light_minor","source":"survey"}}},{"type":"Feature","geometry":{"type":"Point","coordinates":[130.3979419,33.6413286]},"properties":{"osm_id":3519332510,"osm_type":"node","seamark_type":"light_minor","display_class":"OTHER","min_zoom":12,"importance":1,"name":null,"ref":null,"common":{"type":"light_minor"},"children":{"light":{"character":"Fl","colour":"red","period":"4"}},"osm_tags":{"seamark:light:character":"Fl","seamark:light:colour":"red","seamark:light:period":"4","seamark:type":"light_minor","source":"survey"}}},{"type":"Feature","geometry":{"type":"Point","coordinates":[130.4039896,33.6432901]},"properties":{"osm_id":3519332511,"osm_type":"node","seamark_type":"light_minor","display_class":"OTHER","min_zoom":12,"importance":1,"name":null,"ref":null,"common":{"type":"light_minor"},"children":{"light":{"character":"Fl","colour":"green","period":"2"}},"osm_tags":{"seamark:light:character":"Fl","seamark:light:colour":"green","seamark:light:period":"2","seamark:type":"light_minor","source":"survey"}}},{"type":"Feature","geometry":{"type":"Point","coordinates":[130.4049044,33.6455436]},"properties":{"osm_id":3519332512,"osm_type":"node","seamark_type":"light_minor","display_class":"OTHER","min_zoom":12,"importance":1,"name":null,"ref":null,"common":{"type":"light_minor"},"children":{"light":{"character":"Fl","colour":"red","period":"2"}},"osm_tags":{"seamark:light:character":"Fl","seamark:light:colour":"red","seamark:light:period":"2","seamark:type":"light_minor","source":"survey"}}},{"type":"Feature","geometry":{"type":"Point","coordinates":[130.411173,33.6446976]},"properties":{"osm_id":3519334023,"osm_type":"node","seamark_type":"light_minor","display_class":"OTHER","min_zoom":12,"importance":1,"name":null,"ref":null,"common":{"type":"light_minor"},"children":{"light":{"character":"F","colour":"red"}},"osm_tags":{"seamark:light:character":"F","seamark:light:colour":"red","seamark:type":"light_minor","source":"survey"}}},{"type":"Feature","geometry":{"type":"Point","coordinates":[130.4116473,33.6458951]},"properties":{"osm_id":3519334024,"osm_type":"node","seamark_type":"light_minor","display_class":"OTHER","min_zoom":12,"importance":1,"name":null,"ref":null,"common":{"type":"light_minor"},"children":{"light":{"character":"F","colour":"white"}},"osm_tags":{"seamark:light:character":"F","seamark:light:colour":"white","seamark:type":"light_minor","source":"survey"}}},{"type":"Feature","geometry":{"type":"Point","coordinates":[130.412046,33.6468387]},"properties":{"osm_id":3519334025,"osm_type":"node","seamark_type":"light_minor","display_class":"OTHER","min_zoom":12,"importance":1,"name":null,"ref":null,"common":{"type":"light_minor"},"children":{"light":{"character":"F","colour":"green"}},"osm_tags":{"seamark:light:character":"F","seamark:light:colour":"green","seamark:type":"light_minor","source":"survey"}}},{"type":"Feature","geometry":{"type":"Point","coordinates":[130.4016549,33.6563929]},"properties":{"osm_id":3519334026,"osm_type":"node","seamark_type":"light_minor","display_class":"OTHER","min_zoom":12,"importance":1,"name":null,"ref":null,"common":{"type":"light_minor"},"children":{"light":{"character":"Fl","colour":"green","period":"2"}},"osm_tags":{"seamark:light:character":"Fl","seamark:light:colour":"green","seamark:light:period":"2","seamark:type":"light_minor","source":"survey"}}},{"type":"Feature","geometry":{"type":"Point","coordinates":[130.4162436,33.6577989]},"properties":{"osm_id":3519334027,"osm_type":"node","seamark_type":"light_minor","display_class":"OTHER","min_zoom":12,"importance":1,"name":null,"ref":null,"common":{"type":"light_minor"},"children":{"light":{"character":"Fl","colour":"green","period":"4"}},"osm_tags":{"seamark:light:character":"Fl","seamark:light:colour":"green","seamark:light:period":"4","seamark:type":"light_minor","source":"survey"}}},{"type":"Feature","geometry":{"type":"Point","coordinates":[130.4669575,33.7649163]},"properties":{"osm_id":3519344565,"osm_type":"node","seamark_type":"light_minor","display_class":"OTHER","min_zoom":12,"importance":1,"name":null,"ref":null,"common":{"type":"light_minor"},"children":{"light":{"character":"Fl","colour":"green","period":"4"}},"osm_tags":{"light":"yes","seamark:light:character":"Fl","seamark:light:colour":"green","seamark:light:period":"4","seamark:type":"light_minor","source":"survey"}}},{"type":"Feature","geometry":{"type":"Point","coordinates":[130.4663385,33.7652693]},"properties":{"osm_id":3519344569,"osm_type":"node","seamark_type":"light_minor","display_class":"OTHER","min_zoom":12,"importance":1,"name":null,"ref":null,"common":{"type":"light_minor"},"children":{"light":{"character":"Fl","colour":"red","period":"4"}},"osm_tags":{"light":"yes","seamark:light:character":"Fl","seamark:light:colour":"red","seamark:light:period":"4","seamark:type":"light_minor","source":"survey"}}},{"type":"Feature","geometry":{"type":"Point","coordinates":[130.3671139,33.7567153]},"properties":{"osm_id":3519366403,"osm_type":"node","seamark_type":"light_minor","display_class":"OTHER","min_zoom":12,"importance":1,"name":null,"ref":null,"common":{"type":"light_minor"},"children":{"light":{"character":"Fl","colour":"yellow","period":"4"}},"osm_tags":{"light":"yes","seamark:light:character":"Fl","seamark:light:colour":"yellow","seamark:light:period":"4","seamark:type":"light_minor","source":"survey"}}},{"type":"Feature","geometry":{"type":"Point","coordinates":[130.3116123,33.6589102]},"properties":{"osm_id":3519402124,"osm_type":"node","seamark_type":"light_minor","display_class":"OTHER","min_zoom":12,"importance":1,"name":null,"ref":null,"common":{"type":"light_minor"},"children":{"light":{"character":"Fl","colour":"green","period":"4"}},"osm_tags":{"seamark:light:character":"Fl","seamark:light:colour":"green","seamark:light:period":"4","seamark:type":"light_minor","source":"survey"}}},{"type":"Feature","geometry":{"type":"Point","coordinates":[130.3130247,33.658957]},"properties":{"osm_id":3519402125,"osm_type":"node","seamark_type":"light_minor","display_class":"OTHER","min_zoom":12,"importance":1,"name":null,"ref":null,"common":{"type":"light_minor"},"children":{"light":{"character":"Fl","colour":"green","period":"4"}},"osm_tags":{"seamark:light:character":"Fl","seamark:light:colour":"green","seamark:light:period":"4","seamark:type":"light_minor","source":"survey"}}},{"type":"Feature","geometry":{"type":"Point","coordinates":[130.3122737,33.6592714]},"properties":{"osm_id":3519402126,"osm_type":"node","seamark_type":"light_minor","display_class":"OTHER","min_zoom":12,"importance":1,"name":null,"ref":null,"common":{"type":"light_minor"},"children":{"light":{"character":"Fl","colour":"red","period":"4"}},"osm_tags":{"seamark:light:character":"Fl","seamark:light:colour":"red","seamark:light:period":"4","seamark:type":"light_minor","source":"survey"}}},{"type":"Feature","geometry":{"type":"Point","coordinates":[130.310828,33.6597703]},"properties":{"osm_id":3519402127,"osm_type":"node","seamark_type":"light_minor","display_class":"OTHER","min_zoom":12,"importance":1,"name":null,"ref":null,"common":{"type":"light_minor"},"children":{"light":{"character":"Fl","colour":"green","period":"4"}},"osm_tags":{"seamark:light:character":"Fl","seamark:light:colour":"green","seamark:light:period":"4","seamark:type":"light_minor","source":"survey"}}},{"type":"Feature","geometry":{"type":"Point","coordinates":[130.3137942,33.6605117]},"properties":{"osm_id":3519402128,"osm_type":"node","seamark_type":"light_minor","display_class":"OTHER","min_zoom":12,"importance":1,"name":null,"ref":null,"common":{"type":"light_minor"},"children":{"light":{"character":"Fl","colour":"red","period":"4"}},"osm_tags":{"seamark:light:character":"Fl","seamark:light:colour":"red","seamark:light:period":"4","seamark:type":"light_minor","source":"survey"}}},{"type":"Feature","geometry":{"type":"Point","coordinates":[130.317134,33.6641597]},"properties":{"osm_id":3519402129,"osm_type":"node","seamark_type":"light_minor","display_class":"OTHER","min_zoom":12,"importance":1,"name":null,"ref":null,"common":{"type":"light_minor"},"children":{"light":{"character":"Fl","colour":"green","period":"4"}},"osm_tags":{"seamark:light:character":"Fl","seamark:light:colour":"green","seamark:light:period":"4","seamark:type":"light_minor","source":"survey"}}},{"type":"Feature","geometry":{"type":"Point","coordinates":[130.2899027,33.6688215]},"properties":{"osm_id":3519407522,"osm_type":"node","seamark_type":"light_minor","display_class":"OTHER","min_zoom":12,"importance":1,"name":null,"ref":null,"common":{"type":"light_minor"},"children":{"light":{"character":"Fl","colour":"green","period":"4"}},"osm_tags":{"seamark:light:character":"Fl","seamark:light:colour":"green","seamark:light:period":"4","seamark:type":"light_minor","source":"survey"}}},{"type":"Feature","geometry":{"type":"Point","coordinates":[130.2890734,33.6692658]},"properties":{"osm_id":3519407523,"osm_type":"node","seamark_type":"light_minor","display_class":"OTHER","min_zoom":12,"importance":1,"name":null,"ref":null,"common":{"type":"light_minor"},"children":{"light":{"character":"Fl","colour":"red","period":"4"}},"osm_tags":{"seamark:light:character":"Fl","seamark:light:colour":"red","seamark:light:period":"4","seamark:type":"light_minor","source":"survey"}}},{"type":"Feature","geometry":{"type":"Point","coordinates":[130.2904366,33.6694147]},"properties":{"osm_id":3519407524,"osm_type":"node","seamark_type":"light_minor","display_class":"OTHER","min_zoom":12,"importance":1,"name":null,"ref":null,"common":{"type":"light_minor"},"children":{"light":{"character":"Fl","colour":"green","period":"4"}},"osm_tags":{"seamark:light:character":"Fl","seamark:light:colour":"green","seamark:light:period":"4","seamark:type":"light_minor","source":"survey"}}},{"type":"Feature","geometry":{"type":"Point","coordinates":[130.2351457,33.6802145]},"properties":{"osm_id":3519423576,"osm_type":"node","seamark_type":"light_minor","display_class":"OTHER","min_zoom":12,"importance":1,"name":null,"ref":null,"common":{"type":"light_minor"},"children":{"light":{"character":"Fl","colour":"yellow","period":"4"}},"osm_tags":{"seamark:light:character":"Fl","seamark:light:colour":"yellow","seamark:light:period":"4","seamark:type":"light_minor","source":"survey"}}},{"type":"Feature","geometry":{"type":"Point","coordinates":[130.2379261,33.6806838]},"properties":{"osm_id":3519423578,"osm_type":"node","seamark_type":"light_minor","display_class":"OTHER","min_zoom":12,"importance":1,"name":null,"ref":null,"common":{"type":"light_minor"},"children":{"light":{"character":"Fl","colour":"green","period":"4"}},"osm_tags":{"seamark:light:character":"Fl","seamark:light:colour":"green","seamark:light:period":"4","seamark:type":"light_minor","source":"survey"}}},{"type":"Feature","geometry":{"type":"Point","coordinates":[130.2360826,33.6807015]},"properties":{"osm_id":3519423579,"osm_type":"node","seamark_type":"light_minor","display_class":"OTHER","min_zoom":12,"importance":1,"name":null,"ref":null,"common":{"type":"light_minor"},"children":{"light":{"character":"Fl","colour":"green","period":"4"}},"osm_tags":{"seamark:light:character":"Fl","seamark:light:colour":"green","seamark:light:period":"4","seamark:type":"light_minor","source":"survey"}}},{"type":"Feature","geometry":{"type":"Point","coordinates":[130.2372287,33.6816779]},"properties":{"osm_id":3519423580,"osm_type":"node","seamark_type":"light_minor","display_class":"OTHER","min_zoom":12,"importance":1,"name":null,"ref":null,"common":{"type":"light_minor"},"children":{"light":{"character":"Fl","colour":"red","period":"4"}},"osm_tags":{"seamark:light:character":"Fl","seamark:light:colour":"red","seamark:light:period":"4","seamark:type":"light_minor","source":"survey"}}},{"type":"Feature","geometry":{"type":"Point","coordinates":[130.3093744,33.6095338]},"properties":{"osm_id":3519424627,"osm_type":"node","seamark_type":"light_minor","display_class":"OTHER","min_zoom":12,"importance":1,"name":null,"ref":null,"common":{"type":"light_minor"},"children":{"light":{"character":"Fl","colour":"green","period":"4"}},"osm_tags":{"seamark:light:character":"Fl","seamark:light:colour":"green","seamark:light:period":"4","seamark:type":"light_minor","source":"survey"}}},{"type":"Feature","geometry":{"type":"Point","coordinates":[130.4552188,33.7832455]},"properties":{"osm_id":3519671985,"osm_type":"node","seamark_type":"light_minor","display_class":"OTHER","min_zoom":12,"importance":1,"name":null,"ref":null,"common":{"type":"light_minor"},"children":{"light":{"character":"Fl","colour":"green","period":"4"}},"osm_tags":{"seamark:light:character":"Fl","seamark:light:colour":"green","seamark:light:period":"4","seamark:type":"light_minor","source":"survey"}}},{"type":"Feature","geometry":{"type":"Point","coordinates":[130.4545069,33.784656]},"properties":{"osm_id":3519671989,"osm_type":"node","seamark_type":"light_minor","display_class":"OTHER","min_zoom":12,"importance":1,"name":null,"ref":null,"common":{"type":"light_minor"},"children":{"light":{"character":"Fl","colour":"yellow","period":"4"}},"osm_tags":{"seamark:light:character":"Fl","seamark:light:colour":"yellow","seamark:light:period":"4","seamark:type":"light_minor","source":"survey"}}},{"type":"Feature","geometry":{"type":"Point","coordinates":[130.454974,33.7849021]},"properties":{"osm_id":3519671990,"osm_type":"node","seamark_type":"light_minor","display_class":"OTHER","min_zoom":12,"importance":1,"name":null,"ref":null,"common":{"type":"light_minor"},"children":{"light":{"character":"Fl","colour":"yellow","period":"4"}},"osm_tags":{"seamark:light:character":"Fl","seamark:light:colour":"yellow","seamark:light:period":"4","seamark:type":"light_minor","source":"survey"}}},{"type":"Feature","geometry":{"type":"Point","coordinates":[130.1081401,33.5886379]},"properties":{"osm_id":10033915709,"osm_type":"node","seamark_type":"harbour","display_class":"OTHER","min_zoom":12,"importance":1,"name":null,"ref":null,"common":{"type":"harbour"},"children":{"harbour":{"category":"fishing"}},"osm_tags":{"leisure":"marina","seamark:harbour:category":"fishing","seamark:type":"harbour"}}},{"type":"Feature","geometry":{"type":"Point","coordinates":[130.3123384,33.6173183]},"properties":{"osm_id":11381323001,"osm_type":"node","seamark_type":"gate","display_class":"OTHER","min_zoom":12,"importance":1,"name":null,"ref":null,"common":{"type":"gate"},"children":{},"osm_tags":{"material":"metal","seamark:type":"gate","waterway":"lock_gate"}}},{"type":"Feature","geometry":{"type":"Point","coordinates":[130.3902871,33.6189854]},"properties":{"osm_id":13529092266,"osm_type":"node","seamark_type":"buoy_lateral","display_class":"OTHER","min_zoom":12,"importance":1,"name":null,"ref":null,"common":{"type":"buoy_lateral"},"children":{"buoy_lateral":{"category":"port","colour":"green","shape":"pillar","system":"iala-b"}},"osm_tags":{"seamark:buoy_lateral:category":"port","seamark:buoy_lateral:colour":"green","seamark:buoy_lateral:shape":"pillar","seamark:buoy_lateral:system":"iala-b","seamark:type":"buoy_lateral"}}},{"type":"Feature","geometry":{"type":"Point","coordinates":[130.7555,33.9796111]},"properties":{"osm_id":13530613374,"osm_type":"node","seamark_type":"landmark","display_class":"OTHER","min_zoom":12,"importance":1,"name":null,"ref":null,"common":{"type":"landmark"},"children":{"landmark":{"category":"windmotor"}},"osm_tags":{"generator:method":"wind_turbine","generator:source":"wind","generator:type":"horizontal_axis","offshore":"yes","power":"generator","seamark:landmark:category":"windmotor","seamark:type":"landmark"}}},{"type":"Feature","geometry":{"type":"Point","coordinates":[130.73825,33.9828889]},"properties":{"osm_id":13530613375,"osm_type":"node","seamark_type":"landmark","display_class":"OTHER","min_zoom":12,"importance":1,"name":null,"ref":null,"common":{"type":"landmark"},"children":{"landmark":{"category":"windmotor"}},"osm_tags":{"generator:method":"wind_turbine","generator:source":"wind","generator:type":"horizontal_axis","offshore":"yes","power":"generator","seamark:landmark:category":"windmotor","seamark:type":"landmark"}}},{"type":"Feature","geometry":{"type":"Point","coordinates":[130.7468611,33.9856667]},"properties":{"osm_id":13530613376,"osm_type":"node","seamark_type":"landmark","display_class":"OTHER","min_zoom":12,"importance":1,"name":null,"ref":null,"common":{"type":"landmark"},"children":{"landmark":{"category":"windmotor"}},"osm_tags":{"generator:method":"wind_turbine","generator:source":"wind","generator:type":"horizontal_axis","offshore":"yes","power":"generator","seamark:landmark:category":"windmotor","seamark:type":"landmark"}}},{"type":"Feature","geometry":{"type":"Point","coordinates":[130.7414167,33.9711389]},"properties":{"osm_id":13530613377,"osm_type":"node","seamark_type":"landmark","display_class":"OTHER","min_zoom":12,"importance":1,"name":null,"ref":null,"common":{"type":"landmark"},"children":{"landmark":{"category":"windmotor"}},"osm_tags":{"generator:method":"wind_turbine","generator:source":"wind","generator:type":"horizontal_axis","offshore":"yes","power":"generator","seamark:landmark:category":"windmotor","seamark:type":"landmark"}}},{"type":"Feature","geometry":{"type":"Point","coordinates":[130.7114167,33.9730556]},"properties":{"osm_id":13530613378,"osm_type":"node","seamark_type":"landmark","display_class":"OTHER","min_zoom":12,"importance":1,"name":null,"ref":null,"common":{"type":"landmark"},"children":{"landmark":{"category":"windmotor"}},"osm_tags":{"generator:method":"wind_turbine","generator:source":"wind","generator:type":"horizontal_axis","offshore":"yes","power":"generator","seamark:landmark:category":"windmotor","seamark:type":"landmark"}}},{"type":"Feature","geometry":{"type":"Point","coordinates":[130.704,33.9832778]},"properties":{"osm_id":13530613379,"osm_type":"node","seamark_type":"landmark","display_class":"OTHER","min_zoom":12,"importance":1,"name":null,"ref":null,"common":{"type":"landmark"},"children":{"landmark":{"category":"windmotor"}},"osm_tags":{"generator:method":"wind_turbine","generator:source":"wind","generator:type":"horizontal_axis","offshore":"yes","power":"generator","seamark:landmark:category":"windmotor","seamark:type":"landmark"}}},{"type":"Feature","geometry":{"type":"Point","coordinates":[130.7241944,33.9714722]},"properties":{"osm_id":13530613380,"osm_type":"node","seamark_type":"landmark","display_class":"OTHER","min_zoom":12,"importance":1,"name":null,"ref":null,"common":{"type":"landmark"},"children":{"landmark":{"category":"windmotor"},"light":{"character":"Fl","colour":"yellow","group":"2","height":"11","period":"6","range":"5","reference":"M 5294.8"}},"osm_tags":{"generator:method":"wind_turbine","generator:source":"wind","generator:type":"horizontal_axis","offshore":"yes","power":"generator","seamark:landmark:category":"windmotor","seamark:light:character":"Fl","seamark:light:colour":"yellow","seamark:light:group":"2","seamark:light:height":"11","seamark:light:period":"6","seamark:light:range":"5","seamark:light:reference":"M 5294.8","seamark:type":"landmark"}}},{"type":"Feature","geometry":{"type":"Point","coordinates":[130.7509722,33.971]},"properties":{"osm_id":13530613381,"osm_type":"node","seamark_type":"landmark","display_class":"OTHER","min_zoom":12,"importance":1,"name":null,"ref":null,"common":{"type":"landmark"},"children":{"landmark":{"category":"windmotor"}},"osm_tags":{"generator:method":"wind_turbine","generator:source":"wind","generator:type":"horizontal_axis","offshore":"yes","power":"generator","seamark:landmark:category":"windmotor","seamark:type":"landmark"}}},{"type":"Feature","geometry":{"type":"Point","coordinates":[130.7204722,33.9830833]},"properties":{"osm_id":13530613382,"osm_type":"node","seamark_type":"landmark","display_class":"OTHER","min_zoom":12,"importance":1,"name":null,"ref":null,"common":{"type":"landmark"},"children":{"landmark":{"category":"windmotor"}},"osm_tags":{"generator:method":"wind_turbine","generator:source":"wind","generator:type":"horizontal_axis","offshore":"yes","power":"generator","seamark:landmark:category":"windmotor","seamark:type":"landmark"}}},{"type":"Feature","geometry":{"type":"Point","coordinates":[130.7082222,33.9891667]},"properties":{"osm_id":13530613383,"osm_type":"node","seamark_type":"landmark","display_class":"OTHER","min_zoom":12,"importance":1,"name":null,"ref":null,"common":{"type":"landmark"},"children":{"landmark":{"category":"windmotor"}},"osm_tags":{"generator:method":"wind_turbine","generator:source":"wind","generator:type":"horizontal_axis","offshore":"yes","power":"generator","seamark:landmark:category":"windmotor","seamark:type":"landmark"}}},{"type":"Feature","geometry":{"type":"Point","coordinates":[130.7976389,33.9561667]},"properties":{"osm_id":13530613385,"osm_type":"node","seamark_type":"landmark","display_class":"OTHER","min_zoom":12,"importance":1,"name":null,"ref":null,"common":{"type":"landmark"},"children":{"landmark":{"category":"windmotor"},"light":{"character":"Fl","colour":"yellow","group":"2","height":"11","period":"6","range":"5","reference":"M 5294.98"}},"osm_tags":{"generator:method":"wind_turbine","generator:source":"wind","generator:type":"horizontal_axis","offshore":"yes","power":"generator","seamark:landmark:category":"windmotor","seamark:light:character":"Fl","seamark:light:colour":"yellow","seamark:light:group":"2","seamark:light:height":"11","seamark:light:period":"6","seamark:light:range":"5","seamark:light:reference":"M 5294.98","seamark:type":"landmark"}}},{"type":"Feature","geometry":{"type":"Point","coordinates":[130.7886944,33.9759167]},"properties":{"osm_id":13530613386,"osm_type":"node","seamark_type":"landmark","display_class":"OTHER","min_zoom":12,"importance":1,"name":null,"ref":null,"common":{"type":"landmark"},"children":{"landmark":{"category":"windmotor"},"light":{"character":"Fl","colour":"yellow","group":"2","height":"11","period":"6","range":"5"}},"osm_tags":{"generator:method":"wind_turbine","generator:source":"wind","generator:type":"horizontal_axis","offshore":"yes","power":"generator","seamark:landmark:category":"windmotor","seamark:light:character":"Fl","seamark:light:colour":"yellow","seamark:light:group":"2","seamark:light:height":"11","seamark:light:period":"6","seamark:light:range":"5","seamark:type":"landmark"}}},{"type":"Feature","geometry":{"type":"Point","coordinates":[130.7771111,33.9929722]},"properties":{"osm_id":13530613387,"osm_type":"node","seamark_type":"landmark","display_class":"OTHER","min_zoom":12,"importance":1,"name":null,"ref":null,"common":{"type":"landmark"},"children":{"landmark":{"category":"windmotor"},"light":{"character":"Fl","colour":"yellow","group":"2","height":"11","period":"6","range":"5"}},"osm_tags":{"generator:method":"wind_turbine","generator:source":"wind","generator:type":"horizontal_axis","offshore":"yes","power":"generator","seamark:landmark:category":"windmotor","seamark:light:character":"Fl","seamark:light:colour":"yellow","seamark:light:group":"2","seamark:light:height":"11","seamark:light:period":"6","seamark:light:range":"5","seamark:type":"landmark"}}},{"type":"Feature","geometry":{"type":"Point","coordinates":[130.7277222,33.995]},"properties":{"osm_id":13530613388,"osm_type":"node","seamark_type":"landmark","display_class":"OTHER","min_zoom":12,"importance":1,"name":null,"ref":null,"common":{"type":"landmark"},"children":{"landmark":{"category":"windmotor"}},"osm_tags":{"generator:method":"wind_turbine","generator:source":"wind","generator:type":"horizontal_axis","offshore":"yes","power":"generator","seamark:landmark:category":"windmotor","seamark:type":"landmark"}}},{"type":"Feature","geometry":{"type":"Point","coordinates":[130.7101111,33.9531667]},"properties":{"osm_id":13530622697,"osm_type":"node","seamark_type":"landmark","display_class":"OTHER","min_zoom":12,"importance":1,"name":null,"ref":null,"common":{"type":"landmark"},"children":{"landmark":{"category":"windmotor"},"light":{"character":"Fl","colour":"yellow","group":"2","height":"11","period":"6","range":"5"}},"osm_tags":{"generator:method":"wind_turbine","generator:source":"wind","generator:type":"horizontal_axis","offshore":"yes","power":"generator","seamark:landmark:category":"windmotor","seamark:light:character":"Fl","seamark:light:colour":"yellow","seamark:light:group":"2","seamark:light:height":"11","seamark:light:period":"6","seamark:light:range":"5","seamark:type":"landmark"}}},{"type":"Feature","geometry":{"type":"Point","coordinates":[130.6993611,33.995]},"properties":{"osm_id":13530622698,"osm_type":"node","seamark_type":"landmark","display_class":"OTHER","min_zoom":12,"importance":1,"name":null,"ref":null,"common":{"type":"landmark"},"children":{"landmark":{"category":"windmotor"},"light":{"character":"Fl","colour":"yellow","group":"2","height":"11","period":"6","range":"5","reference":"M 5294.88"}},"osm_tags":{"generator:method":"wind_turbine","generator:source":"wind","generator:type":"horizontal_axis","offshore":"yes","power":"generator","seamark:landmark:category":"windmotor","seamark:light:character":"Fl","seamark:light:colour":"yellow","seamark:light:group":"2","seamark:light:height":"11","seamark:light:period":"6","seamark:light:range":"5","seamark:light:reference":"M 5294.88","seamark:type":"landmark"}}},{"type":"Feature","geometry":{"type":"Point","coordinates":[130.7563889,33.9555833]},"properties":{"osm_id":13530622699,"osm_type":"node","seamark_type":"landmark","display_class":"OTHER","min_zoom":12,"importance":1,"name":null,"ref":null,"common":{"type":"landmark"},"children":{"landmark":{"category":"windmotor"},"light":{"character":"Fl","colour":"yellow","group":"2","height":"11","period":"6","range":"5","reference":"M 5294.7"}},"osm_tags":{"generator:method":"wind_turbine","generator:source":"wind","generator:type":"horizontal_axis","offshore":"yes","power":"generator","seamark:landmark:category":"windmotor","seamark:light:character":"Fl","seamark:light:colour":"yellow","seamark:light:group":"2","seamark:light:height":"11","seamark:light:period":"6","seamark:light:range":"5","seamark:light:reference":"M 5294.7","seamark:type":"landmark"}}},{"type":"Feature","geometry":{"type":"Point","coordinates":[130.7246111,33.9550833]},"properties":{"osm_id":13530622700,"osm_type":"node","seamark_type":"landmark","display_class":"OTHER","min_zoom":12,"importance":1,"name":null,"ref":null,"common":{"type":"landmark"},"children":{"landmark":{"category":"windmotor"},"light":{"character":"Fl","colour":"yellow","group":"2","height":"11","period":"6","range":"5","reference":"M 5294.5"}},"osm_tags":{"generator:method":"wind_turbine","generator:source":"wind","generator:type":"horizontal_axis","offshore":"yes","power":"generator","seamark:landmark:category":"windmotor","seamark:light:character":"Fl","seamark:light:colour":"yellow","seamark:light:group":"2","seamark:light:height":"11","seamark:light:period":"6","seamark:light:range":"5","seamark:light:reference":"M 5294.5","seamark:type":"landmark"}}},{"type":"Feature","geometry":{"type":"Point","coordinates":[130.8892596,33.9833119]},"properties":{"osm_id":13542608728,"osm_type":"node","seamark_type":"light_minor","display_class":"OTHER","min_zoom":12,"importance":1,"name":null,"ref":null,"common":{"type":"light_minor"},"children":{"light":{"character":"Fl","colour":"green","height":"11","period":"4","range":"5","reference":"M 5333.5"}},"osm_tags":{"seamark:light:character":"Fl","seamark:light:colour":"green","seamark:light:height":"11","seamark:light:period":"4","seamark:light:range":"5","seamark:light:reference":"M 5333.5","seamark:type":"light_minor"}}},{"type":"Feature","geometry":{"type":"LineString","coordinates":[[130.9142102,33.9400643],[130.9143556,33.940106]]},"properties":{"osm_id":120621438,"osm_type":"way","seamark_type":"gate","display_class":"OTHER","min_zoom":12,"importance":1,"name":null,"ref":null,"common":{"type":"gate"},"children":{},"osm_tags":{"bridge":"yes","est_width":"3.0m〜5.5m","layer":"1","seamark:type":"gate","source":"YahooJapan/ALPSMAP","waterway":"lock_gate"}}},{"type":"Feature","geometry":{"type":"Polygon","coordinates":[[[130.3684956,33.6641796],[130.3683239,33.6640903],[130.3681093,33.664126],[130.3675514,33.6647734],[130.3673851,33.6646573],[130.3669721,33.6648582],[130.3668487,33.6653404],[130.366103,33.6657913],[130.3670633,33.6668405],[130.3673154,33.6668539],[130.3676802,33.6669388],[130.3692801,33.6658795],[130.369252,33.6654877],[130.3691125,33.6653984],[130.368458,33.6652824],[130.3686619,33.6650993],[130.3681898,33.6647734],[130.3685009,33.6643715],[130.3684956,33.6641796]]]},"properties":{"osm_id":672808108,"osm_type":"way","seamark_type":"harbour","display_class":"OTHER","min_zoom":12,"importance":1,"name":null,"ref":null,"common":{"type":"harbour"},"children":{"harbour":{"category":"marina"}},"osm_tags":{"leisure":"marina","seamark:harbour:category":"marina","seamark:type":"harbour","source":"bing,2019"}}},{"type":"Feature","geometry":{"type":"Polygon","coordinates":[[[130.3127176,33.5906201],[130.3125862,33.5912082],[130.3125724,33.5912543],[130.312676,33.5912674],[130.3125923,33.5915788],[130.3125232,33.5919259],[130.3124432,33.5923274],[130.3124077,33.5925055],[130.3122508,33.5924838],[130.3121678,33.5929004],[130.3110722,33.5927331],[130.3115831,33.5904418],[130.3127176,33.5906201]]]},"properties":{"osm_id":672808115,"osm_type":"way","seamark_type":"harbour","display_class":"OTHER","min_zoom":12,"importance":1,"name":null,"ref":null,"common":{"type":"harbour"},"children":{"harbour":{"category":"marina"}},"osm_tags":{"leisure":"marina","seamark:harbour:category":"marina","seamark:type":"harbour","source":"bing,2019"}}},{"type":"Feature","geometry":{"type":"Polygon","coordinates":[[[130.8219866,33.9298203],[130.8219647,33.929817],[130.8219583,33.9298331],[130.8219994,33.9299428],[130.822108,33.93012],[130.8222148,33.9302876],[130.8223018,33.9304087],[130.8224109,33.9305269],[130.8223578,33.9303893],[130.8222913,33.9302644],[130.8221804,33.9300885],[130.8221138,33.9299893],[130.822063,33.9299214],[130.8219866,33.9298203]]]},"properties":{"osm_id":1304572390,"osm_type":"way","seamark_type":"wreck","display_class":"OTHER","min_zoom":12,"importance":1,"name":null,"ref":null,"common":{"type":"wreck"},"children":{"wreck":{"category":"hull_showing"}},"osm_tags":{"historic":"wreck","image":"https://upload.wikimedia.org/wikipedia/commons/5/5d/Gunkannbouhatei_yanagi.jpg","name:en":"Yanagi","name:ja":"柳","seamark:type":"wreck","seamark:wreck:category":"hull_showing","wikidata":"Q26723635","wikipedia":"en:Japanese destroyer Yanagi (1917)","wreck:date_sunk":"1947","wreck:visible_at_high_tide":"yes","wreck:visible_at_low_tide":"yes"}}},{"type":"Feature","geometry":{"type":"LineString","coordinates":[[130.9141475,33.9402215],[130.914295,33.9402638]]},"properties":{"osm_id":1363526414,"osm_type":"way","seamark_type":"gate","display_class":"OTHER","min_zoom":12,"importance":1,"name":null,"ref":null,"common":{"type":"gate"},"children":{},"osm_tags":{"seamark:type":"gate","waterway":"lock_gate"}}},{"type":"Feature","geometry":{"type":"LineString","coordinates":[[130.9142816,33.939841],[130.9144479,33.9398878]]},"properties":{"osm_id":1363526415,"osm_type":"way","seamark_type":"gate","display_class":"OTHER","min_zoom":12,"importance":1,"name":null,"ref":null,"common":{"type":"gate"},"children":{},"osm_tags":{"seamark:type":"gate","waterway":"lock_gate"}}},{"type":"Feature","geometry":{"type":"LineString","coordinates":[[130.4139591,33.1704192],[130.4139371,33.1703867]]},"properties":{"osm_id":1449721119,"osm_type":"way","seamark_type":"gate","display_class":"OTHER","min_zoom":12,"importance":1,"name":null,"ref":null,"common":{"type":"gate"},"children":{},"osm_tags":{"seamark:type":"gate","waterway":"lock_gate"}}},{"type":"Feature","geometry":{"type":"LineString","coordinates":[[130.4087339,33.1715048],[130.4086497,33.171503]]},"properties":{"osm_id":1450647838,"osm_type":"way","seamark_type":"gate","display_class":"OTHER","min_zoom":12,"importance":1,"name":null,"ref":null,"common":{"type":"gate"},"children":{},"osm_tags":{"seamark:type":"gate","waterway":"lock_gate"}}},{"type":"Feature","geometry":{"type":"LineString","coordinates":[[130.40121,33.173008],[130.4014437,33.1728998]]},"properties":{"osm_id":1465522652,"osm_type":"way","seamark_type":"gate","display_class":"OTHER","min_zoom":12,"importance":1,"name":null,"ref":null,"common":{"type":"gate"},"children":{},"osm_tags":{"seamark:type":"gate","waterway":"lock_gate"}}},{"type":"Feature","geometry":{"type":"Point","coordinates":[130.7001111,33.9728056]},"properties":{"osm_id":13530650602,"osm_type":"node","seamark_type":"landmark","display_class":"OTHER","min_zoom":12,"importance":1,"name":"HIBIKI WINDFARM A 11","ref":null,"common":{"name":"HIBIKI WINDFARM A 11","type":"landmark"},"children":{"landmark":{"category":"windmotor"},"light":{"character":"Fl","colour":"yellow","group":"2","height":"11","period":"6","range":"5","reference":"M 5294.85"},"radio_station":{"category":"ais","mmsi":"994311575"}},"osm_tags":{"generator:method":"wind_turbine","generator:source":"wind","generator:type":"horizontal_axis","offshore":"yes","power":"generator","seamark:landmark:category":"windmotor","seamark:light:character":"Fl","seamark:light:colour":"yellow","seamark:light:group":"2","seamark:light:height":"11","seamark:light:period":"6","seamark:light:range":"5","seamark:light:reference":"M 5294.85","seamark:name":"HIBIKI WINDFARM A 11","seamark:radio_station:category":"ais","seamark:radio_station:mmsi":"994311575","seamark:type":"landmark"}}},{"type":"Feature","geometry":{"type":"Point","coordinates":[130.7624722,33.9709722]},"properties":{"osm_id":13530650601,"osm_type":"node","seamark_type":"landmark","display_class":"OTHER","min_zoom":12,"importance":1,"name":"HIBIKI WINDFARM A 15","ref":null,"common":{"name":"HIBIKI WINDFARM A 15","type":"landmark"},"children":{"landmark":{"category":"windmotor"},"light":{"character":"Fl","colour":"yellow","group":"2","height":"11","period":"6","range":"5","reference":"M 5294.95"},"radio_station":{"category":"ais","mmsi":"994311576"}},"osm_tags":{"generator:method":"wind_turbine","generator:source":"wind","generator:type":"horizontal_axis","offshore":"yes","power":"generator","seamark:landmark:category":"windmotor","seamark:light:character":"Fl","seamark:light:colour":"yellow","seamark:light:group":"2","seamark:light:height":"11","seamark:light:period":"6","seamark:light:range":"5","seamark:light:reference":"M 5294.95","seamark:name":"HIBIKI WINDFARM A 15","seamark:radio_station:category":"ais","seamark:radio_station:mmsi":"994311576","seamark:type":"landmark"}}},{"type":"Feature","geometry":{"type":"Point","coordinates":[130.7426667,33.9553333]},"properties":{"osm_id":13530594437,"osm_type":"node","seamark_type":"landmark","display_class":"OTHER","min_zoom":12,"importance":1,"name":"HIBIKI WINDFARM B 2","ref":null,"common":{"name":"HIBIKI WINDFARM B 2","type":"landmark"},"children":{"landmark":{"category":"windmotor"},"light":{"character":"Fl","colour":"yellow","group":"2","height":"11","period":"6","range":"5","reference":"M 5294.6"},"radio_station":{"category":"ais","mmsi":"994311577"}},"osm_tags":{"generator:method":"wind_turbine","generator:source":"wind","generator:type":"horizontal_axis","offshore":"yes","power":"generator","seamark:landmark:category":"windmotor","seamark:light:character":"Fl","seamark:light:colour":"yellow","seamark:light:group":"2","seamark:light:height":"11","seamark:light:period":"6","seamark:light:range":"5","seamark:light:reference":"M 5294.6","seamark:name":"HIBIKI WINDFARM B 2","seamark:radio_station:category":"ais","seamark:radio_station:mmsi":"994311577","seamark:type":"landmark"}}},{"type":"Feature","geometry":{"type":"Point","coordinates":[130.8107222,33.97025]},"properties":{"osm_id":13530596908,"osm_type":"node","seamark_type":"landmark","display_class":"OTHER","min_zoom":12,"importance":1,"name":"HIBIKI WINDFARM C 4","ref":null,"common":{"name":"HIBIKI WINDFARM C 4","type":"landmark"},"children":{"landmark":{"category":"windmotor"},"light":{"character":"Fl","colour":"yellow","group":"2","height":"11","period":"6","range":"5"},"radio_station":{"category":"ais","mmsi":"994311581"}},"osm_tags":{"generator:method":"wind_turbine","generator:source":"wind","generator:type":"horizontal_axis","offshore":"yes","power":"generator","seamark:landmark:category":"windmotor","seamark:light:character":"Fl","seamark:light:colour":"yellow","seamark:light:group":"2","seamark:light:height":"11","seamark:light:period":"6","seamark:light:range":"5","seamark:name":"HIBIKI WINDFARM C 4","seamark:radio_station:category":"ais","seamark:radio_station:mmsi":"994311581","seamark:type":"landmark"}}},{"type":"Feature","geometry":{"type":"Point","coordinates":[130.7828102,33.8826877]},"properties":{"osm_id":13740491598,"osm_type":"node","seamark_type":"buoy_lateral","display_class":"OTHER","min_zoom":12,"importance":1,"name":"No.7","ref":null,"common":{"name":"No.7","type":"buoy_lateral"},"children":{"buoy_lateral":{"category":"port","colour":"green","shape":"pillar","system":"iala-b"},"light":{"character":"Fl","colour":"green","period":"4"},"topmark":{"colour":"green","shape":"cylinder"}},"osm_tags":{"seamark:buoy_lateral:category":"port","seamark:buoy_lateral:colour":"green","seamark:buoy_lateral:shape":"pillar","seamark:buoy_lateral:system":"iala-b","seamark:light:character":"Fl","seamark:light:colour":"green","seamark:light:period":"4","seamark:name":"No.7","seamark:topmark:colour":"green","seamark:topmark:shape":"cylinder","seamark:type":"buoy_lateral"}}},{"type":"Feature","geometry":{"type":"Point","coordinates":[130.9539036,33.9617482]},"properties":{"osm_id":1223939632,"osm_type":"node","seamark_type":"light_minor","display_class":"OTHER","min_zoom":12,"importance":1,"name":"Simonoseki","ref":null,"common":{"name":"Simonoseki","type":"light_minor"},"children":{"light":{"category":"lower","character":"F","colour":"yellow","height":"13","range":"13","reference":"M 5356"}},"osm_tags":{"man_made":"lighthouse","seamark:light:category":"lower","seamark:light:character":"F","seamark:light:colour":"yellow","seamark:light:height":"13","seamark:light:range":"13","seamark:light:reference":"M 5356","seamark:name":"Simonoseki","seamark:type":"light_minor","source":"US NGA Pub. 112. 2009-11-12."}}},{"type":"Feature","geometry":{"type":"Point","coordinates":[130.9331198,33.9476199]},"properties":{"osm_id":1223939638,"osm_type":"node","seamark_type":"light_minor","display_class":"OTHER","min_zoom":12,"importance":1,"name":"Simonoseki ku","ref":null,"common":{"name":"Simonoseki ku","type":"light_minor"},"children":{"light":{"character":"Fl","colour":"red","height":"10","period":"5","range":"3","reference":"M 5351"}},"osm_tags":{"seamark:light:character":"Fl","seamark:light:colour":"red","seamark:light:height":"10","seamark:light:period":"5","seamark:light:range":"3","seamark:light:reference":"M 5351","seamark:name":"Simonoseki ku","seamark:type":"light_minor","source":"US NGA Pub. 112. 2009-11-12."}}},{"type":"Feature","geometry":{"type":"Point","coordinates":[130.4493168,33.7863947]},"properties":{"osm_id":3519673793,"osm_type":"node","seamark_type":"light_minor","display_class":"OTHER","min_zoom":12,"importance":1,"name":"Tsuyazaki Hana (spot)","ref":null,"common":{"name":"Tsuyazaki Hana (spot)","type":"light_minor"},"children":{"light":{"character":"F","colour":"white","height":"65"}},"osm_tags":{"seamark:light:character":"F","seamark:light:colour":"white","seamark:light:height":"65","seamark:name":"Tsuyazaki Hana (spot)","seamark:type":"light_minor","source":"survey"}}},{"type":"Feature","geometry":{"type":"Point","coordinates":[130.4125016,33.0837273]},"properties":{"osm_id":1223941853,"osm_type":"node","seamark_type":"light_minor","display_class":"OTHER","min_zoom":12,"importance":1,"name":"Yabe Kawa","ref":null,"common":{"name":"Yabe Kawa","type":"light_minor"},"children":{"light":{"character":"Fl","colour":"red","height":"13","period":"3","range":"4","reference":"M 5175.5"}},"osm_tags":{"seamark:light:character":"Fl","seamark:light:colour":"red","seamark:light:height":"13","seamark:light:period":"3","seamark:light:range":"4","seamark:light:reference":"M 5175.5","seamark:name":"Yabe Kawa","seamark:type":"light_minor","source":"US NGA Pub. 112. 2009-11-12."}}},{"type":"Feature","geometry":{"type":"Point","coordinates":[130.9615375,33.9681553]},"properties":{"osm_id":2142733063,"osm_type":"node","seamark_type":"signal_station_warning","display_class":"OTHER","min_zoom":12,"importance":1,"name":"壇ノ浦潮流信号所","ref":null,"common":{"type":"signal_station_warning"},"children":{},"osm_tags":{"man_made":"beacon","name":"壇ノ浦潮流信号所","seamark:type":"signal_station_warning"}}},{"type":"Feature","geometry":{"type":"Point","coordinates":[130.9630422,33.9621318]},"properties":{"osm_id":2142757764,"osm_type":"node","seamark_type":"light_minor","display_class":"OTHER","min_zoom":12,"importance":1,"name":"門司埼灯台","ref":null,"common":{"type":"light_minor"},"children":{"light":{"character":"Iso","colour":"white"}},"osm_tags":{"man_made":"lighthouse","name":"門司埼灯台","name:en":"Mojizaki","seamark:light:character":"Iso","seamark:light:colour":"white","seamark:type":"light_minor"}}}],"type":"FeatureCollection"}