{"type":"FeatureCollection","features":[{"type":"Feature","geometry":{"type":"Point","coordinates":[124.5928333,33.942]},"properties":{"osm_id":13944469168,"osm_type":"node","seamark_type":"light_minor","display_class":"OTHER","min_zoom":12,"importance":1,"name":"Gageocho Ocean Research Station","ref":"3032.1","common":{"name":"Gageocho Ocean Research Station","type":"light_minor"},"children":{"light":{"character":"Mo","colour":"white","group":"U","height":"36","period":"15","range":"12","reference":"M 4227.8"},"radar_transponder":{"category":"racon","group":"K"}},"osm_tags":{"ref":"3032.1","seamark:light:character":"Mo","seamark:light:colour":"white","seamark:light:group":"U","seamark:light:height":"36","seamark:light:period":"15","seamark:light:range":"12","seamark:light:reference":"M 4227.8","seamark:name":"Gageocho Ocean Research Station","seamark:radar_transponder:category":"racon","seamark:radar_transponder:group":"K","seamark:type":"light_minor"}}}],"type":"FeatureCollection"}