{"type":"FeatureCollection","features":[{"type":"Feature","geometry":{"type":"Point","coordinates":[127.0227778,33.1280556]},"properties":{"osm_id":13807492640,"osm_type":"node","seamark_type":"light_float","display_class":"OTHER","min_zoom":12,"importance":1,"name":null,"ref":null,"common":{"type":"light_float"},"children":{"light":{"character":"Fl","colour":"yellow","group":"5","period":"20"},"light_float":{"colour":"yellow"}},"osm_tags":{"seamark:light:character":"Fl","seamark:light:colour":"yellow","seamark:light:group":"5","seamark:light:period":"20","seamark:light_float:colour":"yellow","seamark:type":"light_float"}}}],"type":"FeatureCollection"}