{"type":"FeatureCollection","features":[{"type":"Feature","geometry":{"type":"Point","coordinates":[11.042774,33.8227966]},"properties":{"osm_id":352842146,"osm_type":"node","seamark_type":"light_major","display_class":"LIGHTHOUSE","min_zoom":7,"importance":5,"name":"Ra's Taguermess","ref":null,"common":{"name":"Ra's Taguermess","type":"light_major"},"children":{"light":{"character":"Fl","colour":"white","height":"64","period":"5","range":"24","reference":"E 6332","sequence":"0.3+(4.7)"}},"osm_tags":{"man_made":"lighthouse","name":"Phare de Taguermess","name:fr":"Phare de Taguermess","seamark:light:character":"Fl","seamark:light:colour":"white","seamark:light:height":"64","seamark:light:period":"5","seamark:light:range":"24","seamark:light:reference":"E 6332","seamark:light:sequence":"0.3+(4.7)","seamark:name":"Ra's Taguermess","seamark:type":"light_major","wikidata":"Q39996948","wikimedia_commons":"Category:Tourgueness lighthouse"}}},{"type":"Feature","geometry":{"type":"Polygon","coordinates":[[[11.7432909,33.107094],[11.7432408,33.1069972],[11.7434029,33.1069383],[11.743453,33.1070352],[11.7432909,33.107094]]]},"properties":{"osm_id":427875207,"osm_type":"way","seamark_type":"light_major","display_class":"LIGHTHOUSE","min_zoom":7,"importance":5,"name":"منارة فروة","ref":null,"common":{"type":"light_major"},"children":{},"osm_tags":{"building":"yes","building:levels":"4","man_made":"lighthouse","name":"منارة فروة","name:en":"Farwa lighthouse","seamark:type":"light_major"}}},{"type":"Feature","geometry":{"type":"Point","coordinates":[11.1312494,33.4796427]},"properties":{"osm_id":1581566622,"osm_type":"node","seamark_type":"light_minor","display_class":"OTHER","min_zoom":12,"importance":1,"name":null,"ref":null,"common":{"information":"F.R. and F.G. mark entrance to fishing harbor.","type":"light_minor"},"children":{"light":{"character":"Fl","colour":"white","group":"2+1","height":"11","period":"15","range":"12","reference":"E 6328.2","sequence":"1+(5.2)+1+(5.2)+1+(1.6)"}},"osm_tags":{"seamark:information":"F.R. and F.G. mark entrance to fishing harbor.","seamark:light:character":"Fl","seamark:light:colour":"white","seamark:light:group":"2+1","seamark:light:height":"11","seamark:light:period":"15","seamark:light:range":"12","seamark:light:reference":"E 6328.2","seamark:light:sequence":"1+(5.2)+1+(5.2)+1+(1.6)","seamark:type":"light_minor","source":"US NGA Pub. 113. 2011-10-20."}}},{"type":"Feature","geometry":{"type":"Point","coordinates":[11.1197051,33.4971919]},"properties":{"osm_id":1581566631,"osm_type":"node","seamark_type":"light_minor","display_class":"OTHER","min_zoom":12,"importance":1,"name":null,"ref":null,"common":{"information":"Reserve light F.R. 10M.","type":"light_minor"},"children":{"light":{"1:character":"Oc","1:colour":"white","1:group":"2+1","1:height":"15","1:period":"12","1:range":"15","1:sector_end":"90","1:sector_start":"180","1:sequence":"4+(1),4+(1),1+(1)","reference":"E 6328"}},"osm_tags":{"seamark:information":"Reserve light F.R. 10M.","seamark:light:1:character":"Oc","seamark:light:1:colour":"white","seamark:light:1:group":"2+1","seamark:light:1:height":"15","seamark:light:1:period":"12","seamark:light:1:range":"15","seamark:light:1:sector_end":"90","seamark:light:1:sector_start":"180","seamark:light:1:sequence":"4+(1),4+(1),1+(1)","seamark:light:reference":"E 6328","seamark:type":"light_minor","source":"US NGA Pub. 113. 2011-10-20."}}},{"type":"Feature","geometry":{"type":"Point","coordinates":[11.121602,33.4792798]},"properties":{"osm_id":2725188898,"osm_type":"node","seamark_type":"mooring","display_class":"OTHER","min_zoom":12,"importance":1,"name":null,"ref":null,"common":{"type":"mooring"},"children":{"mooring":{"category":"buoy"}},"osm_tags":{"seamark:mooring:category":"buoy","seamark:type":"mooring"}}},{"type":"Feature","geometry":{"type":"Point","coordinates":[11.1189843,33.4953333]},"properties":{"osm_id":2725189220,"osm_type":"node","seamark_type":"small_craft_facility","display_class":"OTHER","min_zoom":12,"importance":1,"name":null,"ref":null,"common":{"type":"small_craft_facility"},"children":{"small_craft_facility":{"category":"boat_hoist"}},"osm_tags":{"seamark:small_craft_facility:category":"boat_hoist","seamark:type":"small_craft_facility"}}},{"type":"Feature","geometry":{"type":"Point","coordinates":[11.1156357,33.5118343]},"properties":{"osm_id":2725266454,"osm_type":"node","seamark_type":"landmark","display_class":"OTHER","min_zoom":12,"importance":1,"name":null,"ref":null,"common":{"type":"landmark"},"children":{"landmark":{"category":"minaret"}},"osm_tags":{"seamark:landmark:category":"minaret","seamark:type":"landmark"}}},{"type":"Feature","geometry":{"type":"Point","coordinates":[11.1157918,33.5118629]},"properties":{"osm_id":2725266455,"osm_type":"node","seamark_type":"landmark","display_class":"OTHER","min_zoom":12,"importance":1,"name":null,"ref":null,"common":{"type":"landmark"},"children":{"landmark":{"category":"minaret"}},"osm_tags":{"seamark:landmark:category":"minaret","seamark:type":"landmark"}}},{"type":"Feature","geometry":{"type":"Point","coordinates":[11.8189454,33.061481]},"properties":{"osm_id":4270448009,"osm_type":"node","seamark_type":"landmark","display_class":"OTHER","min_zoom":12,"importance":1,"name":null,"ref":null,"common":{"type":"landmark"},"children":{"landmark":{"category":"minaret"}},"osm_tags":{"seamark:landmark:category":"minaret","seamark:type":"landmark"}}},{"type":"Feature","geometry":{"type":"Point","coordinates":[11.7499695,33.0756915]},"properties":{"osm_id":4270448488,"osm_type":"node","seamark_type":"radio_station","display_class":"OTHER","min_zoom":12,"importance":1,"name":null,"ref":null,"common":{"type":"radio_station"},"children":{},"osm_tags":{"seamark:type":"radio_station"}}},{"type":"Feature","geometry":{"type":"Point","coordinates":[11.7322143,33.0770354]},"properties":{"osm_id":4270448847,"osm_type":"node","seamark_type":"tank","display_class":"OTHER","min_zoom":12,"importance":1,"name":null,"ref":null,"common":{"type":"tank"},"children":{"tank":{"category":"water_tower"}},"osm_tags":{"seamark:tank:category":"water_tower","seamark:type":"tank"}}},{"type":"Feature","geometry":{"type":"Point","coordinates":[11.8295007,33.0848556]},"properties":{"osm_id":4270449467,"osm_type":"node","seamark_type":"buoy_special_purpose","display_class":"OTHER","min_zoom":12,"importance":1,"name":null,"ref":null,"common":{"type":"buoy_special_purpose"},"children":{"buoy_special_purpose":{"colour":"yellow","shape":"super-buoy"}},"osm_tags":{"seamark:buoy_special_purpose:colour":"yellow","seamark:buoy_special_purpose:shape":"super-buoy","seamark:type":"buoy_special_purpose"}}},{"type":"Feature","geometry":{"type":"Point","coordinates":[11.8283824,33.0857174]},"properties":{"osm_id":4270449468,"osm_type":"node","seamark_type":"harbour","display_class":"OTHER","min_zoom":12,"importance":1,"name":null,"ref":null,"common":{"type":"harbour"},"children":{},"osm_tags":{"harbour":"yes","port_of_entry":"no","seamark:type":"harbour"}}},{"type":"Feature","geometry":{"type":"Point","coordinates":[11.5953922,33.1356714]},"properties":{"osm_id":4270449746,"osm_type":"node","seamark_type":"landmark","display_class":"OTHER","min_zoom":12,"importance":1,"name":null,"ref":null,"common":{"type":"landmark"},"children":{"landmark":{"category":"tower","function":"church"}},"osm_tags":{"seamark:landmark:category":"tower","seamark:landmark:function":"church","seamark:type":"landmark"}}},{"type":"Feature","geometry":{"type":"Point","coordinates":[11.5714868,33.1590214]},"properties":{"osm_id":4270449940,"osm_type":"node","seamark_type":"radio_station","display_class":"OTHER","min_zoom":12,"importance":1,"name":null,"ref":null,"common":{"type":"radio_station"},"children":{},"osm_tags":{"seamark:type":"radio_station"}}},{"type":"Feature","geometry":{"type":"Point","coordinates":[11.1991667,33.5983333]},"properties":{"osm_id":10123838461,"osm_type":"node","seamark_type":"wreck","display_class":"OTHER","min_zoom":12,"importance":1,"name":null,"ref":null,"common":{"type":"wreck"},"children":{"wreck":{"category":"dangerous"}},"osm_tags":{"seamark:type":"wreck","seamark:wreck:category":"dangerous"}}},{"type":"Feature","geometry":{"type":"Point","coordinates":[11.7459167,33.105917]},"properties":{"osm_id":1581566661,"osm_type":"node","seamark_type":"light_minor","display_class":"OTHER","min_zoom":12,"importance":1,"name":"Farwah","ref":null,"common":{"name":"Farwah","type":"light_minor"},"children":{"light":{"character":"LFl","colour":"white","height":"17","period":"5","range":"12","reference":"E 6326","sequence":"2+(3)"}},"osm_tags":{"seamark:light:character":"LFl","seamark:light:colour":"white","seamark:light:height":"17","seamark:light:period":"5","seamark:light:range":"12","seamark:light:reference":"E 6326","seamark:light:sequence":"2+(3)","seamark:name":"Farwah","seamark:type":"light_minor","source":"US NGA Pub. 113. 2011-10-20."}}},{"type":"Feature","geometry":{"type":"Point","coordinates":[11.1258888,33.4803864]},"properties":{"osm_id":6394897375,"osm_type":"node","seamark_type":"harbour","display_class":"OTHER","min_zoom":12,"importance":1,"name":"Zarzis","ref":null,"common":{"type":"harbour"},"children":{"harbour":{"category":"cargo"}},"osm_tags":{"harbour":"yes","name":"Zarzis","port_of_entry":"no","seamark:harbour:category":"cargo","seamark:type":"harbour"}}},{"type":"Feature","geometry":{"type":"Point","coordinates":[11.0592005,33.789573]},"properties":{"osm_id":9848580678,"osm_type":"node","seamark_type":"harbour","display_class":"OTHER","min_zoom":12,"importance":1,"name":"marsa Seguia (Lagune)","ref":null,"common":{"type":"harbour"},"children":{"harbour":{"category":"marina"}},"osm_tags":{"capacity":"25","leisure":"marina","name":"marsa Seguia (Lagune)","note":"small fishing port","power_supply":"no","seamark:harbour:category":"marina","seamark:type":"harbour"}}},{"type":"Feature","geometry":{"type":"Point","coordinates":[11.0124443,33.7535841]},"properties":{"osm_id":1396142254,"osm_type":"node","seamark_type":"light_minor","display_class":"OTHER","min_zoom":12,"importance":1,"name":"أغير","ref":null,"common":{"name":"أغير","type":"light_minor"},"children":{"light":{"1:character":"Fl","1:colour":"white","1:height":"7","1:period":"4.5","1:range":"9","1:sector_end":"10","1:sector_start":"258","1:sequence":"0.5+(4)","reference":"E 6330.2"}},"osm_tags":{"man_made":"lighthouse","seamark:light:1:character":"Fl","seamark:light:1:colour":"white","seamark:light:1:height":"7","seamark:light:1:period":"4.5","seamark:light:1:range":"9","seamark:light:1:sector_end":"10","seamark:light:1:sector_start":"258","seamark:light:1:sequence":"0.5+(4)","seamark:light:reference":"E 6330.2","seamark:name":"أغير","seamark:type":"light_minor"}}},{"type":"Feature","geometry":{"type":"Point","coordinates":[11.4903591,33.1852592]},"properties":{"osm_id":7637849820,"osm_type":"node","seamark_type":"harbour","display_class":"OTHER","min_zoom":12,"importance":1,"name":"ميناء الصيد البحري بالكتف","ref":null,"common":{"type":"harbour"},"children":{"harbour":{"category":"marina"}},"osm_tags":{"leisure":"marina","name":"ميناء الصيد البحري بالكتف","name:ar":"ميناء الصيد البحري بالكتف","name:es":"Puerto Pesquero El Ktef","name:fr":"Port de Pêche El Ktef","seamark:harbour:category":"marina","seamark:type":"harbour"}}},{"type":"Feature","geometry":{"type":"Point","coordinates":[11.1187345,33.4932898]},"properties":{"osm_id":7637849819,"osm_type":"node","seamark_type":"harbour","display_class":"OTHER","min_zoom":12,"importance":1,"name":"ميناء الصيد البحري بجرجيس","ref":null,"common":{"type":"harbour"},"children":{"harbour":{"category":"marina"}},"osm_tags":{"leisure":"marina","name":"ميناء الصيد البحري بجرجيس","name:ar":"ميناء الصيد البحري بجرجيس","name:fr":"Port de Pêche de Zarzis","seamark:harbour:category":"marina","seamark:type":"harbour"}}}],"type":"FeatureCollection"}