{"type":"FeatureCollection","features":[{"type":"Feature","geometry":{"type":"Point","coordinates":[-96.663101,33.8580522]},"properties":{"osm_id":8325340408,"osm_type":"node","seamark_type":"harbour","display_class":"LIGHTHOUSE","min_zoom":7,"importance":5,"name":"Lighthouse Marina","ref":null,"common":{"type":"harbour"},"children":{"harbour":{"category":"marina"}},"osm_tags":{"leisure":"marina","name":"Lighthouse Marina","phone":"+19033615070","seamark:harbour:category":"marina","seamark:type":"harbour","website":"https://lighthouseresort.com/marina/"}}},{"type":"Feature","geometry":{"type":"Polygon","coordinates":[[[-96.5336627,33.0399498],[-96.5294033,33.0380386],[-96.5284345,33.040052],[-96.5291414,33.0400998],[-96.5302825,33.0406476],[-96.5318866,33.0409477],[-96.5321857,33.0411294],[-96.5325522,33.0413618],[-96.5336627,33.0399498]]]},"properties":{"osm_id":595198684,"osm_type":"way","seamark_type":"harbour","display_class":"OTHER","min_zoom":12,"importance":1,"name":null,"ref":null,"common":{"type":"harbour"},"children":{"harbour":{"category":"marina"}},"osm_tags":{"leisure":"marina","seamark:harbour:category":"marina","seamark:type":"harbour"}}},{"type":"Feature","geometry":{"type":"Polygon","coordinates":[[[-96.5327454,33.0584527],[-96.5325871,33.0581875],[-96.5324691,33.0577626],[-96.5321957,33.0573802],[-96.5324585,33.0572411],[-96.5324503,33.0571534],[-96.5325066,33.057023],[-96.5326086,33.0568881],[-96.5326783,33.0568252],[-96.5338719,33.0572905],[-96.5333059,33.0582617],[-96.5327454,33.0584527]]]},"properties":{"osm_id":595198673,"osm_type":"way","seamark_type":"harbour","display_class":"OTHER","min_zoom":12,"importance":1,"name":"Anchor Bay Marina","ref":null,"common":{"type":"harbour"},"children":{"harbour":{"category":"marina"}},"osm_tags":{"leisure":"marina","name":"Anchor Bay Marina","seamark:harbour:category":"marina","seamark:type":"harbour"}}},{"type":"Feature","geometry":{"type":"Polygon","coordinates":[[[-96.8545305,33.8448267],[-96.8541289,33.8434122],[-96.8535059,33.8424347],[-96.8524535,33.8414571],[-96.8518582,33.8410776],[-96.8507272,33.8407481],[-96.8498847,33.8407481],[-96.8491996,33.8411345],[-96.8499642,33.8414299],[-96.8501717,33.8415333],[-96.8502487,33.8415973],[-96.8504147,33.8418435],[-96.8505451,33.8421536],[-96.8506577,33.8422373],[-96.8508118,33.8422816],[-96.850883,33.8423752],[-96.8509185,33.8425573],[-96.850877,33.8426607],[-96.8507974,33.8428171],[-96.8507837,33.8429929],[-96.8508793,33.8431857],[-96.8512617,33.84356],[-96.8516099,33.8437925],[-96.8522858,33.8440193],[-96.8524838,33.8440987],[-96.8525794,33.8442348],[-96.8526818,33.8444843],[-96.8526682,33.8448529],[-96.8525726,33.8450571],[-96.8545305,33.8448267]]]},"properties":{"osm_id":1085728515,"osm_type":"way","seamark_type":"harbour","display_class":"OTHER","min_zoom":12,"importance":1,"name":"Cedar Bayou Marina at Lake Texoma","ref":null,"common":{"type":"harbour"},"children":{"harbour":{"category":"marina"}},"osm_tags":{"addr:city":"Gordonville","addr:housenumber":"513","addr:postcode":"76245","addr:state":"TX","addr:street":"Cedar Bayou Boulevard","leisure":"marina","name":"Cedar Bayou Marina at Lake Texoma","seamark:harbour:category":"marina","seamark:type":"harbour"}}},{"type":"Feature","geometry":{"type":"Polygon","coordinates":[[[-96.8148238,33.8333599],[-96.8135541,33.8359914],[-96.8127742,33.8360891],[-96.812137,33.8359481],[-96.8114379,33.835864],[-96.8088325,33.8356649],[-96.8077221,33.8346673],[-96.8083838,33.832143],[-96.8091319,33.8299318],[-96.8107415,33.8295364],[-96.8112657,33.8288471],[-96.8112359,33.8282787],[-96.8125249,33.8281676],[-96.8138139,33.8289312],[-96.8150401,33.8295583],[-96.8150405,33.8316363],[-96.8150016,33.8329368],[-96.8148238,33.8333599]]]},"properties":{"osm_id":1288908923,"osm_type":"way","seamark_type":"harbour","display_class":"OTHER","min_zoom":12,"importance":1,"name":"Cedar Mills Marina and Resort","ref":null,"common":{"type":"harbour"},"children":{"harbour":{"category":"marina"}},"osm_tags":{"contact:website":"http://www.cedarmills.com/","ele":"198","gnis:feature_id":"1889623","leisure":"marina","name":"Cedar Mills Marina and Resort","seamark:harbour:category":"marina","seamark:type":"harbour"}}},{"type":"Feature","geometry":{"type":"Polygon","coordinates":[[[-96.5100717,33.0371872],[-96.5085971,33.0372001],[-96.5085499,33.0371758],[-96.508514,33.037139],[-96.5084906,33.0370405],[-96.5084615,33.0362098],[-96.5100601,33.0362253],[-96.5100717,33.0371872]]]},"properties":{"osm_id":595193947,"osm_type":"way","seamark_type":"harbour","display_class":"OTHER","min_zoom":12,"importance":1,"name":"East Fork Harbor Marina","ref":null,"common":{"type":"harbour"},"children":{"harbour":{"category":"marina"}},"osm_tags":{"leisure":"marina","name":"East Fork Harbor Marina","seamark:harbour:category":"marina","seamark:type":"harbour"}}},{"type":"Feature","geometry":{"type":"Point","coordinates":[-96.6062679,33.8158351]},"properties":{"osm_id":12054419671,"osm_type":"node","seamark_type":"harbour","display_class":"OTHER","min_zoom":12,"importance":1,"name":"Eisenhower Yacht Club","ref":null,"common":{"type":"harbour"},"children":{"harbour":{"category":"marina_no_facilities"}},"osm_tags":{"leisure":"marina","name":"Eisenhower Yacht Club","seamark:harbour:category":"marina_no_facilities","seamark:type":"harbour"}}},{"type":"Feature","geometry":{"type":"Polygon","coordinates":[[[-96.7867032,33.7725056],[-96.784106,33.7724254],[-96.7838215,33.7725084],[-96.783552,33.7727698],[-96.7831377,33.7733133],[-96.7830192,33.7749991],[-96.7831739,33.7753352],[-96.7834983,33.7755841],[-96.7831217,33.7761897],[-96.7833513,33.7770983],[-96.7837805,33.7787163],[-96.7842628,33.7793446],[-96.7844895,33.7792198],[-96.7845699,33.7792042],[-96.7846987,33.7791997],[-96.7849039,33.7791629],[-96.7850594,33.7791563],[-96.7853263,33.7790593],[-96.7859647,33.7789043],[-96.7861712,33.7788631],[-96.7865118,33.7788185],[-96.7867452,33.7787683],[-96.7868458,33.778736],[-96.7869785,33.778736],[-96.7874345,33.7786914],[-96.7875364,33.7787037],[-96.7876625,33.7787393],[-96.787743,33.7787962],[-96.7878892,33.7788542],[-96.7880447,33.7788642],[-96.7881748,33.7788408],[-96.7882526,33.778843],[-96.7883894,33.7789088],[-96.7884283,33.77894],[-96.7884403,33.7789601],[-96.7884229,33.7790247],[-96.7884296,33.779047],[-96.7885597,33.7790281],[-96.7886107,33.7790102],[-96.7886442,33.7789478],[-96.7886469,33.7789043],[-96.7885624,33.7788408],[-96.7884135,33.7787739],[-96.7883585,33.7787215],[-96.7882928,33.778619],[-96.7882137,33.7784428],[-96.7881574,33.7781708],[-96.7880635,33.7779713],[-96.7880099,33.7778108],[-96.7880005,33.7777205],[-96.7880179,33.7776324],[-96.7880943,33.7774831],[-96.7880903,33.7774362],[-96.7881253,33.7773502],[-96.7881131,33.7773236],[-96.7880206,33.7772701],[-96.7879696,33.7772501],[-96.787861,33.7772244],[-96.787751,33.7770873],[-96.7875096,33.7770227],[-96.7874412,33.776987],[-96.7873138,33.7769536],[-96.7872575,33.7769591],[-96.7871824,33.7769848],[-96.7871623,33.7770015],[-96.7871395,33.7770673],[-96.7870952,33.777094],[-96.7870402,33.7771052],[-96.7869544,33.7771018],[-96.7868055,33.7770372],[-96.7867506,33.7769837],[-96.7866111,33.7768978],[-96.7863496,33.7768131],[-96.785962,33.776861],[-96.7857675,33.7768298],[-96.7855503,33.776773],[-96.7854711,33.7767406],[-96.7854403,33.7767016],[-96.7854497,33.7766804],[-96.7855436,33.776637],[-96.7859902,33.7765233],[-96.7861672,33.7764608],[-96.786375,33.7763538],[-96.7866178,33.7761978],[-96.7867358,33.7761454],[-96.786772,33.7761119],[-96.7867425,33.7760473],[-96.7866473,33.7759581],[-96.7865695,33.7758366],[-96.7863308,33.7755289],[-96.7862892,33.7754966],[-96.7861457,33.775423],[-96.7860612,33.7753572],[-96.7860116,33.7752982],[-96.785911,33.7752502],[-96.7858051,33.7752224],[-96.7856173,33.7752725],[-96.7853706,33.7753216],[-96.7853129,33.7753171],[-96.7852888,33.7753015],[-96.7853089,33.7752859],[-96.7854323,33.7752446],[-96.7854577,33.7752034],[-96.785561,33.7751176],[-96.7855851,33.7750306],[-96.7855838,33.7747084],[-96.785624,33.7746215],[-96.7856602,33.7745881],[-96.7856938,33.7745201],[-96.7856562,33.7744554],[-96.7855838,33.7744253],[-96.7855543,33.7743852],[-96.7856281,33.7741644],[-96.785624,33.7741198],[-96.785569,33.7740385],[-96.7855556,33.7739939],[-96.7855476,33.7738556],[-96.7855623,33.7738133],[-96.7856616,33.7737776],[-96.7856884,33.7737765],[-96.785738,33.7737966],[-96.7857474,33.7738177],[-96.7857353,33.7739036],[-96.7857555,33.7739928],[-96.785848,33.7740976],[-96.7858225,33.7742057],[-96.7858319,33.7744052],[-96.7858708,33.7744654],[-96.785911,33.7745914],[-96.785966,33.7746672],[-96.7861028,33.7748043],[-96.7861846,33.7748623],[-96.7866795,33.7751454],[-96.7867452,33.7751878],[-96.7867962,33.7752391],[-96.7868967,33.7752714],[-96.7875405,33.7753595],[-96.7876974,33.7754353],[-96.787751,33.775433],[-96.787857,33.7753695],[-96.7878959,33.7753126],[-96.7879777,33.7752536],[-96.7881601,33.7750886],[-96.7882338,33.7749916],[-96.788431,33.7748288],[-96.7887059,33.774694],[-96.7889352,33.7745368],[-96.789123,33.7743094],[-96.7891377,33.7742659],[-96.7891498,33.774199],[-96.7890814,33.7739983],[-96.7890278,33.7738668],[-96.7889701,33.773762],[-96.7889057,33.7736873],[-96.7888722,33.7735981],[-96.7888722,33.7732893],[-96.788832,33.7730842],[-96.7887381,33.7728902],[-96.788545,33.7725592],[-96.7885396,33.77247],[-96.7885825,33.7723384],[-96.7887193,33.7721378],[-96.7892504,33.7716406],[-96.789355,33.7713842],[-96.7893469,33.771295],[-96.7893282,33.7712526],[-96.7892584,33.771179],[-96.7889929,33.7710921],[-96.7889258,33.771014],[-96.7888561,33.7708825],[-96.7888212,33.7708468],[-96.7887193,33.7708067],[-96.7884994,33.7707621],[-96.7884457,33.7707621],[-96.7884055,33.7707933],[-96.7883813,33.7708334],[-96.7881373,33.7710809],[-96.7879871,33.7711456],[-96.7878315,33.7711813],[-96.7877188,33.7711701],[-96.7875606,33.7711233],[-96.7874506,33.7711411],[-96.7873031,33.7712058],[-96.7872494,33.7712036],[-96.7867032,33.7725056]]]},"properties":{"osm_id":1288698511,"osm_type":"way","seamark_type":"harbour","display_class":"OTHER","min_zoom":12,"importance":1,"name":"Flowing Wells Resort and Marina","ref":null,"common":{"type":"harbour"},"children":{"harbour":{"category":"marina"}},"osm_tags":{"contact:website":"https://www.flowingwellsresort.com","ele":"193","gnis:feature_id":"1889957","leisure":"marina","name":"Flowing Wells Resort and Marina","seamark:harbour:category":"marina","seamark:type":"harbour"}}},{"type":"Feature","geometry":{"type":"Point","coordinates":[-96.6418377,33.8507318]},"properties":{"osm_id":356846419,"osm_type":"node","seamark_type":"harbour","display_class":"OTHER","min_zoom":12,"importance":1,"name":"Grandpappy Point Resort and Marina","ref":null,"common":{"type":"harbour"},"children":{"harbour":{"category":"marina"}},"osm_tags":{"contact:website":"https://www.grandpappy.com","ele":"216","gnis:feature_id":"2028268","leisure":"marina","name":"Grandpappy Point Resort and Marina","seamark:harbour:category":"marina","seamark:type":"harbour"}}},{"type":"Feature","geometry":{"type":"Polygon","coordinates":[[[-96.710776,33.8208551],[-96.7109839,33.8212868],[-96.7109319,33.8218669],[-96.7107923,33.8223121],[-96.7102824,33.8225171],[-96.7101362,33.8226736],[-96.7101167,33.8230379],[-96.7103538,33.8232645],[-96.7107078,33.8234399],[-96.7107403,33.8236449],[-96.7105324,33.8238662],[-96.7103116,33.8241279],[-96.7101622,33.8245299],[-96.7098667,33.8246567],[-96.7088599,33.8249238],[-96.7084702,33.8249616],[-96.7077881,33.8247511],[-96.7061578,33.8238932],[-96.7058687,33.8235613],[-96.7053933,33.8227662],[-96.7044652,33.8226747],[-96.703667,33.8227139],[-96.7028765,33.822972],[-96.7026878,33.8233967],[-96.7026917,33.8241514],[-96.7029788,33.8244944],[-96.7033366,33.8252555],[-96.7028178,33.8264577],[-96.7022412,33.8275114],[-96.7025948,33.8287296],[-96.7036471,33.8283977],[-96.704459,33.8282736],[-96.7052352,33.8284409],[-96.7059497,33.8288105],[-96.7063849,33.8290479],[-96.7068363,33.8292961],[-96.7069565,33.829396],[-96.7075573,33.8293933],[-96.7079536,33.8288537],[-96.7088954,33.8282116],[-96.7095092,33.8284571],[-96.7104353,33.8283275],[-96.710439,33.8282141],[-96.7104127,33.8281481],[-96.7103403,33.8281151],[-96.7102085,33.8280767],[-96.7100307,33.8280437],[-96.7096489,33.8279999],[-96.709188,33.827868],[-96.7090233,33.8278406],[-96.7087929,33.8278571],[-96.7086217,33.8279121],[-96.7081938,33.8282694],[-96.7077988,33.8285166],[-96.7076671,33.8286155],[-96.7075421,33.82872],[-96.7072261,33.8290443],[-96.7071536,33.8290992],[-96.7070878,33.8291102],[-96.7070549,33.8290937],[-96.7070285,33.8290553],[-96.7070154,33.8290058],[-96.7070154,33.8289399],[-96.7070417,33.8288299],[-96.7071207,33.8286431],[-96.7071536,33.8285387],[-96.7071733,33.8284343],[-96.7071732,33.8283409],[-96.7071469,33.8282475],[-96.707002,33.8279232],[-96.70689,33.8277475],[-96.7067188,33.8275331],[-96.7065278,33.8273354],[-96.7063764,33.8272035],[-96.7061065,33.8270441],[-96.7058496,33.8269398],[-96.705731,33.8269069],[-96.705606,33.8268849],[-96.7054809,33.8268794],[-96.7053624,33.8268849],[-96.7052439,33.8269069],[-96.7050928,33.826913],[-96.705117,33.8265921],[-96.705058,33.8262668],[-96.7049453,33.8258947],[-96.705007,33.8257476],[-96.7049158,33.8255159],[-96.7045993,33.8253332],[-96.7042533,33.8251171],[-96.7041406,33.8249232],[-96.704079,33.8247026],[-96.7039878,33.8245645],[-96.7038966,33.8244285],[-96.7035264,33.8238091],[-96.7034433,33.823662],[-96.7034854,33.8234342],[-96.7035315,33.8234067],[-96.703571,33.8233957],[-96.7036369,33.8233847],[-96.7038146,33.8233957],[-96.7039002,33.8233847],[-96.7039595,33.8233572],[-96.7040056,33.8233298],[-96.704203,33.823033],[-96.7042622,33.823011],[-96.7045058,33.8229945],[-96.7046968,33.8230054],[-96.7048219,33.8230164],[-96.7049009,33.8230384],[-96.7049536,33.8230713],[-96.7050194,33.8231318],[-96.7051051,33.8232417],[-96.7054277,33.8237362],[-96.7056121,33.823956],[-96.7058426,33.8241703],[-96.7059941,33.8242802],[-96.7065077,33.8245988],[-96.7068237,33.8247581],[-96.7071134,33.8248845],[-96.7073767,33.8249889],[-96.707627,33.8250712],[-96.7078772,33.8251372],[-96.7081208,33.8251811],[-96.708371,33.8252085],[-96.7086344,33.825214],[-96.7090755,33.8251864],[-96.7093652,33.8252304],[-96.7097339,33.8253732],[-96.7098853,33.8254227],[-96.7100039,33.8254501],[-96.710129,33.8254666],[-96.7102673,33.8254721],[-96.7103924,33.825461],[-96.7105043,33.825428],[-96.7105899,33.8253786],[-96.7106557,33.8253126],[-96.7107084,33.8252302],[-96.7107412,33.8251368],[-96.7107543,33.8250379],[-96.7107082,33.8245158],[-96.7107147,33.8243895],[-96.7107345,33.8242741],[-96.7108594,33.8239443],[-96.7111004,33.8235881],[-96.7110897,33.8234633],[-96.7111111,33.8232939],[-96.7109824,33.8231602],[-96.710484,33.8229773],[-96.7104313,33.8229168],[-96.7104444,33.8228728],[-96.7104138,33.8227146],[-96.7106287,33.8227025],[-96.7109908,33.8224607],[-96.7111094,33.8223617],[-96.711315,33.8222422],[-96.7113472,33.8220817],[-96.7113067,33.8217407],[-96.7113751,33.8210782],[-96.7112343,33.8206965],[-96.7111429,33.8204913],[-96.710776,33.8208551]]]},"properties":{"osm_id":1288672745,"osm_type":"way","seamark_type":"harbour","display_class":"OTHER","min_zoom":12,"importance":1,"name":"Highport Marina","ref":null,"common":{"type":"harbour"},"children":{"harbour":{"category":"marina"}},"osm_tags":{"contact:website":"https://highport.com","ele":"199","gnis:feature_id":"1889635","leisure":"marina","name":"Highport Marina","seamark:harbour:category":"marina","seamark:type":"harbour"}}},{"type":"Feature","geometry":{"type":"Polygon","coordinates":[[[-96.7747828,33.8173618],[-96.7747179,33.8170963],[-96.7746068,33.8169347],[-96.7738323,33.8165943],[-96.7726787,33.815949],[-96.7721683,33.8146469],[-96.7704641,33.8150015],[-96.7701954,33.8156883],[-96.7703784,33.8166422],[-96.7702256,33.8167461],[-96.7701649,33.8171219],[-96.7699831,33.8172776],[-96.7698308,33.8176331],[-96.7696943,33.8178091],[-96.7707767,33.8184353],[-96.7707952,33.8186084],[-96.7711981,33.8188547],[-96.771879,33.8191933],[-96.7734814,33.8192164],[-96.7738664,33.8181638],[-96.7744679,33.8174349],[-96.7747828,33.8173618]]]},"properties":{"osm_id":294247657,"osm_type":"way","seamark_type":"harbour","display_class":"OTHER","min_zoom":12,"importance":1,"name":"Mill Creek Resort and Marina","ref":null,"common":{"type":"harbour"},"children":{"harbour":{"category":"marina"}},"osm_tags":{"addr:city":"Pottsboro","addr:housenumber":"512","addr:postcode":"75076","addr:state":"TX","addr:street":"Mill Creek Resort Road","leisure":"marina","name":"Mill Creek Resort and Marina","seamark:harbour:category":"marina","seamark:type":"harbour","website":"https://millcreekresortandmarina.com/"}}},{"type":"Feature","geometry":{"type":"Polygon","coordinates":[[[-96.8362174,33.8087661],[-96.8362524,33.8095365],[-96.8361972,33.81023],[-96.8361323,33.810767],[-96.834989,33.8111299],[-96.8348573,33.810998],[-96.8348046,33.810965],[-96.8347125,33.8109485],[-96.8343503,33.8109376],[-96.8342384,33.8109266],[-96.834166,33.8109102],[-96.8341002,33.8108772],[-96.8338566,33.8106684],[-96.8337841,33.810619],[-96.8333759,33.8104761],[-96.8318778,33.8105137],[-96.8302812,33.8095204],[-96.8299116,33.8077984],[-96.8311542,33.8066123],[-96.8334193,33.8066875],[-96.8362174,33.8087661]]]},"properties":{"osm_id":1288909585,"osm_type":"way","seamark_type":"harbour","display_class":"OTHER","min_zoom":12,"importance":1,"name":"Walnut Creek Resort","ref":null,"common":{"type":"harbour"},"children":{"harbour":{"category":"marina"}},"osm_tags":{"contact:website":"https://www.walnutcreekresort.com","ele":"194","gnis:feature_id":"1889624","leisure":"marina","name":"Walnut Creek Resort","seamark:harbour:category":"marina","seamark:type":"harbour"}}}],"type":"FeatureCollection"}