{"type":"FeatureCollection","features":[{"type":"Feature","geometry":{"type":"Point","coordinates":[-80.4371604,33.5674423]},"properties":{"osm_id":1309361080,"osm_type":"node","seamark_type":"harbour","display_class":"OTHER","min_zoom":12,"importance":1,"name":null,"ref":null,"common":{"type":"harbour"},"children":{"harbour":{"category":"marina"}},"osm_tags":{"leisure":"marina","seamark:harbour:category":"marina","seamark:type":"harbour"}}},{"type":"Feature","geometry":{"type":"Point","coordinates":[-80.457969,33.4999526]},"properties":{"osm_id":5514368833,"osm_type":"node","seamark_type":"harbour","display_class":"OTHER","min_zoom":12,"importance":1,"name":null,"ref":null,"common":{"type":"harbour"},"children":{"harbour":{"category":"marina"}},"osm_tags":{"leisure":"marina","seamark:harbour:category":"marina","seamark:type":"harbour"}}},{"type":"Feature","geometry":{"type":"Polygon","coordinates":[[[-80.1157936,33.349911],[-80.1156584,33.3498692],[-80.1151645,33.3506649],[-80.1153617,33.3507579],[-80.1153748,33.3506424],[-80.1153879,33.350582],[-80.1154534,33.3504444],[-80.1156366,33.350175],[-80.1157609,33.350021],[-80.1157936,33.349911]]]},"properties":{"osm_id":1087800967,"osm_type":"way","seamark_type":"harbour","display_class":"OTHER","min_zoom":12,"importance":1,"name":null,"ref":null,"common":{"type":"harbour"},"children":{"harbour":{"category":"marina"}},"osm_tags":{"leisure":"marina","seamark:harbour:category":"marina","seamark:type":"harbour"}}},{"type":"Feature","geometry":{"type":"Polygon","coordinates":[[[-80.2025139,33.5252446],[-80.2023206,33.5247031],[-80.2024279,33.5246741],[-80.2022938,33.5243208],[-80.2012558,33.5245802],[-80.201761,33.5255752],[-80.2017891,33.5255637],[-80.2018173,33.5255522],[-80.2017855,33.5254716],[-80.2020201,33.5253904],[-80.2022545,33.5252985],[-80.2025139,33.5252446]]]},"properties":{"osm_id":1322702575,"osm_type":"way","seamark_type":"harbour","display_class":"OTHER","min_zoom":12,"importance":1,"name":null,"ref":null,"common":{"type":"harbour"},"children":{"harbour":{"category":"marina"}},"osm_tags":{"leisure":"marina","seamark:harbour:category":"marina","seamark:type":"harbour"}}},{"type":"Feature","geometry":{"type":"Polygon","coordinates":[[[-80.2002092,33.5252522],[-80.2006125,33.525118],[-80.2004783,33.5246181],[-80.2004458,33.5245453],[-80.2004092,33.5245249],[-80.2003543,33.5245453],[-80.2000942,33.5244862],[-80.2000645,33.5246353],[-80.2000868,33.5247507],[-80.2001237,33.5248541],[-80.2001391,33.524962],[-80.2001749,33.5250353],[-80.2001824,33.5251543],[-80.2002048,33.5251733],[-80.2002092,33.5252522]]]},"properties":{"osm_id":1322702576,"osm_type":"way","seamark_type":"harbour","display_class":"OTHER","min_zoom":12,"importance":1,"name":null,"ref":null,"common":{"type":"harbour"},"children":{"harbour":{"category":"marina"}},"osm_tags":{"leisure":"marina","seamark:harbour:category":"marina","seamark:type":"harbour"}}},{"type":"Feature","geometry":{"type":"Polygon","coordinates":[[[-80.2142933,33.5419843],[-80.2143523,33.5421151],[-80.2148029,33.5423118],[-80.2151247,33.5420145],[-80.2147586,33.5417898],[-80.2146406,33.5415931],[-80.2145172,33.5414891],[-80.2144276,33.5415802],[-80.2145214,33.5416415],[-80.2146275,33.5418421],[-80.2145876,33.5418591],[-80.2142933,33.5419843]]]},"properties":{"osm_id":1322704749,"osm_type":"way","seamark_type":"harbour","display_class":"OTHER","min_zoom":12,"importance":1,"name":null,"ref":null,"common":{"type":"harbour"},"children":{"harbour":{"category":"marina"}},"osm_tags":{"leisure":"marina","seamark:harbour:category":"marina","seamark:type":"harbour"}}},{"type":"Feature","geometry":{"type":"Polygon","coordinates":[[[-80.4401781,33.5727854],[-80.4400582,33.5723758],[-80.4392723,33.572492],[-80.4386366,33.572682],[-80.4383496,33.572834],[-80.4383067,33.5729122],[-80.4386975,33.573295],[-80.4388263,33.5731698],[-80.4388757,33.5731543],[-80.4398777,33.5728391],[-80.4401781,33.5727854]]]},"properties":{"osm_id":1322939551,"osm_type":"way","seamark_type":"harbour","display_class":"OTHER","min_zoom":12,"importance":1,"name":null,"ref":null,"common":{"type":"harbour"},"children":{"harbour":{"category":"marina"}},"osm_tags":{"leisure":"marina","seamark:harbour:category":"marina","seamark:type":"harbour"}}},{"type":"Feature","geometry":{"type":"Polygon","coordinates":[[[-80.0913374,33.3818156],[-80.091341,33.3817885],[-80.0913849,33.3814653],[-80.0914067,33.3813047],[-80.091365,33.3813008],[-80.0913232,33.3812795],[-80.0913268,33.3812501],[-80.0913345,33.3811858],[-80.0913678,33.3811801],[-80.0914443,33.3811878],[-80.091453,33.3811276],[-80.0913766,33.3811198],[-80.0913654,33.3811079],[-80.0913516,33.3810753],[-80.0913571,33.3810348],[-80.0904548,33.3809492],[-80.0903497,33.3817221],[-80.0913374,33.3818156]]]},"properties":{"osm_id":1087800789,"osm_type":"way","seamark_type":"harbour","display_class":"OTHER","min_zoom":12,"importance":1,"name":"Angel's Landing Marina","ref":null,"common":{"type":"harbour"},"children":{"harbour":{"category":"marina"}},"osm_tags":{"leisure":"marina","name":"Angel's Landing Marina","seamark:harbour:category":"marina","seamark:type":"harbour"}}}],"type":"FeatureCollection"}