{"type":"FeatureCollection","features":[{"type":"Feature","geometry":{"type":"Point","coordinates":[-87.562338,33.2171547]},"properties":{"osm_id":13564190019,"osm_type":"node","seamark_type":"mooring","display_class":"OTHER","min_zoom":12,"importance":1,"name":null,"ref":null,"common":{"type":"mooring"},"children":{"mooring":{"category":"post"}},"osm_tags":{"man_made":"tower","seamark:mooring:category":"post","seamark:type":"mooring","tower:construction":"freestanding"}}},{"type":"Feature","geometry":{"type":"Point","coordinates":[-87.563689,33.2168674]},"properties":{"osm_id":13564190020,"osm_type":"node","seamark_type":"mooring","display_class":"OTHER","min_zoom":12,"importance":1,"name":null,"ref":null,"common":{"type":"mooring"},"children":{"mooring":{"category":"post"}},"osm_tags":{"man_made":"tower","seamark:mooring:category":"post","seamark:type":"mooring","tower:construction":"freestanding"}}},{"type":"Feature","geometry":{"type":"Point","coordinates":[-87.5650238,33.2165538]},"properties":{"osm_id":13564190021,"osm_type":"node","seamark_type":"mooring","display_class":"OTHER","min_zoom":12,"importance":1,"name":null,"ref":null,"common":{"type":"mooring"},"children":{"mooring":{"category":"post"}},"osm_tags":{"man_made":"tower","seamark:mooring:category":"post","seamark:type":"mooring","tower:construction":"freestanding"}}},{"type":"Feature","geometry":{"type":"Point","coordinates":[-87.5656939,33.2163379]},"properties":{"osm_id":13564190022,"osm_type":"node","seamark_type":"mooring","display_class":"OTHER","min_zoom":12,"importance":1,"name":null,"ref":null,"common":{"type":"mooring"},"children":{"mooring":{"category":"post"}},"osm_tags":{"man_made":"tower","seamark:mooring:category":"post","seamark:type":"mooring","tower:construction":"freestanding"}}},{"type":"Feature","geometry":{"type":"Point","coordinates":[-87.359007,33.4520159]},"properties":{"osm_id":897899259,"osm_type":"node","seamark_type":"gate","display_class":"OTHER","min_zoom":12,"importance":1,"name":"Bankhead Lock and Dam","ref":"06","common":{"type":"gate"},"children":{},"osm_tags":{"name":"Bankhead Lock and Dam","ref":"06","seamark:type":"gate","waterway":"lock_gate","website":"https://www.sam.usace.army.mil/op/Tu/Tusc_LandD.htm"}}},{"type":"Feature","geometry":{"type":"Point","coordinates":[-87.3571411,33.4529953]},"properties":{"osm_id":1755696350,"osm_type":"node","seamark_type":"gate","display_class":"OTHER","min_zoom":12,"importance":1,"name":"Bankhead Lock and Dam","ref":"06","common":{"type":"gate"},"children":{},"osm_tags":{"name":"Bankhead Lock and Dam","ref":"06","seamark:type":"gate","waterway":"lock_gate","website":"https://www.sam.usace.army.mil/op/Tu/Tusc_LandD.htm"}}},{"type":"Feature","geometry":{"type":"Point","coordinates":[-87.4490369,33.2528804]},"properties":{"osm_id":897899311,"osm_type":"node","seamark_type":"gate","display_class":"OTHER","min_zoom":12,"importance":1,"name":"Holt Lock and Dam","ref":"05","common":{"type":"gate"},"children":{},"osm_tags":{"name":"Holt Lock and Dam","ref":"05","seamark:type":"gate","waterway":"lock_gate","website":"https://www.sam.usace.army.mil/op/Tu/Tusc_LandD.htm"}}},{"type":"Feature","geometry":{"type":"Point","coordinates":[-87.4513167,33.252682]},"properties":{"osm_id":1756925153,"osm_type":"node","seamark_type":"gate","display_class":"OTHER","min_zoom":12,"importance":1,"name":"Holt Lock and Dam","ref":"05","common":{"type":"gate"},"children":{},"osm_tags":{"name":"Holt Lock and Dam","ref":"05","seamark:type":"gate","waterway":"lock_gate","website":"https://www.sam.usace.army.mil/op/Tu/Tusc_LandD.htm"}}},{"type":"Feature","geometry":{"type":"Point","coordinates":[-87.5643547,33.2167068]},"properties":{"osm_id":13564187923,"osm_type":"node","seamark_type":"berth","display_class":"OTHER","min_zoom":12,"importance":1,"name":"M/V Lawson","ref":null,"common":{"type":"berth"},"children":{},"osm_tags":{"landuse":"military","military_service":"army","name":"M/V Lawson","operator":"United States Army Corps of Engineers","operator:short":"USACE","operator:type":"military","operator:wikidata":"Q1049334","seamark:type":"berth","source:1":"USACE Field Office GIS map layer","source:2":"M/V Lawson Fact Sheet","source_ref:1":"https://services7.arcgis.com/n1YM8pTrFmm7L4hs/arcgis/rest/services/Field_Offices/FeatureServer","source_ref:2":"https://www.nap.usace.army.mil/Missions/Factsheets/Fact-Sheet-Article-View/Article/490741/usace-mv-lawson/","website":"https://www.sam.usace.army.mil/Missions/Civil-Works/Navigation/Floating-Plants/Lawson/"}}},{"type":"Feature","geometry":{"type":"Point","coordinates":[-87.593091,33.2100263]},"properties":{"osm_id":1752273217,"osm_type":"node","seamark_type":"gate","display_class":"OTHER","min_zoom":12,"importance":1,"name":"Oliver Lock and Dam","ref":"04","common":{"type":"gate"},"children":{},"osm_tags":{"name":"Oliver Lock and Dam","ref":"04","seamark:type":"gate","waterway":"lock_gate","website":"https://www.sam.usace.army.mil/op/Tu/Tusc_LandD.htm"}}},{"type":"Feature","geometry":{"type":"Point","coordinates":[-87.5951514,33.2094569]},"properties":{"osm_id":1756925176,"osm_type":"node","seamark_type":"gate","display_class":"OTHER","min_zoom":12,"importance":1,"name":"Oliver Lock and Dam","ref":"04","common":{"type":"gate"},"children":{},"osm_tags":{"name":"Oliver Lock and Dam","ref":"04","seamark:type":"gate","waterway":"lock_gate","website":"https://www.sam.usace.army.mil/op/Tu/Tusc_LandD.htm"}}}],"type":"FeatureCollection"}