{"type":"FeatureCollection","features":[{"type":"Feature","geometry":{"type":"Point","coordinates":[138.2257124,34.5958265]},"properties":{"osm_id":1804881162,"osm_type":"node","seamark_type":"light_major","display_class":"LIGHTHOUSE","min_zoom":7,"importance":5,"name":"御前埼灯台","ref":null,"common":{"type":"light_major"},"children":{"light":{"character":"Fl","colour":"white"}},"osm_tags":{"man_made":"lighthouse","name":"御前埼灯台","name:en":"Omaezaki Lighthouse","seamark:light:character":"Fl","seamark:light:colour":"white","seamark:type":"light_major","source":"Bing","wikidata":"Q7089383","wikipedia":"ja:御前埼灯台"}}},{"type":"Feature","geometry":{"type":"Point","coordinates":[138.9414569,34.5753585]},"properties":{"osm_id":5363337392,"osm_type":"node","seamark_type":"light_major","display_class":"LIGHTHOUSE","min_zoom":7,"importance":5,"name":"神子元島灯台","ref":null,"common":{"type":"light_major"},"children":{"light":{"character":"Fl","colour":"white","group":"2","height":"50","period":"16","range":"19","reference":"M 6290"}},"osm_tags":{"man_made":"lighthouse","name":"神子元島灯台","name:en":"Mikomotoshima Lighthouse","name:ja":"神子元島灯台","name:ja-Hira":"みこもとしまとうだい","name:ja_rm":"Mikomoto-shima tōdai","name:ru":"маяк Микомотосима","name:uk":"маяк Мікомотосіма","seamark:light:character":"Fl","seamark:light:colour":"white","seamark:light:group":"2","seamark:light:height":"50","seamark:light:period":"16","seamark:light:range":"19","seamark:light:reference":"M 6290","seamark:type":"light_major","wikidata":"Q6850076","wikipedia":"ja:神子元島灯台"}}},{"type":"Feature","geometry":{"type":"LineString","coordinates":[[138.2540216,34.8330404],[138.2541835,34.8331045],[138.2543177,34.833153]]},"properties":{"osm_id":1214254674,"osm_type":"way","seamark_type":"gate","display_class":"OTHER","min_zoom":12,"importance":1,"name":null,"ref":null,"common":{"type":"gate"},"children":{},"osm_tags":{"seamark:type":"gate","waterway":"lock_gate"}}},{"type":"Feature","geometry":{"type":"LineString","coordinates":[[138.2468332,34.8375282],[138.2468246,34.8377257]]},"properties":{"osm_id":1291181001,"osm_type":"way","seamark_type":"gate","display_class":"OTHER","min_zoom":12,"importance":1,"name":null,"ref":null,"common":{"type":"gate"},"children":{},"osm_tags":{"seamark:type":"gate","waterway":"lock_gate"}}}],"type":"FeatureCollection"}