{"type":"FeatureCollection","features":[{"type":"Feature","geometry":{"type":"Point","coordinates":[139.2698818,34.334703]},"properties":{"osm_id":6842543559,"osm_type":"node","seamark_type":"light_major","display_class":"LIGHTHOUSE","min_zoom":7,"importance":5,"name":null,"ref":null,"common":{"type":"light_major"},"children":{},"osm_tags":{"man_made":"lighthouse","seamark:type":"light_major"}}},{"type":"Feature","geometry":{"type":"Point","coordinates":[139.3721673,34.7974666]},"properties":{"osm_id":1211621146,"osm_type":"node","seamark_type":"light_major","display_class":"LIGHTHOUSE","min_zoom":7,"importance":5,"name":"Izu Oshima","ref":null,"common":{"name":"Izu Oshima","type":"light_major"},"children":{"light":{"1:character":"Fl","1:colour":"white","1:group":"3","1:height":"103","1:period":"30","1:range":"25","1:sector_end":"291","1:sector_start":"16","1:sequence":"[3]12+(18)","reference":"M 6282"},"radar_transponder":{"category":"ramark"}},"osm_tags":{"man_made":"lighthouse","seamark:light:1:character":"Fl","seamark:light:1:colour":"white","seamark:light:1:group":"3","seamark:light:1:height":"103","seamark:light:1:period":"30","seamark:light:1:range":"25","seamark:light:1:sector_end":"291","seamark:light:1:sector_start":"16","seamark:light:1:sequence":"[3]12+(18)","seamark:light:reference":"M 6282","seamark:name":"Izu Oshima","seamark:radar_transponder:category":"ramark","seamark:type":"light_major","source":"US NGA Pub. 112. 2009-11-12."}}},{"type":"Feature","geometry":{"type":"Point","coordinates":[139.888,34.9017]},"properties":{"osm_id":1211620500,"osm_type":"node","seamark_type":"light_major","display_class":"LIGHTHOUSE","min_zoom":7,"importance":5,"name":"Nojima Saki","ref":null,"common":{"name":"Nojima Saki","type":"light_major"},"children":{"light":{"1:character":"Fl","1:colour":"white","1:height":"38","1:period":"15","1:range":"17","1:sector_end":"80","1:sector_start":"254","2:character":"Fl","2:colour":"red","2:height":"38","2:period":"15","2:range":"17","2:sector_end":"101","2:sector_start":"80","reference":"M 6456"},"radar_transponder":{"category":"ramark"}},"osm_tags":{"seamark:light:1:character":"Fl","seamark:light:1:colour":"white","seamark:light:1:height":"38","seamark:light:1:period":"15","seamark:light:1:range":"17","seamark:light:1:sector_end":"80","seamark:light:1:sector_start":"254","seamark:light:2:character":"Fl","seamark:light:2:colour":"red","seamark:light:2:height":"38","seamark:light:2:period":"15","seamark:light:2:range":"17","seamark:light:2:sector_end":"101","seamark:light:2:sector_start":"80","seamark:light:reference":"M 6456","seamark:name":"Nojima Saki","seamark:radar_transponder:category":"ramark","seamark:type":"light_major","source":"US NGA Pub. 112. 2009-11-12."}}},{"type":"Feature","geometry":{"type":"Point","coordinates":[139.4431599,34.6857717]},"properties":{"osm_id":1211621162,"osm_type":"node","seamark_type":"light_major","display_class":"LIGHTHOUSE","min_zoom":7,"importance":5,"name":"Ryuo Saki","ref":null,"common":{"name":"Ryuo Saki","type":"light_major"},"children":{"light":{"1:character":"Fl","1:colour":"white","1:height":"67","1:period":"12","1:range":"21","1:sector_end":"85","1:sector_start":"190","reference":"M 6280"}},"osm_tags":{"description":"昭和26年6月建築、平成9年3月改築","man_made":"lighthouse","name":"竜王崎灯台","seamark:light:1:character":"Fl","seamark:light:1:colour":"white","seamark:light:1:height":"67","seamark:light:1:period":"12","seamark:light:1:range":"21","seamark:light:1:sector_end":"85","seamark:light:1:sector_start":"190","seamark:light:reference":"M 6280","seamark:name":"Ryuo Saki","seamark:type":"light_major","source":"survey;US NGA Pub. 112. 2009-11-12."}}},{"type":"Feature","geometry":{"type":"Point","coordinates":[139.5656496,34.0934751]},"properties":{"osm_id":1211620408,"osm_type":"node","seamark_type":"light_major","display_class":"LIGHTHOUSE","min_zoom":7,"importance":5,"name":"Satado Misaki","ref":null,"common":{"name":"Satado Misaki","type":"light_major"},"children":{"light":{"1:character":"Fl","1:colour":"white","1:height":"36","1:period":"15","1:range":"17","1:sector_end":"8","1:sector_start":"180","reference":"M 6275"}},"osm_tags":{"man_made":"lighthouse","seamark:light:1:character":"Fl","seamark:light:1:colour":"white","seamark:light:1:height":"36","seamark:light:1:period":"15","seamark:light:1:range":"17","seamark:light:1:sector_end":"8","seamark:light:1:sector_start":"180","seamark:light:reference":"M 6275","seamark:name":"Satado Misaki","seamark:type":"light_major","source":"US NGA Pub. 112. 2009-11-12."}}},{"type":"Feature","geometry":{"type":"Polygon","coordinates":[[[139.7575381,34.9753044],[139.7575367,34.9753012],[139.7575346,34.9752983],[139.7575321,34.9752957],[139.757529,34.9752935],[139.7575254,34.9752916],[139.7575214,34.9752903],[139.7575171,34.9752895],[139.7575128,34.9752893],[139.7575085,34.9752897],[139.7575044,34.9752907],[139.7575005,34.9752923],[139.757497,34.9752944],[139.757494,34.9752969],[139.7574916,34.9752998],[139.7574898,34.975303],[139.7574886,34.9753065],[139.7574882,34.97531],[139.7574886,34.9753135],[139.7574896,34.975317],[139.7574914,34.9753202],[139.7574938,34.9753231],[139.7574968,34.9753257],[139.7575002,34.9753278],[139.7575039,34.9753294],[139.7575077,34.9753304],[139.7575118,34.9753309],[139.7575158,34.9753309],[139.7575199,34.9753303],[139.7575237,34.9753293],[139.7575273,34.9753277],[139.7575306,34.9753257],[139.7575334,34.9753233],[139.7575357,34.9753205],[139.7575374,34.9753175],[139.7575386,34.9753143],[139.7575391,34.975311],[139.7575389,34.9753076],[139.7575381,34.9753044]]]},"properties":{"osm_id":1081825817,"osm_type":"way","seamark_type":"light_major","display_class":"LIGHTHOUSE","min_zoom":7,"importance":5,"name":"Suno Saki","ref":null,"common":{"information":"Visible 002°-252°.W. fl., ec. 15sR. fl., ec. 15s","name":"Suno Saki","type":"light_major"},"children":{"light":{"character":"Al.Fl","colour":"red;white","height":"44","period":"30","range":"18","reference":"M 6452"}},"osm_tags":{"building":"yes","height":"14.8","man_made":"lighthouse","name":"洲埼灯台","name:en":"Sunosaki Lighthouse","name:ja":"洲埼灯台","seamark:information":"Visible 002°-252°.W. fl., ec. 15sR. fl., ec. 15s","seamark:light:character":"Al.Fl","seamark:light:colour":"red;white","seamark:light:height":"44","seamark:light:period":"30","seamark:light:range":"18","seamark:light:reference":"M 6452","seamark:name":"Suno Saki","seamark:type":"light_major","source":"GSImaps/seamlessphoto;survey;US NGA Pub. 112. 2009-11-12.","wikidata":"Q1087248","wikipedia":"ja:洲埼灯台"}}},{"type":"Feature","geometry":{"type":"Point","coordinates":[139.1233876,34.1903148]},"properties":{"osm_id":4271717281,"osm_type":"node","seamark_type":"light_major","display_class":"LIGHTHOUSE","min_zoom":7,"importance":5,"name":"神津島灯台","ref":null,"common":{"type":"light_major"},"children":{},"osm_tags":{"man_made":"lighthouse","name":"神津島灯台","seamark:type":"light_major"}}},{"type":"Feature","geometry":{"type":"Point","coordinates":[139.9644339,34.9576537]},"properties":{"osm_id":1211620381,"osm_type":"node","seamark_type":"light_minor","display_class":"OTHER","min_zoom":12,"importance":1,"name":null,"ref":null,"common":{"information":"8 Red round concrete structure; Fl 1131.","type":"light_minor"},"children":{"light":{"character":"Fl","colour":"red","group":"2","height":"11","period":"8","reference":"M 6461"}},"osm_tags":{"seamark:information":"8 Red round concrete structure; Fl 1131.","seamark:light:character":"Fl","seamark:light:colour":"red","seamark:light:group":"2","seamark:light:height":"11","seamark:light:period":"8","seamark:light:reference":"M 6461","seamark:type":"light_minor","source":"US NGA Pub. 112. 2009-11-12."}}},{"type":"Feature","geometry":{"type":"Point","coordinates":[139.4794085,34.0661511]},"properties":{"osm_id":1211620422,"osm_type":"node","seamark_type":"light_minor","display_class":"OTHER","min_zoom":12,"importance":1,"name":null,"ref":null,"common":{"type":"light_minor"},"children":{"light":{"character":"Fl","colour":"white","height":"16","period":"3","range":"12","reference":"M 6276.3"}},"osm_tags":{"man_made":"lighthouse","seamark:light:character":"Fl","seamark:light:colour":"white","seamark:light:height":"16","seamark:light:period":"3","seamark:light:range":"12","seamark:light:reference":"M 6276.3","seamark:type":"light_minor","source":"US NGA Pub. 112. 2009-11-12."}}},{"type":"Feature","geometry":{"type":"Point","coordinates":[139.9242746,34.9171492]},"properties":{"osm_id":1211620485,"osm_type":"node","seamark_type":"light_minor","display_class":"OTHER","min_zoom":12,"importance":1,"name":null,"ref":null,"common":{"type":"light_minor"},"children":{"light":{"category":"upper","character":"F","colour":"green","height":"12","range":"11","reference":"M 6457.1"}},"osm_tags":{"seamark:light:category":"upper","seamark:light:character":"F","seamark:light:colour":"green","seamark:light:height":"12","seamark:light:range":"11","seamark:light:reference":"M 6457.1","seamark:type":"light_minor","source":"US NGA Pub. 112. 2009-11-12."}}},{"type":"Feature","geometry":{"type":"Point","coordinates":[139.8404357,34.9840679]},"properties":{"osm_id":1211620545,"osm_type":"node","seamark_type":"light_minor","display_class":"OTHER","min_zoom":12,"importance":1,"name":null,"ref":null,"common":{"information":"Maintained by National Defense Agency.","type":"light_minor"},"children":{"light":{"category":"aero","character":"Al.Fl","colour":"white;green","height":"18","period":"10","reference":"M 6451.2"}},"osm_tags":{"seamark:information":"Maintained by National Defense Agency.","seamark:light:category":"aero","seamark:light:character":"Al.Fl","seamark:light:colour":"white;green","seamark:light:height":"18","seamark:light:period":"10","seamark:light:reference":"M 6451.2","seamark:type":"light_minor","source":"US NGA Pub. 112. 2009-11-12."}}},{"type":"Feature","geometry":{"type":"Point","coordinates":[139.8245316,34.9214884]},"properties":{"osm_id":6801379126,"osm_type":"node","seamark_type":"harbour","display_class":"OTHER","min_zoom":12,"importance":1,"name":null,"ref":null,"common":{"type":"harbour"},"children":{"harbour":{"category":"marina"}},"osm_tags":{"leisure":"marina","seamark:harbour:category":"marina","seamark:type":"harbour"}}},{"type":"Feature","geometry":{"type":"Polygon","coordinates":[[[139.5424916,34.0564313],[139.5426991,34.0564837],[139.5426756,34.0566012],[139.5421539,34.0565979],[139.542162,34.0565257],[139.5424916,34.0564313]]]},"properties":{"osm_id":142880917,"osm_type":"way","seamark_type":"small_craft_facility","display_class":"OTHER","min_zoom":12,"importance":1,"name":null,"ref":null,"common":{"information":"by car","type":"small_craft_facility"},"children":{"small_craft_facility":{"category":"slipway"}},"osm_tags":{"leisure":"slipway","seamark:information":"by car","seamark:small_craft_facility:category":"slipway","seamark:type":"small_craft_facility"}}},{"type":"Feature","geometry":{"type":"Point","coordinates":[139.4775127,34.0678504]},"properties":{"osm_id":1211620420,"osm_type":"node","seamark_type":"light_minor","display_class":"OTHER","min_zoom":12,"importance":1,"name":"Ako Ko","ref":null,"common":{"name":"Ako Ko","type":"light_minor"},"children":{"light":{"character":"Fl","colour":"green","height":"14","period":"8","range":"3","reference":"M 6276.2"}},"osm_tags":{"man_made":"lighthouse","seamark:light:character":"Fl","seamark:light:colour":"green","seamark:light:height":"14","seamark:light:period":"8","seamark:light:range":"3","seamark:light:reference":"M 6276.2","seamark:name":"Ako Ko","seamark:type":"light_minor","source":"US NGA Pub. 112. 2009-11-12."}}},{"type":"Feature","geometry":{"type":"Point","coordinates":[139.9354608,34.914666]},"properties":{"osm_id":1211620475,"osm_type":"node","seamark_type":"light_minor","display_class":"OTHER","min_zoom":12,"importance":1,"name":"Awa Shirahama Ko","ref":null,"common":{"information":"8 White round concrete structure; R. 325°-085°.Fl 1131.","name":"Awa Shirahama Ko","type":"light_minor"},"children":{"light":{"1:character":"FFl","1:colour":"red","1:height":"11","1:period":"5","1:sector_end":"85","1:sector_start":"325","2:character":"FFl","2:colour":"white","2:height":"11","2:period":"5","reference":"M 6458"}},"osm_tags":{"seamark:information":"8 White round concrete structure; R. 325°-085°.Fl 1131.","seamark:light:1:character":"FFl","seamark:light:1:colour":"red","seamark:light:1:height":"11","seamark:light:1:period":"5","seamark:light:1:sector_end":"85","seamark:light:1:sector_start":"325","seamark:light:2:character":"FFl","seamark:light:2:colour":"white","seamark:light:2:height":"11","seamark:light:2:period":"5","seamark:light:reference":"M 6458","seamark:name":"Awa Shirahama Ko","seamark:type":"light_minor","source":"US NGA Pub. 112. 2009-11-12."}}},{"type":"Feature","geometry":{"type":"Point","coordinates":[139.9636025,34.9566745]},"properties":{"osm_id":1211620385,"osm_type":"node","seamark_type":"light_minor","display_class":"OTHER","min_zoom":12,"importance":1,"name":"Chikura","ref":null,"common":{"name":"Chikura","type":"light_minor"},"children":{"light":{"1:character":"F","1:colour":"red","1:height":"12","1:range":"10","1:sector_end":"230.5","1:sector_start":"228.5","2:character":"F","2:colour":"white","2:height":"12","2:range":"11","2:sector_end":"232.5","2:sector_start":"230.5","3:character":"F","3:colour":"green","3:height":"12","3:range":"11","3:sector_end":"234.5","3:sector_start":"232.5","reference":"M 6462"}},"osm_tags":{"seamark:light:1:character":"F","seamark:light:1:colour":"red","seamark:light:1:height":"12","seamark:light:1:range":"10","seamark:light:1:sector_end":"230.5","seamark:light:1:sector_start":"228.5","seamark:light:2:character":"F","seamark:light:2:colour":"white","seamark:light:2:height":"12","seamark:light:2:range":"11","seamark:light:2:sector_end":"232.5","seamark:light:2:sector_start":"230.5","seamark:light:3:character":"F","seamark:light:3:colour":"green","seamark:light:3:height":"12","seamark:light:3:range":"11","seamark:light:3:sector_end":"234.5","seamark:light:3:sector_start":"232.5","seamark:light:reference":"M 6462","seamark:name":"Chikura","seamark:type":"light_minor","source":"US NGA Pub. 112. 2009-11-12."}}},{"type":"Feature","geometry":{"type":"Point","coordinates":[139.4426985,34.6813118]},"properties":{"osm_id":1211621154,"osm_type":"node","seamark_type":"light_minor","display_class":"OTHER","min_zoom":12,"importance":1,"name":"Habu Ko","ref":null,"common":{"name":"Habu Ko","type":"light_minor"},"children":{"light":{"character":"F","colour":"white","height":"11","reference":"M 6281"}},"osm_tags":{"man_made":"lighthouse","seamark:light:character":"F","seamark:light:colour":"white","seamark:light:height":"11","seamark:light:reference":"M 6281","seamark:name":"Habu Ko","seamark:type":"light_minor","source":"US NGA Pub. 112. 2009-11-12."}}},{"type":"Feature","geometry":{"type":"Polygon","coordinates":[[[139.0945476,34.9866799],[139.0957073,34.986242],[139.0959918,34.9843606],[139.0956577,34.9843098],[139.0948657,34.9842425],[139.0948011,34.9846954],[139.0947428,34.9851042],[139.0945476,34.9866799]]]},"properties":{"osm_id":190578367,"osm_type":"way","seamark_type":"harbour","display_class":"OTHER","min_zoom":12,"importance":1,"name":"ITO SUNRISE MARINA","ref":null,"common":{"type":"harbour"},"children":{"harbour":{"category":"marina"}},"osm_tags":{"leisure":"marina","name":"ITO SUNRISE MARINA","seamark:harbour:category":"marina","seamark:type":"harbour","source":"image;Bing,2011-12-25"}}},{"type":"Feature","geometry":{"type":"Point","coordinates":[139.5666934,34.0803518]},"properties":{"osm_id":1211620411,"osm_type":"node","seamark_type":"light_minor","display_class":"OTHER","min_zoom":12,"importance":1,"name":"Izu Miyake Ko","ref":null,"common":{"name":"Izu Miyake Ko","type":"light_minor"},"children":{"light":{"character":"Fl","colour":"white","height":"17","period":"3","range":"10","reference":"M 6276.1"}},"osm_tags":{"man_made":"lighthouse","seamark:light:character":"Fl","seamark:light:colour":"white","seamark:light:height":"17","seamark:light:period":"3","seamark:light:range":"10","seamark:light:reference":"M 6276.1","seamark:name":"Izu Miyake Ko","seamark:type":"light_minor","source":"US NGA Pub. 112. 2009-11-12."}}},{"type":"Feature","geometry":{"type":"Point","coordinates":[139.4898367,34.1128658]},"properties":{"osm_id":1211620398,"osm_type":"node","seamark_type":"light_minor","display_class":"OTHER","min_zoom":12,"importance":1,"name":"Miyake Jima","ref":null,"common":{"name":"Miyake Jima","type":"light_minor"},"children":{"light":{"1:character":"Fl","1:colour":"white","1:height":"24","1:period":"5","1:range":"14","1:sector_end":"202","1:sector_start":"352","reference":"M 6276"}},"osm_tags":{"man_made":"lighthouse","name":"伊豆岬灯台","seamark:light:1:character":"Fl","seamark:light:1:colour":"white","seamark:light:1:height":"24","seamark:light:1:period":"5","seamark:light:1:range":"14","seamark:light:1:sector_end":"202","seamark:light:1:sector_start":"352","seamark:light:reference":"M 6276","seamark:name":"Miyake Jima","seamark:type":"light_minor","source":"US NGA Pub. 112. 2009-11-12."}}},{"type":"Feature","geometry":{"type":"Point","coordinates":[139.3486602,34.7518414]},"properties":{"osm_id":1211621177,"osm_type":"node","seamark_type":"light_minor","display_class":"OTHER","min_zoom":12,"importance":1,"name":"Motomati Ko","ref":null,"common":{"name":"Motomati Ko","type":"light_minor"},"children":{"light":{"character":"Iso","colour":"green","height":"14","period":"4","range":"12","reference":"M 6286"}},"osm_tags":{"man_made":"lighthouse","name":"元町港突堤灯台","seamark:light:character":"Iso","seamark:light:colour":"green","seamark:light:height":"14","seamark:light:period":"4","seamark:light:range":"12","seamark:light:reference":"M 6286","seamark:name":"Motomati Ko","seamark:type":"light_minor","source":"US NGA Pub. 112. 2009-11-12.,survey 2013-01-19"}}},{"type":"Feature","geometry":{"type":"Point","coordinates":[139.9287656,34.9086208]},"properties":{"osm_id":1211620487,"osm_type":"node","seamark_type":"light_minor","display_class":"OTHER","min_zoom":12,"importance":1,"name":"Otohama Ko","ref":null,"common":{"name":"Otohama Ko","type":"light_minor"},"children":{"light":{"character":"Fl","colour":"red","height":"17","period":"3","range":"9","reference":"M 6457.4"}},"osm_tags":{"seamark:light:character":"Fl","seamark:light:colour":"red","seamark:light:height":"17","seamark:light:period":"3","seamark:light:range":"9","seamark:light:reference":"M 6457.4","seamark:name":"Otohama Ko","seamark:type":"light_minor","source":"US NGA Pub. 112. 2009-11-12."}}},{"type":"Feature","geometry":{"type":"Point","coordinates":[139.8479814,34.9877528]},"properties":{"osm_id":1211620531,"osm_type":"node","seamark_type":"light_minor","display_class":"OTHER","min_zoom":12,"importance":1,"name":"Tateyama Ko","ref":null,"common":{"name":"Tateyama Ko","type":"light_minor"},"children":{"light":{"character":"Iso","colour":"green","height":"11","period":"4","range":"11","reference":"M 6451"}},"osm_tags":{"seamark:light:character":"Iso","seamark:light:colour":"green","seamark:light:height":"11","seamark:light:period":"4","seamark:light:range":"11","seamark:light:reference":"M 6451","seamark:name":"Tateyama Ko","seamark:type":"light_minor","source":"US NGA Pub. 112. 2009-11-12."}}},{"type":"Feature","geometry":{"type":"Point","coordinates":[139.8235574,34.9194474]},"properties":{"osm_id":1211620512,"osm_type":"node","seamark_type":"light_minor","display_class":"OTHER","min_zoom":12,"importance":1,"name":"Tomisaki Ko","ref":null,"common":{"information":"6 Red round concrete structure; Fl 1128.","name":"Tomisaki Ko","type":"light_minor"},"children":{"light":{"character":"FFl","colour":"red","height":"10","period":"6","reference":"M 6455"}},"osm_tags":{"seamark:information":"6 Red round concrete structure; Fl 1128.","seamark:light:character":"FFl","seamark:light:colour":"red","seamark:light:height":"10","seamark:light:period":"6","seamark:light:reference":"M 6455","seamark:name":"Tomisaki Ko","seamark:type":"light_minor","source":"US NGA Pub. 112. 2009-11-12."}}},{"type":"Feature","geometry":{"type":"Point","coordinates":[139.5461022,34.0561682]},"properties":{"osm_id":1211620414,"osm_type":"node","seamark_type":"light_minor","display_class":"OTHER","min_zoom":12,"importance":1,"name":"Tsubota Ko","ref":null,"common":{"name":"Tsubota Ko","type":"light_minor"},"children":{"light":{"character":"Fl","colour":"green","height":"20","period":"5","range":"6","reference":"M 6276.4"}},"osm_tags":{"man_made":"lighthouse","seamark:light:character":"Fl","seamark:light:colour":"green","seamark:light:height":"20","seamark:light:period":"5","seamark:light:range":"6","seamark:light:reference":"M 6276.4","seamark:name":"Tsubota Ko","seamark:type":"light_minor","source":"US NGA Pub. 112. 2009-11-12."}}},{"type":"Feature","geometry":{"type":"Point","coordinates":[139.5320114,34.1254662]},"properties":{"osm_id":1211620402,"osm_type":"node","seamark_type":"light_minor","display_class":"OTHER","min_zoom":12,"importance":1,"name":"Yunohama Ko","ref":null,"common":{"name":"Yunohama Ko","type":"light_minor"},"children":{"light":{"character":"Oc","colour":"green","height":"14","period":"8","range":"12","reference":"M 6275.5"}},"osm_tags":{"man_made":"lighthouse","seamark:light:character":"Oc","seamark:light:colour":"green","seamark:light:height":"14","seamark:light:period":"8","seamark:light:range":"12","seamark:light:reference":"M 6275.5","seamark:name":"Yunohama Ko","seamark:type":"light_minor","source":"US NGA Pub. 112. 2009-11-12."}}},{"type":"Feature","geometry":{"type":"Polygon","coordinates":[[[139.3905806,34.7905564],[139.39064,34.7906079],[139.3906998,34.7905613],[139.3906403,34.7905099],[139.3905806,34.7905564]]]},"properties":{"osm_id":202529529,"osm_type":"way","seamark_type":"harbour","display_class":"OTHER","min_zoom":12,"importance":1,"name":"岡田港","ref":null,"common":{"type":"harbour"},"children":{"harbour":{"category":"ferry"}},"osm_tags":{"amenity":"ferry_terminal","ferry":"yes","name":"岡田港","name:ja_rm":"Okadako","public_transport":"station","seamark:harbour:category":"ferry","seamark:type":"harbour","source":"GSI/KIBAN 25000; Bing","source_ref":"http://wiki.osm.org/wiki/GSI_KIBAN"}}},{"type":"Feature","geometry":{"type":"Point","coordinates":[139.8243676,34.9205395]},"properties":{"osm_id":8851681577,"osm_type":"node","seamark_type":"harbour","display_class":"OTHER","min_zoom":12,"importance":1,"name":"布良漁港","ref":null,"common":{"type":"harbour"},"children":{"harbour":{"category":"fishing"}},"osm_tags":{"harbour":"yes","name":"布良漁港","seamark:harbour:category":"fishing","seamark:type":"harbour"}}},{"type":"Feature","geometry":{"type":"Point","coordinates":[139.4379391,34.6872609]},"properties":{"osm_id":2088173092,"osm_type":"node","seamark_type":"harbour","display_class":"OTHER","min_zoom":12,"importance":1,"name":"波浮港","ref":null,"common":{"type":"harbour"},"children":{"harbour":{"category":"fishing"}},"osm_tags":{"harbour":"yes","name":"波浮港","name:ja_rm":"Habuminato","seamark:harbour:category":"fishing","seamark:type":"harbour","source":"GSI/KIBAN 25000","source_ref":"http://wiki.osm.org/wiki/GSI_KIBAN"}}},{"type":"Feature","geometry":{"type":"Point","coordinates":[139.1290078,34.2094271]},"properties":{"osm_id":1920349773,"osm_type":"node","seamark_type":"harbour","display_class":"OTHER","min_zoom":12,"importance":1,"name":"神津島前浜港","ref":null,"common":{"type":"harbour"},"children":{"harbour":{"category":"marina"}},"osm_tags":{"leisure":"marina","name":"神津島前浜港","seamark:harbour:category":"marina","seamark:type":"harbour"}}}],"type":"FeatureCollection"}