{"type":"FeatureCollection","features":[{"type":"Feature","geometry":{"type":"Point","coordinates":[-87.3912706,34.8112722]},"properties":{"osm_id":9923826971,"osm_type":"node","seamark_type":"buoy_lateral","display_class":"OTHER","min_zoom":12,"importance":1,"name":null,"ref":null,"common":{"type":"buoy_lateral"},"children":{},"osm_tags":{"man_made":"buoy","seamark:type":"buoy_lateral"}}},{"type":"Feature","geometry":{"type":"Point","coordinates":[-87.3864304,34.8128637]},"properties":{"osm_id":9923826972,"osm_type":"node","seamark_type":"buoy_lateral","display_class":"OTHER","min_zoom":12,"importance":1,"name":null,"ref":null,"common":{"type":"buoy_lateral"},"children":{},"osm_tags":{"man_made":"buoy","seamark:type":"buoy_lateral"}}},{"type":"Feature","geometry":{"type":"Point","coordinates":[-87.3861084,34.8129046]},"properties":{"osm_id":9923826973,"osm_type":"node","seamark_type":"buoy_lateral","display_class":"OTHER","min_zoom":12,"importance":1,"name":null,"ref":null,"common":{"type":"buoy_lateral"},"children":{},"osm_tags":{"man_made":"buoy","seamark:type":"buoy_lateral"}}},{"type":"Feature","geometry":{"type":"Point","coordinates":[-87.3857735,34.8129492]},"properties":{"osm_id":9923826974,"osm_type":"node","seamark_type":"buoy_lateral","display_class":"OTHER","min_zoom":12,"importance":1,"name":null,"ref":null,"common":{"type":"buoy_lateral"},"children":{},"osm_tags":{"man_made":"buoy","seamark:type":"buoy_lateral"}}},{"type":"Feature","geometry":{"type":"Point","coordinates":[-87.3854546,34.8129963]},"properties":{"osm_id":9923826975,"osm_type":"node","seamark_type":"buoy_lateral","display_class":"OTHER","min_zoom":12,"importance":1,"name":null,"ref":null,"common":{"type":"buoy_lateral"},"children":{},"osm_tags":{"man_made":"buoy","seamark:type":"buoy_lateral"}}},{"type":"Feature","geometry":{"type":"Point","coordinates":[-87.3921399,34.8110632]},"properties":{"osm_id":9923826976,"osm_type":"node","seamark_type":"buoy_lateral","display_class":"OTHER","min_zoom":12,"importance":1,"name":null,"ref":null,"common":{"type":"buoy_lateral"},"children":{},"osm_tags":{"man_made":"buoy","seamark:type":"buoy_lateral"}}},{"type":"Feature","geometry":{"type":"Point","coordinates":[-87.5706572,34.8518571]},"properties":{"osm_id":14077734185,"osm_type":"node","seamark_type":"small_craft_facility","display_class":"OTHER","min_zoom":12,"importance":1,"name":null,"ref":null,"common":{"type":"small_craft_facility"},"children":{"small_craft_facility":{"category":"fuel_station"}},"osm_tags":{"seamark:small_craft_facility:category":"fuel_station","seamark:type":"small_craft_facility","waterway":"fuel"}}},{"type":"Feature","geometry":{"type":"Polygon","coordinates":[[[-87.6292023,34.8037182],[-87.6292727,34.803876],[-87.6308226,34.8034235],[-87.6305764,34.803356],[-87.6308368,34.8032471],[-87.6306877,34.803205],[-87.6301024,34.8034642],[-87.6300239,34.8036113],[-87.6296949,34.8036983],[-87.6295815,34.803679],[-87.6294278,34.8033463],[-87.6293956,34.803289],[-87.6293934,34.8031099],[-87.6294601,34.8029819],[-87.6296401,34.8028274],[-87.6301684,34.8026805],[-87.6304987,34.8027406],[-87.6306847,34.8026091],[-87.6306618,34.802258],[-87.6308462,34.8020834],[-87.6306148,34.8011264],[-87.6302204,34.8007261],[-87.6300029,34.80032],[-87.629809,34.8002547],[-87.629608,34.800352],[-87.6295197,34.8004427],[-87.6295462,34.8005987],[-87.6295771,34.8007039],[-87.6295727,34.800791],[-87.6294799,34.8008926],[-87.6288148,34.8002162],[-87.6288244,34.7999776],[-87.6292643,34.7998527],[-87.6295964,34.7997523],[-87.6292931,34.7995707],[-87.6291917,34.7993882],[-87.6289751,34.7993212],[-87.6286545,34.7993307],[-87.628631,34.7995326],[-87.628783,34.7997979],[-87.6283604,34.7998574],[-87.6280072,34.7999123],[-87.6278051,34.7995159],[-87.6278493,34.7992383],[-87.6276125,34.7989455],[-87.627406,34.79869],[-87.6271656,34.7985707],[-87.626799,34.798432],[-87.6265575,34.7989158],[-87.626971,34.8000153],[-87.6270207,34.8006653],[-87.6277988,34.8008132],[-87.6282345,34.8013676],[-87.6283826,34.8020143],[-87.6283212,34.8026282],[-87.6282075,34.8032332],[-87.6282304,34.8035335],[-87.6285151,34.8034734],[-87.6288387,34.8038275],[-87.6292023,34.8037182]]]},"properties":{"osm_id":83085713,"osm_type":"way","seamark_type":"obstruction","display_class":"OTHER","min_zoom":12,"importance":1,"name":null,"ref":null,"common":{"type":"obstruction"},"children":{"obstruction":{"category":"reef","water_level":"submerged"}},"osm_tags":{"area":"yes","natural":"reef","reef":"rock","seamark:obstruction:category":"reef","seamark:obstruction:water_level":"submerged","seamark:type":"obstruction"}}},{"type":"Feature","geometry":{"type":"Polygon","coordinates":[[[-87.5718681,34.8485787],[-87.5724608,34.8495076],[-87.5717608,34.8498311],[-87.5712565,34.8500557],[-87.5704921,34.8503462],[-87.569379,34.8507336],[-87.5686386,34.8492239],[-87.5698552,34.848863],[-87.5717699,34.8484134],[-87.5718681,34.8485787]]]},"properties":{"osm_id":446381967,"osm_type":"way","seamark_type":"harbour","display_class":"OTHER","min_zoom":12,"importance":1,"name":null,"ref":null,"common":{"type":"harbour"},"children":{"harbour":{"category":"marina"}},"osm_tags":{"leisure":"marina","seamark:harbour:category":"marina","seamark:type":"harbour"}}},{"type":"Feature","geometry":{"type":"LineString","coordinates":[[-87.382546,34.8131764],[-87.3824886,34.8132715],[-87.3825569,34.8133464]]},"properties":{"osm_id":849083416,"osm_type":"way","seamark_type":"gate","display_class":"OTHER","min_zoom":12,"importance":1,"name":null,"ref":"04","common":{"type":"gate"},"children":{},"osm_tags":{"ref":"04","seamark:type":"gate","waterway":"lock_gate","website":"https://www.lrn.usace.army.mil/locks/wheeler/"}}},{"type":"Feature","geometry":{"type":"LineString","coordinates":[[-87.3828547,34.8135247],[-87.3828038,34.8136964],[-87.3828869,34.813827]]},"properties":{"osm_id":849083424,"osm_type":"way","seamark_type":"gate","display_class":"OTHER","min_zoom":12,"importance":1,"name":null,"ref":"04","common":{"type":"gate"},"children":{},"osm_tags":{"ref":"04","seamark:type":"gate","waterway":"lock_gate","website":"https://www.lrn.usace.army.mil/locks/wheeler/"}}},{"type":"Feature","geometry":{"type":"LineString","coordinates":[[-87.6282243,34.8054728],[-87.6282225,34.8055672],[-87.6283071,34.8056312]]},"properties":{"osm_id":849083448,"osm_type":"way","seamark_type":"gate","display_class":"OTHER","min_zoom":12,"importance":1,"name":null,"ref":null,"common":{"type":"gate"},"children":{},"osm_tags":{"seamark:type":"gate","waterway":"lock_gate"}}},{"type":"Feature","geometry":{"type":"Polygon","coordinates":[[[-87.6280639,34.7987869],[-87.6279954,34.7986904],[-87.6279999,34.7985852],[-87.6280573,34.7984945],[-87.6282428,34.7983966],[-87.6284549,34.7984147],[-87.6286123,34.7983397],[-87.6284482,34.7982943],[-87.62835,34.7982216],[-87.6280941,34.7981625],[-87.6279725,34.7981976],[-87.6277153,34.7982164],[-87.6275687,34.7982698],[-87.6268587,34.7982726],[-87.626799,34.798432],[-87.6271656,34.7985707],[-87.627406,34.79869],[-87.6276125,34.7989455],[-87.6279246,34.798894],[-87.6281879,34.7988321],[-87.6282011,34.7987333],[-87.6280639,34.7987869]]]},"properties":{"osm_id":849083536,"osm_type":"way","seamark_type":"obstruction","display_class":"OTHER","min_zoom":12,"importance":1,"name":null,"ref":null,"common":{"type":"obstruction"},"children":{"obstruction":{"category":"reef","water_level":"submerged"}},"osm_tags":{"area":"yes","natural":"reef","reef":"rock","seamark:obstruction:category":"reef","seamark:obstruction:water_level":"submerged","seamark:type":"obstruction"}}},{"type":"Feature","geometry":{"type":"LineString","coordinates":[[-87.6269223,34.804635],[-87.6269194,34.8047832],[-87.6270274,34.8049241]]},"properties":{"osm_id":849083586,"osm_type":"way","seamark_type":"gate","display_class":"OTHER","min_zoom":12,"importance":1,"name":null,"ref":"03","common":{"type":"gate"},"children":{},"osm_tags":{"ref":"03","seamark:type":"gate","waterway":"lock_gate","website":"https://www.lrn.usace.army.mil/locks/wilson/"}}},{"type":"Feature","geometry":{"type":"LineString","coordinates":[[-87.6291831,34.8042914],[-87.6290652,34.8041583],[-87.6290724,34.8040087]]},"properties":{"osm_id":849083588,"osm_type":"way","seamark_type":"gate","display_class":"OTHER","min_zoom":12,"importance":1,"name":null,"ref":"03","common":{"type":"gate"},"children":{},"osm_tags":{"ref":"03","seamark:type":"gate","waterway":"lock_gate","website":"https://www.lrn.usace.army.mil/locks/wilson/"}}},{"type":"Feature","geometry":{"type":"LineString","coordinates":[[-87.6293699,34.8052058],[-87.6292864,34.8051525],[-87.6292915,34.8050553]]},"properties":{"osm_id":849083589,"osm_type":"way","seamark_type":"gate","display_class":"OTHER","min_zoom":12,"importance":1,"name":null,"ref":null,"common":{"type":"gate"},"children":{},"osm_tags":{"seamark:type":"gate","waterway":"lock_gate"}}},{"type":"Feature","geometry":{"type":"Polygon","coordinates":[[[-87.3850217,34.8119912],[-87.384905,34.8119427],[-87.3848353,34.8118414],[-87.3848581,34.8117225],[-87.384956,34.8116388],[-87.3850954,34.8116179],[-87.3852282,34.8116719],[-87.3852886,34.8117754],[-87.3852644,34.8118866],[-87.3851625,34.8119725],[-87.3850217,34.8119912]]]},"properties":{"osm_id":1082814085,"osm_type":"way","seamark_type":"obstruction","display_class":"OTHER","min_zoom":12,"importance":1,"name":null,"ref":null,"common":{"type":"obstruction"},"children":{},"osm_tags":{"description":"Lock chamber outlet","man_made":"breakwater","material":"concrete","seamark:type":"obstruction"}}},{"type":"Feature","geometry":{"type":"LineString","coordinates":[[-87.3856386,34.8103687],[-87.3854559,34.8101488],[-87.3853308,34.8100235],[-87.3852591,34.8100169],[-87.3850029,34.8098672],[-87.3849372,34.8097923],[-87.3849265,34.8097394],[-87.3847387,34.8096381],[-87.3846375,34.8096073],[-87.3843505,34.8095198],[-87.3843149,34.8094664],[-87.3840661,34.8094085],[-87.3839501,34.8094003],[-87.3836122,34.8093474],[-87.3834942,34.809299],[-87.3833815,34.8092637],[-87.3831354,34.8092946],[-87.3829544,34.8092904],[-87.3826741,34.8092866],[-87.3825051,34.8092822],[-87.3823603,34.8092629]]},"properties":{"osm_id":1082814086,"osm_type":"way","seamark_type":"obstruction","display_class":"OTHER","min_zoom":12,"importance":1,"name":null,"ref":null,"common":{"type":"obstruction"},"children":{},"osm_tags":{"man_made":"breakwater","material":"stone","seamark:type":"obstruction"}}},{"type":"Feature","geometry":{"type":"LineString","coordinates":[[-87.3854546,34.8129963],[-87.3857735,34.8129492],[-87.3861084,34.8129046],[-87.3864304,34.8128637]]},"properties":{"osm_id":1082814088,"osm_type":"way","seamark_type":"separation_boundary","display_class":"OTHER","min_zoom":12,"importance":1,"name":null,"ref":null,"common":{"type":"separation_boundary"},"children":{},"osm_tags":{"seamark:type":"separation_boundary"}}},{"type":"Feature","geometry":{"type":"Polygon","coordinates":[[[-87.6284219,34.7997328],[-87.6285183,34.7996573],[-87.6284645,34.7995616],[-87.6284936,34.7994971],[-87.6285116,34.7994217],[-87.6284892,34.7993922],[-87.6283255,34.7994106],[-87.628312,34.7993535],[-87.6282256,34.7993901],[-87.6280856,34.7994493],[-87.6280654,34.7995192],[-87.6280991,34.7996242],[-87.6282134,34.7996757],[-87.6284219,34.7997328]]]},"properties":{"osm_id":1475240256,"osm_type":"way","seamark_type":"obstruction","display_class":"OTHER","min_zoom":12,"importance":1,"name":null,"ref":null,"common":{"type":"obstruction"},"children":{"obstruction":{"category":"reef","water_level":"submerged"}},"osm_tags":{"area":"yes","natural":"reef","reef":"rock","seamark:obstruction:category":"reef","seamark:obstruction:water_level":"submerged","seamark:type":"obstruction"}}},{"type":"Feature","geometry":{"type":"Polygon","coordinates":[[[-87.6283683,34.7990734],[-87.6281977,34.7991161],[-87.6280587,34.7991529],[-87.6280363,34.7992357],[-87.6281237,34.799313],[-87.6282256,34.7993901],[-87.628312,34.7993535],[-87.6284203,34.7992936],[-87.6283175,34.7992773],[-87.6282173,34.7991864],[-87.6283683,34.7990734]]]},"properties":{"osm_id":1475240257,"osm_type":"way","seamark_type":"obstruction","display_class":"OTHER","min_zoom":12,"importance":1,"name":null,"ref":null,"common":{"type":"obstruction"},"children":{"obstruction":{"category":"reef","water_level":"submerged"}},"osm_tags":{"area":"yes","natural":"reef","reef":"rock","seamark:obstruction:category":"reef","seamark:obstruction:water_level":"submerged","seamark:type":"obstruction"}}},{"type":"Feature","geometry":{"type":"Polygon","coordinates":[[[-87.6306912,34.8000128],[-87.6309504,34.800054],[-87.63123,34.800025],[-87.6314459,34.7998797],[-87.6315733,34.7997053],[-87.6316476,34.7995251],[-87.6315131,34.7995018],[-87.6312902,34.7994989],[-87.6313432,34.7994118],[-87.6312123,34.7993478],[-87.6310621,34.7993847],[-87.6312109,34.7994427],[-87.6311151,34.7995359],[-87.6311157,34.7997524],[-87.6308899,34.7999055],[-87.6306912,34.8000128]]]},"properties":{"osm_id":1475248151,"osm_type":"way","seamark_type":"obstruction","display_class":"OTHER","min_zoom":12,"importance":1,"name":null,"ref":null,"common":{"type":"obstruction"},"children":{"obstruction":{"category":"reef","water_level":"submerged"}},"osm_tags":{"area":"yes","natural":"reef","reef":"rock","seamark:obstruction:category":"reef","seamark:obstruction:water_level":"submerged","seamark:type":"obstruction"}}},{"type":"Feature","geometry":{"type":"Polygon","coordinates":[[[-87.6311132,34.8003011],[-87.6309256,34.8001935],[-87.6307557,34.8001499],[-87.6306425,34.8001935],[-87.6306991,34.8003621],[-87.630777,34.8004638],[-87.6309469,34.8005801],[-87.6311132,34.8003011]]]},"properties":{"osm_id":1475248152,"osm_type":"way","seamark_type":"obstruction","display_class":"OTHER","min_zoom":12,"importance":1,"name":null,"ref":null,"common":{"type":"obstruction"},"children":{"obstruction":{"category":"reef","water_level":"submerged"}},"osm_tags":{"area":"yes","natural":"reef","reef":"rock","seamark:obstruction:category":"reef","seamark:obstruction:water_level":"submerged","seamark:type":"obstruction"}}},{"type":"Feature","geometry":{"type":"Polygon","coordinates":[[[-87.6280941,34.7981625],[-87.6283243,34.7980894],[-87.6288693,34.7979121],[-87.6290074,34.7978831],[-87.6289543,34.7979935],[-87.6289326,34.7982245],[-87.629508,34.7981043],[-87.6294356,34.7979703],[-87.6294604,34.7977959],[-87.6295099,34.7976477],[-87.6296374,34.7974152],[-87.6294179,34.797328],[-87.6288764,34.7974529],[-87.6280376,34.7978743],[-87.6277864,34.7979528],[-87.6275457,34.7979877],[-87.6271033,34.798008],[-87.6268095,34.7980226],[-87.6268587,34.7982726],[-87.6275687,34.7982698],[-87.6277153,34.7982164],[-87.6279725,34.7981976],[-87.6280941,34.7981625]]]},"properties":{"osm_id":1475248153,"osm_type":"way","seamark_type":"obstruction","display_class":"OTHER","min_zoom":12,"importance":1,"name":null,"ref":null,"common":{"type":"obstruction"},"children":{"obstruction":{"category":"reef","water_level":"submerged"}},"osm_tags":{"area":"yes","natural":"reef","reef":"rock","seamark:obstruction:category":"reef","seamark:obstruction:water_level":"submerged","seamark:type":"obstruction"}}},{"type":"Feature","geometry":{"type":"Polygon","coordinates":[[[-87.629241,34.7992926],[-87.6293259,34.7993885],[-87.629425,34.7994437],[-87.6296338,34.7993623],[-87.629917,34.7992839],[-87.6300444,34.7992229],[-87.6300231,34.7991269],[-87.6297718,34.799124],[-87.6295144,34.7990473],[-87.6295961,34.7991437],[-87.6294001,34.799262],[-87.629241,34.7992926]]]},"properties":{"osm_id":1475248154,"osm_type":"way","seamark_type":"obstruction","display_class":"OTHER","min_zoom":12,"importance":1,"name":null,"ref":null,"common":{"type":"obstruction"},"children":{"obstruction":{"category":"reef","water_level":"submerged"}},"osm_tags":{"area":"yes","natural":"reef","reef":"rock","seamark:obstruction:category":"reef","seamark:obstruction:water_level":"submerged","seamark:type":"obstruction"}}},{"type":"Feature","geometry":{"type":"Polygon","coordinates":[[[-87.6307274,34.7990369],[-87.6307947,34.7989642],[-87.6305045,34.7990165],[-87.6301965,34.7990863],[-87.6303735,34.7990892],[-87.6307274,34.7990369]]]},"properties":{"osm_id":1475248155,"osm_type":"way","seamark_type":"obstruction","display_class":"OTHER","min_zoom":12,"importance":1,"name":null,"ref":null,"common":{"type":"obstruction"},"children":{"obstruction":{"category":"reef","water_level":"submerged"}},"osm_tags":{"area":"yes","natural":"reef","reef":"rock","seamark:obstruction:category":"reef","seamark:obstruction:water_level":"submerged","seamark:type":"obstruction"}}},{"type":"Feature","geometry":{"type":"Polygon","coordinates":[[[-87.625413,34.7981193],[-87.6256469,34.7980814],[-87.626312,34.8010653],[-87.6261065,34.8011],[-87.625413,34.7981193]]]},"properties":{"osm_id":1475250449,"osm_type":"way","seamark_type":"obstruction","display_class":"OTHER","min_zoom":12,"importance":1,"name":null,"ref":null,"common":{"type":"obstruction"},"children":{"obstruction":{"category":"reef","water_level":"submerged"}},"osm_tags":{"area":"yes","natural":"reef","reef":"rock","seamark:obstruction:category":"reef","seamark:obstruction:water_level":"submerged","seamark:type":"obstruction"}}},{"type":"Feature","geometry":{"type":"Polygon","coordinates":[[[-87.6261065,34.8011],[-87.626312,34.8010653],[-87.6269287,34.8009612],[-87.6273235,34.8026505],[-87.6270801,34.8028984],[-87.6273803,34.80429],[-87.6272583,34.8043266],[-87.6272479,34.804303],[-87.6268752,34.8044146],[-87.6261065,34.8011]]]},"properties":{"osm_id":1475250450,"osm_type":"way","seamark_type":"obstruction","display_class":"OTHER","min_zoom":12,"importance":1,"name":null,"ref":null,"common":{"type":"obstruction"},"children":{"obstruction":{"category":"reef","water_level":"submerged"}},"osm_tags":{"area":"yes","natural":"reef","reef":"rock","seamark:obstruction:category":"reef","seamark:obstruction:water_level":"submerged","seamark:type":"obstruction"}}},{"type":"Feature","geometry":{"type":"Polygon","coordinates":[[[-87.6265162,34.8003742],[-87.626602,34.8003544],[-87.6265672,34.8002927],[-87.6264733,34.8002244],[-87.626366,34.8002112],[-87.6263499,34.8002244],[-87.6263016,34.8002641],[-87.6263901,34.8003478],[-87.6265162,34.8003742]]]},"properties":{"osm_id":1475250451,"osm_type":"way","seamark_type":"obstruction","display_class":"OTHER","min_zoom":12,"importance":1,"name":null,"ref":null,"common":{"type":"obstruction"},"children":{"obstruction":{"category":"reef","water_level":"submerged"}},"osm_tags":{"area":"yes","natural":"reef","reef":"rock","seamark:obstruction:category":"reef","seamark:obstruction:water_level":"submerged","seamark:type":"obstruction"}}},{"type":"Feature","geometry":{"type":"Polygon","coordinates":[[[-87.6265082,34.8001606],[-87.6266101,34.8000857],[-87.6266315,34.8000284],[-87.6265886,34.8000064],[-87.6265082,34.800035],[-87.6264706,34.8001077],[-87.6265082,34.8001606]]]},"properties":{"osm_id":1475250452,"osm_type":"way","seamark_type":"obstruction","display_class":"OTHER","min_zoom":12,"importance":1,"name":null,"ref":null,"common":{"type":"obstruction"},"children":{"obstruction":{"category":"reef","water_level":"submerged"}},"osm_tags":{"area":"yes","natural":"reef","reef":"rock","seamark:obstruction:category":"reef","seamark:obstruction:water_level":"submerged","seamark:type":"obstruction"}}},{"type":"Feature","geometry":{"type":"LineString","coordinates":[[-87.6270763,34.8059288],[-87.6271135,34.8059977],[-87.6271562,34.806077]]},"properties":{"osm_id":1477755770,"osm_type":"way","seamark_type":"gate","display_class":"OTHER","min_zoom":12,"importance":1,"name":null,"ref":null,"common":{"type":"gate"},"children":{},"osm_tags":{"seamark:type":"gate","waterway":"lock_gate"}}},{"type":"Feature","geometry":{"type":"LineString","coordinates":[[-87.3840389,34.8131493],[-87.3839906,34.8130766],[-87.3840491,34.8129759]]},"properties":{"osm_id":849083417,"osm_type":"way","seamark_type":"gate","display_class":"OTHER","min_zoom":12,"importance":1,"name":"Wheeler Lock and Dam","ref":"04","common":{"type":"gate"},"children":{},"osm_tags":{"name":"Wheeler Lock and Dam","ref":"04","seamark:type":"gate","waterway":"lock_gate","website":"https://www.lrn.usace.army.mil/locks/wheeler/"}}},{"type":"Feature","geometry":{"type":"LineString","coordinates":[[-87.385141,34.8135312],[-87.3850605,34.8133841],[-87.3851091,34.8131977]]},"properties":{"osm_id":849083426,"osm_type":"way","seamark_type":"gate","display_class":"OTHER","min_zoom":12,"importance":1,"name":"Wheeler Lock and Dam","ref":"04","common":{"type":"gate"},"children":{},"osm_tags":{"name":"Wheeler Lock and Dam","ref":"04","seamark:type":"gate","waterway":"lock_gate","website":"https://www.lrn.usace.army.mil/locks/wheeler/"}}}],"type":"FeatureCollection"}