{"type":"FeatureCollection","features":[{"type":"Feature","geometry":{"type":"Point","coordinates":[-75.22,34.51]},"properties":{"osm_id":663869495,"osm_type":"node","seamark_type":"wreck","display_class":"OTHER","min_zoom":12,"importance":1,"name":"U-576 (Wrack)","ref":null,"common":{"type":"wreck"},"children":{},"osm_tags":{"historic":"wreck","name":"U-576 (Wrack)","seamark:type":"wreck","source":"www.dive-links.com","sport":"scuba_diving","verified":"no, please check and del this tag","website":"http://www.dive-links.com/tauchplatz.php?id=1301"}}}],"type":"FeatureCollection"}