{"type":"FeatureCollection","features":[{"type":"Feature","geometry":{"type":"Point","coordinates":[126.394968,35.8548086]},"properties":{"osm_id":7279474345,"osm_type":"node","seamark_type":"light_major","display_class":"LIGHTHOUSE","min_zoom":7,"importance":5,"name":null,"ref":null,"common":{"type":"light_major"},"children":{},"osm_tags":{"man_made":"lighthouse","seamark:type":"light_major"}}},{"type":"Feature","geometry":{"type":"Point","coordinates":[126.3151667,35.8582222]},"properties":{"osm_id":13842128277,"osm_type":"node","seamark_type":"light_major","display_class":"LIGHTHOUSE","min_zoom":7,"importance":5,"name":"Maldo","ref":null,"common":{"name":"Maldo","type":"light_major"},"children":{"light":{"1:character":"Fl","1:colour":"white","1:exhibition":"storm","1:height":"60","1:period":"10","1:range":"20","1:sector_end":"276","1:sector_start":"324","reference":"M 4206"},"radar_transponder":{"category":"racon","group":"C"},"radio_station":{"category":"ais","mmsi":"994403664"}},"osm_tags":{"seamark:light:1:character":"Fl","seamark:light:1:colour":"white","seamark:light:1:exhibition":"storm","seamark:light:1:height":"60","seamark:light:1:period":"10","seamark:light:1:range":"20","seamark:light:1:sector_end":"276","seamark:light:1:sector_start":"324","seamark:light:reference":"M 4206","seamark:name":"Maldo","seamark:radar_transponder:category":"racon","seamark:radar_transponder:group":"C","seamark:radio_station:category":"ais","seamark:radio_station:mmsi":"994403664","seamark:type":"light_major"}}},{"type":"Feature","geometry":{"type":"Point","coordinates":[126.2722778,35.6150833]},"properties":{"osm_id":13806116622,"osm_type":"node","seamark_type":"beacon_isolated_danger","display_class":"BEACON","min_zoom":9,"importance":4,"name":"Beolgeumyeo","ref":null,"common":{"name":"Beolgeumyeo","type":"beacon_isolated_danger"},"children":{"beacon_isolated_danger":{"colour":"black;red;black","colour_pattern":"horizontal","shape":"tower"},"light":{"character":"Fl","colour":"white","group":"2","height":"16","period":"5","range":"7","reference":"M 4206.73"},"topmark":{"colour":"black","shape":"2 spheres"}},"osm_tags":{"seamark:beacon_isolated_danger:colour":"black;red;black","seamark:beacon_isolated_danger:colour_pattern":"horizontal","seamark:beacon_isolated_danger:shape":"tower","seamark:light:character":"Fl","seamark:light:colour":"white","seamark:light:group":"2","seamark:light:height":"16","seamark:light:period":"5","seamark:light:range":"7","seamark:light:reference":"M 4206.73","seamark:name":"Beolgeumyeo","seamark:topmark:colour":"black","seamark:topmark:shape":"2 spheres","seamark:type":"beacon_isolated_danger"}}},{"type":"Feature","geometry":{"type":"Point","coordinates":[126.445,35.7339722]},"properties":{"osm_id":13967808409,"osm_type":"node","seamark_type":"beacon_cardinal","display_class":"BEACON","min_zoom":9,"importance":4,"name":"Biando","ref":"3152.21","common":{"name":"Biando","type":"beacon_cardinal"},"children":{"beacon_cardinal":{"category":"west","colour":"yellow;black;yellow","colour_pattern":"horizontal"},"light":{"character":"Q","colour":"white","group":"9","height":"15","period":"15","range":"7","reference":"M 4206.78"},"topmark":{"colour":"black","shape":"2 cones point together"}},"osm_tags":{"ref":"3152.21","seamark:beacon_cardinal:category":"west","seamark:beacon_cardinal:colour":"yellow;black;yellow","seamark:beacon_cardinal:colour_pattern":"horizontal","seamark:light:character":"Q","seamark:light:colour":"white","seamark:light:group":"9","seamark:light:height":"15","seamark:light:period":"15","seamark:light:range":"7","seamark:light:reference":"M 4206.78","seamark:name":"Biando","seamark:topmark:colour":"black","seamark:topmark:shape":"2 cones point together","seamark:type":"beacon_cardinal"}}},{"type":"Feature","geometry":{"type":"Point","coordinates":[126.5112778,35.6961111]},"properties":{"osm_id":13747991594,"osm_type":"node","seamark_type":"beacon_isolated_danger","display_class":"BEACON","min_zoom":9,"importance":4,"name":"Buan","ref":null,"common":{"name":"Buan","type":"beacon_isolated_danger"},"children":{"beacon_isolated_danger":{"colour":"black;red;black","colour_pattern":"horizontal"},"light":{"character":"Fl","colour":"white","group":"2","height":"12","period":"10","range":"7","reference":"M 4206.3825"}},"osm_tags":{"seamark:beacon_isolated_danger:colour":"black;red;black","seamark:beacon_isolated_danger:colour_pattern":"horizontal","seamark:light:character":"Fl","seamark:light:colour":"white","seamark:light:group":"2","seamark:light:height":"12","seamark:light:period":"10","seamark:light:range":"7","seamark:light:reference":"M 4206.3825","seamark:name":"Buan","seamark:type":"beacon_isolated_danger"}}},{"type":"Feature","geometry":{"type":"Point","coordinates":[126.6525833,35.9845833]},"properties":{"osm_id":13921804134,"osm_type":"node","seamark_type":"beacon_cardinal","display_class":"BEACON","min_zoom":9,"importance":4,"name":"Geumrando","ref":"3207.1","common":{"name":"Geumrando","type":"beacon_cardinal"},"children":{"beacon_cardinal":{"category":"north","colour":"black;yellow","colour_pattern":"horizontal","shape":"tower"},"light":{"character":"Q","colour":"white","height":"9.1","range":"8","reference":"M 4198.3"},"topmark":{"colour":"black","shape":"2 cones up"}},"osm_tags":{"ref":"3207.1","seamark:beacon_cardinal:category":"north","seamark:beacon_cardinal:colour":"black;yellow","seamark:beacon_cardinal:colour_pattern":"horizontal","seamark:beacon_cardinal:shape":"tower","seamark:light:character":"Q","seamark:light:colour":"white","seamark:light:height":"9.1","seamark:light:range":"8","seamark:light:reference":"M 4198.3","seamark:name":"Geumrando","seamark:topmark:colour":"black","seamark:topmark:shape":"2 cones up","seamark:type":"beacon_cardinal"}}},{"type":"Feature","geometry":{"type":"Point","coordinates":[126.3520556,35.6100833]},"properties":{"osm_id":13924673704,"osm_type":"node","seamark_type":"beacon_isolated_danger","display_class":"BEACON","min_zoom":9,"importance":4,"name":"Heukseo","ref":"3150.1","common":{"name":"Heukseo","type":"beacon_isolated_danger"},"children":{"beacon_isolated_danger":{"colour":"black;red;black","colour_pattern":"horizontal"},"light":{"character":"Fl","colour":"white","group":"2","height":"16","period":"10","range":"10","reference":"M 4207.25"},"topmark":{"colour":"black","shape":"2 spheres"}},"osm_tags":{"ref":"3150.1","seamark:beacon_isolated_danger:colour":"black;red;black","seamark:beacon_isolated_danger:colour_pattern":"horizontal","seamark:light:character":"Fl","seamark:light:colour":"white","seamark:light:group":"2","seamark:light:height":"16","seamark:light:period":"10","seamark:light:range":"10","seamark:light:reference":"M 4207.25","seamark:name":"Heukseo","seamark:topmark:colour":"black","seamark:topmark:shape":"2 spheres","seamark:type":"beacon_isolated_danger"}}},{"type":"Feature","geometry":{"type":"Point","coordinates":[126.0253611,35.0760278]},"properties":{"osm_id":13834690491,"osm_type":"node","seamark_type":"beacon_cardinal","display_class":"BEACON","min_zoom":9,"importance":4,"name":"Jaewondo","ref":null,"common":{"name":"Jaewondo","type":"beacon_cardinal"},"children":{"beacon_cardinal":{"category":"south","colour":"yellow;black","colour_pattern":"horizontal","shape":"tower"},"light":{"character":"Q+LFl","colour":"white","group":"6","height":"10","period":"15","range":"7","reference":"M 4209.95"},"topmark":{"colour":"black","shape":"2 cones down"}},"osm_tags":{"seamark:beacon_cardinal:category":"south","seamark:beacon_cardinal:colour":"yellow;black","seamark:beacon_cardinal:colour_pattern":"horizontal","seamark:beacon_cardinal:shape":"tower","seamark:light:character":"Q+LFl","seamark:light:colour":"white","seamark:light:group":"6","seamark:light:height":"10","seamark:light:period":"15","seamark:light:range":"7","seamark:light:reference":"M 4209.95","seamark:name":"Jaewondo","seamark:topmark:colour":"black","seamark:topmark:shape":"2 cones down","seamark:type":"beacon_cardinal"}}},{"type":"Feature","geometry":{"type":"Point","coordinates":[126.3976389,35.5831389]},"properties":{"osm_id":13930137835,"osm_type":"node","seamark_type":"beacon_isolated_danger","display_class":"BEACON","min_zoom":9,"importance":4,"name":"Jangeunseo","ref":"3150","common":{"name":"Jangeunseo","type":"beacon_isolated_danger"},"children":{"beacon_isolated_danger":{"colour":"black;red;black","colour_pattern":"horizontal","shape":"tower"},"light":{"character":"Fl","colour":"white","group":"2","height":"15","period":"10","range":"10","reference":"M 4207.4"},"topmark":{"colour":"black","shape":"2 spheres"}},"osm_tags":{"ref":"3150","seamark:beacon_isolated_danger:colour":"black;red;black","seamark:beacon_isolated_danger:colour_pattern":"horizontal","seamark:beacon_isolated_danger:shape":"tower","seamark:light:character":"Fl","seamark:light:colour":"white","seamark:light:group":"2","seamark:light:height":"15","seamark:light:period":"10","seamark:light:range":"10","seamark:light:reference":"M 4207.4","seamark:name":"Jangeunseo","seamark:topmark:colour":"black","seamark:topmark:shape":"2 spheres","seamark:type":"beacon_isolated_danger"}}},{"type":"Feature","geometry":{"type":"Point","coordinates":[126.2881111,35.6176944]},"properties":{"osm_id":13893217144,"osm_type":"node","seamark_type":"beacon_cardinal","display_class":"BEACON","min_zoom":9,"importance":4,"name":"Jeonggeumyeo","ref":null,"common":{"name":"Jeonggeumyeo","type":"beacon_cardinal"},"children":{"beacon_cardinal":{"category":"west","colour":"yellow;black;yellow","colour_pattern":"horizontal","shape":"tower"},"light":{"character":"Q","colour":"white","group":"9","height":"13","period":"15","range":"7","reference":"M 4206.745"},"topmark":{"colour":"black","shape":"2 cones point together"}},"osm_tags":{"seamark:beacon_cardinal:category":"west","seamark:beacon_cardinal:colour":"yellow;black;yellow","seamark:beacon_cardinal:colour_pattern":"horizontal","seamark:beacon_cardinal:shape":"tower","seamark:light:character":"Q","seamark:light:colour":"white","seamark:light:group":"9","seamark:light:height":"13","seamark:light:period":"15","seamark:light:range":"7","seamark:light:reference":"M 4206.745","seamark:name":"Jeonggeumyeo","seamark:topmark:colour":"black","seamark:topmark:shape":"2 cones point together","seamark:type":"beacon_cardinal"}}},{"type":"Feature","geometry":{"type":"Point","coordinates":[126.27075,35.6275]},"properties":{"osm_id":13925225220,"osm_type":"node","seamark_type":"beacon_cardinal","display_class":"BEACON","min_zoom":9,"importance":4,"name":"Jungyongyeo","ref":"3150.3","common":{"name":"Jungyongyeo","type":"beacon_cardinal"},"children":{"beacon_cardinal":{"colour":"yellow;black;yellow","colour_pattern":"horizontal"},"light":{"character":"Q","colour":"white","group":"9","height":"16","period":"15","range":"7","reference":"M 4206.71"},"topmark":{"colour":"black","shape":"2 cones point together"}},"osm_tags":{"ref":"3150.3","seamark:beacon_cardinal:colour":"yellow;black;yellow","seamark:beacon_cardinal:colour_pattern":"horizontal","seamark:light:character":"Q","seamark:light:colour":"white","seamark:light:group":"9","seamark:light:height":"16","seamark:light:period":"15","seamark:light:range":"7","seamark:light:reference":"M 4206.71","seamark:name":"Jungyongyeo","seamark:topmark:colour":"black","seamark:topmark:shape":"2 cones point together","seamark:type":"beacon_cardinal"}}},{"type":"Feature","geometry":{"type":"Point","coordinates":[126.2511667,35.5979444]},"properties":{"osm_id":13924673705,"osm_type":"node","seamark_type":"beacon_cardinal","display_class":"BEACON","min_zoom":9,"importance":4,"name":"Moyeo","ref":"3149.1","common":{"name":"Moyeo","type":"beacon_cardinal"},"children":{"beacon_cardinal":{"category":"west","colour":"yellow;black;yellow","colour_pattern":"horizontal"},"light":{"character":"Q","colour":"white","group":"9","height":"16","period":"15","range":"7","reference":"M 4207.22"},"topmark":{"colour":"black","shape":"2 cones point together"}},"osm_tags":{"ref":"3149.1","seamark:beacon_cardinal:category":"west","seamark:beacon_cardinal:colour":"yellow;black;yellow","seamark:beacon_cardinal:colour_pattern":"horizontal","seamark:light:character":"Q","seamark:light:colour":"white","seamark:light:group":"9","seamark:light:height":"16","seamark:light:period":"15","seamark:light:range":"7","seamark:light:reference":"M 4207.22","seamark:name":"Moyeo","seamark:topmark:colour":"black","seamark:topmark:shape":"2 cones point together","seamark:type":"beacon_cardinal"}}},{"type":"Feature","geometry":{"type":"Point","coordinates":[126.4416944,35.8016667]},"properties":{"osm_id":10936264620,"osm_type":"node","seamark_type":"beacon_isolated_danger","display_class":"BEACON","min_zoom":9,"importance":4,"name":"Munyeodo","ref":null,"common":{"name":"Munyeodo","type":"beacon_isolated_danger"},"children":{"beacon_isolated_danger":{"colour":"black;red;black","colour_pattern":"horizontal","shape":"tower"},"light":{"character":"Fl","colour":"white","group":"2","height":"16","period":"5","range":"10","reference":"M 4206.366"},"topmark":{"colour":"black","shape":"2 spheres"}},"osm_tags":{"seamark:beacon_isolated_danger:colour":"black;red;black","seamark:beacon_isolated_danger:colour_pattern":"horizontal","seamark:beacon_isolated_danger:shape":"tower","seamark:light:character":"Fl","seamark:light:colour":"white","seamark:light:group":"2","seamark:light:height":"16","seamark:light:period":"5","seamark:light:range":"10","seamark:light:reference":"M 4206.366","seamark:name":"Munyeodo","seamark:topmark:colour":"black","seamark:topmark:shape":"2 spheres","seamark:type":"beacon_isolated_danger"}}},{"type":"Feature","geometry":{"type":"Point","coordinates":[126.4448611,35.8017778]},"properties":{"osm_id":13505820163,"osm_type":"node","seamark_type":"beacon_isolated_danger","display_class":"BEACON","min_zoom":9,"importance":4,"name":"Munyeodo","ref":null,"common":{"name":"Munyeodo","type":"beacon_isolated_danger"},"children":{"beacon_isolated_danger":{"colour":"black;red;black","colour_pattern":"horizontal"},"light":{"character":"Fl","colour":"white","group":"2","height":"16","period":"10","range":"7","reference":"M 4206.3664"},"topmark":{"colour":"black","shape":"2 spheres"}},"osm_tags":{"seamark:beacon_isolated_danger:colour":"black;red;black","seamark:beacon_isolated_danger:colour_pattern":"horizontal","seamark:light:character":"Fl","seamark:light:colour":"white","seamark:light:group":"2","seamark:light:height":"16","seamark:light:period":"10","seamark:light:range":"7","seamark:light:reference":"M 4206.3664","seamark:name":"Munyeodo","seamark:topmark:colour":"black","seamark:topmark:shape":"2 spheres","seamark:type":"beacon_isolated_danger"}}},{"type":"Feature","geometry":{"type":"Point","coordinates":[126.514,35.9878611]},"properties":{"osm_id":13921814311,"osm_type":"node","seamark_type":"beacon_isolated_danger","display_class":"BEACON","min_zoom":9,"importance":4,"name":"Myeongam","ref":"3170.8","common":{"name":"Myeongam","type":"beacon_isolated_danger"},"children":{"beacon_isolated_danger":{"colour":"black;red;black","colour_pattern":"horizontal","shape":"tower"},"light":{"character":"Fl","colour":"white","group":"2","height":"19","period":"10","range":"8","reference":"M 4193.38"},"topmark":{"colour":"black","shape":"2 spheres"}},"osm_tags":{"ref":"3170.8","seamark:beacon_isolated_danger:colour":"black;red;black","seamark:beacon_isolated_danger:colour_pattern":"horizontal","seamark:beacon_isolated_danger:shape":"tower","seamark:light:character":"Fl","seamark:light:colour":"white","seamark:light:group":"2","seamark:light:height":"19","seamark:light:period":"10","seamark:light:range":"8","seamark:light:reference":"M 4193.38","seamark:name":"Myeongam","seamark:topmark:colour":"black","seamark:topmark:shape":"2 spheres","seamark:type":"beacon_isolated_danger"}}},{"type":"Feature","geometry":{"type":"Point","coordinates":[126.2427778,35.5867222]},"properties":{"osm_id":13925225223,"osm_type":"node","seamark_type":"beacon_isolated_danger","display_class":"BEACON","min_zoom":9,"importance":4,"name":"Oejodo","ref":"3149.2","common":{"name":"Oejodo","type":"beacon_isolated_danger"},"children":{"beacon_isolated_danger":{"colour":"black;red;black","colour_pattern":"horizontal"},"light":{"character":"Fl","colour":"white","group":"2","height":"15","period":"10","range":"7","reference":"M 4207.21"},"topmark":{"colour":"black","shape":"2 spheres"}},"osm_tags":{"ref":"3149.2","seamark:beacon_isolated_danger:colour":"black;red;black","seamark:beacon_isolated_danger:colour_pattern":"horizontal","seamark:light:character":"Fl","seamark:light:colour":"white","seamark:light:group":"2","seamark:light:height":"15","seamark:light:period":"10","seamark:light:range":"7","seamark:light:reference":"M 4207.21","seamark:name":"Oejodo","seamark:topmark:colour":"black","seamark:topmark:shape":"2 spheres","seamark:type":"beacon_isolated_danger"}}},{"type":"Feature","geometry":{"type":"Point","coordinates":[126.0818333,35.3923333]},"properties":{"osm_id":13924538434,"osm_type":"node","seamark_type":"beacon_isolated_danger","display_class":"BEACON","min_zoom":9,"importance":4,"name":"Sougakseo","ref":"3139.5","common":{"name":"Sougakseo","type":"beacon_isolated_danger"},"children":{"beacon_isolated_danger":{"colour":"black;red;black","colour_pattern":"horizontal","shape":"tower"},"light":{"character":"Fl","colour":"white","group":"2","height":"14","period":"10","range":"10","reference":"M 4209.15"},"topmark":{"colour":"black","shape":"2 spheres"}},"osm_tags":{"ref":"3139.5","seamark:beacon_isolated_danger:colour":"black;red;black","seamark:beacon_isolated_danger:colour_pattern":"horizontal","seamark:beacon_isolated_danger:shape":"tower","seamark:light:character":"Fl","seamark:light:colour":"white","seamark:light:group":"2","seamark:light:height":"14","seamark:light:period":"10","seamark:light:range":"10","seamark:light:reference":"M 4209.15","seamark:name":"Sougakseo","seamark:topmark:colour":"black","seamark:topmark:shape":"2 spheres","seamark:type":"beacon_isolated_danger"}}},{"type":"Feature","geometry":{"type":"Point","coordinates":[126.1290556,35.0823333]},"properties":{"osm_id":13834690492,"osm_type":"node","seamark_type":"beacon_lateral","display_class":"BEACON","min_zoom":9,"importance":4,"name":"Sudo","ref":"3138.21","common":{"name":"Sudo","type":"beacon_lateral"},"children":{"beacon_lateral":{"category":"port","colour":"green","shape":"tower","system":"iala-b"},"light":{"character":"Fl","colour":"green","height":"12","period":"5","range":"7","reference":"M 4210.37"},"topmark":{"colour":"green","shape":"cylinder"}},"osm_tags":{"ref":"3138.21","seamark:beacon_lateral:category":"port","seamark:beacon_lateral:colour":"green","seamark:beacon_lateral:shape":"tower","seamark:beacon_lateral:system":"iala-b","seamark:light:character":"Fl","seamark:light:colour":"green","seamark:light:height":"12","seamark:light:period":"5","seamark:light:range":"7","seamark:light:reference":"M 4210.37","seamark:name":"Sudo","seamark:topmark:colour":"green","seamark:topmark:shape":"cylinder","seamark:type":"beacon_lateral"}}},{"type":"Feature","geometry":{"type":"Point","coordinates":[126.4887778,35.5871944]},"properties":{"osm_id":13832911749,"osm_type":"node","seamark_type":"beacon_cardinal","display_class":"BEACON","min_zoom":9,"importance":4,"name":"Yeongseon","ref":null,"common":{"name":"Yeongseon","type":"beacon_cardinal"},"children":{"beacon_cardinal":{"category":"west","colour":"yellow;black;yellow","colour_pattern":"horizontal","shape":"tower"},"light":{"character":"Q","colour":"white","group":"9","height":"12","period":"15","range":"7","reference":"M 4207.54"},"topmark":{"colour":"black","shape":"2 cones point together"}},"osm_tags":{"seamark:beacon_cardinal:category":"west","seamark:beacon_cardinal:colour":"yellow;black;yellow","seamark:beacon_cardinal:colour_pattern":"horizontal","seamark:beacon_cardinal:shape":"tower","seamark:light:character":"Q","seamark:light:colour":"white","seamark:light:group":"9","seamark:light:height":"12","seamark:light:period":"15","seamark:light:range":"7","seamark:light:reference":"M 4207.54","seamark:name":"Yeongseon","seamark:topmark:colour":"black","seamark:topmark:shape":"2 cones point together","seamark:type":"beacon_cardinal"}}},{"type":"Feature","geometry":{"type":"Point","coordinates":[126.0081518,35.3447627]},"properties":{"osm_id":1271044400,"osm_type":"node","seamark_type":"light_minor","display_class":"OTHER","min_zoom":12,"importance":1,"name":null,"ref":null,"common":{"type":"light_minor"},"children":{"light":{"character":"Fl","colour":"green","height":"16","period":"5","range":"5"}},"osm_tags":{"seamark:light:character":"Fl","seamark:light:colour":"green","seamark:light:height":"16","seamark:light:period":"5","seamark:light:range":"5","seamark:type":"light_minor","source":"US NGA Pub. 112. 2009-11-12."}}},{"type":"Feature","geometry":{"type":"Point","coordinates":[126.3165556,35.8537778]},"properties":{"osm_id":6340301560,"osm_type":"node","seamark_type":"light_minor","display_class":"OTHER","min_zoom":12,"importance":1,"name":null,"ref":"3164","common":{"type":"light_minor"},"children":{"light":{"character":"Fl","colour":"green","height":"18","period":"5","range":"9","reference":"M 4206.1"}},"osm_tags":{"man_made":"lighthouse","ref":"3164","seamark:light:character":"Fl","seamark:light:colour":"green","seamark:light:height":"18","seamark:light:period":"5","seamark:light:range":"9","seamark:light:reference":"M 4206.1","seamark:type":"light_minor"}}},{"type":"Feature","geometry":{"type":"Point","coordinates":[126.7415524,35.98748]},"properties":{"osm_id":8465334197,"osm_type":"node","seamark_type":"gate","display_class":"OTHER","min_zoom":12,"importance":1,"name":null,"ref":null,"common":{"type":"gate"},"children":{},"osm_tags":{"seamark:type":"gate","waterway":"lock_gate"}}},{"type":"Feature","geometry":{"type":"Point","coordinates":[126.5253805,35.7316295]},"properties":{"osm_id":10979281175,"osm_type":"node","seamark_type":"gate","display_class":"OTHER","min_zoom":12,"importance":1,"name":null,"ref":null,"common":{"type":"gate"},"children":{},"osm_tags":{"seamark:type":"gate","waterway":"lock_gate"}}},{"type":"Feature","geometry":{"type":"Point","coordinates":[126.5250403,35.7312576]},"properties":{"osm_id":10979281176,"osm_type":"node","seamark_type":"gate","display_class":"OTHER","min_zoom":12,"importance":1,"name":null,"ref":null,"common":{"type":"gate"},"children":{},"osm_tags":{"seamark:type":"gate","waterway":"lock_gate"}}},{"type":"Feature","geometry":{"type":"Point","coordinates":[126.3706667,35.15675]},"properties":{"osm_id":13747936737,"osm_type":"node","seamark_type":"light_minor","display_class":"OTHER","min_zoom":12,"importance":1,"name":null,"ref":null,"common":{"type":"light_minor"},"children":{"light":{"character":"Fl","colour":"yellow","group":"4","height":"8.7","period":"8","range":"7","reference":"M 4209.68"}},"osm_tags":{"seamark:light:character":"Fl","seamark:light:colour":"yellow","seamark:light:group":"4","seamark:light:height":"8.7","seamark:light:period":"8","seamark:light:range":"7","seamark:light:reference":"M 4209.68","seamark:type":"light_minor"}}},{"type":"Feature","geometry":{"type":"Point","coordinates":[126.3712778,35.15675]},"properties":{"osm_id":13747936738,"osm_type":"node","seamark_type":"light_minor","display_class":"OTHER","min_zoom":12,"importance":1,"name":null,"ref":null,"common":{"type":"light_minor"},"children":{"light":{"character":"Fl","colour":"yellow","group":"4","height":"8.7","period":"8","range":"7","reference":"M 4209.65"}},"osm_tags":{"seamark:light:character":"Fl","seamark:light:colour":"yellow","seamark:light:group":"4","seamark:light:height":"8.7","seamark:light:period":"8","seamark:light:range":"7","seamark:light:reference":"M 4209.65","seamark:type":"light_minor"}}},{"type":"Feature","geometry":{"type":"Point","coordinates":[126.4030755,35.3902718]},"properties":{"osm_id":13807979886,"osm_type":"node","seamark_type":"light_minor","display_class":"OTHER","min_zoom":12,"importance":1,"name":null,"ref":null,"common":{"type":"light_minor"},"children":{"light":{"character":"Fl","colour":"green","height":"11","period":"5","range":"9","reference":"M 4208.21"}},"osm_tags":{"seamark:light:character":"Fl","seamark:light:colour":"green","seamark:light:height":"11","seamark:light:period":"5","seamark:light:range":"9","seamark:light:reference":"M 4208.21","seamark:type":"light_minor"}}},{"type":"Feature","geometry":{"type":"Point","coordinates":[126.4015556,35.8111389]},"properties":{"osm_id":13830153394,"osm_type":"node","seamark_type":"light_minor","display_class":"OTHER","min_zoom":12,"importance":1,"name":null,"ref":null,"common":{"type":"light_minor"},"children":{"light":{"character":"F","colour":"white","height":"10","range":"7"}},"osm_tags":{"seamark:light:character":"F","seamark:light:colour":"white","seamark:light:height":"10","seamark:light:range":"7","seamark:type":"light_minor"}}},{"type":"Feature","geometry":{"type":"Point","coordinates":[126.3173333,35.8543333]},"properties":{"osm_id":14021720136,"osm_type":"node","seamark_type":"light_minor","display_class":"OTHER","min_zoom":12,"importance":1,"name":null,"ref":"3165","common":{"type":"light_minor"},"children":{"light":{"character":"Fl","colour":"red","height":"18","period":"5","range":"9","reference":"M 4206.15"}},"osm_tags":{"ref":"3165","seamark:light:character":"Fl","seamark:light:colour":"red","seamark:light:height":"18","seamark:light:period":"5","seamark:light:range":"9","seamark:light:reference":"M 4206.15","seamark:type":"light_minor"}}},{"type":"Feature","geometry":{"type":"LineString","coordinates":[[126.4777147,35.8158238],[126.4777411,35.8157464],[126.4778225,35.8157063]]},"properties":{"osm_id":908053717,"osm_type":"way","seamark_type":"gate","display_class":"OTHER","min_zoom":12,"importance":1,"name":null,"ref":null,"common":{"type":"gate"},"children":{},"osm_tags":{"seamark:type":"gate","waterway":"lock_gate"}}},{"type":"Feature","geometry":{"type":"LineString","coordinates":[[126.4777657,35.8158648],[126.4778455,35.8158282],[126.4778753,35.8157509]]},"properties":{"osm_id":908053718,"osm_type":"way","seamark_type":"gate","display_class":"OTHER","min_zoom":12,"importance":1,"name":null,"ref":null,"common":{"type":"gate"},"children":{},"osm_tags":{"seamark:type":"gate","waterway":"lock_gate"}}},{"type":"Feature","geometry":{"type":"LineString","coordinates":[[126.4782836,35.816304],[126.4783251,35.8162157],[126.4784202,35.8161742]]},"properties":{"osm_id":908053719,"osm_type":"way","seamark_type":"gate","display_class":"OTHER","min_zoom":12,"importance":1,"name":null,"ref":null,"common":{"type":"gate"},"children":{},"osm_tags":{"seamark:type":"gate","waterway":"lock_gate"}}},{"type":"Feature","geometry":{"type":"LineString","coordinates":[[126.4783395,35.8163473],[126.4784312,35.8163061],[126.4784618,35.8162111]]},"properties":{"osm_id":972076683,"osm_type":"way","seamark_type":"gate","display_class":"OTHER","min_zoom":12,"importance":1,"name":null,"ref":null,"common":{"type":"gate"},"children":{},"osm_tags":{"seamark:type":"gate","waterway":"lock_gate"}}},{"type":"Feature","geometry":{"type":"LineString","coordinates":[[126.5243684,35.7322516],[126.5253805,35.7316295],[126.5266736,35.7308348]]},"properties":{"osm_id":1182303139,"osm_type":"way","seamark_type":"gate","display_class":"OTHER","min_zoom":12,"importance":1,"name":null,"ref":null,"common":{"type":"gate"},"children":{},"osm_tags":{"seamark:type":"gate","waterway":"lock_gate"}}},{"type":"Feature","geometry":{"type":"LineString","coordinates":[[126.5240299,35.7318846],[126.5250403,35.7312576],[126.5263124,35.7304681]]},"properties":{"osm_id":1182303140,"osm_type":"way","seamark_type":"gate","display_class":"OTHER","min_zoom":12,"importance":1,"name":null,"ref":null,"common":{"type":"gate"},"children":{},"osm_tags":{"seamark:type":"gate","waterway":"lock_gate"}}},{"type":"Feature","geometry":{"type":"LineString","coordinates":[[126.5235607,35.731545],[126.5235385,35.7315683]]},"properties":{"osm_id":1182303141,"osm_type":"way","seamark_type":"gate","display_class":"OTHER","min_zoom":12,"importance":1,"name":null,"ref":null,"common":{"type":"gate"},"children":{},"osm_tags":{"seamark:type":"gate","waterway":"lock_gate"}}},{"type":"Feature","geometry":{"type":"LineString","coordinates":[[126.5235796,35.7316126],[126.5236162,35.7316055]]},"properties":{"osm_id":1182303142,"osm_type":"way","seamark_type":"gate","display_class":"OTHER","min_zoom":12,"importance":1,"name":null,"ref":null,"common":{"type":"gate"},"children":{},"osm_tags":{"seamark:type":"gate","waterway":"lock_gate"}}},{"type":"Feature","geometry":{"type":"LineString","coordinates":[[126.5238069,35.7318579],[126.5238262,35.7318345]]},"properties":{"osm_id":1182303145,"osm_type":"way","seamark_type":"gate","display_class":"OTHER","min_zoom":12,"importance":1,"name":null,"ref":null,"common":{"type":"gate"},"children":{},"osm_tags":{"seamark:type":"gate","waterway":"lock_gate"}}},{"type":"Feature","geometry":{"type":"LineString","coordinates":[[126.5238427,35.7318966],[126.5238822,35.7318909]]},"properties":{"osm_id":1182303146,"osm_type":"way","seamark_type":"gate","display_class":"OTHER","min_zoom":12,"importance":1,"name":null,"ref":null,"common":{"type":"gate"},"children":{},"osm_tags":{"seamark:type":"gate","waterway":"lock_gate"}}},{"type":"Feature","geometry":{"type":"Polygon","coordinates":[[[126.1917421,35.1321095],[126.1917316,35.1321257],[126.1917074,35.1321358],[126.1916747,35.1321373],[126.1916116,35.1321292],[126.1915111,35.1320986],[126.1913228,35.1320113],[126.191228,35.1319594],[126.1912399,35.1319431],[126.191229,35.1319369],[126.1912166,35.1319508],[126.1910516,35.1318837],[126.1909848,35.1318682],[126.1909118,35.1318651],[126.1908463,35.1318706],[126.1907306,35.1318896],[126.1904442,35.1319559],[126.1902987,35.1319962],[126.190246,35.1320067],[126.1901792,35.1320098],[126.1901398,35.1320067],[126.1900976,35.1319981],[126.1900147,35.1319756],[126.1898838,35.1319295],[126.1898406,35.1319159],[126.1896832,35.1318682],[126.1895372,35.1318333],[126.1893409,35.1317903],[126.1891517,35.1317507],[126.1890327,35.1317197],[126.1889568,35.1316899],[126.1888435,35.1316367],[126.1887937,35.1316142],[126.1887653,35.1316034],[126.1887325,35.1315852],[126.1887188,35.1315689],[126.188706,35.1315499],[126.1886993,35.131536],[126.1887315,35.1313435],[126.1881565,35.1312608],[126.1881432,35.1312458],[126.1884604,35.1312908],[126.1887676,35.1313358],[126.1887288,35.1315173],[126.1887354,35.1315468],[126.1887515,35.1315662],[126.1889516,35.1316546],[126.189109,35.131705],[126.1892304,35.1317298],[126.1895727,35.1318097],[126.1898326,35.1318803],[126.1900763,35.1319555],[126.1901484,35.1319725],[126.1902385,35.1319772],[126.1903143,35.1319656],[126.1904025,35.1319361],[126.1905931,35.1318888],[126.1907505,35.131857],[126.1908539,35.1318438],[126.1909374,35.1318407],[126.1910151,35.1318469],[126.1910787,35.1318632],[126.1911792,35.1319058],[126.1914741,35.1320532],[126.1915305,35.1320738],[126.1916344,35.1321021],[126.1916979,35.1321141],[126.1917421,35.1321095]]]},"properties":{"osm_id":1538439857,"osm_type":"way","seamark_type":"shoreline_construction","display_class":"OTHER","min_zoom":12,"importance":1,"name":null,"ref":null,"common":{"type":"shoreline_construction"},"children":{"shoreline_construction":{"category":"rip_rap"}},"osm_tags":{"seamark:shoreline_construction:category":"rip_rap","seamark:type":"shoreline_construction"}}},{"type":"Feature","geometry":{"type":"Polygon","coordinates":[[[126.1848739,35.1308713],[126.1847075,35.130829],[126.1847435,35.1308619],[126.1849388,35.1309141],[126.1850455,35.1309542],[126.1851642,35.1310156],[126.1852507,35.131077],[126.1852781,35.1311066],[126.185307,35.1311434],[126.1853217,35.1311801],[126.1853237,35.1312432],[126.1853345,35.1312903],[126.1853566,35.1313359],[126.1853821,35.1313655],[126.1854344,35.1314033],[126.1855316,35.1314571],[126.1856067,35.1314828],[126.1856651,35.1314911],[126.1857703,35.1314949],[126.1860365,35.1314949],[126.1865247,35.1315064],[126.1868814,35.1315168],[126.18709,35.1315092],[126.1871228,35.1315092],[126.1871208,35.1314934],[126.1870759,35.1314956],[126.1868966,35.1314987],[126.1865429,35.131487],[126.1861171,35.1314762],[126.1857425,35.1314746],[126.1856468,35.1314708],[126.1855756,35.131456],[126.1854476,35.1313955],[126.1853831,35.1313312],[126.1853566,35.1312691],[126.1853443,35.1311978],[126.1853177,35.1311132],[126.1852589,35.1310481],[126.1851318,35.1309643],[126.1850095,35.1309155],[126.1848739,35.1308713]]]},"properties":{"osm_id":1538439858,"osm_type":"way","seamark_type":"shoreline_construction","display_class":"OTHER","min_zoom":12,"importance":1,"name":null,"ref":null,"common":{"type":"shoreline_construction"},"children":{"shoreline_construction":{"category":"rip_rap"}},"osm_tags":{"seamark:shoreline_construction:category":"rip_rap","seamark:type":"shoreline_construction"}}},{"type":"Feature","geometry":{"type":"Polygon","coordinates":[[[126.1910717,35.1335181],[126.1910151,35.1335395],[126.1910587,35.1336384],[126.1911109,35.1337671],[126.1912645,35.1341247],[126.191494,35.1346598],[126.1919103,35.1356183],[126.1920459,35.1359153],[126.1920914,35.1359844],[126.1921095,35.1359999],[126.1921607,35.1360216],[126.1921958,35.1360371],[126.1922147,35.1360464],[126.1922337,35.1360666],[126.1922365,35.1360852],[126.1922327,35.1361038],[126.1922299,35.1361247],[126.1922365,35.1361457],[126.1922697,35.1361837],[126.1923437,35.1362667],[126.192411,35.1363147],[126.1926424,35.1364853],[126.1928103,35.1366086],[126.193402,35.1370383],[126.1938363,35.137357],[126.1942118,35.1376269],[126.1942858,35.1376835],[126.1944379,35.137804],[126.1945043,35.1378512],[126.1948382,35.1380908],[126.1952593,35.1383995],[126.19561,35.1386539],[126.1958836,35.1388409],[126.1959654,35.138887],[126.1961085,35.1388824],[126.1964167,35.13887],[126.196723,35.1388646],[126.1968263,35.1388638],[126.1969223,35.1388552],[126.1970162,35.1388409],[126.1971094,35.1388327],[126.1971737,35.1388338],[126.1972676,35.1388409],[126.1973333,35.1388514],[126.197387,35.1388552],[126.1974279,35.138853],[126.1974715,35.1388398],[126.1976465,35.1387707],[126.1978316,35.1386973],[126.1979087,35.1386594],[126.1979395,35.138638],[126.198018,35.13857],[126.1980662,35.1385306],[126.1980954,35.13851],[126.1981233,35.1384932],[126.1981938,35.1384567],[126.1983488,35.1383861],[126.1984479,35.1383407],[126.1984982,35.1383171],[126.198539,35.1383027],[126.1985769,35.1382934],[126.1986139,35.138288],[126.1986641,35.1382857],[126.1987528,35.1382833],[126.1988149,35.1382806],[126.1988225,35.1382519],[126.1988367,35.1382341],[126.1988301,35.1381992],[126.1988197,35.1381666],[126.1988168,35.1381395],[126.1988358,35.13811],[126.1991013,35.1379821],[126.1991582,35.1379441],[126.199327,35.1378463],[126.1993991,35.1377921],[126.1995193,35.1376965],[126.1996508,35.1376132],[126.1996964,35.1375731],[126.1998204,35.1374975],[126.1999699,35.1374311],[126.2000022,35.1373849],[126.1999681,35.1373989],[126.1999235,35.1374152],[126.1997983,35.1374772],[126.199713,35.137523],[126.1996741,35.1375571],[126.1996627,35.1375804],[126.199657,35.1376005],[126.1996418,35.1376083],[126.1995821,35.1376385],[126.1995423,35.1376486],[126.1994882,35.1376726],[126.1994645,35.1377006],[126.1994436,35.1377277],[126.1994133,35.1377455],[126.1993678,35.1377641],[126.1993194,35.1377952],[126.1992682,35.1378308],[126.1992037,35.1378642],[126.199106,35.1379045],[126.1989885,35.1379828],[126.1988386,35.1380635],[126.1988092,35.1380852],[126.1987941,35.1381116],[126.1987912,35.1381465],[126.1987931,35.1381806],[126.1987874,35.1381976],[126.1987466,35.1382178],[126.1987144,35.138224],[126.1986461,35.1382325],[126.1985759,35.1382465],[126.1984849,35.1382705],[126.1982905,35.1383566],[126.1981454,35.138421],[126.1980828,35.1384528],[126.1980174,35.138504],[126.1979387,35.1385691],[126.1978704,35.1386187],[126.1977879,35.1386583],[126.197511,35.1387684],[126.1974527,35.1387938],[126.1974084,35.1388004],[126.197281,35.1387883],[126.1971362,35.1387784],[126.1969981,35.1387938],[126.196817,35.1388124],[126.1963731,35.1388168],[126.1963101,35.138808],[126.1960566,35.1388135],[126.1960083,35.1388069],[126.1958916,35.1387488],[126.1955591,35.1385229],[126.1954826,35.1384757],[126.1946016,35.1378557],[126.1942412,35.1375881],[126.1938012,35.1372639],[126.1933802,35.1369607],[126.1928192,35.1365609],[126.192616,35.1364101],[126.1924839,35.136307],[126.1924142,35.1362395],[126.192388,35.1362417],[126.1923746,35.1362275],[126.1923847,35.1362148],[126.1923035,35.1361386],[126.1922928,35.1361156],[126.1922935,35.1360882],[126.1922935,35.1360147],[126.192265,35.1359502],[126.1922185,35.1359231],[126.1920933,35.1359037],[126.1919492,35.1355927],[126.1917899,35.1352151],[126.1915869,35.1347397],[126.1914504,35.1344085],[126.19131,35.1340712],[126.1911982,35.1338317],[126.1910717,35.1335181]]]},"properties":{"osm_id":1538439871,"osm_type":"way","seamark_type":"shoreline_construction","display_class":"OTHER","min_zoom":12,"importance":1,"name":null,"ref":null,"common":{"type":"shoreline_construction"},"children":{"shoreline_construction":{"category":"rip_rap"}},"osm_tags":{"seamark:shoreline_construction:category":"rip_rap","seamark:type":"shoreline_construction"}}},{"type":"Feature","geometry":{"type":"Point","coordinates":[126.010099,35.3449115]},"properties":{"osm_id":1271044392,"osm_type":"node","seamark_type":"light_minor","display_class":"OTHER","min_zoom":12,"importance":1,"name":"Anma Hang","ref":null,"common":{"name":"Anma Hang","type":"light_minor"},"children":{"light":{"character":"Fl","colour":"red","height":"15","period":"5","range":"5"}},"osm_tags":{"seamark:light:character":"Fl","seamark:light:colour":"red","seamark:light:height":"15","seamark:light:period":"5","seamark:light:range":"5","seamark:name":"Anma Hang","seamark:type":"light_minor","source":"US NGA Pub. 112. 2009-11-12."}}},{"type":"Feature","geometry":{"type":"Point","coordinates":[126.0058611,35.3482778]},"properties":{"osm_id":13807931799,"osm_type":"node","seamark_type":"light_minor","display_class":"OTHER","min_zoom":12,"importance":1,"name":"Anma Hang","ref":"3141","common":{"name":"Anma Hang","type":"light_minor"},"children":{"light":{"character":"Fl","colour":"green","height":"13","period":"5","range":"7","reference":"M 4209.4"}},"osm_tags":{"ref":"3141","seamark:light:character":"Fl","seamark:light:colour":"green","seamark:light:height":"13","seamark:light:period":"5","seamark:light:range":"7","seamark:light:reference":"M 4209.4","seamark:name":"Anma Hang","seamark:type":"light_minor"}}},{"type":"Feature","geometry":{"type":"Point","coordinates":[126.0081389,35.34775]},"properties":{"osm_id":13946551496,"osm_type":"node","seamark_type":"light_minor","display_class":"OTHER","min_zoom":12,"importance":1,"name":"Anma Hang","ref":"3140","common":{"name":"Anma Hang","type":"light_minor"},"children":{"light":{"character":"Fl","colour":"red","height":"13","period":"5","range":"7","reference":"M 4209.2"}},"osm_tags":{"ref":"3140","seamark:light:character":"Fl","seamark:light:colour":"red","seamark:light:height":"13","seamark:light:period":"5","seamark:light:range":"7","seamark:light:reference":"M 4209.2","seamark:name":"Anma Hang","seamark:type":"light_minor"}}},{"type":"Feature","geometry":{"type":"Point","coordinates":[126.4012778,35.8230833]},"properties":{"osm_id":13927900470,"osm_type":"node","seamark_type":"light_minor","display_class":"OTHER","min_zoom":12,"importance":1,"name":"Apyeo","ref":"3163.5","common":{"name":"Apyeo","type":"light_minor"},"children":{"light":{"character":"Fl","colour":"green","height":"19","period":"5","range":"7","reference":"M 4206.335"}},"osm_tags":{"ref":"3163.5","seamark:light:character":"Fl","seamark:light:colour":"green","seamark:light:height":"19","seamark:light:period":"5","seamark:light:range":"7","seamark:light:reference":"M 4206.335","seamark:name":"Apyeo","seamark:type":"light_minor"}}},{"type":"Feature","geometry":{"type":"Point","coordinates":[126.2878889,35.6099722]},"properties":{"osm_id":13925225224,"osm_type":"node","seamark_type":"light_minor","display_class":"OTHER","min_zoom":12,"importance":1,"name":"Beolgeum Hang","ref":"3151.3","common":{"name":"Beolgeum Hang","type":"light_minor"},"children":{"light":{"character":"Fl","colour":"red","height":"11","period":"5","range":"7","reference":"M 4206.74"}},"osm_tags":{"ref":"3151.3","seamark:light:character":"Fl","seamark:light:colour":"red","seamark:light:height":"11","seamark:light:period":"5","seamark:light:range":"7","seamark:light:reference":"M 4206.74","seamark:name":"Beolgeum Hang","seamark:type":"light_minor"}}},{"type":"Feature","geometry":{"type":"Point","coordinates":[126.3522778,35.7404444]},"properties":{"osm_id":13964078050,"osm_type":"node","seamark_type":"buoy_special_purpose","display_class":"OTHER","min_zoom":12,"importance":1,"name":"Biando","ref":"3165.1","common":{"name":"Biando","type":"buoy_special_purpose"},"children":{"buoy_special_purpose":{"category":"odas","colour":"yellow","shape":"spherical"}},"osm_tags":{"ref":"3165.1","seamark:buoy_special_purpose:category":"odas","seamark:buoy_special_purpose:colour":"yellow","seamark:buoy_special_purpose:shape":"spherical","seamark:name":"Biando","seamark:type":"buoy_special_purpose"}}},{"type":"Feature","geometry":{"type":"Point","coordinates":[126.4613333,35.7364167]},"properties":{"osm_id":13830089665,"osm_type":"node","seamark_type":"light_minor","display_class":"OTHER","min_zoom":12,"importance":1,"name":"Biando Hang","ref":null,"common":{"name":"Biando Hang","type":"light_minor"},"children":{"light":{"character":"Fl","colour":"red","height":"15","period":"4","range":"8","reference":"M 4206.81"}},"osm_tags":{"seamark:light:character":"Fl","seamark:light:colour":"red","seamark:light:height":"15","seamark:light:period":"4","seamark:light:range":"8","seamark:light:reference":"M 4206.81","seamark:name":"Biando Hang","seamark:type":"light_minor"}}},{"type":"Feature","geometry":{"type":"Point","coordinates":[126.5282778,35.9334444]},"properties":{"osm_id":10937118857,"osm_type":"node","seamark_type":"light_minor","display_class":"OTHER","min_zoom":12,"importance":1,"name":"Bieung Hang","ref":"3170.1","common":{"name":"Bieung Hang","type":"light_minor"},"children":{"light":{"character":"Fl","colour":"red","height":"19","period":"5","range":"11","reference":"M 4192.52"}},"osm_tags":{"ref":"3170.1","seamark:light:character":"Fl","seamark:light:colour":"red","seamark:light:height":"19","seamark:light:period":"5","seamark:light:range":"11","seamark:light:reference":"M 4192.52","seamark:name":"Bieung Hang","seamark:type":"light_minor"}}},{"type":"Feature","geometry":{"type":"Point","coordinates":[126.527,35.9336111]},"properties":{"osm_id":10937118858,"osm_type":"node","seamark_type":"light_minor","display_class":"OTHER","min_zoom":12,"importance":1,"name":"Bieung Hang","ref":"3170.2","common":{"name":"Bieung Hang","type":"light_minor"},"children":{"light":{"character":"Fl","colour":"green","group":"3","height":"13","period":"7","range":"7","reference":"M 4192.51"}},"osm_tags":{"ref":"3170.2","seamark:light:character":"Fl","seamark:light:colour":"green","seamark:light:group":"3","seamark:light:height":"13","seamark:light:period":"7","seamark:light:range":"7","seamark:light:reference":"M 4192.51","seamark:name":"Bieung Hang","seamark:type":"light_minor"}}},{"type":"Feature","geometry":{"type":"Point","coordinates":[126.5263889,35.9319444]},"properties":{"osm_id":10937118859,"osm_type":"node","seamark_type":"light_minor","display_class":"OTHER","min_zoom":12,"importance":1,"name":"Bieung Hang","ref":"3170.3","common":{"name":"Bieung Hang","type":"light_minor"},"children":{"light":{"character":"Fl","colour":"green","height":"19","period":"5","range":"11","reference":"M 4192.501"},"radio_station":{"category":"ais","mmsi":"004406103"}},"osm_tags":{"ref":"3170.3","seamark:light:character":"Fl","seamark:light:colour":"green","seamark:light:height":"19","seamark:light:period":"5","seamark:light:range":"11","seamark:light:reference":"M 4192.501","seamark:name":"Bieung Hang","seamark:radio_station:category":"ais","seamark:radio_station:mmsi":"004406103","seamark:type":"light_minor"}}},{"type":"Feature","geometry":{"type":"Point","coordinates":[126.1870278,35.1175833]},"properties":{"osm_id":13834784544,"osm_type":"node","seamark_type":"light_minor","display_class":"OTHER","min_zoom":12,"importance":1,"name":"Bongri","ref":null,"common":{"name":"Bongri","type":"light_minor"},"children":{"light":{"1:character":"Fl","1:colour":"white","1:height":"16","1:period":"6","1:range":"7","1:sector_end":"298","1:sector_start":"62","reference":"M 4210.35"}},"osm_tags":{"seamark:light:1:character":"Fl","seamark:light:1:colour":"white","seamark:light:1:height":"16","seamark:light:1:period":"6","seamark:light:1:range":"7","seamark:light:1:sector_end":"298","seamark:light:1:sector_start":"62","seamark:light:reference":"M 4210.35","seamark:name":"Bongri","seamark:type":"light_minor"}}},{"type":"Feature","geometry":{"type":"Point","coordinates":[126.285,35.62075]},"properties":{"osm_id":13806116623,"osm_type":"node","seamark_type":"light_minor","display_class":"OTHER","min_zoom":12,"importance":1,"name":"Buan","ref":null,"common":{"name":"Buan","type":"light_minor"},"children":{"light":{"character":"Fl","colour":"green","group":"2","height":"13","period":"6","range":"7","reference":"M 4206.76"}},"osm_tags":{"seamark:light:character":"Fl","seamark:light:colour":"green","seamark:light:group":"2","seamark:light:height":"13","seamark:light:period":"6","seamark:light:range":"7","seamark:light:reference":"M 4206.76","seamark:name":"Buan","seamark:type":"light_minor"}}},{"type":"Feature","geometry":{"type":"Point","coordinates":[126.2812222,35.6206944]},"properties":{"osm_id":13925225221,"osm_type":"node","seamark_type":"light_minor","display_class":"OTHER","min_zoom":12,"importance":1,"name":"Buan","ref":"3154.5","common":{"name":"Buan","type":"light_minor"},"children":{"light":{"character":"Fl","colour":"green","height":"16","period":"4","range":"7","reference":"M 4206.75"}},"osm_tags":{"ref":"3154.5","seamark:light:character":"Fl","seamark:light:colour":"green","seamark:light:height":"16","seamark:light:period":"4","seamark:light:range":"7","seamark:light:reference":"M 4206.75","seamark:name":"Buan","seamark:type":"light_minor"}}},{"type":"Feature","geometry":{"type":"Point","coordinates":[126.3543611,35.1636389]},"properties":{"osm_id":13946513745,"osm_type":"node","seamark_type":"light_minor","display_class":"OTHER","min_zoom":12,"importance":1,"name":"C1","ref":"3134.17","common":{"name":"C1","type":"light_minor"},"children":{"light":{"character":"Iso","colour":"white","height":"33","period":"4","range":"7"}},"osm_tags":{"ref":"3134.17","seamark:light:character":"Iso","seamark:light:colour":"white","seamark:light:height":"33","seamark:light:period":"4","seamark:light:range":"7","seamark:name":"C1","seamark:type":"light_minor"}}},{"type":"Feature","geometry":{"type":"Point","coordinates":[126.4861389,35.5223889]},"properties":{"osm_id":13437608167,"osm_type":"node","seamark_type":"light_minor","display_class":"OTHER","min_zoom":12,"importance":1,"name":"Dongho Hang","ref":null,"common":{"name":"Dongho Hang","type":"light_minor"},"children":{"light":{"character":"Fl","colour":"red","height":"12","period":"5","range":"7","reference":"M 4207.96"}},"osm_tags":{"man_made":"lighthouse","seamark:light:character":"Fl","seamark:light:colour":"red","seamark:light:height":"12","seamark:light:period":"5","seamark:light:range":"7","seamark:light:reference":"M 4207.96","seamark:name":"Dongho Hang","seamark:type":"light_minor"}}},{"type":"Feature","geometry":{"type":"Point","coordinates":[126.7009167,35.9953333]},"properties":{"osm_id":13893212072,"osm_type":"node","seamark_type":"light_minor","display_class":"OTHER","min_zoom":12,"importance":1,"name":"Geumrando","ref":null,"common":{"name":"Geumrando","type":"light_minor"},"children":{"light":{"character":"Fl","colour":"red","height":"31","period":"4","range":"7","reference":"M 4202"}},"osm_tags":{"seamark:light:character":"Fl","seamark:light:colour":"red","seamark:light:height":"31","seamark:light:period":"4","seamark:light:range":"7","seamark:light:reference":"M 4202","seamark:name":"Geumrando","seamark:type":"light_minor"}}},{"type":"Feature","geometry":{"type":"Point","coordinates":[126.5129444,35.9746944]},"properties":{"osm_id":13807868682,"osm_type":"node","seamark_type":"light_minor","display_class":"OTHER","min_zoom":12,"importance":1,"name":"Gunsan Hang","ref":null,"common":{"name":"Gunsan Hang","type":"light_minor"},"children":{"light":{"character":"Fl","colour":"red","height":"23","period":"4","range":"15","reference":"M 4193.2"},"radio_station":{"category":"ais","mmsi":"004406109"}},"osm_tags":{"seamark:light:character":"Fl","seamark:light:colour":"red","seamark:light:height":"23","seamark:light:period":"4","seamark:light:range":"15","seamark:light:reference":"M 4193.2","seamark:name":"Gunsan Hang","seamark:radio_station:category":"ais","seamark:radio_station:mmsi":"004406109","seamark:type":"light_minor"}}},{"type":"Feature","geometry":{"type":"Point","coordinates":[126.51575,35.9968056]},"properties":{"osm_id":13921804133,"osm_type":"node","seamark_type":"light_minor","display_class":"OTHER","min_zoom":12,"importance":1,"name":"Gunsan Hang","ref":"3170.7","common":{"name":"Gunsan Hang","type":"light_minor"},"children":{"light":{"character":"Fl","colour":"yellow","height":"24","period":"5","range":"7","reference":"M 4193.35"}},"osm_tags":{"ref":"3170.7","seamark:light:character":"Fl","seamark:light:colour":"yellow","seamark:light:height":"24","seamark:light:period":"5","seamark:light:range":"7","seamark:light:reference":"M 4193.35","seamark:name":"Gunsan Hang","seamark:type":"light_minor"}}},{"type":"Feature","geometry":{"type":"Point","coordinates":[126.5472222,35.9747222]},"properties":{"osm_id":13922477584,"osm_type":"node","seamark_type":"light_minor","display_class":"OTHER","min_zoom":12,"importance":1,"name":"Gunsan Hang","ref":"3186.1","common":{"name":"Gunsan Hang","type":"light_minor"},"children":{"light":{"character":"Fl","colour":"yellow","group":"4","height":"13","period":"8","range":"8","reference":"M 4193.6"}},"osm_tags":{"ref":"3186.1","seamark:light:character":"Fl","seamark:light:colour":"yellow","seamark:light:group":"4","seamark:light:height":"13","seamark:light:period":"8","seamark:light:range":"8","seamark:light:reference":"M 4193.6","seamark:name":"Gunsan Hang","seamark:type":"light_minor"}}},{"type":"Feature","geometry":{"type":"Point","coordinates":[126.5630278,35.9755278]},"properties":{"osm_id":14070115623,"osm_type":"node","seamark_type":"light_minor","display_class":"OTHER","min_zoom":12,"importance":1,"name":"Gunsan Hang","ref":"3186.2","common":{"name":"Gunsan Hang","type":"light_minor"},"children":{"light":{"character":"Fl","colour":"yellow","group":"4","height":"12","period":"8","range":"7","reference":"M 4193.63"}},"osm_tags":{"ref":"3186.2","seamark:light:character":"Fl","seamark:light:colour":"yellow","seamark:light:group":"4","seamark:light:height":"12","seamark:light:period":"8","seamark:light:range":"7","seamark:light:reference":"M 4193.63","seamark:name":"Gunsan Hang","seamark:type":"light_minor"}}},{"type":"Feature","geometry":{"type":"Point","coordinates":[126.6181741,35.9845193]},"properties":{"osm_id":13893261565,"osm_type":"node","seamark_type":"buoy_lateral","display_class":"OTHER","min_zoom":12,"importance":1,"name":"Gunsan Hang No.11","ref":null,"common":{"name":"Gunsan Hang No.11","type":"buoy_lateral"},"children":{"buoy_lateral":{"category":"port","colour":"green","shape":"pillar","system":"iala-b"},"light":{"character":"Fl","colour":"green","group":"2","period":"6","range":"7"}},"osm_tags":{"seamark:buoy_lateral:category":"port","seamark:buoy_lateral:colour":"green","seamark:buoy_lateral:shape":"pillar","seamark:buoy_lateral:system":"iala-b","seamark:light:character":"Fl","seamark:light:colour":"green","seamark:light:group":"2","seamark:light:period":"6","seamark:light:range":"7","seamark:name":"Gunsan Hang No.11","seamark:type":"buoy_lateral"}}},{"type":"Feature","geometry":{"type":"Point","coordinates":[126.6340654,35.9853488]},"properties":{"osm_id":13893261566,"osm_type":"node","seamark_type":"buoy_lateral","display_class":"OTHER","min_zoom":12,"importance":1,"name":"Gunsan Hang No.13","ref":null,"common":{"name":"Gunsan Hang No.13","type":"buoy_lateral"},"children":{"buoy_lateral":{"category":"port","colour":"green","shape":"pillar","system":"iala-b"},"light":{"character":"Fl","colour":"green","period":"4","range":"7"}},"osm_tags":{"seamark:buoy_lateral:category":"port","seamark:buoy_lateral:colour":"green","seamark:buoy_lateral:shape":"pillar","seamark:buoy_lateral:system":"iala-b","seamark:light:character":"Fl","seamark:light:colour":"green","seamark:light:period":"4","seamark:light:range":"7","seamark:name":"Gunsan Hang No.13","seamark:type":"buoy_lateral"}}},{"type":"Feature","geometry":{"type":"Point","coordinates":[126.4628611,35.6209722]},"properties":{"osm_id":12464905942,"osm_type":"node","seamark_type":"light_minor","display_class":"OTHER","min_zoom":12,"importance":1,"name":"Gyeokpo Hang","ref":"3156","common":{"name":"Gyeokpo Hang","type":"light_minor"},"children":{"light":{"character":"Fl","colour":"red","height":"18","period":"6","range":"11","reference":"M 4207.6"}},"osm_tags":{"ref":"3156","seamark:light:character":"Fl","seamark:light:colour":"red","seamark:light:height":"18","seamark:light:period":"6","seamark:light:range":"11","seamark:light:reference":"M 4207.6","seamark:name":"Gyeokpo Hang","seamark:type":"light_minor"}}},{"type":"Feature","geometry":{"type":"Point","coordinates":[126.4609722,35.6217222]},"properties":{"osm_id":12464905943,"osm_type":"node","seamark_type":"light_minor","display_class":"OTHER","min_zoom":12,"importance":1,"name":"Gyeokpo Hang","ref":"3157","common":{"name":"Gyeokpo Hang","type":"light_minor"},"children":{"light":{"character":"Fl","colour":"green","height":"17","period":"6","range":"11","reference":"M 4207.65"}},"osm_tags":{"ref":"3157","seamark:light:character":"Fl","seamark:light:colour":"green","seamark:light:height":"17","seamark:light:period":"6","seamark:light:range":"11","seamark:light:reference":"M 4207.65","seamark:name":"Gyeokpo Hang","seamark:type":"light_minor"}}},{"type":"Feature","geometry":{"type":"Point","coordinates":[126.0499722,35.0979167]},"properties":{"osm_id":13834690493,"osm_type":"node","seamark_type":"light_minor","display_class":"OTHER","min_zoom":12,"importance":1,"name":"Hau Hang","ref":null,"common":{"name":"Hau Hang","type":"light_minor"},"children":{"light":{"character":"Fl","colour":"green","height":"12","period":"4","range":"7","reference":"M 4209.85"}},"osm_tags":{"seamark:light:character":"Fl","seamark:light:colour":"green","seamark:light:height":"12","seamark:light:period":"4","seamark:light:range":"7","seamark:light:reference":"M 4209.85","seamark:name":"Hau Hang","seamark:type":"light_minor"}}},{"type":"Feature","geometry":{"type":"Point","coordinates":[126.1313889,35.6422222]},"properties":{"osm_id":13927742413,"osm_type":"node","seamark_type":"buoy_special_purpose","display_class":"OTHER","min_zoom":12,"importance":1,"name":"Hawangdeungdo","ref":"3152.37","common":{"name":"Hawangdeungdo","type":"buoy_special_purpose"},"children":{"buoy_special_purpose":{"colour":"white;blue;white","colour_pattern":"horizontal","shape":"pillar"},"light":{"character":"Fl","colour":"white","period":"6","range":"3"}},"osm_tags":{"ref":"3152.37","seamark:buoy_special_purpose:colour":"white;blue;white","seamark:buoy_special_purpose:colour_pattern":"horizontal","seamark:buoy_special_purpose:shape":"pillar","seamark:light:character":"Fl","seamark:light:colour":"white","seamark:light:period":"6","seamark:light:range":"3","seamark:name":"Hawangdeungdo","seamark:type":"buoy_special_purpose"}}},{"type":"Feature","geometry":{"type":"Point","coordinates":[126.0490556,35.6210556]},"properties":{"osm_id":13927906859,"osm_type":"node","seamark_type":"platform","display_class":"OTHER","min_zoom":12,"importance":1,"name":"Hawangdeungdo Weather Tower","ref":"3141.4","common":{"name":"Hawangdeungdo Weather Tower","type":"platform"},"children":{"light":{"character":"Mo","colour":"white","group":"U","height":"17","period":"10","range":"10","reference":"M 4206.61"},"platform":{"category":"observation"}},"osm_tags":{"ref":"3141.4","seamark:light:character":"Mo","seamark:light:colour":"white","seamark:light:group":"U","seamark:light:height":"17","seamark:light:period":"10","seamark:light:range":"10","seamark:light:reference":"M 4206.61","seamark:name":"Hawangdeungdo Weather Tower","seamark:platform:category":"observation","seamark:type":"platform"}}},{"type":"Feature","geometry":{"type":"Point","coordinates":[126.4255556,35.8880556]},"properties":{"osm_id":13964079562,"osm_type":"node","seamark_type":"buoy_special_purpose","display_class":"OTHER","min_zoom":12,"importance":1,"name":"Hoenggyeongdo","ref":"3167.2","common":{"name":"Hoenggyeongdo","type":"buoy_special_purpose"},"children":{"buoy_special_purpose":{"category":"odas","colour":"yellow","shape":"spherical"}},"osm_tags":{"ref":"3167.2","seamark:buoy_special_purpose:category":"odas","seamark:buoy_special_purpose:colour":"yellow","seamark:buoy_special_purpose:shape":"spherical","seamark:name":"Hoenggyeongdo","seamark:type":"buoy_special_purpose"}}},{"type":"Feature","geometry":{"type":"Point","coordinates":[126.033,35.1588611]},"properties":{"osm_id":13927757323,"osm_type":"node","seamark_type":"platform","display_class":"OTHER","min_zoom":12,"importance":1,"name":"Imjado Weather Tower","ref":"3138.22","common":{"name":"Imjado Weather Tower","type":"platform"},"children":{"light":{"character":"Mo","colour":"white","group":"U","height":"23","period":"10","range":"9","reference":"M 4209.83"},"platform":{"category":"observation"}},"osm_tags":{"ref":"3138.22","seamark:light:character":"Mo","seamark:light:colour":"white","seamark:light:group":"U","seamark:light:height":"23","seamark:light:period":"10","seamark:light:range":"9","seamark:light:reference":"M 4209.83","seamark:name":"Imjado Weather Tower","seamark:platform:category":"observation","seamark:type":"platform"}}},{"type":"Feature","geometry":{"type":"Point","coordinates":[126.3726667,35.022]},"properties":{"osm_id":13949328273,"osm_type":"node","seamark_type":"light_minor","display_class":"OTHER","min_zoom":12,"importance":1,"name":"Jangjae Hang Breakwater","ref":"3138.12","common":{"name":"Jangjae Hang Breakwater","type":"light_minor"},"children":{"light":{"character":"Fl","colour":"red","height":"14","period":"5","range":"7","reference":"M 4216.77"}},"osm_tags":{"ref":"3138.12","seamark:light:character":"Fl","seamark:light:colour":"red","seamark:light:height":"14","seamark:light:period":"5","seamark:light:range":"7","seamark:light:reference":"M 4216.77","seamark:name":"Jangjae Hang Breakwater","seamark:type":"light_minor"}}},{"type":"Feature","geometry":{"type":"Point","coordinates":[126.4191111,35.8107222]},"properties":{"osm_id":13505820162,"osm_type":"node","seamark_type":"light_minor","display_class":"OTHER","min_zoom":12,"importance":1,"name":"Munyeodo","ref":null,"common":{"name":"Munyeodo","type":"light_minor"},"children":{"light":{"character":"Fl","colour":"green","group":"3","height":"19","period":"7","range":"7","reference":"M 4206.365"}},"osm_tags":{"seamark:light:character":"Fl","seamark:light:colour":"green","seamark:light:group":"3","seamark:light:height":"19","seamark:light:period":"7","seamark:light:range":"7","seamark:light:reference":"M 4206.365","seamark:name":"Munyeodo","seamark:type":"light_minor"}}},{"type":"Feature","geometry":{"type":"Point","coordinates":[126.5148611,35.9720556]},"properties":{"osm_id":9166584284,"osm_type":"node","seamark_type":"landmark","display_class":"OTHER","min_zoom":12,"importance":1,"name":"No 1","ref":"1","common":{"name":"No 1","type":"landmark"},"children":{"landmark":{"category":"windmotor"},"light":{"character":"Mo","colour":"white","group":"U","height":"19","period":"10","range":"10","reference":"M 4192.9"}},"osm_tags":{"description":"※주의 : 이 설비는 EPSIS 전력통계 집계 대상외임. (Note: This wind farm is not accounted in Electric Power Statistical Information System)","generator:method":"wind_turbine","generator:output:electricity":"1.5 MW","generator:source":"wind","operator":"한국전력공사 전력연구원","power":"generator","ref":"1","seamark:landmark:category":"windmotor","seamark:light:character":"Mo","seamark:light:colour":"white","seamark:light:group":"U","seamark:light:height":"19","seamark:light:period":"10","seamark:light:range":"10","seamark:light:reference":"M 4192.9","seamark:name":"No 1","seamark:type":"landmark","start_date":"2017-07-01"}}},{"type":"Feature","geometry":{"type":"Point","coordinates":[126.3412778,35.4865278]},"properties":{"osm_id":9668942294,"osm_type":"node","seamark_type":"landmark","display_class":"OTHER","min_zoom":12,"importance":1,"name":"No 1","ref":"1","common":{"name":"No 1","type":"landmark"},"children":{"landmark":{"category":"windmotor"},"light":{"character":"Mo","colour":"yellow","group":"U","height":"17","period":"10","range":"9","reference":"M 4207.0227"}},"osm_tags":{"generator:method":"wind_turbine","generator:output:electricity":"3 MW","generator:source":"wind","operator":"한국해상풍력","power":"generator","ref":"1","seamark:landmark:category":"windmotor","seamark:light:character":"Mo","seamark:light:colour":"yellow","seamark:light:group":"U","seamark:light:height":"17","seamark:light:period":"10","seamark:light:range":"9","seamark:light:reference":"M 4207.0227","seamark:name":"No 1","seamark:type":"landmark","start_date":"2019-07-01"}}},{"type":"Feature","geometry":{"type":"Point","coordinates":[126.3013889,35.4731389]},"properties":{"osm_id":9668942280,"osm_type":"node","seamark_type":"landmark","display_class":"OTHER","min_zoom":12,"importance":1,"name":"No 15","ref":"15","common":{"name":"No 15","type":"landmark"},"children":{"landmark":{"category":"windmotor"},"light":{"character":"Fl","colour":"yellow","group":"4","height":"17","period":"8","range":"3","reference":"M 4207.04"}},"osm_tags":{"generator:method":"wind_turbine","generator:output:electricity":"3 MW","generator:source":"wind","operator":"한국해상풍력","power":"generator","ref":"15","seamark:landmark:category":"windmotor","seamark:light:character":"Fl","seamark:light:colour":"yellow","seamark:light:group":"4","seamark:light:height":"17","seamark:light:period":"8","seamark:light:range":"3","seamark:light:reference":"M 4207.04","seamark:name":"No 15","seamark:type":"landmark","start_date":"2019-07-01"}}},{"type":"Feature","geometry":{"type":"Point","coordinates":[126.3185278,35.4974444]},"properties":{"osm_id":9668942279,"osm_type":"node","seamark_type":"landmark","display_class":"OTHER","min_zoom":12,"importance":1,"name":"No 16","ref":"16","common":{"name":"No 16","type":"landmark"},"children":{"landmark":{"category":"windmotor"},"light":{"character":"Mo","colour":"yellow","group":"U","height":"17","period":"10","range":"9","reference":"M 4207.025"}},"osm_tags":{"generator:method":"wind_turbine","generator:output:electricity":"3 MW","generator:source":"wind","operator":"한국해상풍력","power":"generator","ref":"16","seamark:landmark:category":"windmotor","seamark:light:character":"Mo","seamark:light:colour":"yellow","seamark:light:group":"U","seamark:light:height":"17","seamark:light:period":"10","seamark:light:range":"9","seamark:light:reference":"M 4207.025","seamark:name":"No 16","seamark:type":"landmark","start_date":"2019-07-01"}}},{"type":"Feature","geometry":{"type":"Point","coordinates":[126.3061667,35.4871389]},"properties":{"osm_id":9668942277,"osm_type":"node","seamark_type":"landmark","display_class":"OTHER","min_zoom":12,"importance":1,"name":"No 18","ref":"18","common":{"name":"No 18","type":"landmark"},"children":{"landmark":{"category":"windmotor"},"light":{"character":"Fl","colour":"yellow","group":"4","height":"17","period":"8","range":"3","reference":"M 4207.033"}},"osm_tags":{"generator:method":"wind_turbine","generator:output:electricity":"3 MW","generator:source":"wind","operator":"한국해상풍력","power":"generator","ref":"18","seamark:landmark:category":"windmotor","seamark:light:character":"Fl","seamark:light:colour":"yellow","seamark:light:group":"4","seamark:light:height":"17","seamark:light:period":"8","seamark:light:range":"3","seamark:light:reference":"M 4207.033","seamark:name":"No 18","seamark:type":"landmark","start_date":"2019-07-01"}}},{"type":"Feature","geometry":{"type":"Point","coordinates":[126.5149167,35.9693056]},"properties":{"osm_id":11773837241,"osm_type":"node","seamark_type":"landmark","display_class":"OTHER","min_zoom":12,"importance":1,"name":"No 2","ref":"2","common":{"name":"No 2","type":"landmark"},"children":{"landmark":{"category":"windmotor"},"light":{"character":"Mo","colour":"white","group":"U","height":"19","period":"10","range":"10","reference":"M 4192.7"}},"osm_tags":{"description":"※주의 : 이 설비는 EPSIS 전력통계 집계 대상외임. (Note: This wind farm is not accounted in Electric Power Statistical Information System)","generator:method":"wind_turbine","generator:output:electricity":"1.5 MW","generator:source":"wind","operator":"한국전력공사 전력연구원","power":"generator","ref":"2","seamark:landmark:category":"windmotor","seamark:light:character":"Mo","seamark:light:colour":"white","seamark:light:group":"U","seamark:light:height":"19","seamark:light:period":"10","seamark:light:range":"10","seamark:light:reference":"M 4192.7","seamark:name":"No 2","seamark:type":"landmark","start_date":"2017-07-01"}}},{"type":"Feature","geometry":{"type":"Point","coordinates":[126.29375,35.4768056]},"properties":{"osm_id":9668942275,"osm_type":"node","seamark_type":"landmark","display_class":"OTHER","min_zoom":12,"importance":1,"name":"No 20","ref":"20","common":{"name":"No 20","type":"landmark"},"children":{"landmark":{"category":"windmotor"},"light":{"character":"Mo","colour":"yellow","group":"U","height":"17","period":"10","range":"9","reference":"M 4207.041"}},"osm_tags":{"generator:method":"wind_turbine","generator:output:electricity":"3 MW","generator:source":"wind","operator":"한국해상풍력","power":"generator","ref":"20","seamark:landmark:category":"windmotor","seamark:light:character":"Mo","seamark:light:colour":"yellow","seamark:light:group":"U","seamark:light:height":"17","seamark:light:period":"10","seamark:light:range":"9","seamark:light:reference":"M 4207.041","seamark:name":"No 20","seamark:type":"landmark","start_date":"2019-07-01"}}},{"type":"Feature","geometry":{"type":"Point","coordinates":[126.3288611,35.4761111]},"properties":{"osm_id":9668942292,"osm_type":"node","seamark_type":"landmark","display_class":"OTHER","min_zoom":12,"importance":1,"name":"No 3","ref":"3","common":{"name":"No 3","type":"landmark"},"children":{"landmark":{"category":"windmotor"},"light":{"character":"Fl","colour":"yellow","group":"4","height":"17","period":"8","range":"3","reference":"M 4207.03"}},"osm_tags":{"generator:method":"wind_turbine","generator:output:electricity":"3 MW","generator:source":"wind","operator":"한국해상풍력","power":"generator","ref":"3","seamark:landmark:category":"windmotor","seamark:light:character":"Fl","seamark:light:colour":"yellow","seamark:light:group":"4","seamark:light:height":"17","seamark:light:period":"8","seamark:light:range":"3","seamark:light:reference":"M 4207.03","seamark:name":"No 3","seamark:type":"landmark","start_date":"2019-07-01"}}},{"type":"Feature","geometry":{"type":"Point","coordinates":[126.53,35.985]},"properties":{"osm_id":13921788185,"osm_type":"node","seamark_type":"buoy_lateral","display_class":"OTHER","min_zoom":12,"importance":1,"name":"No 3","ref":"3178","common":{"name":"No 3","type":"buoy_lateral"},"children":{"buoy_lateral":{"category":"port","colour":"green","shape":"pillar","system":"iala-b"},"light":{"character":"Fl","colour":"green","group":"2","period":"6","range":"7"},"topmark":{"colour":"green","shape":"cylinder"}},"osm_tags":{"ref":"3178","seamark:buoy_lateral:category":"port","seamark:buoy_lateral:colour":"green","seamark:buoy_lateral:shape":"pillar","seamark:buoy_lateral:system":"iala-b","seamark:light:character":"Fl","seamark:light:colour":"green","seamark:light:group":"2","seamark:light:period":"6","seamark:light:range":"7","seamark:name":"No 3","seamark:topmark:colour":"green","seamark:topmark:shape":"cylinder","seamark:type":"buoy_lateral"}}},{"type":"Feature","geometry":{"type":"Point","coordinates":[126.3165,35.4658889]},"properties":{"osm_id":9668942290,"osm_type":"node","seamark_type":"landmark","display_class":"OTHER","min_zoom":12,"importance":1,"name":"No 5","ref":"5","common":{"name":"No 5","type":"landmark"},"children":{"landmark":{"category":"windmotor"},"light":{"character":"Mo","colour":"yellow","group":"U","height":"17","period":"10","range":"9","reference":"M 4207.038"}},"osm_tags":{"generator:method":"wind_turbine","generator:output:electricity":"3 MW","generator:source":"wind","operator":"한국해상풍력","power":"generator","ref":"5","seamark:landmark:category":"windmotor","seamark:light:character":"Mo","seamark:light:colour":"yellow","seamark:light:group":"U","seamark:light:height":"17","seamark:light:period":"10","seamark:light:range":"9","seamark:light:reference":"M 4207.038","seamark:name":"No 5","seamark:type":"landmark","start_date":"2019-07-01"}}},{"type":"Feature","geometry":{"type":"Point","coordinates":[126.3335278,35.4901389]},"properties":{"osm_id":9668942289,"osm_type":"node","seamark_type":"landmark","display_class":"OTHER","min_zoom":12,"importance":1,"name":"No 6","ref":"6","common":{"name":"No 6","type":"landmark"},"children":{"landmark":{"category":"windmotor"},"light":{"character":"Fl","colour":"yellow","group":"4","height":"17","period":"8","range":"3","reference":"M 4207.023"}},"osm_tags":{"generator:method":"wind_turbine","generator:output:electricity":"3 MW","generator:source":"wind","operator":"한국해상풍력","power":"generator","ref":"6","seamark:landmark:category":"windmotor","seamark:light:character":"Fl","seamark:light:colour":"yellow","seamark:light:group":"4","seamark:light:height":"17","seamark:light:period":"8","seamark:light:range":"3","seamark:light:reference":"M 4207.023","seamark:name":"No 6","seamark:type":"landmark","start_date":"2019-07-01"}}},{"type":"Feature","geometry":{"type":"Point","coordinates":[126.4339722,35.7818889]},"properties":{"osm_id":14079387956,"osm_type":"node","seamark_type":"light_minor","display_class":"OTHER","min_zoom":12,"importance":1,"name":"Saemangeum","ref":"3152.19","common":{"name":"Saemangeum","type":"light_minor"},"children":{"light":{"character":"Fl","colour":"yellow","group":"4","height":"16","period":"8","range":"7","reference":"M 4206.375"}},"osm_tags":{"ref":"3152.19","seamark:light:character":"Fl","seamark:light:colour":"yellow","seamark:light:group":"4","seamark:light:height":"16","seamark:light:period":"8","seamark:light:range":"7","seamark:light:reference":"M 4206.375","seamark:name":"Saemangeum","seamark:type":"light_minor"}}},{"type":"Feature","geometry":{"type":"Point","coordinates":[126.4516944,35.7833056]},"properties":{"osm_id":13503009444,"osm_type":"node","seamark_type":"light_minor","display_class":"OTHER","min_zoom":12,"importance":1,"name":"Saemangeum Hang N Revetment","ref":null,"common":{"name":"Saemangeum Hang N Revetment","type":"light_minor"},"children":{"light":{"character":"Fl","colour":"green","height":"23","period":"4","range":"8","reference":"M 4206.3755"}},"osm_tags":{"seamark:light:character":"Fl","seamark:light:colour":"green","seamark:light:height":"23","seamark:light:period":"4","seamark:light:range":"8","seamark:light:reference":"M 4206.3755","seamark:name":"Saemangeum Hang N Revetment","seamark:type":"light_minor"}}},{"type":"Feature","geometry":{"type":"Point","coordinates":[126.1638889,35.1448611]},"properties":{"osm_id":13974226571,"osm_type":"node","seamark_type":"light_minor","display_class":"OTHER","min_zoom":12,"importance":1,"name":"Sambongdan","ref":"3136","common":{"name":"Sambongdan","type":"light_minor"},"children":{"light":{"character":"Fl","colour":"white","height":"18","period":"4","range":"11","reference":"M 4210.3"}},"osm_tags":{"ref":"3136","seamark:light:character":"Fl","seamark:light:colour":"white","seamark:light:height":"18","seamark:light:period":"4","seamark:light:range":"11","seamark:light:reference":"M 4210.3","seamark:name":"Sambongdan","seamark:type":"light_minor"}}},{"type":"Feature","geometry":{"type":"Point","coordinates":[126.1483333,35.1963889]},"properties":{"osm_id":13773041687,"osm_type":"node","seamark_type":"mooring","display_class":"OTHER","min_zoom":12,"importance":1,"name":"Sangnagwoldo","ref":null,"common":{"name":"Sangnagwoldo","type":"mooring"},"children":{"light":{"character":"Fl","colour":"white","period":"6","range":"5"},"mooring":{"category":"buoy","colour":"white;blue;white","colour_pattern":"horizontal","shape":"pillar"}},"osm_tags":{"seamark:light:character":"Fl","seamark:light:colour":"white","seamark:light:period":"6","seamark:light:range":"5","seamark:mooring:category":"buoy","seamark:mooring:colour":"white;blue;white","seamark:mooring:colour_pattern":"horizontal","seamark:mooring:shape":"pillar","seamark:name":"Sangnagwoldo","seamark:type":"mooring"}}},{"type":"Feature","geometry":{"type":"Point","coordinates":[126.1070556,35.6621111]},"properties":{"osm_id":13525315393,"osm_type":"node","seamark_type":"light_minor","display_class":"OTHER","min_zoom":12,"importance":1,"name":"Sangwangdeungdo","ref":null,"common":{"name":"Sangwangdeungdo","type":"light_minor"},"children":{"light":{"character":"Fl","colour":"white","height":"178","period":"5","range":"11","reference":"M 4206.6"}},"osm_tags":{"seamark:light:character":"Fl","seamark:light:colour":"white","seamark:light:height":"178","seamark:light:period":"5","seamark:light:range":"11","seamark:light:reference":"M 4206.6","seamark:name":"Sangwangdeungdo","seamark:type":"light_minor"}}},{"type":"Feature","geometry":{"type":"Point","coordinates":[126.1121389,35.65825]},"properties":{"osm_id":13893217145,"osm_type":"node","seamark_type":"light_minor","display_class":"OTHER","min_zoom":12,"importance":1,"name":"Sangwangdeungdo Hang","ref":null,"common":{"name":"Sangwangdeungdo Hang","type":"light_minor"},"children":{"light":{"character":"Fl","colour":"green","height":"16","period":"6","range":"7","reference":"M 4206.62"}},"osm_tags":{"seamark:light:character":"Fl","seamark:light:colour":"green","seamark:light:height":"16","seamark:light:period":"6","seamark:light:range":"7","seamark:light:reference":"M 4206.62","seamark:name":"Sangwangdeungdo Hang","seamark:type":"light_minor"}}},{"type":"Feature","geometry":{"type":"Point","coordinates":[126.1953333,35.6709444]},"properties":{"osm_id":13927906858,"osm_type":"node","seamark_type":"platform","display_class":"OTHER","min_zoom":12,"importance":1,"name":"Sangwangdeungdo Weather Tower","ref":"3152.7","common":{"name":"Sangwangdeungdo Weather Tower","type":"platform"},"children":{"fog_signal":{"category":"horn","period":"30","sequence":"5+(25)"},"light":{"character":"Mo","colour":"white","group":"U","height":"16","period":"10","range":"9","reference":"M 4206.66"},"platform":{"category":"observation"},"radar_transponder":{"category":"racon","group":"D"}},"osm_tags":{"ref":"3152.7","seamark:fog_signal:category":"horn","seamark:fog_signal:period":"30","seamark:fog_signal:sequence":"5+(25)","seamark:light:character":"Mo","seamark:light:colour":"white","seamark:light:group":"U","seamark:light:height":"16","seamark:light:period":"10","seamark:light:range":"9","seamark:light:reference":"M 4206.66","seamark:name":"Sangwangdeungdo Weather Tower","seamark:platform:category":"observation","seamark:radar_transponder:category":"racon","seamark:radar_transponder:group":"D","seamark:type":"platform"}}},{"type":"Feature","geometry":{"type":"Point","coordinates":[126.4201944,35.8268889]},"properties":{"osm_id":13967808407,"osm_type":"node","seamark_type":"light_minor","display_class":"OTHER","min_zoom":12,"importance":1,"name":"Seonyudo Hang","ref":"3162.8","common":{"name":"Seonyudo Hang","type":"light_minor"},"children":{"light":{"character":"Fl","colour":"red","group":"2","height":"14","period":"6","range":"7","reference":"M 4206.356"}},"osm_tags":{"ref":"3162.8","seamark:light:character":"Fl","seamark:light:colour":"red","seamark:light:group":"2","seamark:light:height":"14","seamark:light:period":"6","seamark:light:range":"7","seamark:light:reference":"M 4206.356","seamark:name":"Seonyudo Hang","seamark:type":"light_minor"}}},{"type":"Feature","geometry":{"type":"Point","coordinates":[126.4195556,35.8276944]},"properties":{"osm_id":13967808408,"osm_type":"node","seamark_type":"light_minor","display_class":"OTHER","min_zoom":12,"importance":1,"name":"Seonyudo Hang","ref":"3162.7","common":{"name":"Seonyudo Hang","type":"light_minor"},"children":{"light":{"character":"Fl","colour":"green","group":"2","height":"14","period":"6","range":"7","reference":"M 4206.355"}},"osm_tags":{"ref":"3162.7","seamark:light:character":"Fl","seamark:light:colour":"green","seamark:light:group":"2","seamark:light:height":"14","seamark:light:period":"6","seamark:light:range":"7","seamark:light:reference":"M 4206.355","seamark:name":"Seonyudo Hang","seamark:type":"light_minor"}}},{"type":"Feature","geometry":{"type":"Point","coordinates":[126.2224444,35.9895]},"properties":{"osm_id":10935475385,"osm_type":"node","seamark_type":"light_minor","display_class":"OTHER","min_zoom":12,"importance":1,"name":"Sibidongpado","ref":null,"common":{"name":"Sibidongpado","type":"light_minor"},"children":{"light":{"character":"Fl","colour":"white","height":"94","period":"7","range":"10","reference":"M 4206.4"}},"osm_tags":{"seamark:light:character":"Fl","seamark:light:colour":"white","seamark:light:height":"94","seamark:light:period":"7","seamark:light:range":"10","seamark:light:reference":"M 4206.4","seamark:name":"Sibidongpado","seamark:type":"light_minor"}}},{"type":"Feature","geometry":{"type":"Point","coordinates":[126.2934722,35.6262778]},"properties":{"osm_id":13925225222,"osm_type":"node","seamark_type":"light_minor","display_class":"OTHER","min_zoom":12,"importance":1,"name":"Sikdoyeo","ref":"3154.6","common":{"name":"Sikdoyeo","type":"light_minor"},"children":{"light":{"character":"Fl","colour":"red","height":"13","period":"4","range":"7","reference":"M 4206.77"}},"osm_tags":{"ref":"3154.6","seamark:light:character":"Fl","seamark:light:colour":"red","seamark:light:height":"13","seamark:light:period":"4","seamark:light:range":"7","seamark:light:reference":"M 4206.77","seamark:name":"Sikdoyeo","seamark:type":"light_minor"}}},{"type":"Feature","geometry":{"type":"Point","coordinates":[126.4467778,35.8064167]},"properties":{"osm_id":4841527430,"osm_type":"node","seamark_type":"light_minor","display_class":"OTHER","min_zoom":12,"importance":1,"name":"Sinsido","ref":"3162.6","common":{"name":"Sinsido","type":"light_minor"},"children":{"light":{"character":"Fl","colour":"green","group":"3","height":"13","period":"7","range":"7","reference":"M 4206.364"}},"osm_tags":{"man_made":"lighthouse","ref":"3162.6","seamark:light:character":"Fl","seamark:light:colour":"green","seamark:light:group":"3","seamark:light:height":"13","seamark:light:period":"7","seamark:light:range":"7","seamark:light:reference":"M 4206.364","seamark:name":"Sinsido","seamark:type":"light_minor"}}},{"type":"Feature","geometry":{"type":"Point","coordinates":[126.1383333,35.0803333]},"properties":{"osm_id":13773012798,"osm_type":"node","seamark_type":"mooring","display_class":"OTHER","min_zoom":12,"importance":1,"name":"Sudo","ref":null,"common":{"name":"Sudo","type":"mooring"},"children":{"light":{"character":"Fl","colour":"white","period":"6","range":"5"},"mooring":{"category":"buoy","colour":"white;blue;white","colour_pattern":"horizontal","shape":"pillar"}},"osm_tags":{"seamark:light:character":"Fl","seamark:light:colour":"white","seamark:light:period":"6","seamark:light:range":"5","seamark:mooring:category":"buoy","seamark:mooring:colour":"white;blue;white","seamark:mooring:colour_pattern":"horizontal","seamark:mooring:shape":"pillar","seamark:name":"Sudo","seamark:type":"mooring"}}},{"type":"Feature","geometry":{"type":"Point","coordinates":[126.14375,35.0823333]},"properties":{"osm_id":13974226572,"osm_type":"node","seamark_type":"light_minor","display_class":"OTHER","min_zoom":12,"importance":1,"name":"Sudo","ref":"3138.10","common":{"name":"Sudo","type":"light_minor"},"children":{"light":{"character":"Fl","colour":"white","height":"15","period":"6","range":"10","reference":"M 4210.38"}},"osm_tags":{"ref":"3138.10","seamark:light:character":"Fl","seamark:light:colour":"white","seamark:light:height":"15","seamark:light:period":"6","seamark:light:range":"10","seamark:light:reference":"M 4210.38","seamark:name":"Sudo","seamark:type":"light_minor"}}},{"type":"Feature","geometry":{"type":"Point","coordinates":[126.3586111,35.6429722]},"properties":{"osm_id":13525539231,"osm_type":"node","seamark_type":"buoy_special_purpose","display_class":"OTHER","min_zoom":12,"importance":1,"name":"Wido KMA","ref":null,"common":{"name":"Wido KMA","type":"buoy_special_purpose"},"children":{"buoy_special_purpose":{"category":"odas","colour":"yellow","shape":"pillar"},"light":{"character":"Fl","colour":"yellow","group":"5","period":"20","range":"7"}},"osm_tags":{"seamark:buoy_special_purpose:category":"odas","seamark:buoy_special_purpose:colour":"yellow","seamark:buoy_special_purpose:shape":"pillar","seamark:light:character":"Fl","seamark:light:colour":"yellow","seamark:light:group":"5","seamark:light:period":"20","seamark:light:range":"7","seamark:name":"Wido KMA","seamark:type":"buoy_special_purpose"}}},{"type":"Feature","geometry":{"type":"Point","coordinates":[126.3933889,35.0865833]},"properties":{"osm_id":13807894560,"osm_type":"node","seamark_type":"light_minor","display_class":"OTHER","min_zoom":12,"importance":1,"name":"Woldu Hang","ref":null,"common":{"name":"Woldu Hang","type":"light_minor"},"children":{"light":{"character":"Fl","colour":"red","height":"18","period":"6","range":"7","reference":"M 4209.8"}},"osm_tags":{"seamark:light:character":"Fl","seamark:light:colour":"red","seamark:light:height":"18","seamark:light:period":"6","seamark:light:range":"7","seamark:light:reference":"M 4209.8","seamark:name":"Woldu Hang","seamark:type":"light_minor"}}},{"type":"Feature","geometry":{"type":"Point","coordinates":[126.7271912,35.9804495]},"properties":{"osm_id":429681422,"osm_type":"node","seamark_type":"gate","display_class":"OTHER","min_zoom":12,"importance":1,"name":"경포배수갑문","ref":null,"common":{"type":"gate"},"children":{},"osm_tags":{"name":"경포배수갑문","seamark:type":"gate","waterway":"lock_gate"}}},{"type":"Feature","geometry":{"type":"LineString","coordinates":[[126.4785915,35.8161721],[126.4796756,35.8151351],[126.4808656,35.8139967]]},"properties":{"osm_id":908053714,"osm_type":"way","seamark_type":"gate","display_class":"OTHER","min_zoom":12,"importance":1,"name":"신시배수갑문","ref":null,"common":{"type":"gate"},"children":{},"osm_tags":{"name":"신시배수갑문","seamark:type":"gate","waterway":"lock_gate"}}},{"type":"Feature","geometry":{"type":"LineString","coordinates":[[126.4790022,35.816511],[126.4812835,35.8142883]]},"properties":{"osm_id":908053715,"osm_type":"way","seamark_type":"gate","display_class":"OTHER","min_zoom":12,"importance":1,"name":"신시배수갑문","ref":null,"common":{"type":"gate"},"children":{},"osm_tags":{"name":"신시배수갑문","seamark:type":"gate","waterway":"lock_gate"}}}],"type":"FeatureCollection"}