{"type":"FeatureCollection","features":[{"type":"Feature","geometry":{"type":"Point","coordinates":[140.739331,35.6931774]},"properties":{"osm_id":1211620275,"osm_type":"node","seamark_type":"light_major","display_class":"LIGHTHOUSE","min_zoom":7,"importance":5,"name":"Iioka","ref":null,"common":{"name":"Iioka","type":"light_major"},"children":{"light":{"1:character":"Iso","1:colour":"white","1:height":"74","1:period":"6","1:range":"20","1:sector_end":"113","1:sector_start":"271","reference":"M 6477"}},"osm_tags":{"man_made":"lighthouse","name":"刑部岬灯台","seamark:light:1:character":"Iso","seamark:light:1:colour":"white","seamark:light:1:height":"74","seamark:light:1:period":"6","seamark:light:1:range":"20","seamark:light:1:sector_end":"113","seamark:light:1:sector_start":"271","seamark:light:reference":"M 6477","seamark:name":"Iioka","seamark:type":"light_major","source":"US NGA Pub. 112. 2009-11-12.","wikidata":"Q11666309","wikipedia":"ja:飯岡灯台"}}},{"type":"Feature","geometry":{"type":"Point","coordinates":[140.8685261,35.7079127]},"properties":{"osm_id":1582440591,"osm_type":"node","seamark_type":"light_major","display_class":"LIGHTHOUSE","min_zoom":7,"importance":5,"name":"Inubo Saki","ref":null,"common":{"information":"Signal station. Radiobeacon. DGPS Station. RAMARK","name":"Inubo Saki","type":"light_major"},"children":{"fog_signal":{"category":"siren","group":"1","period":"35"},"light":{"1:character":"Fl","1:colour":"white","1:height":"52","1:period":"15","1:range":"19","1:sector_end":"65","1:sector_start":"169","reference":"M 6478"}},"osm_tags":{"fee":"yes","man_made":"lighthouse","name":"犬吠埼燈台","name:en":"Inubōsaki Lighthouse","name:ja":"犬吠埼燈台","name:ja_rm":"Inubōsaki Tōdai","opening_hours":"08:30-16:00","seamark:fog_signal:category":"siren","seamark:fog_signal:group":"1","seamark:fog_signal:period":"35","seamark:information":"Signal station. Radiobeacon. DGPS Station. RAMARK","seamark:light:1:character":"Fl","seamark:light:1:colour":"white","seamark:light:1:height":"52","seamark:light:1:period":"15","seamark:light:1:range":"19","seamark:light:1:sector_end":"65","seamark:light:1:sector_start":"169","seamark:light:reference":"M 6478","seamark:name":"Inubo Saki","seamark:type":"light_major","source":"US NGA Pub. 112. 2009-11-12.","wheelchair":"no","wikidata":"Q6059232","wikipedia":"ja:犬吠埼灯台"}}},{"type":"Feature","geometry":{"type":"Point","coordinates":[140.1097262,35.0930007]},"properties":{"osm_id":1211620364,"osm_type":"node","seamark_type":"light_major","display_class":"LIGHTHOUSE","min_zoom":7,"importance":5,"name":"Kamogawa","ref":null,"common":{"name":"Kamogawa","type":"light_major"},"children":{"light":{"character":"Fl","colour":"white","group":"3","height":"26","period":"13","range":"15","reference":"M 6466"}},"osm_tags":{"seamark:light:character":"Fl","seamark:light:colour":"white","seamark:light:group":"3","seamark:light:height":"26","seamark:light:period":"13","seamark:light:range":"15","seamark:light:reference":"M 6466","seamark:name":"Kamogawa","seamark:type":"light_major","source":"US NGA Pub. 112. 2009-11-12."}}},{"type":"Feature","geometry":{"type":"Point","coordinates":[140.3191076,35.1379795]},"properties":{"osm_id":1211620322,"osm_type":"node","seamark_type":"light_major","display_class":"LIGHTHOUSE","min_zoom":7,"importance":5,"name":"Katuura","ref":null,"common":{"name":"Katuura","type":"light_major"},"children":{"light":{"1:character":"Fl","1:colour":"white","1:group":"2","1:height":"71","1:period":"20","1:range":"22","1:sector_end":"73","1:sector_start":"229","reference":"M 6470"}},"osm_tags":{"man_made":"lighthouse","name":"勝浦灯台","seamark:light:1:character":"Fl","seamark:light:1:colour":"white","seamark:light:1:group":"2","seamark:light:1:height":"71","seamark:light:1:period":"20","seamark:light:1:range":"22","seamark:light:1:sector_end":"73","seamark:light:1:sector_start":"229","seamark:light:reference":"M 6470","seamark:name":"Katuura","seamark:type":"light_major","source":"US NGA Pub. 112. 2009-11-12."}}},{"type":"Feature","geometry":{"type":"Point","coordinates":[140.4129332,35.3081715]},"properties":{"osm_id":1211620281,"osm_type":"node","seamark_type":"light_major","display_class":"LIGHTHOUSE","min_zoom":7,"importance":5,"name":"Taito Saki","ref":null,"common":{"name":"Taito Saki","type":"light_major"},"children":{"light":{"character":"Fl","colour":"white","height":"72","period":"10","range":"22","reference":"M 6472"}},"osm_tags":{"man_made":"lighthouse","seamark:light:character":"Fl","seamark:light:colour":"white","seamark:light:height":"72","seamark:light:period":"10","seamark:light:range":"22","seamark:light:reference":"M 6472","seamark:name":"Taito Saki","seamark:type":"light_major","source":"US NGA Pub. 112. 2009-11-12.","wikidata":"Q17224816","wikipedia":"ja:太東埼灯台"}}},{"type":"Feature","geometry":{"type":"Point","coordinates":[140.0457499,35.5680278]},"properties":{"osm_id":1211620985,"osm_type":"node","seamark_type":"light_major","display_class":"LIGHTHOUSE","min_zoom":7,"importance":5,"name":"Tiba","ref":null,"common":{"information":"White round metal tower, white square building; 59.","name":"Tiba","type":"light_major"},"children":{"light":{"character":"Fl","colour":"white","group":"2","height":"28","period":"30","range":"15","reference":"M 6433"}},"osm_tags":{"seamark:information":"White round metal tower, white square building; 59.","seamark:light:character":"Fl","seamark:light:colour":"white","seamark:light:group":"2","seamark:light:height":"28","seamark:light:period":"30","seamark:light:range":"15","seamark:light:reference":"M 6433","seamark:name":"Tiba","seamark:type":"light_major","source":"US NGA Pub. 112. 2019-03-02."}}},{"type":"Feature","geometry":{"type":"Point","coordinates":[140.0564085,35.5392782]},"properties":{"osm_id":1211620996,"osm_type":"node","seamark_type":"light_major","display_class":"LIGHTHOUSE","min_zoom":7,"importance":5,"name":"Tiba Ko","ref":null,"common":{"name":"Tiba Ko","type":"light_major"},"children":{"light":{"character":"Mo","colour":"white","group":"U","height":"25","period":"12","range":"15","reference":"M 6434.5"}},"osm_tags":{"seamark:light:character":"Mo","seamark:light:colour":"white","seamark:light:group":"U","seamark:light:height":"25","seamark:light:period":"12","seamark:light:range":"15","seamark:light:reference":"M 6434.5","seamark:name":"Tiba Ko","seamark:type":"light_major","source":"US NGA Pub. 112. 2009-11-12."}}},{"type":"Feature","geometry":{"type":"Point","coordinates":[140.1920822,35.1214914]},"properties":{"osm_id":1211620334,"osm_type":"node","seamark_type":"beacon_lateral","display_class":"BEACON","min_zoom":9,"importance":4,"name":"Kominato Ko","ref":null,"common":{"name":"Kominato Ko","type":"beacon_lateral"},"children":{"beacon_lateral":{"category":"starboard","colour":"red","height":"27","shape":"tower","system":"iala-b"},"light":{"character":"Fl","colour":"red","height":"9","period":"3","range":"11","reference":"M 6469"}},"osm_tags":{"seamark:beacon_lateral:category":"starboard","seamark:beacon_lateral:colour":"red","seamark:beacon_lateral:height":"27","seamark:beacon_lateral:shape":"tower","seamark:beacon_lateral:system":"iala-b","seamark:light:character":"Fl","seamark:light:colour":"red","seamark:light:height":"9","seamark:light:period":"3","seamark:light:range":"11","seamark:light:reference":"M 6469","seamark:name":"Kominato Ko","seamark:type":"beacon_lateral","source":"US NGA Pub. 112. 2009-11-12."}}},{"type":"Feature","geometry":{"type":"Point","coordinates":[140.7126387,35.9576013]},"properties":{"osm_id":1211620223,"osm_type":"node","seamark_type":"light_minor","display_class":"OTHER","min_zoom":12,"importance":1,"name":null,"ref":null,"common":{"type":"light_minor"},"children":{"light":{"character":"Fl","colour":"white","height":"16","period":"3","range":"12","reference":"M 6492"}},"osm_tags":{"seamark:light:character":"Fl","seamark:light:colour":"white","seamark:light:height":"16","seamark:light:period":"3","seamark:light:range":"12","seamark:light:reference":"M 6492","seamark:type":"light_minor","source":"US NGA Pub. 112. 2009-11-12."}}},{"type":"Feature","geometry":{"type":"Point","coordinates":[140.7053992,35.9242967]},"properties":{"osm_id":1211620231,"osm_type":"node","seamark_type":"light_minor","display_class":"OTHER","min_zoom":12,"importance":1,"name":null,"ref":null,"common":{"information":"F.W. 4M by day.","type":"light_minor"},"children":{"light":{"category":"lower","character":"F","colour":"green","height":"25","range":"15","reference":"M 6491.4"}},"osm_tags":{"seamark:information":"F.W. 4M by day.","seamark:light:category":"lower","seamark:light:character":"F","seamark:light:colour":"green","seamark:light:height":"25","seamark:light:range":"15","seamark:light:reference":"M 6491.4","seamark:type":"light_minor","source":"US NGA Pub. 112. 2009-11-12."}}},{"type":"Feature","geometry":{"type":"Point","coordinates":[140.8595286,35.7479531]},"properties":{"osm_id":1211620244,"osm_type":"node","seamark_type":"light_minor","display_class":"OTHER","min_zoom":12,"importance":1,"name":null,"ref":null,"common":{"information":"Red square metal framework tower; 32.","type":"light_minor"},"children":{"light":{"character":"FFl","colour":"red","height":"13","period":"4","reference":"M 6483"}},"osm_tags":{"seamark:information":"Red square metal framework tower; 32.","seamark:light:character":"FFl","seamark:light:colour":"red","seamark:light:height":"13","seamark:light:period":"4","seamark:light:reference":"M 6483","seamark:type":"light_minor","source":"US NGA Pub. 112. 2009-11-12."}}},{"type":"Feature","geometry":{"type":"Point","coordinates":[140.8583231,35.7453742]},"properties":{"osm_id":1211620249,"osm_type":"node","seamark_type":"light_minor","display_class":"OTHER","min_zoom":12,"importance":1,"name":null,"ref":null,"common":{"type":"light_minor"},"children":{"light":{"1:character":"F","1:colour":"red","1:height":"12","1:range":"10","1:sector_end":"65","1:sector_start":"205","reference":"M 6483.4"}},"osm_tags":{"seamark:light:1:character":"F","seamark:light:1:colour":"red","seamark:light:1:height":"12","seamark:light:1:range":"10","seamark:light:1:sector_end":"65","seamark:light:1:sector_start":"205","seamark:light:reference":"M 6483.4","seamark:type":"light_minor","source":"US NGA Pub. 112. 2009-11-12."}}},{"type":"Feature","geometry":{"type":"Point","coordinates":[140.8612206,35.7526888]},"properties":{"osm_id":1211620256,"osm_type":"node","seamark_type":"light_minor","display_class":"OTHER","min_zoom":12,"importance":1,"name":null,"ref":null,"common":{"type":"light_minor"},"children":{"light":{"character":"Fl","colour":"green","group":"2","height":"15","period":"6","range":"6","reference":"M 6482.2"}},"osm_tags":{"seamark:light:character":"Fl","seamark:light:colour":"green","seamark:light:group":"2","seamark:light:height":"15","seamark:light:period":"6","seamark:light:range":"6","seamark:light:reference":"M 6482.2","seamark:type":"light_minor","source":"US NGA Pub. 112. 2009-11-12."}}},{"type":"Feature","geometry":{"type":"Point","coordinates":[140.4018316,35.257154]},"properties":{"osm_id":1211620287,"osm_type":"node","seamark_type":"light_minor","display_class":"OTHER","min_zoom":12,"importance":1,"name":null,"ref":null,"common":{"type":"light_minor"},"children":{"light":{"category":"upper","character":"F","colour":"green","height":"14","range":"10"}},"osm_tags":{"seamark:light:category":"upper","seamark:light:character":"F","seamark:light:colour":"green","seamark:light:height":"14","seamark:light:range":"10","seamark:type":"light_minor","source":"US NGA Pub. 112. 2009-11-12."}}},{"type":"Feature","geometry":{"type":"Point","coordinates":[140.4086406,35.2566703]},"properties":{"osm_id":1211620297,"osm_type":"node","seamark_type":"light_minor","display_class":"OTHER","min_zoom":12,"importance":1,"name":null,"ref":null,"common":{"type":"light_minor"},"children":{"light":{"character":"Iso","colour":"white","height":"9","period":"4","range":"5","reference":"M 6471"}},"osm_tags":{"seamark:light:character":"Iso","seamark:light:colour":"white","seamark:light:height":"9","seamark:light:period":"4","seamark:light:range":"5","seamark:light:reference":"M 6471","seamark:type":"light_minor","source":"US NGA Pub. 112. 2009-11-12."}}},{"type":"Feature","geometry":{"type":"Point","coordinates":[140.4070562,35.2561359]},"properties":{"osm_id":1211620303,"osm_type":"node","seamark_type":"light_minor","display_class":"OTHER","min_zoom":12,"importance":1,"name":null,"ref":null,"common":{"type":"light_minor"},"children":{"light":{"character":"Fl","colour":"green","group":"2","height":"14","period":"6","range":"5","reference":"M 6470.9"}},"osm_tags":{"seamark:light:character":"Fl","seamark:light:colour":"green","seamark:light:group":"2","seamark:light:height":"14","seamark:light:period":"6","seamark:light:range":"5","seamark:light:reference":"M 6470.9","seamark:type":"light_minor","source":"US NGA Pub. 112. 2009-11-12."}}},{"type":"Feature","geometry":{"type":"Point","coordinates":[140.3096724,35.1435181]},"properties":{"osm_id":1211620325,"osm_type":"node","seamark_type":"light_minor","display_class":"OTHER","min_zoom":12,"importance":1,"name":null,"ref":null,"common":{"type":"light_minor"},"children":{"light":{"character":"Iso","colour":"red","height":"12","period":"6","range":"11","reference":"M 6470.14"}},"osm_tags":{"seamark:light:character":"Iso","seamark:light:colour":"red","seamark:light:height":"12","seamark:light:period":"6","seamark:light:range":"11","seamark:light:reference":"M 6470.14","seamark:type":"light_minor","source":"US NGA Pub. 112. 2009-11-12."}}},{"type":"Feature","geometry":{"type":"Point","coordinates":[140.3104816,35.1443472]},"properties":{"osm_id":1211620328,"osm_type":"node","seamark_type":"light_minor","display_class":"OTHER","min_zoom":12,"importance":1,"name":null,"ref":null,"common":{"type":"light_minor"},"children":{"light":{"character":"Iso","colour":"green","height":"11","period":"6","range":"11","reference":"M 6470.1"}},"osm_tags":{"seamark:light:character":"Iso","seamark:light:colour":"green","seamark:light:height":"11","seamark:light:period":"6","seamark:light:range":"11","seamark:light:reference":"M 6470.1","seamark:type":"light_minor","source":"US NGA Pub. 112. 2009-11-12."}}},{"type":"Feature","geometry":{"type":"Point","coordinates":[140.1945675,35.1213307]},"properties":{"osm_id":1211620338,"osm_type":"node","seamark_type":"light_minor","display_class":"OTHER","min_zoom":12,"importance":1,"name":null,"ref":null,"common":{"type":"light_minor"},"children":{"light":{"character":"Oc","colour":"white","height":"10","period":"8","range":"11","reference":"M 6469.2"}},"osm_tags":{"seamark:light:character":"Oc","seamark:light:colour":"white","seamark:light:height":"10","seamark:light:period":"8","seamark:light:range":"11","seamark:light:reference":"M 6469.2","seamark:type":"light_minor","source":"US NGA Pub. 112. 2009-11-12."}}},{"type":"Feature","geometry":{"type":"Point","coordinates":[140.1952854,35.1222507]},"properties":{"osm_id":1211620341,"osm_type":"node","seamark_type":"light_minor","display_class":"OTHER","min_zoom":12,"importance":1,"name":null,"ref":null,"common":{"information":"5 White round concrete structure; Fl 1131.","type":"light_minor"},"children":{"light":{"character":"FFl","colour":"green","height":"11","period":"4","reference":"M 6469.4"}},"osm_tags":{"seamark:information":"5 White round concrete structure; Fl 1131.","seamark:light:character":"FFl","seamark:light:colour":"green","seamark:light:height":"11","seamark:light:period":"4","seamark:light:reference":"M 6469.4","seamark:type":"light_minor","source":"US NGA Pub. 112. 2009-11-12."}}},{"type":"Feature","geometry":{"type":"Point","coordinates":[140.157968,35.1239917]},"properties":{"osm_id":1211620349,"osm_type":"node","seamark_type":"light_minor","display_class":"OTHER","min_zoom":12,"importance":1,"name":null,"ref":null,"common":{"type":"light_minor"},"children":{"light":{"category":"upper","character":"F","colour":"red","height":"62","range":"10","reference":"M 6468.41"}},"osm_tags":{"seamark:light:category":"upper","seamark:light:character":"F","seamark:light:colour":"red","seamark:light:height":"62","seamark:light:range":"10","seamark:light:reference":"M 6468.41","seamark:type":"light_minor","source":"US NGA Pub. 112. 2009-11-12."}}},{"type":"Feature","geometry":{"type":"Point","coordinates":[140.1603601,35.1199504]},"properties":{"osm_id":1211620353,"osm_type":"node","seamark_type":"light_minor","display_class":"OTHER","min_zoom":12,"importance":1,"name":null,"ref":null,"common":{"type":"light_minor"},"children":{"light":{"character":"Iso","colour":"green","height":"12","period":"6","range":"11","reference":"M 6468.2"}},"osm_tags":{"seamark:light:character":"Iso","seamark:light:colour":"green","seamark:light:height":"12","seamark:light:period":"6","seamark:light:range":"11","seamark:light:reference":"M 6468.2","seamark:type":"light_minor","source":"US NGA Pub. 112. 2009-11-12."}}},{"type":"Feature","geometry":{"type":"Point","coordinates":[140.1606693,35.121097]},"properties":{"osm_id":1211620357,"osm_type":"node","seamark_type":"light_minor","display_class":"OTHER","min_zoom":12,"importance":1,"name":null,"ref":null,"common":{"type":"light_minor"},"children":{"light":{"character":"Iso","colour":"red","height":"13","period":"6","range":"12","reference":"M 6468"}},"osm_tags":{"seamark:light:character":"Iso","seamark:light:colour":"red","seamark:light:height":"13","seamark:light:period":"6","seamark:light:range":"12","seamark:light:reference":"M 6468","seamark:type":"light_minor","source":"US NGA Pub. 112. 2009-11-12."}}},{"type":"Feature","geometry":{"type":"Point","coordinates":[140.0788474,35.5960782]},"properties":{"osm_id":1211620979,"osm_type":"node","seamark_type":"light_minor","display_class":"OTHER","min_zoom":12,"importance":1,"name":null,"ref":null,"common":{"type":"light_minor"},"children":{"light":{"character":"Mo","colour":"white","group":"U","height":"11","period":"15","range":"11","reference":"M 6430"}},"osm_tags":{"seamark:light:character":"Mo","seamark:light:colour":"white","seamark:light:group":"U","seamark:light:height":"11","seamark:light:period":"15","seamark:light:range":"11","seamark:light:reference":"M 6430","seamark:type":"light_minor","source":"US NGA Pub. 112. 2009-11-12."}}},{"type":"Feature","geometry":{"type":"Point","coordinates":[140.0664381,35.5533837]},"properties":{"osm_id":1211620994,"osm_type":"node","seamark_type":"light_minor","display_class":"OTHER","min_zoom":12,"importance":1,"name":null,"ref":null,"common":{"type":"light_minor"},"children":{"light":{"character":"Fl","colour":"red","group":"2","height":"10","period":"7","range":"11","reference":"M 6434.2"}},"osm_tags":{"seamark:light:character":"Fl","seamark:light:colour":"red","seamark:light:group":"2","seamark:light:height":"10","seamark:light:period":"7","seamark:light:range":"11","seamark:light:reference":"M 6434.2","seamark:type":"light_minor","source":"US NGA Pub. 112. 2009-11-12."}}},{"type":"Feature","geometry":{"type":"Point","coordinates":[140.705279,35.9224429]},"properties":{"osm_id":1212246433,"osm_type":"node","seamark_type":"light_minor","display_class":"OTHER","min_zoom":12,"importance":1,"name":null,"ref":null,"common":{"information":"F.W. 4M by day.","type":"light_minor"},"children":{"light":{"category":"upper","character":"F","colour":"green","height":"31","range":"15","reference":"M 6491.41"}},"osm_tags":{"seamark:information":"F.W. 4M by day.","seamark:light:category":"upper","seamark:light:character":"F","seamark:light:colour":"green","seamark:light:height":"31","seamark:light:range":"15","seamark:light:reference":"M 6491.41","seamark:type":"light_minor","source":"US NGA Pub. 112. 2009-11-12."}}},{"type":"Feature","geometry":{"type":"Point","coordinates":[140.0656873,35.8505891]},"properties":{"osm_id":4666440619,"osm_type":"node","seamark_type":"gate","display_class":"OTHER","min_zoom":12,"importance":1,"name":null,"ref":null,"common":{"type":"gate"},"children":{},"osm_tags":{"seamark:type":"gate","waterway":"lock_gate"}}},{"type":"Feature","geometry":{"type":"Point","coordinates":[140.065459,35.850551]},"properties":{"osm_id":4666440621,"osm_type":"node","seamark_type":"gate","display_class":"OTHER","min_zoom":12,"importance":1,"name":null,"ref":null,"common":{"type":"gate"},"children":{},"osm_tags":{"seamark:type":"gate","waterway":"lock_gate"}}},{"type":"Feature","geometry":{"type":"Point","coordinates":[140.0900174,35.5991308]},"properties":{"osm_id":7504745932,"osm_type":"node","seamark_type":"buoy_lateral","display_class":"OTHER","min_zoom":12,"importance":1,"name":null,"ref":null,"common":{"type":"buoy_lateral"},"children":{"buoy_lateral":{"colour":"red"}},"osm_tags":{"seamark:buoy_lateral:colour":"red","seamark:type":"buoy_lateral"}}},{"type":"Feature","geometry":{"type":"Point","coordinates":[140.0864487,35.5901198]},"properties":{"osm_id":7504745933,"osm_type":"node","seamark_type":"buoy_lateral","display_class":"OTHER","min_zoom":12,"importance":1,"name":null,"ref":null,"common":{"type":"buoy_lateral"},"children":{"buoy_lateral":{"colour":"red"}},"osm_tags":{"seamark:buoy_lateral:colour":"red","seamark:type":"buoy_lateral"}}},{"type":"Feature","geometry":{"type":"Point","coordinates":[140.0755058,35.5937444]},"properties":{"osm_id":7504745934,"osm_type":"node","seamark_type":"buoy_lateral","display_class":"OTHER","min_zoom":12,"importance":1,"name":null,"ref":null,"common":{"type":"buoy_lateral"},"children":{"buoy_lateral":{"colour":"green"}},"osm_tags":{"seamark:buoy_lateral:colour":"green","seamark:type":"buoy_lateral"}}},{"type":"Feature","geometry":{"type":"Point","coordinates":[140.0606806,35.5896928]},"properties":{"osm_id":7504745935,"osm_type":"node","seamark_type":"buoy_lateral","display_class":"OTHER","min_zoom":12,"importance":1,"name":null,"ref":null,"common":{"type":"buoy_lateral"},"children":{"buoy_lateral":{"colour":"green"}},"osm_tags":{"seamark:buoy_lateral:colour":"green","seamark:type":"buoy_lateral"}}},{"type":"Feature","geometry":{"type":"Point","coordinates":[140.0631259,35.5872132]},"properties":{"osm_id":7504745936,"osm_type":"node","seamark_type":"buoy_lateral","display_class":"OTHER","min_zoom":12,"importance":1,"name":null,"ref":null,"common":{"type":"buoy_lateral"},"children":{},"osm_tags":{"seamark:type":"buoy_lateral"}}},{"type":"Feature","geometry":{"type":"Point","coordinates":[140.0691171,35.5940228]},"properties":{"osm_id":7504745937,"osm_type":"node","seamark_type":"buoy_lateral","display_class":"OTHER","min_zoom":12,"importance":1,"name":null,"ref":null,"common":{"type":"buoy_lateral"},"children":{"buoy_lateral":{"colour":"green"}},"osm_tags":{"seamark:buoy_lateral:colour":"green","seamark:type":"buoy_lateral"}}},{"type":"Feature","geometry":{"type":"Point","coordinates":[140.0771731,35.5904706]},"properties":{"osm_id":7504745938,"osm_type":"node","seamark_type":"buoy_lateral","display_class":"OTHER","min_zoom":12,"importance":1,"name":null,"ref":null,"common":{"type":"buoy_lateral"},"children":{},"osm_tags":{"seamark:type":"buoy_lateral"}}},{"type":"Feature","geometry":{"type":"Point","coordinates":[140.099367,35.5895413]},"properties":{"osm_id":7504745939,"osm_type":"node","seamark_type":"buoy_lateral","display_class":"OTHER","min_zoom":12,"importance":1,"name":null,"ref":null,"common":{"type":"buoy_lateral"},"children":{"buoy_lateral":{"colour":"red"}},"osm_tags":{"seamark:buoy_lateral:colour":"red","seamark:type":"buoy_lateral"}}},{"type":"Feature","geometry":{"type":"Point","coordinates":[140.1098792,35.5773103]},"properties":{"osm_id":7504745940,"osm_type":"node","seamark_type":"buoy_lateral","display_class":"OTHER","min_zoom":12,"importance":1,"name":null,"ref":null,"common":{"type":"buoy_lateral"},"children":{"buoy_lateral":{"colour":"red"}},"osm_tags":{"seamark:buoy_lateral:colour":"red","seamark:type":"buoy_lateral"}}},{"type":"Feature","geometry":{"type":"Point","coordinates":[140.1121865,35.5676625]},"properties":{"osm_id":7504745941,"osm_type":"node","seamark_type":"buoy_lateral","display_class":"OTHER","min_zoom":12,"importance":1,"name":null,"ref":null,"common":{"type":"buoy_lateral"},"children":{"buoy_lateral":{"colour":"red"}},"osm_tags":{"seamark:buoy_lateral:colour":"red","seamark:type":"buoy_lateral"}}},{"type":"Feature","geometry":{"type":"Point","coordinates":[140.1236839,35.5680449]},"properties":{"osm_id":7504745942,"osm_type":"node","seamark_type":"buoy_lateral","display_class":"OTHER","min_zoom":12,"importance":1,"name":null,"ref":null,"common":{"type":"buoy_lateral"},"children":{"buoy_lateral":{"colour":"red"}},"osm_tags":{"seamark:buoy_lateral:colour":"red","seamark:type":"buoy_lateral"}}},{"type":"Feature","geometry":{"type":"Point","coordinates":[140.1041756,35.5671245]},"properties":{"osm_id":7504745943,"osm_type":"node","seamark_type":"buoy_lateral","display_class":"OTHER","min_zoom":12,"importance":1,"name":null,"ref":null,"common":{"type":"buoy_lateral"},"children":{"buoy_lateral":{"colour":"red"}},"osm_tags":{"seamark:buoy_lateral:colour":"red","seamark:type":"buoy_lateral"}}},{"type":"Feature","geometry":{"type":"Point","coordinates":[140.0895494,35.5688395]},"properties":{"osm_id":7504745944,"osm_type":"node","seamark_type":"buoy_lateral","display_class":"OTHER","min_zoom":12,"importance":1,"name":null,"ref":null,"common":{"type":"buoy_lateral"},"children":{"buoy_lateral":{"colour":"green"}},"osm_tags":{"seamark:buoy_lateral:colour":"green","seamark:type":"buoy_lateral"}}},{"type":"Feature","geometry":{"type":"Point","coordinates":[140.0669086,35.5724095]},"properties":{"osm_id":7504745955,"osm_type":"node","seamark_type":"buoy_lateral","display_class":"OTHER","min_zoom":12,"importance":1,"name":null,"ref":null,"common":{"type":"buoy_lateral"},"children":{"buoy_lateral":{"colour":"green"}},"osm_tags":{"seamark:buoy_lateral:colour":"green","seamark:type":"buoy_lateral"}}},{"type":"Feature","geometry":{"type":"Point","coordinates":[140.0466555,35.5788579]},"properties":{"osm_id":7504745956,"osm_type":"node","seamark_type":"buoy_lateral","display_class":"OTHER","min_zoom":12,"importance":1,"name":null,"ref":null,"common":{"type":"buoy_lateral"},"children":{"buoy_lateral":{"colour":"red"}},"osm_tags":{"seamark:buoy_lateral:colour":"red","seamark:type":"buoy_lateral"}}},{"type":"Feature","geometry":{"type":"Point","coordinates":[140.0446852,35.5815793]},"properties":{"osm_id":7504745957,"osm_type":"node","seamark_type":"buoy_lateral","display_class":"OTHER","min_zoom":12,"importance":1,"name":null,"ref":null,"common":{"type":"buoy_lateral"},"children":{"buoy_lateral":{"colour":"green"}},"osm_tags":{"seamark:buoy_lateral:colour":"green","seamark:type":"buoy_lateral"}}},{"type":"Feature","geometry":{"type":"Point","coordinates":[140.0333503,35.6248967]},"properties":{"osm_id":7504745958,"osm_type":"node","seamark_type":"buoy_lateral","display_class":"OTHER","min_zoom":12,"importance":1,"name":null,"ref":null,"common":{"type":"buoy_lateral"},"children":{"buoy_lateral":{"colour":"green"}},"osm_tags":{"seamark:buoy_lateral:colour":"green","seamark:type":"buoy_lateral"}}},{"type":"Feature","geometry":{"type":"Point","coordinates":[140.0323682,35.624781]},"properties":{"osm_id":7504745959,"osm_type":"node","seamark_type":"buoy_lateral","display_class":"OTHER","min_zoom":12,"importance":1,"name":null,"ref":null,"common":{"type":"buoy_lateral"},"children":{"buoy_lateral":{"colour":"green"}},"osm_tags":{"seamark:buoy_lateral:colour":"green","seamark:type":"buoy_lateral"}}},{"type":"Feature","geometry":{"type":"Point","coordinates":[140.0356491,35.6231033]},"properties":{"osm_id":7504745960,"osm_type":"node","seamark_type":"buoy_lateral","display_class":"OTHER","min_zoom":12,"importance":1,"name":null,"ref":null,"common":{"type":"buoy_lateral"},"children":{"buoy_lateral":{"colour":"green"}},"osm_tags":{"seamark:buoy_lateral:colour":"green","seamark:type":"buoy_lateral"}}},{"type":"Feature","geometry":{"type":"Point","coordinates":[140.034336,35.6227591]},"properties":{"osm_id":7504745961,"osm_type":"node","seamark_type":"buoy_lateral","display_class":"OTHER","min_zoom":12,"importance":1,"name":null,"ref":null,"common":{"type":"buoy_lateral"},"children":{"buoy_lateral":{"colour":"green"}},"osm_tags":{"seamark:buoy_lateral:colour":"green","seamark:type":"buoy_lateral"}}},{"type":"Feature","geometry":{"type":"Point","coordinates":[140.0028618,35.660335]},"properties":{"osm_id":13200494507,"osm_type":"node","seamark_type":"mooring","display_class":"OTHER","min_zoom":12,"importance":1,"name":null,"ref":null,"common":{"type":"mooring"},"children":{},"osm_tags":{"seamark:type":"mooring"}}},{"type":"Feature","geometry":{"type":"Point","coordinates":[140.0028162,35.6606097]},"properties":{"osm_id":13200494508,"osm_type":"node","seamark_type":"mooring","display_class":"OTHER","min_zoom":12,"importance":1,"name":null,"ref":null,"common":{"type":"mooring"},"children":{},"osm_tags":{"seamark:type":"mooring"}}},{"type":"Feature","geometry":{"type":"Point","coordinates":[140.0028949,35.6601609]},"properties":{"osm_id":13200494509,"osm_type":"node","seamark_type":"mooring","display_class":"OTHER","min_zoom":12,"importance":1,"name":null,"ref":null,"common":{"type":"mooring"},"children":{},"osm_tags":{"seamark:type":"mooring"}}},{"type":"Feature","geometry":{"type":"Point","coordinates":[140.0027712,35.6608761]},"properties":{"osm_id":13200494510,"osm_type":"node","seamark_type":"mooring","display_class":"OTHER","min_zoom":12,"importance":1,"name":null,"ref":null,"common":{"type":"mooring"},"children":{},"osm_tags":{"seamark:type":"mooring"}}},{"type":"Feature","geometry":{"type":"Point","coordinates":[140.0027251,35.6611465]},"properties":{"osm_id":13200494511,"osm_type":"node","seamark_type":"mooring","display_class":"OTHER","min_zoom":12,"importance":1,"name":null,"ref":null,"common":{"type":"mooring"},"children":{},"osm_tags":{"seamark:type":"mooring"}}},{"type":"Feature","geometry":{"type":"Point","coordinates":[140.002683,35.6614106]},"properties":{"osm_id":13200494512,"osm_type":"node","seamark_type":"mooring","display_class":"OTHER","min_zoom":12,"importance":1,"name":null,"ref":null,"common":{"type":"mooring"},"children":{},"osm_tags":{"seamark:type":"mooring"}}},{"type":"Feature","geometry":{"type":"Point","coordinates":[140.0026321,35.6616786]},"properties":{"osm_id":13200494513,"osm_type":"node","seamark_type":"mooring","display_class":"OTHER","min_zoom":12,"importance":1,"name":null,"ref":null,"common":{"type":"mooring"},"children":{},"osm_tags":{"seamark:type":"mooring"}}},{"type":"Feature","geometry":{"type":"Point","coordinates":[140.002588,35.6619489]},"properties":{"osm_id":13200494514,"osm_type":"node","seamark_type":"mooring","display_class":"OTHER","min_zoom":12,"importance":1,"name":null,"ref":null,"common":{"type":"mooring"},"children":{},"osm_tags":{"seamark:type":"mooring"}}},{"type":"Feature","geometry":{"type":"Point","coordinates":[140.002543,35.662213]},"properties":{"osm_id":13200494515,"osm_type":"node","seamark_type":"mooring","display_class":"OTHER","min_zoom":12,"importance":1,"name":null,"ref":null,"common":{"type":"mooring"},"children":{},"osm_tags":{"seamark:type":"mooring"}}},{"type":"Feature","geometry":{"type":"Point","coordinates":[140.0024998,35.6624833]},"properties":{"osm_id":13200494516,"osm_type":"node","seamark_type":"mooring","display_class":"OTHER","min_zoom":12,"importance":1,"name":null,"ref":null,"common":{"type":"mooring"},"children":{},"osm_tags":{"seamark:type":"mooring"}}},{"type":"Feature","geometry":{"type":"Point","coordinates":[140.0024528,35.662749]},"properties":{"osm_id":13200494517,"osm_type":"node","seamark_type":"mooring","display_class":"OTHER","min_zoom":12,"importance":1,"name":null,"ref":null,"common":{"type":"mooring"},"children":{},"osm_tags":{"seamark:type":"mooring"}}},{"type":"Feature","geometry":{"type":"Point","coordinates":[140.0024049,35.6630193]},"properties":{"osm_id":13200494518,"osm_type":"node","seamark_type":"mooring","display_class":"OTHER","min_zoom":12,"importance":1,"name":null,"ref":null,"common":{"type":"mooring"},"children":{},"osm_tags":{"seamark:type":"mooring"}}},{"type":"Feature","geometry":{"type":"Point","coordinates":[140.002378,35.6632024]},"properties":{"osm_id":13200494519,"osm_type":"node","seamark_type":"mooring","display_class":"OTHER","min_zoom":12,"importance":1,"name":null,"ref":null,"common":{"type":"mooring"},"children":{},"osm_tags":{"seamark:type":"mooring"}}},{"type":"Feature","geometry":{"type":"Point","coordinates":[140.0338611,35.5124167]},"properties":{"osm_id":13531532738,"osm_type":"node","seamark_type":"buoy_special_purpose","display_class":"OTHER","min_zoom":12,"importance":1,"name":null,"ref":null,"common":{"type":"buoy_special_purpose"},"children":{"buoy_special_purpose":{"colour":"yellow","shape":"spar"}},"osm_tags":{"seamark:buoy_special_purpose:colour":"yellow","seamark:buoy_special_purpose:shape":"spar","seamark:type":"buoy_special_purpose"}}},{"type":"Feature","geometry":{"type":"Point","coordinates":[140.0336667,35.5128889]},"properties":{"osm_id":13531532739,"osm_type":"node","seamark_type":"buoy_special_purpose","display_class":"OTHER","min_zoom":12,"importance":1,"name":null,"ref":null,"common":{"type":"buoy_special_purpose"},"children":{"buoy_special_purpose":{"colour":"yellow","shape":"spar"}},"osm_tags":{"seamark:buoy_special_purpose:colour":"yellow","seamark:buoy_special_purpose:shape":"spar","seamark:type":"buoy_special_purpose"}}},{"type":"Feature","geometry":{"type":"Point","coordinates":[140.0335,35.5131111]},"properties":{"osm_id":13531532740,"osm_type":"node","seamark_type":"buoy_special_purpose","display_class":"OTHER","min_zoom":12,"importance":1,"name":null,"ref":null,"common":{"type":"buoy_special_purpose"},"children":{"buoy_special_purpose":{"colour":"yellow","shape":"spar"}},"osm_tags":{"seamark:buoy_special_purpose:colour":"yellow","seamark:buoy_special_purpose:shape":"spar","seamark:type":"buoy_special_purpose"}}},{"type":"Feature","geometry":{"type":"Point","coordinates":[140.0360572,35.516097]},"properties":{"osm_id":13852124717,"osm_type":"node","seamark_type":"light_minor","display_class":"OTHER","min_zoom":12,"importance":1,"name":null,"ref":null,"common":{"type":"light_minor"},"children":{"light":{"character":"Mo","colour":"red","group":"U","period":"10","reference":"M 6434.671"}},"osm_tags":{"seamark:light:character":"Mo","seamark:light:colour":"red","seamark:light:group":"U","seamark:light:period":"10","seamark:light:reference":"M 6434.671","seamark:type":"light_minor"}}},{"type":"Feature","geometry":{"type":"Point","coordinates":[140.0384384,35.5188941]},"properties":{"osm_id":13852124718,"osm_type":"node","seamark_type":"light_minor","display_class":"OTHER","min_zoom":12,"importance":1,"name":null,"ref":null,"common":{"type":"light_minor"},"children":{"light":{"character":"Mo","colour":"red","group":"U","period":"10","reference":"M 6434.672"}},"osm_tags":{"seamark:light:character":"Mo","seamark:light:colour":"red","seamark:light:group":"U","seamark:light:period":"10","seamark:light:reference":"M 6434.672","seamark:type":"light_minor"}}},{"type":"Feature","geometry":{"type":"LineString","coordinates":[[140.8177465,35.7461336],[140.8176836,35.7457081]]},"properties":{"osm_id":105214782,"osm_type":"way","seamark_type":"small_craft_facility","display_class":"OTHER","min_zoom":12,"importance":1,"name":null,"ref":null,"common":{"information":"cable winch","type":"small_craft_facility"},"children":{"small_craft_facility":{"category":"slipway"}},"osm_tags":{"leisure":"slipway","seamark:information":"cable winch","seamark:small_craft_facility:category":"slipway","seamark:type":"small_craft_facility"}}},{"type":"Feature","geometry":{"type":"LineString","coordinates":[[140.8365208,35.7521928],[140.8368967,35.752466]]},"properties":{"osm_id":105214806,"osm_type":"way","seamark_type":"small_craft_facility","display_class":"OTHER","min_zoom":12,"importance":1,"name":null,"ref":null,"common":{"information":"by car","type":"small_craft_facility"},"children":{"small_craft_facility":{"category":"slipway"}},"osm_tags":{"leisure":"slipway","seamark:information":"by car","seamark:small_craft_facility:category":"slipway","seamark:type":"small_craft_facility"}}},{"type":"Feature","geometry":{"type":"Point","coordinates":[140.1583852,35.1233135]},"properties":{"osm_id":1211620346,"osm_type":"node","seamark_type":"light_minor","display_class":"OTHER","min_zoom":12,"importance":1,"name":"Amatsu Ko","ref":null,"common":{"name":"Amatsu Ko","type":"light_minor"},"children":{"light":{"category":"lower","character":"F","colour":"red","height":"22","range":"10","reference":"M 6468.4"}},"osm_tags":{"seamark:light:category":"lower","seamark:light:character":"F","seamark:light:colour":"red","seamark:light:height":"22","seamark:light:range":"10","seamark:light:reference":"M 6468.4","seamark:name":"Amatsu Ko","seamark:type":"light_minor","source":"US NGA Pub. 112. 2009-11-12.;GSImaps/seamlessphoto"}}},{"type":"Feature","geometry":{"type":"Point","coordinates":[140.8407461,35.7369526]},"properties":{"osm_id":1211620263,"osm_type":"node","seamark_type":"light_minor","display_class":"OTHER","min_zoom":12,"importance":1,"name":"Choshi Ko No.2","ref":null,"common":{"name":"Choshi Ko No.2","type":"light_minor"},"children":{"light":{"character":"Fl","colour":"red","height":"7","period":"5","range":"6","reference":"M 6491"}},"osm_tags":{"seamark:light:character":"Fl","seamark:light:colour":"red","seamark:light:height":"7","seamark:light:period":"5","seamark:light:range":"6","seamark:light:reference":"M 6491","seamark:name":"Choshi Ko No.2","seamark:type":"light_minor","source":"US NGA Pub. 112. 2009-11-12."}}},{"type":"Feature","geometry":{"type":"Point","coordinates":[140.0614824,35.0575303]},"properties":{"osm_id":1211620373,"osm_type":"node","seamark_type":"light_minor","display_class":"OTHER","min_zoom":12,"importance":1,"name":"Emi Ko Mai Shima","ref":null,"common":{"name":"Emi Ko Mai Shima","type":"light_minor"},"children":{"light":{"character":"Fl","colour":"red","group":"2","height":"11","period":"6","range":"11","reference":"M 6465"}},"osm_tags":{"seamark:light:character":"Fl","seamark:light:colour":"red","seamark:light:group":"2","seamark:light:height":"11","seamark:light:period":"6","seamark:light:range":"11","seamark:light:reference":"M 6465","seamark:name":"Emi Ko Mai Shima","seamark:type":"light_minor","source":"US NGA Pub. 112. 2009-11-12."}}},{"type":"Feature","geometry":{"type":"Point","coordinates":[140.1021995,35.0766]},"properties":{"osm_id":1211620376,"osm_type":"node","seamark_type":"light_minor","display_class":"OTHER","min_zoom":12,"importance":1,"name":"Hamanabuto Ko","ref":null,"common":{"information":"8 White round concrete structure; F.W. also lights reef 70 meters Fl 1127.S.","name":"Hamanabuto Ko","type":"light_minor"},"children":{"light":{"character":"FFl","colour":"white","height":"12","period":"5","reference":"M 6465.4"}},"osm_tags":{"seamark:information":"8 White round concrete structure; F.W. also lights reef 70 meters Fl 1127.S.","seamark:light:character":"FFl","seamark:light:colour":"white","seamark:light:height":"12","seamark:light:period":"5","seamark:light:reference":"M 6465.4","seamark:name":"Hamanabuto Ko","seamark:type":"light_minor","source":"US NGA Pub. 112. 2009-11-12."}}},{"type":"Feature","geometry":{"type":"Point","coordinates":[140.1428878,35.1176455]},"properties":{"osm_id":1211620361,"osm_type":"node","seamark_type":"light_minor","display_class":"OTHER","min_zoom":12,"importance":1,"name":"Hamogi Ko","ref":null,"common":{"name":"Hamogi Ko","type":"light_minor"},"children":{"light":{"character":"Fl","colour":"red","height":"12","period":"4","range":"5","reference":"M 6467.4"}},"osm_tags":{"seamark:light:character":"Fl","seamark:light:colour":"red","seamark:light:height":"12","seamark:light:period":"4","seamark:light:range":"5","seamark:light:reference":"M 6467.4","seamark:name":"Hamogi Ko","seamark:type":"light_minor","source":"US NGA Pub. 112. 2009-11-12."}}},{"type":"Feature","geometry":{"type":"Point","coordinates":[140.8566263,35.7478133]},"properties":{"osm_id":1211620242,"osm_type":"node","seamark_type":"light_minor","display_class":"OTHER","min_zoom":12,"importance":1,"name":"Ichino Shima","ref":null,"common":{"name":"Ichino Shima","type":"light_minor"},"children":{"light":{"character":"Iso","colour":"white","height":"16","period":"4","range":"13","reference":"M 6482"}},"osm_tags":{"seamark:light:character":"Iso","seamark:light:colour":"white","seamark:light:height":"16","seamark:light:period":"4","seamark:light:range":"13","seamark:light:reference":"M 6482","seamark:name":"Ichino Shima","seamark:type":"light_minor","source":"US NGA Pub. 112. 2009-11-12."}}},{"type":"Feature","geometry":{"type":"Point","coordinates":[140.3661666,35.1781944]},"properties":{"osm_id":1211620305,"osm_type":"node","seamark_type":"light_minor","display_class":"OTHER","min_zoom":12,"importance":1,"name":"Iwawada Ko, breakwater","ref":null,"common":{"information":"Red tower;21.","name":"Iwawada Ko, breakwater","type":"light_minor"},"children":{"light":{"character":"Fl","colour":"red","height":"10","period":"3","range":"5","reference":"M 6470.7"}},"osm_tags":{"seamark:information":"Red tower;21.","seamark:light:character":"Fl","seamark:light:colour":"red","seamark:light:height":"10","seamark:light:period":"3","seamark:light:range":"5","seamark:light:reference":"M 6470.7","seamark:name":"Iwawada Ko, breakwater","seamark:type":"light_minor","source":"US NGA Pub. 112. 2019-03-02."}}},{"type":"Feature","geometry":{"type":"Point","coordinates":[140.1083797,35.0939578]},"properties":{"osm_id":1211620368,"osm_type":"node","seamark_type":"light_minor","display_class":"OTHER","min_zoom":12,"importance":1,"name":"Kamogawa Ko","ref":null,"common":{"name":"Kamogawa Ko","type":"light_minor"},"children":{"light":{"character":"Iso","colour":"red","height":"12","period":"6","range":"11","reference":"M 6466.6"}},"osm_tags":{"seamark:light:character":"Iso","seamark:light:colour":"red","seamark:light:height":"12","seamark:light:period":"6","seamark:light:range":"11","seamark:light:reference":"M 6466.6","seamark:name":"Kamogawa Ko","seamark:type":"light_minor","source":"US NGA Pub. 112. 2009-11-12."}}},{"type":"Feature","geometry":{"type":"Point","coordinates":[140.7004059,35.9626571]},"properties":{"osm_id":1211620210,"osm_type":"node","seamark_type":"light_minor","display_class":"OTHER","min_zoom":12,"importance":1,"name":"Kashima Ko","ref":null,"common":{"name":"Kashima Ko","type":"light_minor"},"children":{"light":{"1:character":"F","1:colour":"red","1:height":"17","1:range":"13","1:sector_end":"220.3","1:sector_start":"218.3","2:character":"F","2:colour":"white","2:height":"17","2:range":"13","2:sector_end":"224.3","2:sector_start":"220.3","3:character":"F","3:colour":"green","3:height":"17","3:range":"13","3:sector_end":"226.3","3:sector_start":"224.3","4:character":"Iso","4:colour":"red","4:height":"17","4:period":"4","4:range":"13","4:sector_end":"218.3","4:sector_start":"216.3","5:character":"Iso","5:colour":"green","5:height":"17","5:period":"4","5:range":"13","5:sector_end":"228.3","5:sector_start":"226.3","reference":"M 6492.4"}},"osm_tags":{"seamark:light:1:character":"F","seamark:light:1:colour":"red","seamark:light:1:height":"17","seamark:light:1:range":"13","seamark:light:1:sector_end":"220.3","seamark:light:1:sector_start":"218.3","seamark:light:2:character":"F","seamark:light:2:colour":"white","seamark:light:2:height":"17","seamark:light:2:range":"13","seamark:light:2:sector_end":"224.3","seamark:light:2:sector_start":"220.3","seamark:light:3:character":"F","seamark:light:3:colour":"green","seamark:light:3:height":"17","seamark:light:3:range":"13","seamark:light:3:sector_end":"226.3","seamark:light:3:sector_start":"224.3","seamark:light:4:character":"Iso","seamark:light:4:colour":"red","seamark:light:4:height":"17","seamark:light:4:period":"4","seamark:light:4:range":"13","seamark:light:4:sector_end":"218.3","seamark:light:4:sector_start":"216.3","seamark:light:5:character":"Iso","seamark:light:5:colour":"green","seamark:light:5:height":"17","seamark:light:5:period":"4","seamark:light:5:range":"13","seamark:light:5:sector_end":"228.3","seamark:light:5:sector_start":"226.3","seamark:light:reference":"M 6492.4","seamark:name":"Kashima Ko","seamark:type":"light_minor","source":"US NGA Pub. 112. 2009-11-12."}}},{"type":"Feature","geometry":{"type":"Point","coordinates":[140.7033778,35.9386875]},"properties":{"osm_id":1211620225,"osm_type":"node","seamark_type":"light_minor","display_class":"OTHER","min_zoom":12,"importance":1,"name":"Kashima Ko","ref":null,"common":{"name":"Kashima Ko","type":"light_minor"},"children":{"light":{"character":"Iso","colour":"red","height":"12","period":"4","range":"12","reference":"M 6491.2"}},"osm_tags":{"seamark:light:character":"Iso","seamark:light:colour":"red","seamark:light:height":"12","seamark:light:period":"4","seamark:light:range":"12","seamark:light:reference":"M 6491.2","seamark:name":"Kashima Ko","seamark:type":"light_minor","source":"US NGA Pub. 112. 2009-11-12."}}},{"type":"Feature","geometry":{"type":"Point","coordinates":[140.327715,35.1457212]},"properties":{"osm_id":1211620317,"osm_type":"node","seamark_type":"light_minor","display_class":"OTHER","min_zoom":12,"importance":1,"name":"Kawatzu Ko","ref":null,"common":{"information":"White tower; 28.","name":"Kawatzu Ko","type":"light_minor"},"children":{"light":{"character":"FFl","colour":"green","height":"10","period":"5","reference":"M 6470.3"}},"osm_tags":{"seamark:information":"White tower; 28.","seamark:light:character":"FFl","seamark:light:colour":"green","seamark:light:height":"10","seamark:light:period":"5","seamark:light:reference":"M 6470.3","seamark:name":"Kawatzu Ko","seamark:type":"light_minor","source":"US NGA Pub. 112. 2009-11-12."}}},{"type":"Feature","geometry":{"type":"Point","coordinates":[140.331859,35.1547368]},"properties":{"osm_id":1211620313,"osm_type":"node","seamark_type":"light_minor","display_class":"OTHER","min_zoom":12,"importance":1,"name":"Kazuea Toyohama Ko","ref":null,"common":{"name":"Kazuea Toyohama Ko","type":"light_minor"},"children":{"light":{"character":"Iso","colour":"green","height":"12","period":"4","range":"11","reference":"M 6470.2"}},"osm_tags":{"seamark:light:character":"Iso","seamark:light:colour":"green","seamark:light:height":"12","seamark:light:period":"4","seamark:light:range":"11","seamark:light:reference":"M 6470.2","seamark:name":"Kazuea Toyohama Ko","seamark:type":"light_minor","source":"US NGA Pub. 112. 2009-11-12."}}},{"type":"Feature","geometry":{"type":"Point","coordinates":[140.4028169,35.256989]},"properties":{"osm_id":1211620285,"osm_type":"node","seamark_type":"light_minor","display_class":"OTHER","min_zoom":12,"importance":1,"name":"Ohara Ko","ref":null,"common":{"name":"Ohara Ko","type":"light_minor"},"children":{"light":{"category":"lower","character":"F","colour":"green","height":"12","range":"10","reference":"M 6471.1"}},"osm_tags":{"seamark:light:category":"lower","seamark:light:character":"F","seamark:light:colour":"green","seamark:light:height":"12","seamark:light:range":"10","seamark:light:reference":"M 6471.1","seamark:name":"Ohara Ko","seamark:type":"light_minor","source":"US NGA Pub. 112. 2009-11-12."}}},{"type":"Feature","geometry":{"type":"Point","coordinates":[140.4061287,35.2558183]},"properties":{"osm_id":1211620294,"osm_type":"node","seamark_type":"light_minor","display_class":"OTHER","min_zoom":12,"importance":1,"name":"Ohara Ko","ref":null,"common":{"name":"Ohara Ko","type":"light_minor"},"children":{"light":{"character":"Iso","colour":"red","height":"9","period":"4","range":"7","reference":"M 6471.03"}},"osm_tags":{"seamark:light:character":"Iso","seamark:light:colour":"red","seamark:light:height":"9","seamark:light:period":"4","seamark:light:range":"7","seamark:light:reference":"M 6471.03","seamark:name":"Ohara Ko","seamark:type":"light_minor","source":"US NGA Pub. 112. 2009-11-12."}}},{"type":"Feature","geometry":{"type":"Point","coordinates":[140.3492162,35.1783965]},"properties":{"osm_id":1211620310,"osm_type":"node","seamark_type":"light_minor","display_class":"OTHER","min_zoom":12,"importance":1,"name":"Onzyuku Ko","ref":null,"common":{"name":"Onzyuku Ko","type":"light_minor"},"children":{"light":{"character":"Fl","colour":"green","height":"8","period":"3","range":"5","reference":"M 6470.8"}},"osm_tags":{"seamark:light:character":"Fl","seamark:light:colour":"green","seamark:light:height":"8","seamark:light:period":"3","seamark:light:range":"5","seamark:light:reference":"M 6470.8","seamark:name":"Onzyuku Ko","seamark:type":"light_minor","source":"US NGA Pub. 112. 2009-11-12."}}},{"type":"Feature","geometry":{"type":"Point","coordinates":[140.1130107,35.094257]},"properties":{"osm_id":1211620372,"osm_type":"node","seamark_type":"light_minor","display_class":"OTHER","min_zoom":12,"importance":1,"name":"Oura","ref":null,"common":{"name":"Oura","type":"light_minor"},"children":{"light":{"character":"Iso","colour":"green","height":"11","period":"6","range":"4","reference":"M 6466.4"}},"osm_tags":{"seamark:light:character":"Iso","seamark:light:colour":"green","seamark:light:height":"11","seamark:light:period":"6","seamark:light:range":"4","seamark:light:reference":"M 6466.4","seamark:name":"Oura","seamark:type":"light_minor","source":"US NGA Pub. 112. 2009-11-12."}}},{"type":"Feature","geometry":{"type":"Polygon","coordinates":[[[140.3999117,35.3285877],[140.4003949,35.3292621],[140.4003829,35.3292694],[140.4005332,35.3294552],[140.4010119,35.3296944],[140.4010131,35.329706],[140.4013275,35.329708],[140.4013261,35.3294154],[140.4014139,35.329416],[140.401415,35.3294748],[140.4014229,35.3297611],[140.4014815,35.3300053],[140.4016461,35.3299834],[140.4017174,35.3299973],[140.4024095,35.3298923],[140.4027374,35.3300426],[140.4026863,35.3301242],[140.402339,35.3299715],[140.4019859,35.3300313],[140.4019899,35.3300549],[140.402003,35.3300776],[140.4021295,35.3300605],[140.4023136,35.3300261],[140.4023686,35.3300601],[140.4023619,35.330171],[140.4022333,35.3302294],[140.4021168,35.3302091],[140.4017814,35.3302909],[140.4017047,35.33035],[140.4017718,35.3304691],[140.4017983,35.3304863],[140.4018129,35.3305907],[140.401742,35.3306588],[140.4031149,35.3311249],[140.4033287,35.3307568],[140.4032192,35.3304333],[140.4032737,35.3304183],[140.4029697,35.3294836],[140.4027293,35.3295375],[140.402703,35.3294886],[140.4029475,35.3294292],[140.4029597,35.328636],[140.4029791,35.3286354],[140.4029786,35.3285497],[140.4023073,35.3285583],[140.4023039,35.3286463],[140.4017573,35.3286539],[140.4017714,35.3291894],[140.40141,35.3291945],[140.4014113,35.3292851],[140.4013192,35.329284],[140.4013117,35.32864],[140.4008597,35.328121],[140.3999117,35.3285877]]]},"properties":{"osm_id":1302557323,"osm_type":"way","seamark_type":"harbour","display_class":"OTHER","min_zoom":12,"importance":1,"name":"Taitō Port","ref":null,"common":{"type":"harbour"},"children":{"harbour":{"category":"marina"}},"osm_tags":{"leisure":"marina","name":"Taitō Port","seamark:harbour:category":"marina","seamark:type":"harbour"}}},{"type":"Feature","geometry":{"type":"Point","coordinates":[140.0370885,35.5176994]},"properties":{"osm_id":1211621020,"osm_type":"node","seamark_type":"light_minor","display_class":"OTHER","min_zoom":12,"importance":1,"name":"Tiba Ko","ref":null,"common":{"name":"Tiba Ko","type":"light_minor"},"children":{"fog_signal":{"category":"horn","character":"Mo","group":"U","period":"30"},"light":{"character":"Mo","colour":"white","group":"U","height":"34","period":"10","range":"10","reference":"M 6434.67"}},"osm_tags":{"seamark:fog_signal:category":"horn","seamark:fog_signal:character":"Mo","seamark:fog_signal:group":"U","seamark:fog_signal:period":"30","seamark:light:character":"Mo","seamark:light:colour":"white","seamark:light:group":"U","seamark:light:height":"34","seamark:light:period":"10","seamark:light:range":"10","seamark:light:reference":"M 6434.67","seamark:name":"Tiba Ko","seamark:type":"light_minor","source":"US NGA Pub. 112. 2009-11-12."}}},{"type":"Feature","geometry":{"type":"Point","coordinates":[140.0688923,35.5568884]},"properties":{"osm_id":1211620990,"osm_type":"node","seamark_type":"light_minor","display_class":"OTHER","min_zoom":12,"importance":1,"name":"Tiba Ko Itihara","ref":null,"common":{"name":"Tiba Ko Itihara","type":"light_minor"},"children":{"light":{"character":"Fl","colour":"green","group":"2","height":"10","period":"6","range":"7","reference":"M 6433.6"}},"osm_tags":{"seamark:light:character":"Fl","seamark:light:colour":"green","seamark:light:group":"2","seamark:light:height":"10","seamark:light:period":"6","seamark:light:range":"7","seamark:light:reference":"M 6433.6","seamark:name":"Tiba Ko Itihara","seamark:type":"light_minor","source":"US NGA Pub. 112. 2009-11-12."}}},{"type":"Feature","geometry":{"type":"Point","coordinates":[140.0233008,35.6109588]},"properties":{"osm_id":1211620966,"osm_type":"node","seamark_type":"light_minor","display_class":"OTHER","min_zoom":12,"importance":1,"name":"Tiba Ku","ref":null,"common":{"name":"Tiba Ku","radar_reflector":"yes","type":"light_minor"},"children":{"light":{"1:character":"Mo","1:colour":"white","1:group":"U","1:height":"18","1:period":"9","1:range":"8","1:sector_end":"215","1:sector_start":"235","reference":"M 6431"}},"osm_tags":{"seamark:light:1:character":"Mo","seamark:light:1:colour":"white","seamark:light:1:group":"U","seamark:light:1:height":"18","seamark:light:1:period":"9","seamark:light:1:range":"8","seamark:light:1:sector_end":"215","seamark:light:1:sector_start":"235","seamark:light:reference":"M 6431","seamark:name":"Tiba Ku","seamark:radar_reflector":"yes","seamark:type":"light_minor","source":"US NGA Pub. 112. 2009-11-12."}}},{"type":"Feature","geometry":{"type":"Point","coordinates":[140.8496727,35.6940899]},"properties":{"osm_id":1211620274,"osm_type":"node","seamark_type":"light_minor","display_class":"OTHER","min_zoom":12,"importance":1,"name":"Togawa Ko","ref":null,"common":{"information":"31.","name":"Togawa Ko","type":"light_minor"},"children":{"light":{"character":"Fl","colour":"red","height":"13","period":"4","range":"5","reference":"M 6479"}},"osm_tags":{"seamark:information":"31.","seamark:light:character":"Fl","seamark:light:colour":"red","seamark:light:height":"13","seamark:light:period":"4","seamark:light:range":"5","seamark:light:reference":"M 6479","seamark:name":"Togawa Ko","seamark:type":"light_minor","source":"US NGA Pub. 112. 2009-11-12."}}},{"type":"Feature","geometry":{"type":"Point","coordinates":[140.8602434,35.7497386]},"properties":{"osm_id":1211620253,"osm_type":"node","seamark_type":"light_minor","display_class":"OTHER","min_zoom":12,"importance":1,"name":"Tyosi Ko","ref":null,"common":{"name":"Tyosi Ko","type":"light_minor"},"children":{"light":{"character":"Fl","colour":"green","height":"15","period":"3","range":"11","reference":"M 6482.4"}},"osm_tags":{"seamark:light:character":"Fl","seamark:light:colour":"green","seamark:light:height":"15","seamark:light:period":"3","seamark:light:range":"11","seamark:light:reference":"M 6482.4","seamark:name":"Tyosi Ko","seamark:type":"light_minor","source":"US NGA Pub. 112. 2009-11-12."}}},{"type":"Feature","geometry":{"type":"Point","coordinates":[140.0134575,35.0338691]},"properties":{"osm_id":1211620374,"osm_type":"node","seamark_type":"light_minor","display_class":"OTHER","min_zoom":12,"importance":1,"name":"Wado Ko","ref":null,"common":{"name":"Wado Ko","type":"light_minor"},"children":{"light":{"character":"Fl","colour":"red","height":"13","period":"4","range":"7","reference":"M 6463"}},"osm_tags":{"seamark:light:character":"Fl","seamark:light:colour":"red","seamark:light:height":"13","seamark:light:period":"4","seamark:light:range":"7","seamark:light:reference":"M 6463","seamark:name":"Wado Ko","seamark:type":"light_minor","source":"US NGA Pub. 112. 2009-11-12."}}},{"type":"Feature","geometry":{"type":"Point","coordinates":[140.0267525,35.8619641]},"properties":{"osm_id":12962750112,"osm_type":"node","seamark_type":"harbour","display_class":"OTHER","min_zoom":12,"importance":1,"name":"アルバトロスヨットクラブ","ref":null,"common":{"type":"harbour"},"children":{"harbour":{"category":"marina"}},"osm_tags":{"leisure":"marina","name":"アルバトロスヨットクラブ","seamark:harbour:category":"marina","seamark:type":"harbour"}}},{"type":"Feature","geometry":{"type":"Point","coordinates":[140.1054704,35.0983624]},"properties":{"osm_id":7132614707,"osm_type":"node","seamark_type":"harbour","display_class":"OTHER","min_zoom":12,"importance":1,"name":"フィッシャリーナ鴨川","ref":null,"common":{"type":"harbour"},"children":{"harbour":{"category":"marina"}},"osm_tags":{"leisure":"marina","name":"フィッシャリーナ鴨川","seamark:harbour:category":"marina","seamark:type":"harbour"}}},{"type":"Feature","geometry":{"type":"Point","coordinates":[140.5324492,35.940155]},"properties":{"osm_id":5354931468,"osm_type":"node","seamark_type":"gate","display_class":"OTHER","min_zoom":12,"importance":1,"name":"大割閘門","ref":null,"common":{"type":"gate"},"children":{},"osm_tags":{"name":"大割閘門","seamark:type":"gate","waterway":"lock_gate"}}},{"type":"Feature","geometry":{"type":"Point","coordinates":[140.4945522,35.9116961]},"properties":{"osm_id":5354071529,"osm_type":"node","seamark_type":"gate","display_class":"OTHER","min_zoom":12,"importance":1,"name":"横利根閘門","ref":null,"common":{"type":"gate"},"children":{},"osm_tags":{"name":"横利根閘門","name:en":"Yokotone Lock Gate","name:ja":"横利根閘門","seamark:type":"gate","waterway":"lock_gate","wikidata":"Q11542406","wikipedia":"ja:横利根閘門"}}},{"type":"Feature","geometry":{"type":"Point","coordinates":[140.4937369,35.9123054]},"properties":{"osm_id":5354071530,"osm_type":"node","seamark_type":"gate","display_class":"OTHER","min_zoom":12,"importance":1,"name":"横利根閘門","ref":null,"common":{"type":"gate"},"children":{},"osm_tags":{"name":"横利根閘門","name:en":"Yokotone Lock Gate","name:ja":"横利根閘門","seamark:type":"gate","waterway":"lock_gate","wikidata":"Q11542406","wikipedia":"ja:横利根閘門"}}},{"type":"Feature","geometry":{"type":"Polygon","coordinates":[[[140.460558,35.5312427],[140.460685,35.5313628],[140.4604748,35.5322806],[140.4605447,35.5328227],[140.4608137,35.5331127],[140.461069,35.5334119],[140.4613741,35.5337954],[140.461938,35.5342318],[140.4623575,35.5344674],[140.4626552,35.5345633],[140.4630412,35.5347563],[140.4633504,35.5349232],[140.4635196,35.5349209],[140.4636482,35.534906],[140.463627,35.5347761],[140.4636385,35.5347669],[140.4637177,35.5348804],[140.4638018,35.5349401],[140.4640092,35.5348977],[140.4642731,35.534849],[140.4645115,35.5347789],[140.4645677,35.5344855],[140.4645797,35.5343364],[140.4644026,35.5343207],[140.4644165,35.5342198],[140.4644675,35.534225],[140.4645006,35.5341353],[140.4648884,35.5341633],[140.4652715,35.5341904],[140.4653847,35.5342273],[140.465529,35.534237],[140.4656805,35.5342565],[140.4658185,35.5342485],[140.4660174,35.5342795],[140.466233,35.5342999],[140.466375,35.5343229],[140.4664664,35.5343434],[140.4665038,35.5343635],[140.4665394,35.5344611],[140.4666087,35.5344718],[140.466594,35.5345656],[140.46475,35.5343618],[140.4646073,35.5351308],[140.464486,35.5352037],[140.4642712,35.5353327],[140.4646835,35.5357733],[140.4655671,35.5352739],[140.4656261,35.5353623],[140.4653945,35.5354964],[140.465358,35.5355002],[140.4645069,35.5360134],[140.4648029,35.536352],[140.4655684,35.5358826],[140.4656389,35.5358319],[140.4658418,35.5357007],[140.4659152,35.5357871],[140.4652128,35.5362202],[140.465182,35.5364852],[140.4655277,35.5368772],[140.4657241,35.5370474],[140.4658596,35.5370637],[140.4664364,35.5369401],[140.4665898,35.5369011],[140.4666775,35.5368527],[140.4668259,35.5368199],[140.4675083,35.5326215],[140.4675998,35.5326229],[140.4676175,35.532529],[140.4677251,35.5324894],[140.4645126,35.5310234],[140.4646374,35.5311108],[140.4647061,35.5311666],[140.4647127,35.5312225],[140.4646593,35.5312614],[140.464613,35.5312777],[140.4645358,35.5312724],[140.46436,35.5311754],[140.4643313,35.5312204],[140.4641713,35.5311437],[140.4641236,35.5310389],[140.4626869,35.5302984],[140.4625198,35.5302116],[140.4624496,35.5302004],[140.4622861,35.5302993],[140.4622764,35.5302885],[140.4620386,35.5304227],[140.4620476,35.5304326],[140.461345,35.5308206],[140.4613354,35.530808],[140.4606748,35.5311927],[140.4606663,35.5311761],[140.460558,35.5312427]]]},"properties":{"osm_id":1308833539,"osm_type":"way","seamark_type":"harbour","display_class":"OTHER","min_zoom":12,"importance":1,"name":"片貝港","ref":null,"common":{"type":"harbour"},"children":{"harbour":{"category":"marina"}},"osm_tags":{"leisure":"marina","name":"片貝港","name:en":"Katakai Port","seamark:harbour:category":"marina","seamark:type":"harbour"}}}],"type":"FeatureCollection"}