{"type":"FeatureCollection","features":[{"type":"Feature","geometry":{"type":"Point","coordinates":[32.2821014,35.0909851]},"properties":{"osm_id":1581600521,"osm_type":"node","seamark_type":"light_major","display_class":"LIGHTHOUSE","min_zoom":7,"importance":5,"name":"Cape Akamas","ref":null,"common":{"name":"Cape Akamas","type":"light_major"},"children":{"light":{"character":"Fl","colour":"white","group":"2","height":"211","period":"15","range":"17","reference":"E 5910.a"}},"osm_tags":{"man_made":"lighthouse","name":"Akamas LightHouse","seamark:light:character":"Fl","seamark:light:colour":"white","seamark:light:group":"2","seamark:light:height":"211","seamark:light:period":"15","seamark:light:range":"17","seamark:light:reference":"E 5910.a","seamark:name":"Cape Akamas","seamark:type":"light_major","source":"US NGA Pub. 113. 2011-10-20."}}},{"type":"Feature","geometry":{"type":"Point","coordinates":[32.8161594,35.1502992]},"properties":{"osm_id":1581600838,"osm_type":"node","seamark_type":"light_minor","display_class":"OTHER","min_zoom":12,"importance":1,"name":null,"ref":null,"common":{"type":"light_minor"},"children":{"light":{"character":"Fl","colour":"white","height":"18","period":"5","range":"5","reference":"E 5907"}},"osm_tags":{"seamark:light:character":"Fl","seamark:light:colour":"white","seamark:light:height":"18","seamark:light:period":"5","seamark:light:range":"5","seamark:light:reference":"E 5907","seamark:type":"light_minor","source":"US NGA Pub. 113. 2011-10-20."}}},{"type":"Feature","geometry":{"type":"Point","coordinates":[32.555598,35.1750515]},"properties":{"osm_id":2124801637,"osm_type":"node","seamark_type":"harbour","display_class":"OTHER","min_zoom":12,"importance":1,"name":null,"ref":null,"common":{"type":"harbour"},"children":{"harbour":{"category":"marina_no_facilities"}},"osm_tags":{"leisure":"marina","seamark:harbour:category":"marina_no_facilities","seamark:type":"harbour"}}},{"type":"Feature","geometry":{"type":"Point","coordinates":[32.6746827,35.1895974]},"properties":{"osm_id":3431424415,"osm_type":"node","seamark_type":"light_minor","display_class":"OTHER","min_zoom":12,"importance":1,"name":null,"ref":null,"common":{"type":"light_minor"},"children":{"light":{"character":"F","colour":"green"}},"osm_tags":{"seamark:light:character":"F","seamark:light:colour":"green","seamark:type":"light_minor"}}},{"type":"Feature","geometry":{"type":"Point","coordinates":[32.6719287,35.1900402]},"properties":{"osm_id":3431424417,"osm_type":"node","seamark_type":"light_minor","display_class":"OTHER","min_zoom":12,"importance":1,"name":null,"ref":null,"common":{"type":"light_minor"},"children":{"light":{"character":"F","colour":"red"}},"osm_tags":{"seamark:light:character":"F","seamark:light:colour":"red","seamark:type":"light_minor"}}},{"type":"Feature","geometry":{"type":"Point","coordinates":[32.3974598,35.0422117]},"properties":{"osm_id":7521063150,"osm_type":"node","seamark_type":"light_minor","display_class":"OTHER","min_zoom":12,"importance":1,"name":null,"ref":null,"common":{"type":"light_minor"},"children":{"light":{"character":"Fl","colour":"green","exhibition":"night"},"light_minor":{"colour":"green"}},"osm_tags":{"colour":"green","seamark:light:character":"Fl","seamark:light:colour":"green","seamark:light:exhibition":"night","seamark:light_minor:colour":"green","seamark:type":"light_minor"}}},{"type":"Feature","geometry":{"type":"Point","coordinates":[32.8260755,35.1533545]},"properties":{"osm_id":9442214036,"osm_type":"node","seamark_type":"anchorage","display_class":"OTHER","min_zoom":12,"importance":1,"name":null,"ref":null,"common":{"type":"anchorage"},"children":{},"osm_tags":{"seamark:type":"anchorage"}}},{"type":"Feature","geometry":{"type":"Point","coordinates":[32.3261837,35.075982]},"properties":{"osm_id":9461360675,"osm_type":"node","seamark_type":"wreck","display_class":"OTHER","min_zoom":12,"importance":1,"name":null,"ref":null,"common":{"type":"wreck"},"children":{"wreck":{"category":"dangerous"}},"osm_tags":{"depth":"35.7","seamark:type":"wreck","seamark:wreck:category":"dangerous"}}},{"type":"Feature","geometry":{"type":"Point","coordinates":[32.3911536,35.0494201]},"properties":{"osm_id":9461360676,"osm_type":"node","seamark_type":"anchorage","display_class":"OTHER","min_zoom":12,"importance":1,"name":null,"ref":null,"common":{"type":"anchorage"},"children":{},"osm_tags":{"seamark:type":"anchorage"}}},{"type":"Feature","geometry":{"type":"Point","coordinates":[32.3973263,35.0483624]},"properties":{"osm_id":9461360677,"osm_type":"node","seamark_type":"wreck","display_class":"OTHER","min_zoom":12,"importance":1,"name":null,"ref":null,"common":{"type":"wreck"},"children":{"wreck":{"category":"dangerous"}},"osm_tags":{"depth":"13.1","seamark:type":"wreck","seamark:wreck:category":"dangerous"}}},{"type":"Feature","geometry":{"type":"Point","coordinates":[32.4329834,35.0591022]},"properties":{"osm_id":9461360679,"osm_type":"node","seamark_type":"anchorage","display_class":"OTHER","min_zoom":12,"importance":1,"name":null,"ref":null,"common":{"type":"anchorage"},"children":{},"osm_tags":{"seamark:type":"anchorage"}}},{"type":"Feature","geometry":{"type":"Point","coordinates":[32.3017727,35.1004573]},"properties":{"osm_id":9467217364,"osm_type":"node","seamark_type":"wreck","display_class":"OTHER","min_zoom":12,"importance":1,"name":null,"ref":null,"common":{"type":"wreck"},"children":{"wreck":{"category":"dangerous"}},"osm_tags":{"seamark:type":"wreck","seamark:wreck:category":"dangerous"}}},{"type":"Feature","geometry":{"type":"Point","coordinates":[32.3338296,35.0741796]},"properties":{"osm_id":9467217365,"osm_type":"node","seamark_type":"rock","display_class":"OTHER","min_zoom":12,"importance":1,"name":null,"ref":null,"common":{"type":"rock"},"children":{},"osm_tags":{"note":"above CD rock","seamark:type":"rock"}}},{"type":"Feature","geometry":{"type":"Point","coordinates":[32.3344858,35.0741695]},"properties":{"osm_id":9467217366,"osm_type":"node","seamark_type":"rock","display_class":"OTHER","min_zoom":12,"importance":1,"name":null,"ref":null,"common":{"type":"rock"},"children":{},"osm_tags":{"note":"intertidal rock","seamark:type":"rock"}}},{"type":"Feature","geometry":{"type":"Point","coordinates":[32.8378288,35.1425997]},"properties":{"osm_id":9467217367,"osm_type":"node","seamark_type":"light_minor","display_class":"OTHER","min_zoom":12,"importance":1,"name":null,"ref":null,"common":{"type":"light_minor"},"children":{},"osm_tags":{"fixme":"FL.R.3s","seamark:type":"light_minor"}}},{"type":"Feature","geometry":{"type":"Point","coordinates":[32.838914,35.1471327]},"properties":{"osm_id":9467217369,"osm_type":"node","seamark_type":"mooring","display_class":"OTHER","min_zoom":12,"importance":1,"name":null,"ref":null,"common":{"type":"mooring"},"children":{"mooring":{"category":"buoy"}},"osm_tags":{"seamark:mooring:category":"buoy","seamark:type":"mooring"}}},{"type":"Feature","geometry":{"type":"Point","coordinates":[32.8370647,35.146369]},"properties":{"osm_id":9467217370,"osm_type":"node","seamark_type":"mooring","display_class":"OTHER","min_zoom":12,"importance":1,"name":null,"ref":null,"common":{"type":"mooring"},"children":{"mooring":{"category":"buoy"}},"osm_tags":{"seamark:mooring:category":"buoy","seamark:type":"mooring"}}},{"type":"Feature","geometry":{"type":"Point","coordinates":[32.8332353,35.1477895]},"properties":{"osm_id":9467217371,"osm_type":"node","seamark_type":"mooring","display_class":"OTHER","min_zoom":12,"importance":1,"name":null,"ref":null,"common":{"type":"mooring"},"children":{"mooring":{"category":"buoy"}},"osm_tags":{"seamark:mooring:category":"buoy","seamark:type":"mooring"}}},{"type":"Feature","geometry":{"type":"Point","coordinates":[32.8340105,35.1512184]},"properties":{"osm_id":9467217372,"osm_type":"node","seamark_type":"mooring","display_class":"OTHER","min_zoom":12,"importance":1,"name":null,"ref":null,"common":{"type":"mooring"},"children":{"mooring":{"category":"buoy"}},"osm_tags":{"seamark:mooring:category":"buoy","seamark:type":"mooring"}}},{"type":"Feature","geometry":{"type":"Point","coordinates":[32.705833,35.186111]},"properties":{"osm_id":11874699758,"osm_type":"node","seamark_type":"buoy_special_purpose","display_class":"OTHER","min_zoom":12,"importance":1,"name":null,"ref":"W1","common":{"type":"buoy_special_purpose"},"children":{},"osm_tags":{"ref":"W1","seamark:type":"buoy_special_purpose","source":"TRNC gov"}}},{"type":"Feature","geometry":{"type":"Point","coordinates":[32.705833,35.188056]},"properties":{"osm_id":11874699759,"osm_type":"node","seamark_type":"buoy_special_purpose","display_class":"OTHER","min_zoom":12,"importance":1,"name":null,"ref":"W2","common":{"type":"buoy_special_purpose"},"children":{},"osm_tags":{"ref":"W2","seamark:type":"buoy_special_purpose","source":"TRNC gov"}}},{"type":"Feature","geometry":{"type":"Point","coordinates":[32.705833,35.19]},"properties":{"osm_id":11874699760,"osm_type":"node","seamark_type":"buoy_special_purpose","display_class":"OTHER","min_zoom":12,"importance":1,"name":null,"ref":"W3","common":{"type":"buoy_special_purpose"},"children":{},"osm_tags":{"ref":"W3","seamark:type":"buoy_special_purpose","source":"TRNC gov"}}},{"type":"Feature","geometry":{"type":"Point","coordinates":[32.3968303,35.0416515]},"properties":{"osm_id":12517784121,"osm_type":"node","seamark_type":"light_minor","display_class":"OTHER","min_zoom":12,"importance":1,"name":null,"ref":null,"common":{"type":"light_minor"},"children":{"light":{"character":"Fl","colour":"red","exhibition":"night"},"light_minor":{"colour":"red"}},"osm_tags":{"seamark:light:character":"Fl","seamark:light:colour":"red","seamark:light:exhibition":"night","seamark:light_minor:colour":"red","seamark:type":"light_minor"}}},{"type":"Feature","geometry":{"type":"LineString","coordinates":[[32.3967666,35.040979],[32.3966721,35.041063]]},"properties":{"osm_id":317509620,"osm_type":"way","seamark_type":"small_craft_facility","display_class":"OTHER","min_zoom":12,"importance":1,"name":null,"ref":null,"common":{"type":"small_craft_facility"},"children":{"small_craft_facility":{"category":"slipway"}},"osm_tags":{"seamark:small_craft_facility:category":"slipway","seamark:type":"small_craft_facility"}}},{"type":"Feature","geometry":{"type":"LineString","coordinates":[[32.6707159,35.1903959],[32.6709464,35.190361]]},"properties":{"osm_id":336059781,"osm_type":"way","seamark_type":"small_craft_facility","display_class":"OTHER","min_zoom":12,"importance":1,"name":null,"ref":null,"common":{"type":"small_craft_facility"},"children":{"small_craft_facility":{"category":"slipway"}},"osm_tags":{"seamark:small_craft_facility:category":"slipway","seamark:type":"small_craft_facility"}}},{"type":"Feature","geometry":{"type":"LineString","coordinates":[[32.3931658,35.041636],[32.3935001,35.0417404]]},"properties":{"osm_id":978840189,"osm_type":"way","seamark_type":"small_craft_facility","display_class":"OTHER","min_zoom":12,"importance":1,"name":null,"ref":null,"common":{"type":"small_craft_facility"},"children":{"small_craft_facility":{"category":"slipway"}},"osm_tags":{"leisure":"slipway","seamark:small_craft_facility:category":"slipway","seamark:type":"small_craft_facility","width":"8m"}}},{"type":"Feature","geometry":{"type":"LineString","coordinates":[[32.8400646,35.14349],[32.8381574,35.1466439]]},"properties":{"osm_id":1026851758,"osm_type":"way","seamark_type":"pipeline_submarine","display_class":"OTHER","min_zoom":12,"importance":1,"name":null,"ref":null,"common":{"type":"pipeline_submarine"},"children":{"pipeline_submarine":{"category":"supply"}},"osm_tags":{"location":"underwater","man_made":"pipeline","seamark:pipeline_submarine:category":"supply","seamark:type":"pipeline_submarine"}}},{"type":"Feature","geometry":{"type":"Point","coordinates":[32.3948904,35.0418164]},"properties":{"osm_id":9391516855,"osm_type":"node","seamark_type":"harbour","display_class":"OTHER","min_zoom":12,"importance":1,"name":"Latsiou","ref":null,"common":{"type":"harbour"},"children":{"harbour":{"category":"marina"}},"osm_tags":{"leisure":"marina","name":"Latsiou","seamark:harbour:category":"marina","seamark:type":"harbour"}}},{"type":"Feature","geometry":{"type":"Point","coordinates":[32.3936899,35.0418186]},"properties":{"osm_id":9461360678,"osm_type":"node","seamark_type":"harbour","display_class":"OTHER","min_zoom":12,"importance":1,"name":"Latsiou","ref":null,"common":{"type":"harbour"},"children":{"harbour":{"category":"marina_no_facilities"}},"osm_tags":{"description":"Fishing shelter","leisure":"marina","name":"Latsiou","note":"do not merge Latchi marina - different marina classes","seamark:harbour:category":"marina_no_facilities","seamark:type":"harbour"}}},{"type":"Feature","geometry":{"type":"Point","coordinates":[32.7872332,35.1579863]},"properties":{"osm_id":11948161880,"osm_type":"node","seamark_type":"harbour","display_class":"OTHER","min_zoom":12,"importance":1,"name":"Şehit Salih Hüseyin Limanı","ref":null,"common":{"type":"harbour"},"children":{"harbour":{"category":"marina"}},"osm_tags":{"leisure":"marina","name":"Şehit Salih Hüseyin Limanı","seamark:harbour:category":"marina","seamark:type":"harbour"}}}],"type":"FeatureCollection"}