{"type":"FeatureCollection","features":[{"type":"Feature","geometry":{"type":"Point","coordinates":[-93.1473858,35.2233475]},"properties":{"osm_id":13227701113,"osm_type":"node","seamark_type":"mooring","display_class":"OTHER","min_zoom":12,"importance":1,"name":null,"ref":null,"common":{"type":"mooring"},"children":{"mooring":{"category":"pile"}},"osm_tags":{"man_made":"tower","seamark:mooring:category":"pile","seamark:type":"mooring"}}},{"type":"Feature","geometry":{"type":"Point","coordinates":[-93.1475493,35.2236012]},"properties":{"osm_id":13227701114,"osm_type":"node","seamark_type":"mooring","display_class":"OTHER","min_zoom":12,"importance":1,"name":null,"ref":null,"common":{"type":"mooring"},"children":{"mooring":{"category":"pile"}},"osm_tags":{"man_made":"tower","seamark:mooring:category":"pile","seamark:type":"mooring"}}},{"type":"Feature","geometry":{"type":"Point","coordinates":[-93.1476847,35.2238082]},"properties":{"osm_id":13227701115,"osm_type":"node","seamark_type":"mooring","display_class":"OTHER","min_zoom":12,"importance":1,"name":null,"ref":null,"common":{"type":"mooring"},"children":{"mooring":{"category":"pile"}},"osm_tags":{"man_made":"tower","seamark:mooring:category":"pile","seamark:type":"mooring"}}},{"type":"Feature","geometry":{"type":"Point","coordinates":[-93.1477279,35.2238902]},"properties":{"osm_id":13227701116,"osm_type":"node","seamark_type":"mooring","display_class":"OTHER","min_zoom":12,"importance":1,"name":null,"ref":null,"common":{"type":"mooring"},"children":{"mooring":{"category":"pile"}},"osm_tags":{"man_made":"tower","seamark:mooring:category":"pile","seamark:type":"mooring"}}},{"type":"Feature","geometry":{"type":"Point","coordinates":[-93.1479824,35.2243337]},"properties":{"osm_id":13227701117,"osm_type":"node","seamark_type":"mooring","display_class":"OTHER","min_zoom":12,"importance":1,"name":null,"ref":null,"common":{"type":"mooring"},"children":{"mooring":{"category":"pile"}},"osm_tags":{"man_made":"tower","seamark:mooring:category":"pile","seamark:type":"mooring"}}},{"type":"Feature","geometry":{"type":"Point","coordinates":[-93.1480817,35.2244901]},"properties":{"osm_id":13227701118,"osm_type":"node","seamark_type":"mooring","display_class":"OTHER","min_zoom":12,"importance":1,"name":null,"ref":null,"common":{"type":"mooring"},"children":{"mooring":{"category":"pile"}},"osm_tags":{"man_made":"tower","seamark:mooring:category":"pile","seamark:type":"mooring"}}},{"type":"Feature","geometry":{"type":"Point","coordinates":[-93.1481797,35.2246627]},"properties":{"osm_id":13227701119,"osm_type":"node","seamark_type":"mooring","display_class":"OTHER","min_zoom":12,"importance":1,"name":null,"ref":null,"common":{"type":"mooring"},"children":{"mooring":{"category":"pile"}},"osm_tags":{"man_made":"tower","seamark:mooring:category":"pile","seamark:type":"mooring"}}},{"type":"Feature","geometry":{"type":"Point","coordinates":[-93.1482545,35.2247667]},"properties":{"osm_id":13227701120,"osm_type":"node","seamark_type":"mooring","display_class":"OTHER","min_zoom":12,"importance":1,"name":null,"ref":null,"common":{"type":"mooring"},"children":{"mooring":{"category":"pile"}},"osm_tags":{"man_made":"tower","seamark:mooring:category":"pile","seamark:type":"mooring"}}},{"type":"Feature","geometry":{"type":"Point","coordinates":[-93.1483957,35.2250394]},"properties":{"osm_id":13227701121,"osm_type":"node","seamark_type":"mooring","display_class":"OTHER","min_zoom":12,"importance":1,"name":null,"ref":null,"common":{"type":"mooring"},"children":{"mooring":{"category":"pile"}},"osm_tags":{"man_made":"tower","seamark:mooring:category":"pile","seamark:type":"mooring"}}},{"type":"Feature","geometry":{"type":"Point","coordinates":[-93.1484751,35.2251586]},"properties":{"osm_id":13227701122,"osm_type":"node","seamark_type":"mooring","display_class":"OTHER","min_zoom":12,"importance":1,"name":null,"ref":null,"common":{"type":"mooring"},"children":{"mooring":{"category":"pile"}},"osm_tags":{"man_made":"tower","seamark:mooring:category":"pile","seamark:type":"mooring"}}},{"type":"Feature","geometry":{"type":"Point","coordinates":[-93.1485954,35.2253532]},"properties":{"osm_id":13227701123,"osm_type":"node","seamark_type":"mooring","display_class":"OTHER","min_zoom":12,"importance":1,"name":null,"ref":null,"common":{"type":"mooring"},"children":{"mooring":{"category":"pile"}},"osm_tags":{"man_made":"tower","seamark:mooring:category":"pile","seamark:type":"mooring"}}},{"type":"Feature","geometry":{"type":"Point","coordinates":[-93.1487121,35.2255478]},"properties":{"osm_id":13227701124,"osm_type":"node","seamark_type":"mooring","display_class":"OTHER","min_zoom":12,"importance":1,"name":null,"ref":null,"common":{"type":"mooring"},"children":{"mooring":{"category":"pile"}},"osm_tags":{"man_made":"tower","seamark:mooring:category":"pile","seamark:type":"mooring"}}},{"type":"Feature","geometry":{"type":"Point","coordinates":[-93.1489176,35.2258806]},"properties":{"osm_id":13227701125,"osm_type":"node","seamark_type":"mooring","display_class":"OTHER","min_zoom":12,"importance":1,"name":null,"ref":null,"common":{"type":"mooring"},"children":{"mooring":{"category":"pile"}},"osm_tags":{"man_made":"tower","seamark:mooring:category":"pile","seamark:type":"mooring"}}},{"type":"Feature","geometry":{"type":"Point","coordinates":[-93.1488534,35.2258262]},"properties":{"osm_id":13227701126,"osm_type":"node","seamark_type":"mooring","display_class":"OTHER","min_zoom":12,"importance":1,"name":null,"ref":null,"common":{"type":"mooring"},"children":{"mooring":{"category":"pile"}},"osm_tags":{"man_made":"tower","seamark:mooring:category":"pile","seamark:type":"mooring"}}},{"type":"Feature","geometry":{"type":"Point","coordinates":[-93.1702227,35.2527059]},"properties":{"osm_id":13234398225,"osm_type":"node","seamark_type":"mooring","display_class":"OTHER","min_zoom":12,"importance":1,"name":null,"ref":null,"common":{"type":"mooring"},"children":{"mooring":{"category":"bollard"}},"osm_tags":{"seamark:mooring:category":"bollard","seamark:type":"mooring"}}},{"type":"Feature","geometry":{"type":"Point","coordinates":[-93.170057,35.2526853]},"properties":{"osm_id":13234398230,"osm_type":"node","seamark_type":"mooring","display_class":"OTHER","min_zoom":12,"importance":1,"name":null,"ref":null,"common":{"type":"mooring"},"children":{"mooring":{"category":"bollard"}},"osm_tags":{"seamark:mooring:category":"bollard","seamark:type":"mooring"}}},{"type":"Feature","geometry":{"type":"Point","coordinates":[-93.1698905,35.2526606]},"properties":{"osm_id":13234398235,"osm_type":"node","seamark_type":"mooring","display_class":"OTHER","min_zoom":12,"importance":1,"name":null,"ref":null,"common":{"type":"mooring"},"children":{"mooring":{"category":"bollard"}},"osm_tags":{"seamark:mooring:category":"bollard","seamark:type":"mooring"}}},{"type":"Feature","geometry":{"type":"Point","coordinates":[-93.1697266,35.2526382]},"properties":{"osm_id":13234398240,"osm_type":"node","seamark_type":"mooring","display_class":"OTHER","min_zoom":12,"importance":1,"name":null,"ref":null,"common":{"type":"mooring"},"children":{"mooring":{"category":"bollard"}},"osm_tags":{"seamark:mooring:category":"bollard","seamark:type":"mooring"}}},{"type":"Feature","geometry":{"type":"Point","coordinates":[-93.1695641,35.2526149]},"properties":{"osm_id":13234398245,"osm_type":"node","seamark_type":"mooring","display_class":"OTHER","min_zoom":12,"importance":1,"name":null,"ref":null,"common":{"type":"mooring"},"children":{"mooring":{"category":"bollard"}},"osm_tags":{"seamark:mooring:category":"bollard","seamark:type":"mooring"}}},{"type":"Feature","geometry":{"type":"Point","coordinates":[-93.1694016,35.2525766]},"properties":{"osm_id":13234398250,"osm_type":"node","seamark_type":"mooring","display_class":"OTHER","min_zoom":12,"importance":1,"name":null,"ref":null,"common":{"type":"mooring"},"children":{"mooring":{"category":"bollard"}},"osm_tags":{"seamark:mooring:category":"bollard","seamark:type":"mooring"}}},{"type":"Feature","geometry":{"type":"Point","coordinates":[-93.1692879,35.2524772]},"properties":{"osm_id":13234398255,"osm_type":"node","seamark_type":"mooring","display_class":"OTHER","min_zoom":12,"importance":1,"name":null,"ref":null,"common":{"type":"mooring"},"children":{"mooring":{"category":"bollard"}},"osm_tags":{"seamark:mooring:category":"bollard","seamark:type":"mooring"}}},{"type":"Feature","geometry":{"type":"Point","coordinates":[-93.1691734,35.2523761]},"properties":{"osm_id":13234398260,"osm_type":"node","seamark_type":"mooring","display_class":"OTHER","min_zoom":12,"importance":1,"name":null,"ref":null,"common":{"type":"mooring"},"children":{"mooring":{"category":"bollard"}},"osm_tags":{"seamark:mooring:category":"bollard","seamark:type":"mooring"}}},{"type":"Feature","geometry":{"type":"Point","coordinates":[-93.1719007,35.2542571]},"properties":{"osm_id":13234398310,"osm_type":"node","seamark_type":"mooring","display_class":"OTHER","min_zoom":12,"importance":1,"name":null,"ref":null,"common":{"type":"mooring"},"children":{"mooring":{"category":"dolphin"}},"osm_tags":{"man_made":"tower","seamark:mooring:category":"dolphin","seamark:type":"mooring"}}},{"type":"Feature","geometry":{"type":"Point","coordinates":[-93.1729578,35.2549422]},"properties":{"osm_id":13234398311,"osm_type":"node","seamark_type":"mooring","display_class":"OTHER","min_zoom":12,"importance":1,"name":null,"ref":null,"common":{"type":"mooring"},"children":{"mooring":{"category":"dolphin"}},"osm_tags":{"man_made":"tower","seamark:mooring:category":"dolphin","seamark:type":"mooring"}}},{"type":"Feature","geometry":{"type":"Point","coordinates":[-93.1721516,35.2544179]},"properties":{"osm_id":13234398312,"osm_type":"node","seamark_type":"mooring","display_class":"OTHER","min_zoom":12,"importance":1,"name":null,"ref":null,"common":{"type":"mooring"},"children":{"mooring":{"category":"dolphin"}},"osm_tags":{"man_made":"tower","seamark:mooring:category":"dolphin","seamark:type":"mooring"}}},{"type":"Feature","geometry":{"type":"Point","coordinates":[-93.17137,35.2539213]},"properties":{"osm_id":13234398313,"osm_type":"node","seamark_type":"mooring","display_class":"OTHER","min_zoom":12,"importance":1,"name":null,"ref":null,"common":{"type":"mooring"},"children":{"mooring":{"category":"dolphin"}},"osm_tags":{"man_made":"tower","seamark:mooring:category":"dolphin","seamark:type":"mooring"}}},{"type":"Feature","geometry":{"type":"Point","coordinates":[-93.1711896,35.2536792]},"properties":{"osm_id":13234398314,"osm_type":"node","seamark_type":"mooring","display_class":"OTHER","min_zoom":12,"importance":1,"name":null,"ref":null,"common":{"type":"mooring"},"children":{"mooring":{"category":"dolphin"}},"osm_tags":{"man_made":"tower","seamark:mooring:category":"dolphin","seamark:type":"mooring"}}},{"type":"Feature","geometry":{"type":"Point","coordinates":[-93.171015,35.2534237]},"properties":{"osm_id":13234398315,"osm_type":"node","seamark_type":"mooring","display_class":"OTHER","min_zoom":12,"importance":1,"name":null,"ref":null,"common":{"type":"mooring"},"children":{"mooring":{"category":"dolphin"}},"osm_tags":{"man_made":"tower","seamark:mooring:category":"dolphin","seamark:type":"mooring"}}},{"type":"Feature","geometry":{"type":"Point","coordinates":[-93.1707232,35.2531079]},"properties":{"osm_id":13234398316,"osm_type":"node","seamark_type":"mooring","display_class":"OTHER","min_zoom":12,"importance":1,"name":null,"ref":null,"common":{"type":"mooring"},"children":{"mooring":{"category":"pile"}},"osm_tags":{"man_made":"tower","seamark:mooring:category":"pile","seamark:type":"mooring"}}},{"type":"Feature","geometry":{"type":"Point","coordinates":[-93.1709939,35.2534017]},"properties":{"osm_id":13234398317,"osm_type":"node","seamark_type":"mooring","display_class":"OTHER","min_zoom":12,"importance":1,"name":null,"ref":null,"common":{"type":"mooring"},"children":{"mooring":{"category":"pile"}},"osm_tags":{"man_made":"tower","seamark:mooring:category":"pile","seamark:type":"mooring"}}},{"type":"Feature","geometry":{"type":"Point","coordinates":[-93.1711615,35.2536333]},"properties":{"osm_id":13234398318,"osm_type":"node","seamark_type":"mooring","display_class":"OTHER","min_zoom":12,"importance":1,"name":null,"ref":null,"common":{"type":"mooring"},"children":{"mooring":{"category":"pile"}},"osm_tags":{"man_made":"tower","seamark:mooring:category":"pile","seamark:type":"mooring"}}},{"type":"Feature","geometry":{"type":"Point","coordinates":[-93.1713197,35.2538409]},"properties":{"osm_id":13234398319,"osm_type":"node","seamark_type":"mooring","display_class":"OTHER","min_zoom":12,"importance":1,"name":null,"ref":null,"common":{"type":"mooring"},"children":{"mooring":{"category":"pile"}},"osm_tags":{"man_made":"tower","seamark:mooring:category":"pile","seamark:type":"mooring"}}},{"type":"Feature","geometry":{"type":"Point","coordinates":[-93.1714275,35.2539308]},"properties":{"osm_id":13234398320,"osm_type":"node","seamark_type":"mooring","display_class":"OTHER","min_zoom":12,"importance":1,"name":null,"ref":null,"common":{"type":"mooring"},"children":{"mooring":{"category":"pile"}},"osm_tags":{"man_made":"tower","seamark:mooring:category":"pile","seamark:type":"mooring"}}},{"type":"Feature","geometry":{"type":"Point","coordinates":[-93.1716407,35.2540753]},"properties":{"osm_id":13234398321,"osm_type":"node","seamark_type":"mooring","display_class":"OTHER","min_zoom":12,"importance":1,"name":null,"ref":null,"common":{"type":"mooring"},"children":{"mooring":{"category":"pile"}},"osm_tags":{"man_made":"tower","seamark:mooring:category":"pile","seamark:type":"mooring"}}},{"type":"Feature","geometry":{"type":"Point","coordinates":[-93.1718411,35.254194]},"properties":{"osm_id":13234398322,"osm_type":"node","seamark_type":"mooring","display_class":"OTHER","min_zoom":12,"importance":1,"name":null,"ref":null,"common":{"type":"mooring"},"children":{"mooring":{"category":"pile"}},"osm_tags":{"man_made":"tower","seamark:mooring:category":"pile","seamark:type":"mooring"}}},{"type":"Feature","geometry":{"type":"Point","coordinates":[-93.1720708,35.2543423]},"properties":{"osm_id":13234398323,"osm_type":"node","seamark_type":"mooring","display_class":"OTHER","min_zoom":12,"importance":1,"name":null,"ref":null,"common":{"type":"mooring"},"children":{"mooring":{"category":"pile"}},"osm_tags":{"man_made":"tower","seamark:mooring:category":"pile","seamark:type":"mooring"}}},{"type":"Feature","geometry":{"type":"Point","coordinates":[-93.1722149,35.2544389]},"properties":{"osm_id":13234398324,"osm_type":"node","seamark_type":"mooring","display_class":"OTHER","min_zoom":12,"importance":1,"name":null,"ref":null,"common":{"type":"mooring"},"children":{"mooring":{"category":"pile"}},"osm_tags":{"man_made":"tower","seamark:mooring:category":"pile","seamark:type":"mooring"}}},{"type":"Feature","geometry":{"type":"Point","coordinates":[-93.172673,35.2547384]},"properties":{"osm_id":13234398325,"osm_type":"node","seamark_type":"mooring","display_class":"OTHER","min_zoom":12,"importance":1,"name":null,"ref":null,"common":{"type":"mooring"},"children":{"mooring":{"category":"pile"}},"osm_tags":{"man_made":"tower","seamark:mooring:category":"pile","seamark:type":"mooring"}}},{"type":"Feature","geometry":{"type":"Point","coordinates":[-93.1727797,35.2548092]},"properties":{"osm_id":13234398326,"osm_type":"node","seamark_type":"mooring","display_class":"OTHER","min_zoom":12,"importance":1,"name":null,"ref":null,"common":{"type":"mooring"},"children":{"mooring":{"category":"pile"}},"osm_tags":{"man_made":"tower","seamark:mooring:category":"pile","seamark:type":"mooring"}}},{"type":"Feature","geometry":{"type":"Point","coordinates":[-93.173157,35.2550561]},"properties":{"osm_id":13234398327,"osm_type":"node","seamark_type":"mooring","display_class":"OTHER","min_zoom":12,"importance":1,"name":null,"ref":null,"common":{"type":"mooring"},"children":{"mooring":{"category":"pile"}},"osm_tags":{"man_made":"tower","seamark:mooring:category":"pile","seamark:type":"mooring"}}},{"type":"Feature","geometry":{"type":"Polygon","coordinates":[[[-93.2057001,35.290935],[-93.205884,35.290936],[-93.2056383,35.2916942],[-93.2055422,35.291668],[-93.2055424,35.2916906],[-93.2054973,35.2916989],[-93.205472,35.2917538],[-93.2054852,35.2918006],[-93.2054537,35.2919131],[-93.2053581,35.2919712],[-93.2052341,35.2919991],[-93.2051938,35.2920469],[-93.20508,35.29214],[-93.2049982,35.2921682],[-93.2049463,35.292221],[-93.2048442,35.2922433],[-93.2047006,35.2922568],[-93.2046668,35.2922871],[-93.204648,35.2923238],[-93.2045775,35.2923868],[-93.2045341,35.2923949],[-93.2044904,35.2923831],[-93.2044579,35.2923579],[-93.2044069,35.2922191],[-93.2044071,35.2920737],[-93.2044171,35.2920295],[-93.2044419,35.2919929],[-93.2045178,35.2919595],[-93.2045412,35.2918538],[-93.2045806,35.2917327],[-93.2045897,35.2916147],[-93.2045712,35.2914666],[-93.2045766,35.2912218],[-93.2045454,35.2909952],[-93.2044651,35.2906906],[-93.2044461,35.2905654],[-93.2044252,35.2905234],[-93.2044146,35.2904627],[-93.204406,35.2904101],[-93.2043473,35.2903281],[-93.2043339,35.2902436],[-93.2043463,35.2901057],[-93.2043874,35.2900426],[-93.2044657,35.2900048],[-93.2046185,35.2899848],[-93.2047683,35.2901001],[-93.2048687,35.2901492],[-93.2050333,35.2902528],[-93.2050535,35.2903245],[-93.2050954,35.2903965],[-93.2051152,35.290486],[-93.2053624,35.2907872],[-93.2053757,35.290875],[-93.2054173,35.2909308],[-93.2057001,35.290935]]]},"properties":{"osm_id":1061519934,"osm_type":"way","seamark_type":"harbour","display_class":"OTHER","min_zoom":12,"importance":1,"name":null,"ref":null,"common":{"type":"harbour"},"children":{"harbour":{"category":"marina"}},"osm_tags":{"leisure":"marina","seamark:harbour:category":"marina","seamark:type":"harbour"}}},{"type":"Feature","geometry":{"type":"Polygon","coordinates":[[[-93.0330746,35.1556263],[-93.0330602,35.1555726],[-93.0323172,35.1555608],[-93.0320258,35.1555621],[-93.032021,35.1556053],[-93.0320722,35.1556368],[-93.0324453,35.1556499],[-93.0329609,35.1556525],[-93.0330746,35.1556263]]]},"properties":{"osm_id":1436429058,"osm_type":"way","seamark_type":"obstruction","display_class":"OTHER","min_zoom":12,"importance":1,"name":null,"ref":null,"common":{"type":"obstruction"},"children":{"obstruction":{"category":"reef","water_level":"submerged"}},"osm_tags":{"area":"yes","natural":"reef","reef":"rock","seamark:obstruction:category":"reef","seamark:obstruction:water_level":"submerged","seamark:type":"obstruction"}}},{"type":"Feature","geometry":{"type":"Polygon","coordinates":[[[-93.13972,35.1980097],[-93.1397183,35.1980355],[-93.1397019,35.1982813],[-93.1396979,35.1983415],[-93.1396023,35.1983235],[-93.1396138,35.198027],[-93.13972,35.1980097]]]},"properties":{"osm_id":1437088273,"osm_type":"way","seamark_type":"wreck","display_class":"OTHER","min_zoom":12,"importance":1,"name":null,"ref":null,"common":{"type":"wreck"},"children":{"wreck":{"category":"hull_showing"}},"osm_tags":{"building":"ship","seamark:type":"wreck","seamark:wreck:category":"hull_showing","source":"USACE Inland Navigational Chart U37AR186","source:date":"2024–07-02","source_ref":"https://ienccloud.us/ienc_WMSServices.html"}}},{"type":"Feature","geometry":{"type":"Polygon","coordinates":[[[-93.17966,35.261567],[-93.1798488,35.2617157],[-93.1801002,35.261874],[-93.1801929,35.2619669],[-93.1802744,35.2620873],[-93.180353,35.2621985],[-93.1805988,35.2624783],[-93.1806943,35.2625781],[-93.1808165,35.2626836],[-93.1808867,35.2627134],[-93.1809892,35.2627971],[-93.1811645,35.2629265],[-93.1809271,35.2628107],[-93.1807155,35.2626628],[-93.1806569,35.2626409],[-93.1806164,35.2625646],[-93.180497,35.2625081],[-93.1804256,35.2623648],[-93.1802731,35.2621741],[-93.1802149,35.2620537],[-93.1799546,35.2618415],[-93.17966,35.261567]]]},"properties":{"osm_id":1442125358,"osm_type":"way","seamark_type":"obstruction","display_class":"OTHER","min_zoom":12,"importance":1,"name":null,"ref":null,"common":{"type":"obstruction"},"children":{"obstruction":{"category":"reef","water_level":"submerged"}},"osm_tags":{"area":"yes","natural":"reef","reef":"rock","seamark:obstruction:category":"reef","seamark:obstruction:water_level":"submerged","seamark:type":"obstruction"}}},{"type":"Feature","geometry":{"type":"Polygon","coordinates":[[[-93.1811645,35.2629265],[-93.1812483,35.2629744],[-93.1813915,35.2631086],[-93.1815123,35.2632599],[-93.1815924,35.2633494],[-93.1816373,35.2634744],[-93.1816796,35.2636302],[-93.1815109,35.2635387],[-93.1815507,35.2634759],[-93.1815144,35.2633445],[-93.1811645,35.2629265]]]},"properties":{"osm_id":1442125359,"osm_type":"way","seamark_type":"obstruction","display_class":"OTHER","min_zoom":12,"importance":1,"name":null,"ref":null,"common":{"type":"obstruction"},"children":{"obstruction":{"category":"reef","water_level":"submerged"}},"osm_tags":{"area":"yes","natural":"reef","reef":"rock","seamark:obstruction:category":"reef","seamark:obstruction:water_level":"submerged","seamark:type":"obstruction"}}},{"type":"Feature","geometry":{"type":"Polygon","coordinates":[[[-93.183114,35.2644544],[-93.1831232,35.2644193],[-93.1831878,35.2644938],[-93.1834813,35.2648092],[-93.1836583,35.2649261],[-93.1837552,35.2650213],[-93.1837917,35.2651394],[-93.1837987,35.2652357],[-93.183836,35.2653043],[-93.1837609,35.2653063],[-93.1837465,35.2651554],[-93.1836689,35.2649978],[-93.1834385,35.2648134],[-93.1832385,35.26467],[-93.183114,35.2644544]]]},"properties":{"osm_id":1442125364,"osm_type":"way","seamark_type":"obstruction","display_class":"OTHER","min_zoom":12,"importance":1,"name":null,"ref":null,"common":{"type":"obstruction"},"children":{"obstruction":{"category":"reef","water_level":"submerged"}},"osm_tags":{"area":"yes","natural":"reef","reef":"rock","seamark:obstruction:category":"reef","seamark:obstruction:water_level":"submerged","seamark:type":"obstruction"}}},{"type":"Feature","geometry":{"type":"Polygon","coordinates":[[[-93.1847244,35.2656429],[-93.1846976,35.2655935],[-93.1845965,35.2655327],[-93.1844574,35.2654731],[-93.1843549,35.2654261],[-93.1843057,35.2653768],[-93.1841779,35.2652598],[-93.1840703,35.2652531],[-93.1839938,35.2653054],[-93.1841182,35.2652799],[-93.1842618,35.2653813],[-93.1843374,35.2654486],[-93.1845093,35.2655214],[-93.1846462,35.2655987],[-93.1847244,35.2656429]]]},"properties":{"osm_id":1442125365,"osm_type":"way","seamark_type":"obstruction","display_class":"OTHER","min_zoom":12,"importance":1,"name":null,"ref":null,"common":{"type":"obstruction"},"children":{"obstruction":{"category":"reef","water_level":"submerged"}},"osm_tags":{"area":"yes","natural":"reef","reef":"rock","seamark:obstruction:category":"reef","seamark:obstruction:water_level":"submerged","seamark:type":"obstruction"}}},{"type":"Feature","geometry":{"type":"Polygon","coordinates":[[[-93.1850964,35.2657965],[-93.1851035,35.2657621],[-93.1850683,35.2657609],[-93.1850585,35.2657884],[-93.1850964,35.2657965]]]},"properties":{"osm_id":1442125366,"osm_type":"way","seamark_type":"obstruction","display_class":"OTHER","min_zoom":12,"importance":1,"name":null,"ref":null,"common":{"type":"obstruction"},"children":{"obstruction":{"category":"reef","water_level":"submerged"}},"osm_tags":{"area":"yes","natural":"reef","reef":"rock","seamark:obstruction:category":"reef","seamark:obstruction:water_level":"submerged","seamark:type":"obstruction"}}},{"type":"Feature","geometry":{"type":"Polygon","coordinates":[[[-93.192014,35.2712052],[-93.1920616,35.2711952],[-93.1920457,35.2711613],[-93.1920201,35.2711523],[-93.1919907,35.2711822],[-93.192014,35.2712052]]]},"properties":{"osm_id":1442125375,"osm_type":"way","seamark_type":"obstruction","display_class":"OTHER","min_zoom":12,"importance":1,"name":null,"ref":null,"common":{"type":"obstruction"},"children":{"obstruction":{"category":"reef","water_level":"submerged"}},"osm_tags":{"area":"yes","natural":"reef","reef":"rock","seamark:obstruction:category":"reef","seamark:obstruction:water_level":"submerged","seamark:type":"obstruction"}}},{"type":"Feature","geometry":{"type":"Polygon","coordinates":[[[-93.1919315,35.2712308],[-93.1919467,35.2711573],[-93.191943,35.2711074],[-93.1919308,35.2710555],[-93.1917939,35.2709487],[-93.1917914,35.2709826],[-93.191866,35.2710455],[-93.1918844,35.2711104],[-93.191852,35.2711864],[-93.1919315,35.2712308]]]},"properties":{"osm_id":1442125376,"osm_type":"way","seamark_type":"obstruction","display_class":"OTHER","min_zoom":12,"importance":1,"name":null,"ref":null,"common":{"type":"obstruction"},"children":{"obstruction":{"category":"reef","water_level":"submerged"}},"osm_tags":{"area":"yes","natural":"reef","reef":"rock","seamark:obstruction:category":"reef","seamark:obstruction:water_level":"submerged","seamark:type":"obstruction"}}},{"type":"Feature","geometry":{"type":"Polygon","coordinates":[[[-93.1916589,35.2710312],[-93.191608,35.2709437],[-93.1912951,35.2706801],[-93.1909926,35.2705036],[-93.1913271,35.2707818],[-93.1916589,35.2710312]]]},"properties":{"osm_id":1442125377,"osm_type":"way","seamark_type":"obstruction","display_class":"OTHER","min_zoom":12,"importance":1,"name":null,"ref":null,"common":{"type":"obstruction"},"children":{"obstruction":{"category":"reef","water_level":"submerged"}},"osm_tags":{"area":"yes","natural":"reef","reef":"rock","seamark:obstruction:category":"reef","seamark:obstruction:water_level":"submerged","seamark:type":"obstruction"}}},{"type":"Feature","geometry":{"type":"Polygon","coordinates":[[[-93.180653,35.253564],[-93.1797289,35.2527695],[-93.1797574,35.2529005],[-93.1798037,35.2530004],[-93.1800038,35.2530564],[-93.1800594,35.2531653],[-93.1802262,35.2533711],[-93.180653,35.253564]]]},"properties":{"osm_id":1442125384,"osm_type":"way","seamark_type":"obstruction","display_class":"OTHER","min_zoom":12,"importance":1,"name":null,"ref":null,"common":{"type":"obstruction"},"children":{"obstruction":{"category":"reef","water_level":"submerged"}},"osm_tags":{"area":"yes","natural":"reef","reef":"rock","seamark:obstruction:category":"reef","seamark:obstruction:water_level":"submerged","seamark:type":"obstruction"}}},{"type":"Feature","geometry":{"type":"LineString","coordinates":[[-93.1673801,35.2489543],[-93.1672933,35.2490978],[-93.1671329,35.249162]]},"properties":{"osm_id":1442311329,"osm_type":"way","seamark_type":"gate","display_class":"OTHER","min_zoom":12,"importance":1,"name":null,"ref":"10","common":{"type":"gate"},"children":{},"osm_tags":{"ref":"10","seamark:type":"gate","source":"Bing","waterway":"lock_gate"}}},{"type":"Feature","geometry":{"type":"LineString","coordinates":[[-93.1689491,35.2502966],[-93.1688813,35.2504318],[-93.1686873,35.2504905]]},"properties":{"osm_id":1442311330,"osm_type":"way","seamark_type":"gate","display_class":"OTHER","min_zoom":12,"importance":1,"name":null,"ref":"10","common":{"type":"gate"},"children":{},"osm_tags":{"ref":"10","seamark:type":"gate","source":"Bing","waterway":"lock_gate"}}},{"type":"Feature","geometry":{"type":"Polygon","coordinates":[[[-93.1734602,35.2553346],[-93.1734896,35.2553221],[-93.1735025,35.2552934],[-93.1734919,35.2552705],[-93.1734837,35.2552303],[-93.1735001,35.2552025],[-93.1735177,35.2551834],[-93.1734849,35.2551729],[-93.1734451,35.2551863],[-93.1734164,35.2552322],[-93.1734408,35.2552285],[-93.1734501,35.2552728],[-93.1734496,35.2553098],[-93.1734602,35.2553346]]]},"properties":{"osm_id":1442316587,"osm_type":"way","seamark_type":"obstruction","display_class":"OTHER","min_zoom":12,"importance":1,"name":null,"ref":null,"common":{"type":"obstruction"},"children":{"obstruction":{"category":"reef","water_level":"submerged"}},"osm_tags":{"area":"yes","natural":"reef","reef":"rock","seamark:obstruction:category":"reef","seamark:obstruction:water_level":"submerged","seamark:type":"obstruction"}}},{"type":"Feature","geometry":{"type":"Polygon","coordinates":[[[-93.1774524,35.2595261],[-93.1778139,35.2597952],[-93.1779926,35.2599201],[-93.1781872,35.2600474],[-93.1781465,35.2600852],[-93.1779265,35.259948],[-93.1777206,35.259774],[-93.1774733,35.2595776],[-93.1774281,35.2595429],[-93.1774524,35.2595261]]]},"properties":{"osm_id":1442496243,"osm_type":"way","seamark_type":"obstruction","display_class":"OTHER","min_zoom":12,"importance":1,"name":null,"ref":null,"common":{"type":"obstruction"},"children":{"obstruction":{"category":"reef","water_level":"submerged"}},"osm_tags":{"area":"yes","natural":"reef","reef":"rock","seamark:obstruction:category":"reef","seamark:obstruction:water_level":"submerged","seamark:type":"obstruction"}}},{"type":"Feature","geometry":{"type":"Polygon","coordinates":[[[-93.1782294,35.2600864],[-93.1783779,35.260216],[-93.1785348,35.2603398],[-93.1785737,35.2603869],[-93.1786193,35.2604865],[-93.1787722,35.2605905],[-93.1789077,35.2606924],[-93.1790117,35.2607469],[-93.1789246,35.2607515],[-93.1786109,35.2605257],[-93.178183,35.2601208],[-93.1782294,35.2600864]]]},"properties":{"osm_id":1442496244,"osm_type":"way","seamark_type":"obstruction","display_class":"OTHER","min_zoom":12,"importance":1,"name":null,"ref":null,"common":{"type":"obstruction"},"children":{"obstruction":{"category":"reef","water_level":"submerged"}},"osm_tags":{"area":"yes","natural":"reef","reef":"rock","seamark:obstruction:category":"reef","seamark:obstruction:water_level":"submerged","seamark:type":"obstruction"}}},{"type":"Feature","geometry":{"type":"LineString","coordinates":[[-93.8448513,35.5067269],[-93.8448517,35.5066917],[-93.8448515,35.5066668]]},"properties":{"osm_id":1469588763,"osm_type":"way","seamark_type":"gate","display_class":"OTHER","min_zoom":12,"importance":1,"name":null,"ref":null,"common":{"type":"gate"},"children":{},"osm_tags":{"seamark:type":"gate","source":"Bing","waterway":"lock_gate"}}},{"type":"Feature","geometry":{"type":"Point","coordinates":[-93.1689457,35.2522154]},"properties":{"osm_id":13235712788,"osm_type":"node","seamark_type":"berth","display_class":"OTHER","min_zoom":12,"importance":1,"name":"M/V Dan Reeves","ref":null,"common":{"type":"berth"},"children":{},"osm_tags":{"landuse":"military","military_service":"army","name":"M/V Dan Reeves","operator":"United States Army Corps of Engineers","operator:short":"USACE","operator:type":"military","operator:wikidata":"Q1049334","seamark:type":"berth","source":"USACE Field Offices GIS Map layer","source_ref":"https://services7.arcgis.com/n1YM8pTrFmm7L4hs/arcgis/rest/services/Field_Offices/FeatureServer"}}},{"type":"Feature","geometry":{"type":"Point","coordinates":[-93.8119296,35.4706714]},"properties":{"osm_id":1757724328,"osm_type":"node","seamark_type":"gate","display_class":"OTHER","min_zoom":12,"importance":1,"name":"Ozark-Jeta Taylor Lock and Dam","ref":"11","common":{"type":"gate"},"children":{},"osm_tags":{"name":"Ozark-Jeta Taylor Lock and Dam","ref":"11","seamark:type":"gate","waterway":"lock_gate"}}},{"type":"Feature","geometry":{"type":"Point","coordinates":[-93.8129341,35.472323]},"properties":{"osm_id":1757724377,"osm_type":"node","seamark_type":"gate","display_class":"OTHER","min_zoom":12,"importance":1,"name":"Ozark-Jeta Taylor Lock and Dam","ref":"11","common":{"type":"gate"},"children":{},"osm_tags":{"name":"Ozark-Jeta Taylor Lock and Dam","ref":"11","seamark:type":"gate","waterway":"lock_gate","wikidata":"Q34908667"}}}],"type":"FeatureCollection"}