{"type":"FeatureCollection","features":[{"type":"Feature","geometry":{"type":"Point","coordinates":[-81.3365931,35.9254511]},"properties":{"osm_id":7555698887,"osm_type":"node","seamark_type":"gate","display_class":"OTHER","min_zoom":12,"importance":1,"name":null,"ref":null,"common":{"type":"gate"},"children":{},"osm_tags":{"seamark:type":"gate","waterway":"lock_gate"}}},{"type":"Feature","geometry":{"type":"Point","coordinates":[-81.3398295,35.9245686]},"properties":{"osm_id":13236942430,"osm_type":"node","seamark_type":"gate","display_class":"OTHER","min_zoom":12,"importance":1,"name":null,"ref":null,"common":{"type":"gate"},"children":{},"osm_tags":{"seamark:type":"gate","waterway":"lock_gate"}}},{"type":"Feature","geometry":{"type":"Polygon","coordinates":[[[-81.0506475,35.042594],[-81.0502783,35.0422259],[-81.0489908,35.0420209],[-81.0478679,35.0424738],[-81.0480609,35.0429621],[-81.0481344,35.0430171],[-81.0482146,35.0431051],[-81.048268,35.0431326],[-81.0483683,35.0431381],[-81.0484351,35.0431271],[-81.0485488,35.0430666],[-81.0488027,35.0429512],[-81.049157,35.0428248],[-81.0493041,35.0427864],[-81.0494511,35.0427534],[-81.0496717,35.0427479],[-81.0499056,35.0427809],[-81.050046,35.0428468],[-81.0501128,35.0428689],[-81.0501396,35.0429403],[-81.0505271,35.0429294],[-81.0505205,35.0427864],[-81.0505272,35.0427039],[-81.0506475,35.042594]]]},"properties":{"osm_id":1074396171,"osm_type":"way","seamark_type":"harbour","display_class":"OTHER","min_zoom":12,"importance":1,"name":null,"ref":null,"common":{"type":"harbour"},"children":{"harbour":{"category":"marina"}},"osm_tags":{"leisure":"marina","seamark:harbour:category":"marina","seamark:type":"harbour"}}},{"type":"Feature","geometry":{"type":"Polygon","coordinates":[[[-81.0310533,35.1216353],[-81.0324169,35.1211596],[-81.0325363,35.121123],[-81.0327153,35.1208637],[-81.0327675,35.1207173],[-81.0326109,35.1202049],[-81.0323573,35.1201134],[-81.0322752,35.1200157],[-81.0321111,35.1197626],[-81.0318464,35.1196863],[-81.0313897,35.1196092],[-81.0312439,35.1196426],[-81.0310546,35.119628],[-81.0308653,35.1196405],[-81.0304575,35.1194027],[-81.0304208,35.1194203],[-81.0304145,35.1194452],[-81.030431,35.1194882],[-81.0305395,35.1196248],[-81.0305567,35.1196333],[-81.0306419,35.1196391],[-81.0306806,35.1196487],[-81.030717,35.1196696],[-81.0308867,35.1197561],[-81.0310246,35.1198268],[-81.0311234,35.1198687],[-81.0312243,35.1198871],[-81.0313376,35.1198975],[-81.0315401,35.1199044],[-81.0316238,35.1199142],[-81.0316779,35.1199317],[-81.0317109,35.1199545],[-81.0317619,35.1200035],[-81.0317917,35.1200885],[-81.0318243,35.1202264],[-81.031849,35.1202624],[-81.0318919,35.1202898],[-81.0319991,35.1203338],[-81.0320343,35.1203668],[-81.0320683,35.1204147],[-81.0320917,35.1204911],[-81.0320875,35.1205432],[-81.0320779,35.120577],[-81.0320235,35.1206867],[-81.0320017,35.1207211],[-81.0319006,35.1208017],[-81.0317912,35.1208672],[-81.0317291,35.1208877],[-81.0316675,35.1209102],[-81.0316195,35.1209415],[-81.0316037,35.1209518],[-81.0315501,35.1210171],[-81.0315374,35.1211154],[-81.0315231,35.1212268],[-81.0314227,35.1213103],[-81.0311712,35.1214561],[-81.0310183,35.1215265],[-81.0310042,35.1215384],[-81.0310063,35.1215633],[-81.0310222,35.1216044],[-81.0310533,35.1216353]]]},"properties":{"osm_id":1314929132,"osm_type":"way","seamark_type":"harbour","display_class":"OTHER","min_zoom":12,"importance":1,"name":null,"ref":null,"common":{"type":"harbour"},"children":{"harbour":{"category":"marina"}},"osm_tags":{"leisure":"marina","seamark:harbour:category":"marina","seamark:type":"harbour"}}},{"type":"Feature","geometry":{"type":"Polygon","coordinates":[[[-81.0275778,35.1154172],[-81.0278161,35.1146347],[-81.0278837,35.1146427],[-81.0284126,35.1140943],[-81.0289415,35.1136754],[-81.0289094,35.1136146],[-81.0292508,35.1134971],[-81.029364,35.1137072],[-81.0293671,35.1139085],[-81.0293011,35.1139024],[-81.0292234,35.1138981],[-81.0290381,35.1139624],[-81.0287392,35.1140925],[-81.0285347,35.1142438],[-81.0284381,35.1143915],[-81.0283405,35.1145079],[-81.0282592,35.1146141],[-81.0282075,35.1146482],[-81.0281368,35.1146801],[-81.028072,35.1147544],[-81.0280372,35.1148184],[-81.0279765,35.1148908],[-81.0279675,35.1150308],[-81.0279573,35.1151515],[-81.0279398,35.1153012],[-81.0279066,35.1153711],[-81.0278148,35.1155277],[-81.0276649,35.1156161],[-81.0275138,35.1156678],[-81.0273265,35.115721],[-81.0271854,35.1157577],[-81.0270703,35.1157737],[-81.0269378,35.1157892],[-81.026763,35.1157892],[-81.0266491,35.1157935],[-81.0265815,35.115811],[-81.026507,35.1158258],[-81.0264083,35.1158356],[-81.0263597,35.1158298],[-81.0263221,35.1157883],[-81.0263007,35.115784],[-81.0260572,35.115687],[-81.0259211,35.1156573],[-81.0256842,35.1155919],[-81.0256461,35.1156093],[-81.0255949,35.1156193],[-81.0255272,35.1156325],[-81.025398,35.1156376],[-81.0253381,35.1156541],[-81.0252956,35.1156849],[-81.025528,35.1152375],[-81.0265825,35.1156508],[-81.0268816,35.11563],[-81.0275778,35.1154172]]]},"properties":{"osm_id":1315551066,"osm_type":"way","seamark_type":"harbour","display_class":"OTHER","min_zoom":12,"importance":1,"name":null,"ref":null,"common":{"type":"harbour"},"children":{"harbour":{"category":"marina"}},"osm_tags":{"fee":"yes","leisure":"marina","power_supply":"yes","sanitary_dump_station":"yes","seamark:harbour:category":"marina","seamark:type":"harbour"}}},{"type":"Feature","geometry":{"type":"Point","coordinates":[-81.9668205,35.7482027]},"properties":{"osm_id":8341988505,"osm_type":"node","seamark_type":"harbour","display_class":"OTHER","min_zoom":12,"importance":1,"name":"Black Bear Boat Ramp","ref":null,"common":{"type":"harbour"},"children":{"harbour":{"category":"marina"}},"osm_tags":{"addr:city":"Marion","addr:postcode":"28752","addr:state":"NC","leisure":"marina","name":"Black Bear Boat Ramp","seamark:harbour:category":"marina","seamark:type":"harbour"}}},{"type":"Feature","geometry":{"type":"Polygon","coordinates":[[[-81.034272,35.1621771],[-81.03628,35.1614904],[-81.0364673,35.1612961],[-81.0365921,35.1608584],[-81.0365345,35.160829],[-81.0365105,35.1607976],[-81.0364673,35.1607053],[-81.0363232,35.1606641],[-81.0362824,35.1603639],[-81.0336929,35.1606156],[-81.034272,35.1621771]]]},"properties":{"osm_id":579430166,"osm_type":"way","seamark_type":"harbour","display_class":"OTHER","min_zoom":12,"importance":1,"name":"Harbortowne Marina","ref":null,"common":{"type":"harbour"},"children":{"harbour":{"category":"marina"}},"osm_tags":{"addr:city":"Belmont","addr:housenumber":"220","addr:postcode":"28012","addr:state":"NC","addr:street":"Commodore Court","leisure":"marina","name":"Harbortowne Marina","seamark:harbour:category":"marina","seamark:type":"harbour"}}},{"type":"Feature","geometry":{"type":"Polygon","coordinates":[[[-81.0169062,35.5736899],[-81.0151729,35.5739914],[-81.0151542,35.5739237],[-81.0143453,35.5740486],[-81.0143182,35.5740495],[-81.014295,35.5740377],[-81.0141439,35.5735591],[-81.0141266,35.5735033],[-81.0141209,35.5734475],[-81.0141214,35.5728919],[-81.0141306,35.5728352],[-81.0141525,35.5728002],[-81.0148984,35.5720766],[-81.0149176,35.5720611],[-81.0149461,35.5720502],[-81.0154626,35.5719848],[-81.0158432,35.5720061],[-81.0159068,35.5720195],[-81.015965,35.5720416],[-81.016015,35.5720625],[-81.0163631,35.5722698],[-81.0164957,35.5723624],[-81.0170161,35.5727026],[-81.0169631,35.5728203],[-81.0178401,35.5730418],[-81.0180962,35.573103],[-81.0183423,35.5731554],[-81.0186578,35.5732099],[-81.0186888,35.5733887],[-81.0169062,35.5736899]]]},"properties":{"osm_id":1070669654,"osm_type":"way","seamark_type":"harbour","display_class":"OTHER","min_zoom":12,"importance":1,"name":"Lake Norman Marina","ref":null,"common":{"type":"harbour"},"children":{"harbour":{"category":"marina"}},"osm_tags":{"addr:city":"Sherrills Ford","addr:housenumber":"6965","addr:postcode":"28673","addr:state":"NC","addr:street":"East NC 150 Highway","leisure":"marina","name":"Lake Norman Marina","seamark:harbour:category":"marina","seamark:type":"harbour","website":"https://www.lakenormanmarina.com/"}}},{"type":"Feature","geometry":{"type":"Point","coordinates":[-81.8310843,35.7490836]},"properties":{"osm_id":10250808606,"osm_type":"node","seamark_type":"harbour","display_class":"OTHER","min_zoom":12,"importance":1,"name":"Mimosa Boat Landing","ref":null,"common":{"type":"harbour"},"children":{"harbour":{"category":"marina"}},"osm_tags":{"addr:city":"Morganton","addr:housenumber":"2260","addr:postcode":"28655","addr:state":"NC","addr:street":"North Powerhouse Road","leisure":"marina","name":"Mimosa Boat Landing","phone":"+18285841886","seamark:harbour:category":"marina","seamark:type":"harbour"}}},{"type":"Feature","geometry":{"type":"Polygon","coordinates":[[[-81.0597119,35.1028541],[-81.0597823,35.1030192],[-81.0597565,35.1032163],[-81.0597899,35.1035462],[-81.0597698,35.1036561],[-81.0597029,35.1037385],[-81.0595223,35.103667],[-81.0594555,35.1035847],[-81.0592694,35.1034325],[-81.05916,35.1031937],[-81.0590057,35.1031172],[-81.0588108,35.1030931],[-81.0588116,35.1030543],[-81.0584791,35.1027019],[-81.0580681,35.1018625],[-81.0579799,35.1018236],[-81.0578465,35.1017647],[-81.0577882,35.1016788],[-81.056494,35.1013426],[-81.0564766,35.1013988],[-81.056366,35.1017122],[-81.056255,35.1019722],[-81.0559956,35.1019078],[-81.0558757,35.1014898],[-81.0559106,35.1014573],[-81.0560485,35.1012554],[-81.0561634,35.1011205],[-81.0560131,35.1009348],[-81.0562055,35.1007226],[-81.0562317,35.1006319],[-81.0561326,35.1000524],[-81.0567535,35.1000214],[-81.0567972,35.1003768],[-81.0576631,35.1003469],[-81.0578436,35.1004128],[-81.0579708,35.1004293],[-81.0581313,35.1004129],[-81.0581781,35.1003689],[-81.0582918,35.1003029],[-81.0583988,35.100259],[-81.0585325,35.1002864],[-81.0587198,35.1002864],[-81.0590142,35.1002314],[-81.0592951,35.100138],[-81.0594623,35.100094],[-81.059596,35.1001216],[-81.0595827,35.1001655],[-81.0594489,35.1002755],[-81.0591947,35.1004789],[-81.059061,35.1006438],[-81.0590007,35.1007976],[-81.0590141,35.1009625],[-81.059168,35.1012759],[-81.0593686,35.1014957],[-81.059402,35.1017047],[-81.0594154,35.102018],[-81.0595157,35.1022654],[-81.0595735,35.1026133],[-81.0597467,35.1026547],[-81.059805,35.1027495],[-81.0597911,35.1028229],[-81.0597119,35.1028541]]]},"properties":{"osm_id":550766067,"osm_type":"way","seamark_type":"harbour","display_class":"OTHER","min_zoom":12,"importance":1,"name":"River Hills Marina","ref":null,"common":{"type":"harbour"},"children":{"harbour":{"category":"marina"}},"osm_tags":{"addr:city":"Lake Wylie","addr:housenumber":"54","addr:postcode":"29710","addr:state":"SC","addr:street":"Marina Road","fee":"yes","leisure":"marina","name":"River Hills Marina","power_supply":"yes","sanitary_dump_station":"yes","seamark:harbour:category":"marina","seamark:type":"harbour","website":"https://www.riverhillsmarina.com/"}}},{"type":"Feature","geometry":{"type":"Point","coordinates":[-81.0145542,35.2721612]},"properties":{"osm_id":11800495839,"osm_type":"node","seamark_type":"harbour","display_class":"OTHER","min_zoom":12,"importance":1,"name":"Tailrace Marina","ref":null,"common":{"type":"harbour"},"children":{"harbour":{"category":"marina"}},"osm_tags":{"leisure":"marina","name":"Tailrace Marina","seamark:harbour:category":"marina","seamark:type":"harbour"}}},{"type":"Feature","geometry":{"type":"Polygon","coordinates":[[[-81.0150492,35.2727616],[-81.0149269,35.2726763],[-81.0147605,35.272834],[-81.0148867,35.2729238],[-81.0150492,35.2727616]]]},"properties":{"osm_id":967560529,"osm_type":"way","seamark_type":"harbour","display_class":"OTHER","min_zoom":12,"importance":1,"name":"Tailrace Marina","ref":null,"common":{"type":"harbour"},"children":{"harbour":{"category":"marina"}},"osm_tags":{"leisure":"marina","name":"Tailrace Marina","seamark:harbour:category":"marina","seamark:type":"harbour"}}},{"type":"Feature","geometry":{"type":"Polygon","coordinates":[[[-81.0338914,35.0330896],[-81.0341489,35.0331957],[-81.0343565,35.0332556],[-81.0345582,35.0332411],[-81.0347717,35.0331828],[-81.0348597,35.033155],[-81.034872,35.033177],[-81.0350172,35.0334604],[-81.0350576,35.0336712],[-81.0349511,35.0339569],[-81.0346621,35.0341266],[-81.0346882,35.0341562],[-81.0353557,35.0350507],[-81.0331,35.0361074],[-81.0327391,35.0356611],[-81.0328996,35.0355127],[-81.0329998,35.0354028],[-81.03306,35.0352929],[-81.0330333,35.0352159],[-81.03302,35.0351334],[-81.03304,35.035062],[-81.033167,35.0350565],[-81.0333408,35.0350841],[-81.033441,35.0350895],[-81.0335413,35.0350731],[-81.0336081,35.0350236],[-81.0336415,35.0349631],[-81.0336416,35.0348862],[-81.0336081,35.0348147],[-81.0335347,35.0347432],[-81.0334679,35.0346607],[-81.0334479,35.0346113],[-81.0334813,35.0345563],[-81.0335415,35.0344739],[-81.0336016,35.0344024],[-81.0336084,35.034309],[-81.0336018,35.0342046],[-81.033575,35.0341166],[-81.0335483,35.0340451],[-81.033555,35.0339957],[-81.0336419,35.0339572],[-81.0338005,35.0339329],[-81.034128,35.0338826],[-81.0340126,35.0338094],[-81.0339637,35.0336108],[-81.0338914,35.0330896]]]},"properties":{"osm_id":550114140,"osm_type":"way","seamark_type":"harbour","display_class":"OTHER","min_zoom":12,"importance":1,"name":"Tega Cay Marina","ref":null,"common":{"type":"harbour"},"children":{"harbour":{"category":"marina"}},"osm_tags":{"addr:city":"Tega Cay","addr:housenumber":"28000","addr:postcode":"29708","addr:state":"SC","addr:street":"Marina Drive","fee":"yes","leisure":"marina","name":"Tega Cay Marina","power_supply":"yes","sanitary_dump_station":"yes","seamark:harbour:category":"marina","seamark:type":"harbour","website":"https://www.tegacaymarina.com/"}}},{"type":"Feature","geometry":{"type":"Polygon","coordinates":[[[-81.0300506,35.1190079],[-81.030345,35.1187157],[-81.0302144,35.1186311],[-81.0299582,35.1188608],[-81.0296564,35.1184906],[-81.0294772,35.1182707],[-81.0310386,35.1172948],[-81.0314956,35.1172948],[-81.0315056,35.1172969],[-81.0315129,35.117302],[-81.0318053,35.1176439],[-81.0319753,35.1180712],[-81.0321675,35.1185871],[-81.0321675,35.1187866],[-81.0319995,35.1187762],[-81.0315769,35.1187983],[-81.0311531,35.1187621],[-81.0310078,35.1188286],[-81.0303556,35.1190066],[-81.0300506,35.1190079]]]},"properties":{"osm_id":1315546061,"osm_type":"way","seamark_type":"harbour","display_class":"OTHER","min_zoom":12,"importance":1,"name":"Terry's Marina","ref":null,"common":{"type":"harbour"},"children":{"harbour":{"category":"marina"}},"osm_tags":{"addr:city":"Charlotte","addr:housenumber":"14131","addr:postcode":"28278","addr:state":"NC","addr:street":"Pine Harbor Road","fee":"yes","leisure":"marina","name":"Terry's Marina","seamark:harbour:category":"marina","seamark:type":"harbour"}}},{"type":"Feature","geometry":{"type":"Polygon","coordinates":[[[-81.0393953,35.0994731],[-81.0395777,35.1000806],[-81.0396396,35.1003284],[-81.0396884,35.1005469],[-81.0396539,35.1007856],[-81.0395786,35.1007539],[-81.039499,35.1006908],[-81.0386365,35.1012769],[-81.0373696,35.1009172],[-81.0379265,35.1000353],[-81.0380702,35.1000141],[-81.0381666,35.0998493],[-81.0382711,35.0996375],[-81.0390429,35.099621],[-81.0390965,35.0995238],[-81.0393953,35.0994731]]]},"properties":{"osm_id":550195375,"osm_type":"way","seamark_type":"harbour","display_class":"OTHER","min_zoom":12,"importance":1,"name":"The Carolina Boat Club","ref":null,"common":{"type":"harbour"},"children":{"harbour":{"category":"marina"}},"osm_tags":{"addr:city":"Charlotte","addr:housenumber":"16324","addr:postcode":"28278","addr:state":"NC","addr:street":"York Road","fee":"yes","leisure":"marina","name":"The Carolina Boat Club","power_supply":"yes","sanitary_dump_station":"yes","seamark:harbour:category":"marina","seamark:type":"harbour"}}}],"type":"FeatureCollection"}