{"type":"FeatureCollection","features":[{"type":"Feature","geometry":{"type":"Point","coordinates":[124.7065833,36.0029722]},"properties":{"osm_id":14001822963,"osm_type":"node","seamark_type":"beacon_special_purpose","display_class":"BEACON","min_zoom":9,"importance":4,"name":"Gyeongnyeolbiyeoldo No A","ref":"3236.2","common":{"name":"Gyeongnyeolbiyeoldo No A","type":"beacon_special_purpose"},"children":{"beacon_special_purpose":{"colour":"yellow","height":"5"},"light":{"character":"Fl","colour":"yellow","group":"4","height":"16","period":"8","range":"7","reference":"M 4184.02"},"topmark":{"colour":"yellow","shape":"x-shape"}},"osm_tags":{"ref":"3236.2","seamark:beacon_special_purpose:colour":"yellow","seamark:beacon_special_purpose:height":"5","seamark:light:character":"Fl","seamark:light:colour":"yellow","seamark:light:group":"4","seamark:light:height":"16","seamark:light:period":"8","seamark:light:range":"7","seamark:light:reference":"M 4184.02","seamark:name":"Gyeongnyeolbiyeoldo No A","seamark:topmark:colour":"yellow","seamark:topmark:shape":"x-shape","seamark:type":"beacon_special_purpose"}}},{"type":"Feature","geometry":{"type":"Point","coordinates":[124.7065278,36.0031667]},"properties":{"osm_id":14001822962,"osm_type":"node","seamark_type":"beacon_special_purpose","display_class":"BEACON","min_zoom":9,"importance":4,"name":"Gyeongnyeolbiyeoldo No B","ref":"3236.3","common":{"name":"Gyeongnyeolbiyeoldo No B","type":"beacon_special_purpose"},"children":{"beacon_special_purpose":{"colour":"yellow","height":"5"},"light":{"character":"Fl","colour":"yellow","group":"4","height":"16","period":"8","range":"7","reference":"M 4184.0201"},"topmark":{"colour":"yellow","shape":"x-shape"}},"osm_tags":{"ref":"3236.3","seamark:beacon_special_purpose:colour":"yellow","seamark:beacon_special_purpose:height":"5","seamark:light:character":"Fl","seamark:light:colour":"yellow","seamark:light:group":"4","seamark:light:height":"16","seamark:light:period":"8","seamark:light:range":"7","seamark:light:reference":"M 4184.0201","seamark:name":"Gyeongnyeolbiyeoldo No B","seamark:topmark:colour":"yellow","seamark:topmark:shape":"x-shape","seamark:type":"beacon_special_purpose"}}}],"type":"FeatureCollection"}