{"type":"FeatureCollection","features":[{"type":"Feature","geometry":{"type":"Point","coordinates":[0.2261167,36.1161833]},"properties":{"osm_id":1581732797,"osm_type":"node","seamark_type":"light_major","display_class":"LIGHTHOUSE","min_zoom":7,"importance":5,"name":"Cap Ivi","ref":null,"common":{"name":"Cap Ivi","type":"light_major"},"children":{"light":{"1:character":"Fl","1:colour":"white","1:height":"118","1:period":"5","1:range":"31","1:sector_end":"244","1:sector_start":"64","1:sequence":"0.4+(4.6)","reference":"E 6658"}},"osm_tags":{"seamark:light:1:character":"Fl","seamark:light:1:colour":"white","seamark:light:1:height":"118","seamark:light:1:period":"5","seamark:light:1:range":"31","seamark:light:1:sector_end":"244","seamark:light:1:sector_start":"64","seamark:light:1:sequence":"0.4+(4.6)","seamark:light:reference":"E 6658","seamark:name":"Cap Ivi","seamark:type":"light_major","source":"US NGA Pub. 113. 2011-10-20."}}},{"type":"Feature","geometry":{"type":"Polygon","coordinates":[[[0.2272307,36.1128201],[0.2271996,36.112845],[0.2271808,36.1128297],[0.226867,36.1130805],[0.2268871,36.1130969],[0.2268451,36.1131305],[0.2268003,36.1130939],[0.2268241,36.1130749],[0.2265711,36.1128683],[0.2265508,36.1128846],[0.2265013,36.1128443],[0.2265461,36.1128085],[0.226574,36.1128312],[0.2268813,36.1125857],[0.2268665,36.1125736],[0.2269045,36.1125433],[0.2269378,36.1125705],[0.2269176,36.1125866],[0.2271847,36.1128048],[0.2271985,36.1127938],[0.2272307,36.1128201]]]},"properties":{"osm_id":492813835,"osm_type":"way","seamark_type":"light_major","display_class":"LIGHTHOUSE","min_zoom":7,"importance":5,"name":"Phare Cap Ivi","ref":null,"common":{"type":"light_major"},"children":{},"osm_tags":{"building":"yes","man_made":"lighthouse","name":"Phare Cap Ivi","seamark:type":"light_major"}}},{"type":"Feature","geometry":{"type":"Point","coordinates":[0.9388152,36.4431792]},"properties":{"osm_id":896706519,"osm_type":"node","seamark_type":"light_major","display_class":"LIGHTHOUSE","min_zoom":7,"importance":5,"name":"Pointe Colombi","ref":null,"common":{"name":"Pointe Colombi","type":"light_major"},"children":{"light":{"character":"Fl","colour":"white","group":"3","height":"60","period":"15","range":"26","reference":"E 6656","sequence":"0.2+(2.8)+0.2+(2.8)+0.2+(8.8)"}},"osm_tags":{"man_made":"lighthouse","name":"Phare de la pointe Colombi","seamark:light:character":"Fl","seamark:light:colour":"white","seamark:light:group":"3","seamark:light:height":"60","seamark:light:period":"15","seamark:light:range":"26","seamark:light:reference":"E 6656","seamark:light:sequence":"0.2+(2.8)+0.2+(2.8)+0.2+(8.8)","seamark:name":"Pointe Colombi","seamark:type":"light_major","wikidata":"Q23013090","wikipedia":"ar:منارة كولومبي"}}},{"type":"Feature","geometry":{"type":"Point","coordinates":[0.9122838,36.4032192]},"properties":{"osm_id":3182763717,"osm_type":"node","seamark_type":"harbour","display_class":"OTHER","min_zoom":12,"importance":1,"name":null,"ref":null,"common":{"type":"harbour"},"children":{"harbour":{"category":"marina"}},"osm_tags":{"leisure":"marina","seamark:harbour:category":"marina","seamark:type":"harbour"}}},{"type":"Feature","geometry":{"type":"Point","coordinates":[0.9180437,36.436575]},"properties":{"osm_id":1581732590,"osm_type":"node","seamark_type":"light_minor","display_class":"OTHER","min_zoom":12,"importance":1,"name":"Ile Colombi","ref":null,"common":{"name":"Ile Colombi","type":"light_minor"},"children":{"light":{"character":"Oc","colour":"green","group":"2","height":"29","period":"6","range":"5","reference":"E 6656.5","sequence":"3+(1)+1+(1)"}},"osm_tags":{"seamark:light:character":"Oc","seamark:light:colour":"green","seamark:light:group":"2","seamark:light:height":"29","seamark:light:period":"6","seamark:light:range":"5","seamark:light:reference":"E 6656.5","seamark:light:sequence":"3+(1)+1+(1)","seamark:name":"Ile Colombi","seamark:type":"light_minor","source":"US NGA Pub. 113. 2011-10-20."}}},{"type":"Feature","geometry":{"type":"Point","coordinates":[0.3993856,36.2110118]},"properties":{"osm_id":3429542829,"osm_type":"node","seamark_type":"harbour","display_class":"OTHER","min_zoom":12,"importance":1,"name":"Petit port","ref":null,"common":{"type":"harbour"},"children":{},"osm_tags":{"harbour":"yes","name":"Petit port","seamark:type":"harbour"}}}],"type":"FeatureCollection"}