{"type":"FeatureCollection","features":[{"type":"Feature","geometry":{"type":"Point","coordinates":[32.8029136,36.0174695]},"properties":{"osm_id":1579300326,"osm_type":"node","seamark_type":"light_major","display_class":"LIGHTHOUSE","min_zoom":7,"importance":5,"name":"Anamur Deniz Feneri","ref":null,"common":{"type":"light_major"},"children":{"light":{"character":"Fl","colour":"white","group":"2","height":"68","period":"5","range":"15","reference":"E 5862","sequence":"0.3+(1)+0.3+(3.4)"}},"osm_tags":{"alt_name":"Anamur Deniz Feneri","man_made":"lighthouse","name":"Anamur Deniz Feneri","name:de":"Leuchtturm Anamur","name:en":"Anamur Lighthouse","name:it":"Faro di Anamur","seamark:light:character":"Fl","seamark:light:colour":"white","seamark:light:group":"2","seamark:light:height":"68","seamark:light:period":"5","seamark:light:range":"15","seamark:light:reference":"E 5862","seamark:light:sequence":"0.3+(1)+0.3+(3.4)","seamark:type":"light_major","wikidata":"Q85623158","wikimedia_commons":"Category:Anamur Lighthouse","wikipedia":"tr:Anamur Deniz Feneri"}}},{"type":"Feature","geometry":{"type":"Point","coordinates":[32.004377,36.5389108]},"properties":{"osm_id":1988292649,"osm_type":"node","seamark_type":"harbour","display_class":"OTHER","min_zoom":12,"importance":1,"name":null,"ref":null,"common":{"type":"harbour"},"children":{"beacon_lateral":{"category":"port","colour":"red","shape":"tower","system":"iala-a"},"harbour":{"category":"marina"},"light":{"character":"Fl","colour":"red","exhibition":"night","height":"20","period":"5"}},"osm_tags":{"leisure":"marina","seamark:beacon_lateral:category":"port","seamark:beacon_lateral:colour":"red","seamark:beacon_lateral:shape":"tower","seamark:beacon_lateral:system":"iala-a","seamark:harbour:category":"marina","seamark:light:character":"Fl","seamark:light:colour":"red","seamark:light:exhibition":"night","seamark:light:height":"20","seamark:light:period":"5","seamark:type":"harbour"}}},{"type":"Feature","geometry":{"type":"Point","coordinates":[32.0016999,36.5383039]},"properties":{"osm_id":11168144289,"osm_type":"node","seamark_type":"mooring","display_class":"OTHER","min_zoom":12,"importance":1,"name":null,"ref":null,"common":{"type":"mooring"},"children":{},"osm_tags":{"seamark:type":"mooring"}}},{"type":"Feature","geometry":{"type":"Point","coordinates":[32.0033936,36.5395109]},"properties":{"osm_id":823443291,"osm_type":"node","seamark_type":"harbour","display_class":"OTHER","min_zoom":12,"importance":1,"name":"Alanya Limanı","ref":null,"common":{"type":"harbour"},"children":{"harbour":{"category":"marina"}},"osm_tags":{"harbour":"yes","leisure":"marina","name":"Alanya Limanı","name:en":"Port of Alanya","name:tr":"Alanya limanı","operator":"ALIDAS Alanya Liman İşletmesi","phone":"+90 242 513 3996","port_of_entry":"no","seamark:harbour:category":"marina","seamark:type":"harbour","website":"https://www.alanyaseaport.com/"}}},{"type":"Feature","geometry":{"type":"Polygon","coordinates":[[[32.2776096,36.2663584],[32.2784725,36.2657373],[32.2782707,36.2656734],[32.2781699,36.26559],[32.2781442,36.265472],[32.2781456,36.2653696],[32.2782222,36.2652802],[32.278281,36.265313],[32.2786868,36.265273],[32.2800489,36.2651594],[32.2799569,36.2645309],[32.2801391,36.2645168],[32.2801797,36.2645136],[32.280126,36.2639718],[32.2798722,36.2639823],[32.2798221,36.2635479],[32.279779,36.2631745],[32.2801256,36.2631447],[32.2801202,36.2630889],[32.2797721,36.2631162],[32.2797402,36.2628488],[32.2787766,36.2629421],[32.2782469,36.26311],[32.277816,36.2634106],[32.2777427,36.2635],[32.2777365,36.2640635],[32.2775074,36.2640603],[32.277511,36.2651898],[32.2775238,36.2660075],[32.2775467,36.266073],[32.2776262,36.2661556],[32.2776745,36.2662528],[32.2776096,36.2663584]]]},"properties":{"osm_id":1473627805,"osm_type":"way","seamark_type":"harbour","display_class":"OTHER","min_zoom":12,"importance":1,"name":"Gazipaşa Gold Marina","ref":null,"common":{"type":"harbour"},"children":{"harbour":{"category":"marina"}},"osm_tags":{"email":"info@gazipasagoldmarina.com","fee":"yes","leisure":"marina","name":"Gazipaşa Gold Marina","operator":"Aydoğan A.Ş.","phone":"+90 242 510 70 00","power_supply":"yes","sanitary_dump_station":"yes","seamark:harbour:category":"marina","seamark:type":"harbour","vhf":"VHF 72","website":"https://gazipasagoldmarina.com/"}}},{"type":"Feature","geometry":{"type":"Point","coordinates":[32.2963285,36.2347328]},"properties":{"osm_id":1579300328,"osm_type":"node","seamark_type":"light_minor","display_class":"OTHER","min_zoom":12,"importance":1,"name":"Selinti Burnu","ref":null,"common":{"name":"Selinti Burnu","type":"light_minor"},"children":{"light":{"character":"Fl","colour":"white","height":"33","period":"3","range":"8","reference":"E 5861","sequence":"0.3+(2.7)"}},"osm_tags":{"man_made":"beacon","name":"Fener","seamark:light:character":"Fl","seamark:light:colour":"white","seamark:light:height":"33","seamark:light:period":"3","seamark:light:range":"8","seamark:light:reference":"E 5861","seamark:light:sequence":"0.3+(2.7)","seamark:name":"Selinti Burnu","seamark:type":"light_minor","source":"US NGA Pub. 113. 2011-10-20."}}}],"type":"FeatureCollection"}