{"type":"FeatureCollection","features":[{"type":"Feature","geometry":{"type":"Point","coordinates":[51.509885,36.6603108]},"properties":{"osm_id":13442767715,"osm_type":"node","seamark_type":"light_major","display_class":"LIGHTHOUSE","min_zoom":7,"importance":5,"name":"Nowshahr east mole","ref":null,"common":{"name":"Nowshahr east mole","type":"light_major"},"children":{"light":{"1:character":"Fl","1:colour":"red","1:group":"1","1:height":"12","1:period":"5","1:range":"10","1:sector_end":"360","1:sector_start":"0","1:sequence":"0.5+(4.5)"}},"osm_tags":{"man_made":"lighthouse","name":"Nowshahr east mole","seamark:light:1:character":"Fl","seamark:light:1:colour":"red","seamark:light:1:group":"1","seamark:light:1:height":"12","seamark:light:1:period":"5","seamark:light:1:range":"10","seamark:light:1:sector_end":"360","seamark:light:1:sector_start":"0","seamark:light:1:sequence":"0.5+(4.5)","seamark:name":"Nowshahr east mole","seamark:type":"light_major"}}},{"type":"Feature","geometry":{"type":"Point","coordinates":[51.509885,36.6603108]},"properties":{"osm_id":13444642315,"osm_type":"node","seamark_type":"beacon_lateral","display_class":"BEACON","min_zoom":9,"importance":4,"name":"Nowshahr east mole","ref":null,"common":{"name":"Nowshahr east mole","type":"beacon_lateral"},"children":{"beacon_lateral":{"category":"port","colour":"red","shape":"pole","system":"iala-a"},"light":{"1:character":"Fl","1:colour":"red","1:group":"1","1:height":"12","1:period":"5","1:range":"10","1:sector_end":"360","1:sector_start":"0","1:sequence":"0.5+(4.5)"}},"osm_tags":{"man_made":"beacon","name":"Nowshahr east mole","seamark:beacon_lateral:category":"port","seamark:beacon_lateral:colour":"red","seamark:beacon_lateral:shape":"pole","seamark:beacon_lateral:system":"iala-a","seamark:light:1:character":"Fl","seamark:light:1:colour":"red","seamark:light:1:group":"1","seamark:light:1:height":"12","seamark:light:1:period":"5","seamark:light:1:range":"10","seamark:light:1:sector_end":"360","seamark:light:1:sector_start":"0","seamark:light:1:sequence":"0.5+(4.5)","seamark:name":"Nowshahr east mole","seamark:type":"beacon_lateral"}}},{"type":"Feature","geometry":{"type":"Point","coordinates":[51.509885,36.6603108]},"properties":{"osm_id":13444721464,"osm_type":"node","seamark_type":"beacon_lateral","display_class":"BEACON","min_zoom":9,"importance":4,"name":"Nowshahr east mole","ref":null,"common":{"name":"Nowshahr east mole","type":"beacon_lateral"},"children":{"beacon_lateral":{"category":"port","colour":"red","shape":"pole","system":"iala-a"},"light":{"1:character":"Fl","1:colour":"red","1:group":"1","1:height":"12","1:period":"5","1:range":"10","1:sector_end":"360","1:sector_start":"0","1:sequence":"0.5+(4.5)"}},"osm_tags":{"man_made":"beacon","name":"Nowshahr east mole","seamark:beacon_lateral:category":"port","seamark:beacon_lateral:colour":"red","seamark:beacon_lateral:shape":"pole","seamark:beacon_lateral:system":"iala-a","seamark:light:1:character":"Fl","seamark:light:1:colour":"red","seamark:light:1:group":"1","seamark:light:1:height":"12","seamark:light:1:period":"5","seamark:light:1:range":"10","seamark:light:1:sector_end":"360","seamark:light:1:sector_start":"0","seamark:light:1:sequence":"0.5+(4.5)","seamark:name":"Nowshahr east mole","seamark:type":"beacon_lateral"}}},{"type":"Feature","geometry":{"type":"Point","coordinates":[51.5113872,36.663129]},"properties":{"osm_id":13442705796,"osm_type":"node","seamark_type":"beacon_lateral","display_class":"BEACON","min_zoom":9,"importance":4,"name":"Nowshahr west mole","ref":null,"common":{"name":"Nowshahr west mole","type":"beacon_lateral"},"children":{"beacon_lateral":{"category":"starboard","colour":"green","shape":"pole","system":"iala-a"},"light":{"1:character":"Fl","1:colour":"green","1:group":"1","1:height":"12","1:period":"5","1:range":"10","1:sector_end":"360","1:sector_start":"0","1:sequence":"0.5+(4.5)"}},"osm_tags":{"man_made":"beacon","name":"Nowshahr west mole","seamark:beacon_lateral:category":"starboard","seamark:beacon_lateral:colour":"green","seamark:beacon_lateral:shape":"pole","seamark:beacon_lateral:system":"iala-a","seamark:light:1:character":"Fl","seamark:light:1:colour":"green","seamark:light:1:group":"1","seamark:light:1:height":"12","seamark:light:1:period":"5","seamark:light:1:range":"10","seamark:light:1:sector_end":"360","seamark:light:1:sector_start":"0","seamark:light:1:sequence":"0.5+(4.5)","seamark:name":"Nowshahr west mole","seamark:type":"beacon_lateral"}}},{"type":"Feature","geometry":{"type":"Point","coordinates":[51.883235,36.5749048]},"properties":{"osm_id":13444658135,"osm_type":"node","seamark_type":"harbour","display_class":"OTHER","min_zoom":12,"importance":1,"name":"Aradmarina complex small craft port","ref":null,"common":{"name":"Aradmarina complex small craft port","type":"harbour"},"children":{"harbour":{"category":"marina"}},"osm_tags":{"leisure":"marina","name":"Aradmarina complex small craft port","seamark:harbour:category":"marina","seamark:name":"Aradmarina complex small craft port","seamark:type":"harbour"}}},{"type":"Feature","geometry":{"type":"Point","coordinates":[51.5063952,36.6557553]},"properties":{"osm_id":13442767041,"osm_type":"node","seamark_type":"harbour","display_class":"OTHER","min_zoom":12,"importance":1,"name":"Nowshahr port","ref":null,"common":{"type":"harbour"},"children":{},"osm_tags":{"harbour":"yes","name":"Nowshahr port","port_of_entry":"yes","seamark:type":"harbour"}}},{"type":"Feature","geometry":{"type":"Point","coordinates":[51.5063952,36.6557553]},"properties":{"osm_id":13444582624,"osm_type":"node","seamark_type":"harbour","display_class":"OTHER","min_zoom":12,"importance":1,"name":"Nowshahr port","ref":null,"common":{"name":"Nowshahr port","type":"harbour"},"children":{},"osm_tags":{"harbour":"yes","name":"Nowshahr port","port_of_entry":"yes","seamark:name":"Nowshahr port","seamark:type":"harbour"}}},{"type":"Feature","geometry":{"type":"Point","coordinates":[51.83716,36.5763868]},"properties":{"osm_id":13444626800,"osm_type":"node","seamark_type":"harbour","display_class":"OTHER","min_zoom":12,"importance":1,"name":"Salah ol Din Kola small craft facilities port","ref":null,"common":{"name":"Salah ol Din Kola small craft facilities port","type":"harbour"},"children":{"harbour":{"category":"marina"}},"osm_tags":{"leisure":"marina","name":"Salah ol Din Kola small craft facilities port","seamark:harbour:category":"marina","seamark:name":"Salah ol Din Kola small craft facilities port","seamark:type":"harbour"}}},{"type":"Feature","geometry":{"type":"Point","coordinates":[51.437797,36.680373]},"properties":{"osm_id":3722734065,"osm_type":"node","seamark_type":"harbour","display_class":"OTHER","min_zoom":12,"importance":1,"name":"ساحل رادیو دریا","ref":null,"common":{"type":"harbour"},"children":{"harbour":{"category":"marina"}},"osm_tags":{"leisure":"marina","name":"ساحل رادیو دریا","seamark:harbour:category":"marina","seamark:type":"harbour"}}}],"type":"FeatureCollection"}