{"type":"FeatureCollection","features":[{"type":"Feature","geometry":{"type":"Point","coordinates":[-89.1614972,36.9991492]},"properties":{"osm_id":13446750921,"osm_type":"node","seamark_type":"mooring","display_class":"OTHER","min_zoom":12,"importance":1,"name":null,"ref":null,"common":{"type":"mooring"},"children":{},"osm_tags":{"seamark:type":"mooring"}}},{"type":"Feature","geometry":{"type":"Point","coordinates":[-89.2013492,36.5717989]},"properties":{"osm_id":13978144898,"osm_type":"node","seamark_type":"mooring","display_class":"OTHER","min_zoom":12,"importance":1,"name":null,"ref":null,"common":{"type":"mooring"},"children":{},"osm_tags":{"seamark:type":"mooring"}}},{"type":"Feature","geometry":{"type":"Point","coordinates":[-89.201256,36.5716003]},"properties":{"osm_id":13978144899,"osm_type":"node","seamark_type":"mooring","display_class":"OTHER","min_zoom":12,"importance":1,"name":null,"ref":null,"common":{"type":"mooring"},"children":{},"osm_tags":{"seamark:type":"mooring"}}},{"type":"Feature","geometry":{"type":"Point","coordinates":[-89.2011535,36.5713919]},"properties":{"osm_id":13978144900,"osm_type":"node","seamark_type":"mooring","display_class":"OTHER","min_zoom":12,"importance":1,"name":null,"ref":null,"common":{"type":"mooring"},"children":{},"osm_tags":{"seamark:type":"mooring"}}},{"type":"Feature","geometry":{"type":"Point","coordinates":[-89.2010557,36.5711859]},"properties":{"osm_id":13978144901,"osm_type":"node","seamark_type":"mooring","display_class":"OTHER","min_zoom":12,"importance":1,"name":null,"ref":null,"common":{"type":"mooring"},"children":{},"osm_tags":{"seamark:type":"mooring"}}},{"type":"Feature","geometry":{"type":"Point","coordinates":[-89.6485344,36.1917029]},"properties":{"osm_id":14056780616,"osm_type":"node","seamark_type":"mooring","display_class":"OTHER","min_zoom":12,"importance":1,"name":null,"ref":null,"common":{"type":"mooring"},"children":{},"osm_tags":{"seamark:type":"mooring"}}},{"type":"Feature","geometry":{"type":"Polygon","coordinates":[[[-89.106676,36.964798],[-89.1065552,36.9645915],[-89.1064666,36.9644665],[-89.1063484,36.9641478],[-89.1062558,36.9641776],[-89.1065832,36.9648279],[-89.106676,36.964798]]]},"properties":{"osm_id":1480693567,"osm_type":"way","seamark_type":"wreck","display_class":"OTHER","min_zoom":12,"importance":1,"name":null,"ref":null,"common":{"type":"wreck"},"children":{"wreck":{"category":"hull_showing"}},"osm_tags":{"historic":"wreck","seamark:type":"wreck","seamark:wreck:category":"hull_showing","wreck:visible_at_high_tide":"no","wreck:visible_at_low_tide":"yes"}}}],"type":"FeatureCollection"}