{"type":"FeatureCollection","features":[{"type":"Feature","geometry":{"type":"Point","coordinates":[-1.9067104,36.9417012]},"properties":{"osm_id":49527318,"osm_type":"node","seamark_type":"light_major","display_class":"LIGHTHOUSE","min_zoom":7,"importance":5,"name":"Mesa Roldan","ref":null,"common":{"name":"Mesa Roldan","type":"light_major"},"children":{"light":{"character":"Fl","colour":"white","group":"4","height":"222","period":"20","range":"23","reference":"E 0108","sequence":"0.3+(3)+0.3+(3)+0.3+(3)+0.3+(9.8)"}},"osm_tags":{"man_made":"lighthouse","name":"Faro de la Mesa Roldán","seamark:light:character":"Fl","seamark:light:colour":"white","seamark:light:group":"4","seamark:light:height":"222","seamark:light:period":"20","seamark:light:range":"23","seamark:light:reference":"E 0108","seamark:light:sequence":"0.3+(3)+0.3+(3)+0.3+(3)+0.3+(9.8)","seamark:name":"Mesa Roldan","seamark:type":"light_major","start_date":"1863","wikidata":"Q30278259","wikimedia_commons":"File:Faro_de_la_Mesa_Roldán.jpg"}}},{"type":"Feature","geometry":{"type":"Point","coordinates":[-1.8959432,36.9675603]},"properties":{"osm_id":1566352874,"osm_type":"node","seamark_type":"beacon_cardinal","display_class":"BEACON","min_zoom":9,"importance":4,"name":null,"ref":null,"common":{"type":"beacon_cardinal"},"children":{"beacon_cardinal":{"category":"east","colour":"black;yellow;black","colour_pattern":"horizontal","height":"3","shape":"tower"},"light":{"character":"Q","colour":"white","group":"3","height":"12","period":"10","range":"3","reference":"E 0109.2"}},"osm_tags":{"seamark:beacon_cardinal:category":"east","seamark:beacon_cardinal:colour":"black;yellow;black","seamark:beacon_cardinal:colour_pattern":"horizontal","seamark:beacon_cardinal:height":"3","seamark:beacon_cardinal:shape":"tower","seamark:light:character":"Q","seamark:light:colour":"white","seamark:light:group":"3","seamark:light:height":"12","seamark:light:period":"10","seamark:light:range":"3","seamark:light:reference":"E 0109.2","seamark:type":"beacon_cardinal","source":"US NGA Pub. 113. 2011-10-20."}}},{"type":"Feature","geometry":{"type":"Point","coordinates":[-1.8983375,36.9893089]},"properties":{"osm_id":1566352592,"osm_type":"node","seamark_type":"light_minor","display_class":"OTHER","min_zoom":12,"importance":1,"name":null,"ref":null,"common":{"type":"light_minor"},"children":{"light":{"character":"Fl","colour":"red","group":"3","height":"8","period":"12","range":"3","reference":"E 0109.7","sequence":"1+(2)+1+(2)+1+(5)"}},"osm_tags":{"seamark:light:character":"Fl","seamark:light:colour":"red","seamark:light:group":"3","seamark:light:height":"8","seamark:light:period":"12","seamark:light:range":"3","seamark:light:reference":"E 0109.7","seamark:light:sequence":"1+(2)+1+(2)+1+(5)","seamark:type":"light_minor","source":"US NGA Pub. 113. 2011-10-20."}}},{"type":"Feature","geometry":{"type":"Point","coordinates":[-1.8988833,36.9692167]},"properties":{"osm_id":1566352747,"osm_type":"node","seamark_type":"light_minor","display_class":"OTHER","min_zoom":12,"importance":1,"name":null,"ref":null,"common":{"type":"light_minor"},"children":{"light":{"character":"Fl","colour":"red","group":"2","height":"10","period":"9","range":"1","reference":"E 0109.5","sequence":"0.5+(1)+0.5+(7)"}},"osm_tags":{"seamark:light:character":"Fl","seamark:light:colour":"red","seamark:light:group":"2","seamark:light:height":"10","seamark:light:period":"9","seamark:light:range":"1","seamark:light:reference":"E 0109.5","seamark:light:sequence":"0.5+(1)+0.5+(7)","seamark:type":"light_minor","source":"US NGA Pub. 113. 2011-10-20."}}},{"type":"Feature","geometry":{"type":"Point","coordinates":[-1.898836,36.963547]},"properties":{"osm_id":1566352806,"osm_type":"node","seamark_type":"light_minor","display_class":"OTHER","min_zoom":12,"importance":1,"name":null,"ref":null,"common":{"type":"light_minor"},"children":{"light":{"character":"Fl","colour":"red","group":"2","height":"7","period":"10","range":"3","reference":"E 0109.3","sequence":"0.5+(1.5)+0.5+(7.5)"}},"osm_tags":{"seamark:light:character":"Fl","seamark:light:colour":"red","seamark:light:group":"2","seamark:light:height":"7","seamark:light:period":"10","seamark:light:range":"3","seamark:light:reference":"E 0109.3","seamark:light:sequence":"0.5+(1.5)+0.5+(7.5)","seamark:type":"light_minor","source":"US NGA Pub. 113. 2011-10-20."}}},{"type":"Feature","geometry":{"type":"Point","coordinates":[-1.8941166,36.973615]},"properties":{"osm_id":1566352854,"osm_type":"node","seamark_type":"light_minor","display_class":"OTHER","min_zoom":12,"importance":1,"name":null,"ref":null,"common":{"type":"light_minor"},"children":{"light":{"character":"Fl","colour":"green","height":"14","period":"10","range":"5","reference":"E 0109.4","sequence":"1+(9)"}},"osm_tags":{"seamark:light:character":"Fl","seamark:light:colour":"green","seamark:light:height":"14","seamark:light:period":"10","seamark:light:range":"5","seamark:light:reference":"E 0109.4","seamark:light:sequence":"1+(9)","seamark:type":"light_minor","source":"US NGA Pub. 113. 2011-10-20."}}},{"type":"Feature","geometry":{"type":"Point","coordinates":[-1.8909722,36.9663889]},"properties":{"osm_id":9904372140,"osm_type":"node","seamark_type":"obstruction","display_class":"OTHER","min_zoom":12,"importance":1,"name":null,"ref":null,"common":{"type":"obstruction"},"children":{},"osm_tags":{"seamark:type":"obstruction"}}},{"type":"Feature","geometry":{"type":"LineString","coordinates":[[-1.9004954,36.9721339],[-1.8909722,36.9663889]]},"properties":{"osm_id":1080574287,"osm_type":"way","seamark_type":"pipeline_submarine","display_class":"OTHER","min_zoom":12,"importance":1,"name":null,"ref":null,"common":{"type":"pipeline_submarine"},"children":{"pipeline_submarine":{"category":"sewer"}},"osm_tags":{"seamark:pipeline_submarine:category":"sewer","seamark:type":"pipeline_submarine"}}},{"type":"Feature","geometry":{"type":"Point","coordinates":[-1.8981698,36.9881446]},"properties":{"osm_id":1566352704,"osm_type":"node","seamark_type":"light_minor","display_class":"OTHER","min_zoom":12,"importance":1,"name":"Puerto Pesquero","ref":null,"common":{"information":"Fl.R. 4s marks breakwater close N.","name":"Puerto Pesquero","type":"light_minor"},"children":{"light":{"character":"Fl","colour":"green","group":"3","height":"10","period":"12","range":"5","reference":"E 0109.6","sequence":"1+(2)+1+(2)+1+(5)"}},"osm_tags":{"seamark:information":"Fl.R. 4s marks breakwater close N.","seamark:light:character":"Fl","seamark:light:colour":"green","seamark:light:group":"3","seamark:light:height":"10","seamark:light:period":"12","seamark:light:range":"5","seamark:light:reference":"E 0109.6","seamark:light:sequence":"1+(2)+1+(2)+1+(5)","seamark:name":"Puerto Pesquero","seamark:type":"light_minor","source":"US NGA Pub. 113. 2011-10-20."}}},{"type":"Feature","geometry":{"type":"Point","coordinates":[-1.894818,36.9638569]},"properties":{"osm_id":1566352911,"osm_type":"node","seamark_type":"light_minor","display_class":"OTHER","min_zoom":12,"importance":1,"name":"Puerto de Carboneras","ref":null,"common":{"name":"Puerto de Carboneras","type":"light_minor"},"children":{"light":{"character":"Fl","colour":"green","group":"2","height":"12","period":"10","range":"5","reference":"E 0109","sequence":"1+(2)+1+(6)"}},"osm_tags":{"seamark:light:character":"Fl","seamark:light:colour":"green","seamark:light:group":"2","seamark:light:height":"12","seamark:light:period":"10","seamark:light:range":"5","seamark:light:reference":"E 0109","seamark:light:sequence":"1+(2)+1+(6)","seamark:name":"Puerto de Carboneras","seamark:type":"light_minor","source":"US NGA Pub. 113. 2011-10-20."}}},{"type":"Feature","geometry":{"type":"Point","coordinates":[-1.8973037,36.9909015]},"properties":{"osm_id":2291493803,"osm_type":"node","seamark_type":"harbour","display_class":"OTHER","min_zoom":12,"importance":1,"name":"Puerto de Carboneras","ref":null,"common":{"type":"harbour"},"children":{"harbour":{"category":"marina"}},"osm_tags":{"fee":"yes","leisure":"marina","name":"Puerto de Carboneras","seamark:harbour:category":"marina","seamark:type":"harbour"}}}],"type":"FeatureCollection"}