{"type":"FeatureCollection","features":[{"type":"Feature","geometry":{"type":"Point","coordinates":[139.037707,37.930536]},"properties":{"osm_id":4432103190,"osm_type":"node","seamark_type":"harbour","display_class":"OTHER","min_zoom":12,"importance":1,"name":null,"ref":null,"common":{"type":"harbour"},"children":{"harbour":{"category":"marina"}},"osm_tags":{"leisure":"marina","seamark:harbour:category":"marina","seamark:type":"harbour"}}},{"type":"Feature","geometry":{"type":"Polygon","coordinates":[[[139.0687667,37.9359281],[139.0685414,37.9353062],[139.0689624,37.9347269],[139.0698343,37.9335272],[139.0703392,37.9345047],[139.0704513,37.9351671],[139.0703724,37.9361133],[139.0716118,37.9362619],[139.0715282,37.9366458],[139.071466,37.9370202],[139.0714535,37.9370866],[139.0711282,37.9391093],[139.0684302,37.9389414],[139.0681714,37.9392329],[139.0678387,37.9394176],[139.0674936,37.9395051],[139.0672348,37.9395537],[139.0670499,37.9396995],[139.0674894,37.94076],[139.0680212,37.9420434],[139.0704699,37.9425375],[139.0703379,37.9433245],[139.0712022,37.9435094],[139.0713899,37.9436874],[139.0716037,37.9437086],[139.0715711,37.944067],[139.0712778,37.9439955],[139.0703989,37.9437659],[139.0697958,37.9436144],[139.069695,37.9442078],[139.0702572,37.9442806],[139.0702472,37.9443336],[139.0700817,37.9452103],[139.0710121,37.9453439],[139.0710656,37.9453633],[139.0711351,37.9453625],[139.0711789,37.945268],[139.071311,37.9446393],[139.071373,37.9445435],[139.0715742,37.9444658],[139.071593,37.9443909],[139.0716782,37.944288],[139.0717152,37.9439094],[139.0740018,37.945123],[139.0764286,37.9498849],[139.0768969,37.9502992],[139.0767471,37.9511774],[139.0766706,37.9512935],[139.0766586,37.9514026],[139.0763167,37.9513709],[139.0751177,37.9513847],[139.073716,37.951544],[139.073418,37.951562],[139.072145,37.952041],[139.071783,37.952152],[139.0716306,37.9521871],[139.071527,37.952211],[139.071229,37.952246],[139.070558,37.952324],[139.070254,37.952531],[139.069867,37.952805],[139.069654,37.952933],[139.069462,37.952162],[139.071361,37.951949],[139.071714,37.950437],[139.071961,37.950357],[139.074625,37.950164],[139.074959,37.94858],[139.074316,37.948493],[139.0742874,37.9486378],[139.0741012,37.9487195],[139.0718669,37.9483788],[139.072299,37.946121],[139.071822,37.945902],[139.0695642,37.9485062],[139.0694517,37.9484366],[139.0692744,37.9484658],[139.0692639,37.9484527],[139.0691523,37.948455],[139.0689994,37.9475648],[139.0688686,37.9468035],[139.0684697,37.944481],[139.0684652,37.944468],[139.0683526,37.9441467],[139.0666424,37.9398543],[139.06713,37.9394507],[139.0689969,37.9373015],[139.0682458,37.9367261],[139.0687667,37.9359281]]]},"properties":{"osm_id":421643113,"osm_type":"way","seamark_type":"harbour","display_class":"OTHER","min_zoom":12,"importance":1,"name":null,"ref":null,"common":{"type":"harbour"},"children":{},"osm_tags":{"harbour":"yes","industrial":"port","landuse":"industrial","seamark:type":"harbour"}}},{"type":"Feature","geometry":{"type":"LineString","coordinates":[[139.0445383,37.7105361],[139.0443702,37.7102424]]},"properties":{"osm_id":1098706386,"osm_type":"way","seamark_type":"gate","display_class":"OTHER","min_zoom":12,"importance":1,"name":null,"ref":null,"common":{"type":"gate"},"children":{},"osm_tags":{"seamark:type":"gate","waterway":"lock_gate"}}},{"type":"Feature","geometry":{"type":"LineString","coordinates":[[139.0438209,37.7108662],[139.0437891,37.7107983]]},"properties":{"osm_id":1098706446,"osm_type":"way","seamark_type":"gate","display_class":"OTHER","min_zoom":12,"importance":1,"name":null,"ref":null,"common":{"type":"gate"},"children":{},"osm_tags":{"seamark:type":"gate","waterway":"lock_gate"}}}],"type":"FeatureCollection"}