{"type":"FeatureCollection","features":[{"type":"Feature","geometry":{"type":"Point","coordinates":[22.8679039,37.2448113]},"properties":{"osm_id":7474401235,"osm_type":"node","seamark_type":"light_major","display_class":"LIGHTHOUSE","min_zoom":7,"importance":5,"name":null,"ref":null,"common":{"type":"light_major"},"children":{},"osm_tags":{"man_made":"lighthouse","seamark:type":"light_major"}}},{"type":"Feature","geometry":{"type":"Point","coordinates":[22.7921525,37.5670035]},"properties":{"osm_id":1082798213,"osm_type":"node","seamark_type":"light_major","display_class":"LIGHTHOUSE","min_zoom":7,"importance":5,"name":"Φάρος Ναυπλίου","ref":null,"common":{"type":"light_major"},"children":{},"osm_tags":{"height":"6","man_made":"lighthouse","name":"Φάρος Ναυπλίου","name:el":"Φάρος Ναυπλίου","name:en":"Nafplio lighthouse","name:he":"מיגדלור","name:it":"Faro","name:ru":"Маяк","seamark:type":"light_major","source":"survey"}}},{"type":"Feature","geometry":{"type":"Point","coordinates":[22.9580315,37.9527048]},"properties":{"osm_id":1431283077,"osm_type":"node","seamark_type":"beacon_lateral","display_class":"BEACON","min_zoom":9,"importance":4,"name":null,"ref":null,"common":{"type":"beacon_lateral"},"children":{"beacon_lateral":{"category":"starboard","colour":"green","height":"8","shape":"tower","system":"iala-a"},"light":{"character":"Iso","colour":"green","height":"10","period":"2","range":"10","reference":"E 3977"}},"osm_tags":{"man_made":"lighthouse","seamark:beacon_lateral:category":"starboard","seamark:beacon_lateral:colour":"green","seamark:beacon_lateral:height":"8","seamark:beacon_lateral:shape":"tower","seamark:beacon_lateral:system":"iala-a","seamark:light:character":"Iso","seamark:light:colour":"green","seamark:light:height":"10","seamark:light:period":"2","seamark:light:range":"10","seamark:light:reference":"E 3977","seamark:type":"beacon_lateral","source":"US NGA Pub. 113. 2010-09-02"}}},{"type":"Feature","geometry":{"type":"Point","coordinates":[22.93635,37.9407489]},"properties":{"osm_id":1431283101,"osm_type":"node","seamark_type":"beacon_lateral","display_class":"BEACON","min_zoom":9,"importance":4,"name":null,"ref":null,"common":{"type":"beacon_lateral"},"children":{"beacon_lateral":{"category":"port","height":"5","system":"iala-a"},"light":{"character":"F","colour":"red","height":"6","range":"3","reference":"E 3978.9"}},"osm_tags":{"man_made":"lighthouse","seamark:beacon_lateral:category":"port","seamark:beacon_lateral:height":"5","seamark:beacon_lateral:system":"iala-a","seamark:light:character":"F","seamark:light:colour":"red","seamark:light:height":"6","seamark:light:range":"3","seamark:light:reference":"E 3978.9","seamark:type":"beacon_lateral","source":"US NGA Pub. 113. 2010-09-02"}}},{"type":"Feature","geometry":{"type":"Point","coordinates":[22.9367667,37.9411337]},"properties":{"osm_id":1574361655,"osm_type":"node","seamark_type":"beacon_lateral","display_class":"BEACON","min_zoom":9,"importance":4,"name":null,"ref":null,"common":{"type":"beacon_lateral"},"children":{"beacon_lateral":{"category":"starboard","colour":"green","height":"5","system":"iala-a"},"light":{"character":"F","colour":"green","height":"7","range":"3","reference":"E 3978.91"}},"osm_tags":{"man_made":"lighthouse","seamark:beacon_lateral:category":"starboard","seamark:beacon_lateral:colour":"green","seamark:beacon_lateral:height":"5","seamark:beacon_lateral:system":"iala-a","seamark:light:character":"F","seamark:light:colour":"green","seamark:light:height":"7","seamark:light:range":"3","seamark:light:reference":"E 3978.91","seamark:type":"beacon_lateral","source":"US NGA Pub. 113. 2011-10-20."}}},{"type":"Feature","geometry":{"type":"Point","coordinates":[22.9587373,37.9533328]},"properties":{"osm_id":3316167163,"osm_type":"node","seamark_type":"beacon_lateral","display_class":"BEACON","min_zoom":9,"importance":4,"name":null,"ref":null,"common":{"type":"beacon_lateral"},"children":{"beacon_lateral":{"category":"port","colour":"red","shape":"tower","system":"iala-a"},"light":{"character":"Iso","colour":"red","height":"10","period":"2","range":"10"}},"osm_tags":{"man_made":"lighthouse","seamark:beacon_lateral:category":"port","seamark:beacon_lateral:colour":"red","seamark:beacon_lateral:shape":"tower","seamark:beacon_lateral:system":"iala-a","seamark:light:character":"Iso","seamark:light:colour":"red","seamark:light:height":"10","seamark:light:period":"2","seamark:light:range":"10","seamark:type":"beacon_lateral"}}},{"type":"Feature","geometry":{"type":"Point","coordinates":[22.9364833,37.9451833]},"properties":{"osm_id":1431283119,"osm_type":"node","seamark_type":"light_minor","display_class":"OTHER","min_zoom":12,"importance":1,"name":null,"ref":null,"common":{"type":"light_minor"},"children":{"light":{"character":"Fl","colour":"green","height":"10","period":"3","range":"3","reference":"E 3979","sequence":"0.3+(2.7)"}},"osm_tags":{"seamark:light:character":"Fl","seamark:light:colour":"green","seamark:light:height":"10","seamark:light:period":"3","seamark:light:range":"3","seamark:light:reference":"E 3979","seamark:light:sequence":"0.3+(2.7)","seamark:type":"light_minor","source":"US NGA Pub. 113. 2010-09-02"}}},{"type":"Feature","geometry":{"type":"Point","coordinates":[22.1046841,37.0229364]},"properties":{"osm_id":1431284396,"osm_type":"node","seamark_type":"light_minor","display_class":"OTHER","min_zoom":12,"importance":1,"name":null,"ref":null,"common":{"type":"light_minor"},"children":{"light":{"character":"Fl","colour":"green","height":"10","period":"3","range":"3","reference":"E 4031","sequence":"0.3+(2.7)"}},"osm_tags":{"man_made":"lighthouse","seamark:light:character":"Fl","seamark:light:colour":"green","seamark:light:height":"10","seamark:light:period":"3","seamark:light:range":"3","seamark:light:reference":"E 4031","seamark:light:sequence":"0.3+(2.7)","seamark:type":"light_minor","source":"US NGA Pub. 113. 2010-09-02"}}},{"type":"Feature","geometry":{"type":"Point","coordinates":[22.1159368,37.0218948]},"properties":{"osm_id":1431284451,"osm_type":"node","seamark_type":"light_minor","display_class":"OTHER","min_zoom":12,"importance":1,"name":null,"ref":null,"common":{"type":"light_minor"},"children":{"light":{"character":"Q","colour":"green","height":"6","range":"3","reference":"E 4030"}},"osm_tags":{"man_made":"lighthouse","seamark:light:character":"Q","seamark:light:colour":"green","seamark:light:height":"6","seamark:light:range":"3","seamark:light:reference":"E 4030","seamark:type":"light_minor","source":"US NGA Pub. 113. 2010-09-02"}}},{"type":"Feature","geometry":{"type":"Point","coordinates":[22.1204167,37.0210667]},"properties":{"osm_id":1431284454,"osm_type":"node","seamark_type":"light_minor","display_class":"OTHER","min_zoom":12,"importance":1,"name":null,"ref":null,"common":{"type":"light_minor"},"children":{"light":{"character":"Fl","colour":"green","height":"9","period":"1.5","range":"3","reference":"E 4028","sequence":"0.2+(1.3)"}},"osm_tags":{"man_made":"lighthouse","seamark:light:character":"Fl","seamark:light:colour":"green","seamark:light:height":"9","seamark:light:period":"1.5","seamark:light:range":"3","seamark:light:reference":"E 4028","seamark:light:sequence":"0.2+(1.3)","seamark:type":"light_minor","source":"US NGA Pub. 113. 2010-09-02"}}},{"type":"Feature","geometry":{"type":"Point","coordinates":[22.7339143,37.5243481]},"properties":{"osm_id":1431287769,"osm_type":"node","seamark_type":"light_minor","display_class":"OTHER","min_zoom":12,"importance":1,"name":null,"ref":null,"common":{"type":"light_minor"},"children":{"light":{"character":"F","colour":"red","height":"6","range":"3","reference":"E 4106"}},"osm_tags":{"seamark:light:character":"F","seamark:light:colour":"red","seamark:light:height":"6","seamark:light:range":"3","seamark:light:reference":"E 4106","seamark:type":"light_minor","source":"US NGA Pub. 113. 2010-09-02"}}},{"type":"Feature","geometry":{"type":"Point","coordinates":[22.7921963,37.5669683]},"properties":{"osm_id":1574300287,"osm_type":"node","seamark_type":"light_minor","display_class":"OTHER","min_zoom":12,"importance":1,"name":null,"ref":null,"common":{"type":"light_minor"},"children":{"light":{"character":"Fl","colour":"green","height":"10","period":"3","range":"3","reference":"E 4109","sequence":"0.3+(2.7)"}},"osm_tags":{"seamark:light:character":"Fl","seamark:light:colour":"green","seamark:light:height":"10","seamark:light:period":"3","seamark:light:range":"3","seamark:light:reference":"E 4109","seamark:light:sequence":"0.3+(2.7)","seamark:type":"light_minor","source":"US NGA Pub. 113. 2011-10-20."}}},{"type":"Feature","geometry":{"type":"Point","coordinates":[22.7919179,37.5679998]},"properties":{"osm_id":2320422601,"osm_type":"node","seamark_type":"buoy_lateral","display_class":"OTHER","min_zoom":12,"importance":1,"name":null,"ref":null,"common":{"type":"buoy_lateral"},"children":{"buoy_lateral":{"colour":"red","shape":"pillar"},"light":{"character":"Q","colour":"red"},"topmark":{"colour":"red","shape":"cylinder"}},"osm_tags":{"seamark:buoy_lateral:colour":"red","seamark:buoy_lateral:shape":"pillar","seamark:light:character":"Q","seamark:light:colour":"red","seamark:topmark:colour":"red","seamark:topmark:shape":"cylinder","seamark:type":"buoy_lateral"}}},{"type":"Feature","geometry":{"type":"Point","coordinates":[22.7953568,37.5695094]},"properties":{"osm_id":2320422608,"osm_type":"node","seamark_type":"buoy_lateral","display_class":"OTHER","min_zoom":12,"importance":1,"name":null,"ref":null,"common":{"type":"buoy_lateral"},"children":{"light":{"character":"Q","colour":"red"},"topmark":{"colour":"red","shape":"cylinder"}},"osm_tags":{"seamark:light:character":"Q","seamark:light:colour":"red","seamark:topmark:colour":"red","seamark:topmark:shape":"cylinder","seamark:type":"buoy_lateral"}}},{"type":"Feature","geometry":{"type":"Point","coordinates":[22.8662526,37.5196608]},"properties":{"osm_id":2403380502,"osm_type":"node","seamark_type":"harbour","display_class":"OTHER","min_zoom":12,"importance":1,"name":null,"ref":null,"common":{"type":"harbour"},"children":{"harbour":{"category":"marina"}},"osm_tags":{"amenity":"ferry_terminal","leisure":"marina","seamark:harbour:category":"marina","seamark:type":"harbour"}}},{"type":"Feature","geometry":{"type":"Point","coordinates":[22.9989081,37.4780296]},"properties":{"osm_id":2662060815,"osm_type":"node","seamark_type":"harbour","display_class":"OTHER","min_zoom":12,"importance":1,"name":null,"ref":null,"common":{"type":"harbour"},"children":{"harbour":{"category":"fishing"}},"osm_tags":{"harbour":"yes","image":"File:Iria marina cafe.jpg","leisure":"marina","seamark:harbour:category":"fishing","seamark:type":"harbour"}}},{"type":"Feature","geometry":{"type":"Point","coordinates":[22.893304,37.1459749]},"properties":{"osm_id":5685240079,"osm_type":"node","seamark_type":"harbour","display_class":"OTHER","min_zoom":12,"importance":1,"name":null,"ref":null,"common":{"type":"harbour"},"children":{"harbour":{"category":"marina"}},"osm_tags":{"leisure":"marina","seamark:harbour:category":"marina","seamark:type":"harbour"}}},{"type":"Feature","geometry":{"type":"Point","coordinates":[22.9753417,37.9787435]},"properties":{"osm_id":6021796484,"osm_type":"node","seamark_type":"harbour","display_class":"OTHER","min_zoom":12,"importance":1,"name":null,"ref":null,"common":{"type":"harbour"},"children":{"harbour":{"category":"marina"}},"osm_tags":{"leisure":"marina","seamark:harbour:category":"marina","seamark:type":"harbour"}}},{"type":"Feature","geometry":{"type":"Point","coordinates":[22.9566667,37.9863333]},"properties":{"osm_id":13944279035,"osm_type":"node","seamark_type":"light_minor","display_class":"OTHER","min_zoom":12,"importance":1,"name":null,"ref":null,"common":{"type":"light_minor"},"children":{"light":{"character":"F","colour":"red","height":"6","range":"3","reference":"N 3973.9"}},"osm_tags":{"seamark:light:character":"F","seamark:light:colour":"red","seamark:light:height":"6","seamark:light:range":"3","seamark:light:reference":"N 3973.9","seamark:type":"light_minor"}}},{"type":"Feature","geometry":{"type":"Polygon","coordinates":[[[22.8586427,37.5178077],[22.8589773,37.5177627],[22.8589632,37.5177093],[22.8586313,37.5177542],[22.8586427,37.5178077]]]},"properties":{"osm_id":238999661,"osm_type":"way","seamark_type":"shoreline_construction","display_class":"OTHER","min_zoom":12,"importance":1,"name":null,"ref":null,"common":{"type":"shoreline_construction"},"children":{"shoreline_construction":{"category":"pier"}},"osm_tags":{"area":"yes","floating":"no","man_made":"pier","seamark:shoreline_construction:category":"pier","seamark:type":"shoreline_construction","surface":"concrete"}}},{"type":"Feature","geometry":{"type":"Polygon","coordinates":[[[22.9187591,37.5336021],[22.9183067,37.5336811],[22.9173967,37.5336629],[22.9164962,37.5336771],[22.9160485,37.5336125],[22.9150874,37.533666],[22.9151948,37.5337985],[22.9150575,37.5338963],[22.9151163,37.533999],[22.9151042,37.5341576],[22.9159188,37.534687],[22.9159667,37.5346843],[22.9161126,37.5346289],[22.9161642,37.5346839],[22.916208,37.5347304],[22.9162511,37.5347762],[22.9163197,37.5348492],[22.9165095,37.5350511],[22.916917,37.535522],[22.917226,37.5357399],[22.9174202,37.5357975],[22.9174828,37.5357586],[22.9181478,37.5361843],[22.9182564,37.5362472],[22.9185108,37.536366],[22.9186193,37.5364424],[22.9186686,37.5363572],[22.9188751,37.5364359],[22.9188177,37.5365127],[22.9190397,37.5365914],[22.9187591,37.5336021]]]},"properties":{"osm_id":425105927,"osm_type":"way","seamark_type":"harbour","display_class":"OTHER","min_zoom":12,"importance":1,"name":null,"ref":null,"common":{"type":"harbour"},"children":{"harbour":{"category":"marina"}},"osm_tags":{"leisure":"marina","seamark:harbour:category":"marina","seamark:type":"harbour"}}},{"type":"Feature","geometry":{"type":"Polygon","coordinates":[[[22.9357711,37.9420553],[22.9350417,37.9414628],[22.9351584,37.9412617],[22.9348292,37.9409506],[22.9350222,37.9408158],[22.9351877,37.9406875],[22.9353533,37.9405663],[22.9355627,37.9407636],[22.9355876,37.940781],[22.9356234,37.9407723],[22.9358799,37.9408897],[22.9362158,37.9406755],[22.936345,37.9407891],[22.9364314,37.9407418],[22.9364176,37.9407201],[22.9367651,37.9404743],[22.9368919,37.9404722],[22.9369431,37.9410089],[22.9368894,37.9414044],[22.9357711,37.9420553]]]},"properties":{"osm_id":465049152,"osm_type":"way","seamark_type":"harbour","display_class":"OTHER","min_zoom":12,"importance":1,"name":null,"ref":null,"common":{"type":"harbour"},"children":{"harbour":{"category":"marina"}},"osm_tags":{"leisure":"marina","seamark:harbour:category":"marina","seamark:type":"harbour"}}},{"type":"Feature","geometry":{"type":"Polygon","coordinates":[[[22.9181478,37.5361843],[22.9185989,37.5357203],[22.9187036,37.5357798],[22.9182564,37.5362472],[22.9181478,37.5361843]]]},"properties":{"osm_id":981451856,"osm_type":"way","seamark_type":"shoreline_construction","display_class":"OTHER","min_zoom":12,"importance":1,"name":null,"ref":null,"common":{"type":"shoreline_construction"},"children":{"shoreline_construction":{"category":"pier"}},"osm_tags":{"floating":"no","man_made":"pier","mooring":"yes","seamark:shoreline_construction:category":"pier","seamark:type":"shoreline_construction"}}},{"type":"Feature","geometry":{"type":"LineString","coordinates":[[22.7927778,37.5701389],[22.7958764,37.5672945]]},"properties":{"osm_id":1111025863,"osm_type":"way","seamark_type":"cable_submarine","display_class":"OTHER","min_zoom":12,"importance":1,"name":null,"ref":null,"common":{"status":"not_in_use","type":"cable_submarine"},"children":{},"osm_tags":{"seamark:status":"not_in_use","seamark:type":"cable_submarine"}}},{"type":"Feature","geometry":{"type":"Polygon","coordinates":[[[22.9028175,37.1156193],[22.9028912,37.1159756],[22.9029373,37.1161922],[22.9029395,37.1162575],[22.90293,37.1163075],[22.9028874,37.1163343],[22.9025381,37.1164923],[22.9024797,37.116407],[22.9028361,37.1162513],[22.9027263,37.1156909],[22.9028175,37.1156193]]]},"properties":{"osm_id":1491388261,"osm_type":"way","seamark_type":"harbour","display_class":"OTHER","min_zoom":12,"importance":1,"name":null,"ref":null,"common":{"type":"harbour"},"children":{"harbour":{"category":"marina"}},"osm_tags":{"leisure":"marina","seamark:harbour:category":"marina","seamark:type":"harbour"}}},{"type":"Feature","geometry":{"type":"Point","coordinates":[22.7689304,37.4146039]},"properties":{"osm_id":5036776171,"osm_type":"node","seamark_type":"light_minor","display_class":"OTHER","min_zoom":12,"importance":1,"name":"Akra Astros","ref":null,"common":{"name":"Akra Astros","type":"light_minor"},"children":{"light":{"character":"Fl","colour":"white","height":"77","period":"5","range":"7","reference":"E 4104","sequence":"0.8+(4.2)"}},"osm_tags":{"amenity":"theatre","seamark:light:character":"Fl","seamark:light:colour":"white","seamark:light:height":"77","seamark:light:period":"5","seamark:light:range":"7","seamark:light:reference":"E 4104","seamark:light:sequence":"0.8+(4.2)","seamark:name":"Akra Astros","seamark:type":"light_minor","source":"US NGA Pub. 113. 2010-09-02"}}},{"type":"Feature","geometry":{"type":"Point","coordinates":[22.7919662,37.5625707]},"properties":{"osm_id":1574301188,"osm_type":"node","seamark_type":"light_minor","display_class":"OTHER","min_zoom":12,"importance":1,"name":"Akra Panayias","ref":null,"common":{"name":"Akra Panayias","type":"light_minor"},"children":{"light":{"character":"Fl","colour":"white","height":"11","period":"1.5","range":"5","reference":"E 4108","sequence":"0.3+(1.2)"}},"osm_tags":{"seamark:light:character":"Fl","seamark:light:colour":"white","seamark:light:height":"11","seamark:light:period":"1.5","seamark:light:range":"5","seamark:light:reference":"E 4108","seamark:light:sequence":"0.3+(1.2)","seamark:name":"Akra Panayias","seamark:type":"light_minor","source":"US NGA Pub. 113. 2011-10-20.","wikimedia_commons":"File:Nafplio light.jpg"}}},{"type":"Feature","geometry":{"type":"Point","coordinates":[22.91145,37.18985]},"properties":{"osm_id":1431287689,"osm_type":"node","seamark_type":"light_minor","display_class":"OTHER","min_zoom":12,"importance":1,"name":"Akra Sambatikis","ref":null,"common":{"name":"Akra Sambatikis","type":"light_minor"},"children":{"light":{"character":"LFl","colour":"white","height":"22","period":"7.5","range":"6","reference":"E 4098","sequence":"2+(5.5)"}},"osm_tags":{"man_made":"lighthouse","seamark:light:character":"LFl","seamark:light:colour":"white","seamark:light:height":"22","seamark:light:period":"7.5","seamark:light:range":"6","seamark:light:reference":"E 4098","seamark:light:sequence":"2+(5.5)","seamark:name":"Akra Sambatikis","seamark:type":"light_minor","source":"US NGA Pub. 113. 2010-09-02"}}},{"type":"Feature","geometry":{"type":"Point","coordinates":[22.9979538,37.4781301]},"properties":{"osm_id":1574299837,"osm_type":"node","seamark_type":"light_minor","display_class":"OTHER","min_zoom":12,"importance":1,"name":"Iria","ref":null,"common":{"name":"Iria","type":"light_minor"},"children":{"light":{"character":"F","colour":"green","height":"6","range":"3","reference":"E 4111.5"}},"osm_tags":{"man_made":"survey_point","seamark:light:character":"F","seamark:light:colour":"green","seamark:light:height":"6","seamark:light:range":"3","seamark:light:reference":"E 4111.5","seamark:name":"Iria","seamark:type":"light_minor","source":"US NGA Pub. 113. 2011-10-20."}}},{"type":"Feature","geometry":{"type":"Point","coordinates":[22.1193019,37.0199565]},"properties":{"osm_id":1431284441,"osm_type":"node","seamark_type":"light_minor","display_class":"OTHER","min_zoom":12,"importance":1,"name":"Kalamai","ref":null,"common":{"name":"Kalamai","type":"light_minor"},"children":{"light":{"character":"Fl","colour":"red","height":"10","period":"1.5","range":"3","reference":"E 4026","sequence":"0.2+(1.3)"}},"osm_tags":{"man_made":"lighthouse","seamark:light:character":"Fl","seamark:light:colour":"red","seamark:light:height":"10","seamark:light:period":"1.5","seamark:light:range":"3","seamark:light:reference":"E 4026","seamark:light:sequence":"0.2+(1.3)","seamark:name":"Kalamai","seamark:type":"light_minor","source":"US NGA Pub. 113. 2010-09-02"}}},{"type":"Feature","geometry":{"type":"Point","coordinates":[22.8336167,37.9538333]},"properties":{"osm_id":1431283193,"osm_type":"node","seamark_type":"light_minor","display_class":"OTHER","min_zoom":12,"importance":1,"name":"Kato Assos","ref":null,"common":{"name":"Kato Assos","type":"light_minor"},"children":{"light":{"character":"Fl","colour":"red","height":"8","period":"3","range":"3","reference":"E 3973.6","sequence":"0.3+(2.7)"}},"osm_tags":{"man_made":"lighthouse","seamark:light:character":"Fl","seamark:light:colour":"red","seamark:light:height":"8","seamark:light:period":"3","seamark:light:range":"3","seamark:light:reference":"E 3973.6","seamark:light:sequence":"0.3+(2.7)","seamark:name":"Kato Assos","seamark:type":"light_minor","source":"US NGA Pub. 113. 2010-09-02"}}},{"type":"Feature","geometry":{"type":"Point","coordinates":[22.732,37.5271333]},"properties":{"osm_id":1431287743,"osm_type":"node","seamark_type":"light_minor","display_class":"OTHER","min_zoom":12,"importance":1,"name":"Kiveri","ref":null,"common":{"name":"Kiveri","type":"light_minor"},"children":{"light":{"character":"Fl","colour":"yellow","height":"7","period":"1.5","range":"3","reference":"E 4106.2","sequence":"0.2+(1.3)"}},"osm_tags":{"seamark:light:character":"Fl","seamark:light:colour":"yellow","seamark:light:height":"7","seamark:light:period":"1.5","seamark:light:range":"3","seamark:light:reference":"E 4106.2","seamark:light:sequence":"0.2+(1.3)","seamark:name":"Kiveri","seamark:type":"light_minor","source":"US NGA Pub. 113. 2010-09-02"}}},{"type":"Feature","geometry":{"type":"Point","coordinates":[22.8935685,37.1446871]},"properties":{"osm_id":1431287634,"osm_type":"node","seamark_type":"light_minor","display_class":"OTHER","min_zoom":12,"importance":1,"name":"Leonidhion","ref":null,"common":{"name":"Leonidhion","type":"light_minor"},"children":{"light":{"character":"Fl","colour":"green","height":"7","period":"1.5","range":"3","reference":"E 4096","sequence":"0.2+(1.3)"}},"osm_tags":{"man_made":"lighthouse","seamark:light:character":"Fl","seamark:light:colour":"green","seamark:light:height":"7","seamark:light:period":"1.5","seamark:light:range":"3","seamark:light:reference":"E 4096","seamark:light:sequence":"0.2+(1.3)","seamark:name":"Leonidhion","seamark:type":"light_minor","source":"US NGA Pub. 113. 2010-09-02"}}},{"type":"Feature","geometry":{"type":"Point","coordinates":[22.9341724,37.521847]},"properties":{"osm_id":1574299875,"osm_type":"node","seamark_type":"light_minor","display_class":"OTHER","min_zoom":12,"importance":1,"name":"Limin Khaidhari","ref":null,"common":{"name":"Limin Khaidhari","type":"light_minor"},"children":{"light":{"1:character":"Fl","1:colour":"white","1:group":"3","1:height":"12","1:period":"15","1:range":"5","1:sector_end":"46","1:sector_start":"301","1:sequence":"0.5+(1.5),0.5+(1.5),0.5+(10.5)","2:character":"Fl","2:colour":"red","2:group":"3","2:height":"12","2:period":"15","2:range":"3","2:sector_end":"58","2:sector_start":"46","2:sequence":"0.5+(1.5),0.5+(1.5),0.5+(10.5)","3:character":"Fl","3:colour":"white","3:group":"3","3:height":"12","3:period":"15","3:range":"5","3:sector_end":"220","3:sector_start":"58","3:sequence":"0.5+(1.5),0.5+(1.5),0.5+(10.5)","reference":"E 4111"}},"osm_tags":{"man_made":"lighthouse","seamark:light:1:character":"Fl","seamark:light:1:colour":"white","seamark:light:1:group":"3","seamark:light:1:height":"12","seamark:light:1:period":"15","seamark:light:1:range":"5","seamark:light:1:sector_end":"46","seamark:light:1:sector_start":"301","seamark:light:1:sequence":"0.5+(1.5),0.5+(1.5),0.5+(10.5)","seamark:light:2:character":"Fl","seamark:light:2:colour":"red","seamark:light:2:group":"3","seamark:light:2:height":"12","seamark:light:2:period":"15","seamark:light:2:range":"3","seamark:light:2:sector_end":"58","seamark:light:2:sector_start":"46","seamark:light:2:sequence":"0.5+(1.5),0.5+(1.5),0.5+(10.5)","seamark:light:3:character":"Fl","seamark:light:3:colour":"white","seamark:light:3:group":"3","seamark:light:3:height":"12","seamark:light:3:period":"15","seamark:light:3:range":"5","seamark:light:3:sector_end":"220","seamark:light:3:sector_start":"58","seamark:light:3:sequence":"0.5+(1.5),0.5+(1.5),0.5+(10.5)","seamark:light:reference":"E 4111","seamark:name":"Limin Khaidhari","seamark:type":"light_minor","source":"US NGA Pub. 113. 2011-10-20."}}},{"type":"Feature","geometry":{"type":"Point","coordinates":[22.7482689,37.5823207]},"properties":{"osm_id":1431287779,"osm_type":"node","seamark_type":"light_minor","display_class":"OTHER","min_zoom":12,"importance":1,"name":"Nea Kios","ref":null,"common":{"name":"Nea Kios","type":"light_minor"},"children":{"light":{"character":"Fl","colour":"red","height":"6","period":"2","range":"3","reference":"E 4107.5","sequence":"0.3+(1.7)"}},"osm_tags":{"seamark:light:character":"Fl","seamark:light:colour":"red","seamark:light:height":"6","seamark:light:period":"2","seamark:light:range":"3","seamark:light:reference":"E 4107.5","seamark:light:sequence":"0.3+(1.7)","seamark:name":"Nea Kios","seamark:type":"light_minor","source":"US NGA Pub. 113. 2010-09-02"}}},{"type":"Feature","geometry":{"type":"Point","coordinates":[22.9680061,37.4305022]},"properties":{"osm_id":1574299760,"osm_type":"node","seamark_type":"light_minor","display_class":"OTHER","min_zoom":12,"importance":1,"name":"Nisis Ipsili","ref":null,"common":{"name":"Nisis Ipsili","type":"light_minor"},"children":{"light":{"1:character":"Fl","1:colour":"white","1:height":"16","1:period":"5","1:range":"9","1:sector_end":"157","1:sector_start":"301","1:sequence":"0.5+(4.5)","reference":"E 4112"}},"osm_tags":{"seamark:light:1:character":"Fl","seamark:light:1:colour":"white","seamark:light:1:height":"16","seamark:light:1:period":"5","seamark:light:1:range":"9","seamark:light:1:sector_end":"157","seamark:light:1:sector_start":"301","seamark:light:1:sequence":"0.5+(4.5)","seamark:light:reference":"E 4112","seamark:name":"Nisis Ipsili","seamark:type":"light_minor","source":"US NGA Pub. 113. 2011-10-20."}}},{"type":"Feature","geometry":{"type":"Point","coordinates":[22.7200133,37.5548656]},"properties":{"osm_id":1431287721,"osm_type":"node","seamark_type":"light_minor","display_class":"OTHER","min_zoom":12,"importance":1,"name":"Ormos Navpliou","ref":null,"common":{"name":"Ormos Navpliou","type":"light_minor"},"children":{"light":{"1:character":"Fl","1:colour":"red","1:height":"8","1:period":"3","1:range":"4","1:sector_end":"338.0","1:sector_start":"107.0","1:sequence":"0.3+(2.7)","reference":"E 4107"}},"osm_tags":{"man_made":"lighthouse","name":"Φάρος Μύλων","name:el":"Φάρος Μύλων","name:en":"Myloi lighthouse","seamark:light:1:character":"Fl","seamark:light:1:colour":"red","seamark:light:1:height":"8","seamark:light:1:period":"3","seamark:light:1:range":"4","seamark:light:1:sector_end":"338.0","seamark:light:1:sector_start":"107.0","seamark:light:1:sequence":"0.3+(2.7)","seamark:light:reference":"E 4107","seamark:name":"Ormos Navpliou","seamark:type":"light_minor","source":"US NGA Pub. 113. 2010-09-02"}}},{"type":"Feature","geometry":{"type":"Point","coordinates":[22.902547,37.116529]},"properties":{"osm_id":1431287663,"osm_type":"node","seamark_type":"light_minor","display_class":"OTHER","min_zoom":12,"importance":1,"name":"Poulithra","ref":null,"common":{"name":"Poulithra","type":"light_minor"},"children":{"light":{"character":"F","colour":"red","height":"8","range":"3","reference":"E 4095"}},"osm_tags":{"man_made":"lighthouse","seamark:light:character":"F","seamark:light:colour":"red","seamark:light:height":"8","seamark:light:range":"3","seamark:light:reference":"E 4095","seamark:name":"Poulithra","seamark:type":"light_minor","source":"US NGA Pub. 113. 2010-09-02"}}},{"type":"Feature","geometry":{"type":"Point","coordinates":[22.8578743,37.5145265]},"properties":{"osm_id":1574300152,"osm_type":"node","seamark_type":"light_minor","display_class":"OTHER","min_zoom":12,"importance":1,"name":"Tolo Bay","ref":null,"common":{"information":"1 meter apart.","name":"Tolo Bay","type":"light_minor"},"children":{"light":{"character":"F","colour":"red","height":"6","range":"3","reference":"E 4110.6"}},"osm_tags":{"seamark:information":"1 meter apart.","seamark:light:character":"F","seamark:light:colour":"red","seamark:light:height":"6","seamark:light:range":"3","seamark:light:reference":"E 4110.6","seamark:name":"Tolo Bay","seamark:type":"light_minor","source":"US NGA Pub. 113. 2011-10-20."}}},{"type":"Feature","geometry":{"type":"Point","coordinates":[22.7834694,37.3711023]},"properties":{"osm_id":1473400693,"osm_type":"node","seamark_type":"harbour","display_class":"OTHER","min_zoom":12,"importance":1,"name":"Άγιος Ανδρέας","ref":null,"common":{"type":"harbour"},"children":{"harbour":{"category":"marina"}},"osm_tags":{"leisure":"marina","name":"Άγιος Ανδρέας","name:el":"Άγιος Ανδρέας","name:en":"Agios Andreas","seamark:harbour:category":"marina","seamark:type":"harbour"}}},{"type":"Feature","geometry":{"type":"Polygon","coordinates":[[[22.9373431,37.4891561],[22.9380512,37.4912929],[22.9369032,37.4916589],[22.9359591,37.4894285],[22.9373431,37.4891561]]]},"properties":{"osm_id":425195792,"osm_type":"way","seamark_type":"marine_farm","display_class":"OTHER","min_zoom":12,"importance":1,"name":"Ιχθυοτροφείο","ref":null,"common":{"type":"marine_farm"},"children":{"marine_farm":{"category":"fish"}},"osm_tags":{"landuse":"aquaculture","name":"Ιχθυοτροφείο","seamark:marine_farm:category":"fish","seamark:type":"marine_farm"}}},{"type":"Feature","geometry":{"type":"Polygon","coordinates":[[[22.9354452,37.4949473],[22.9337489,37.4968089],[22.9318821,37.4960402],[22.9310768,37.4956691],[22.9319357,37.4947489],[22.9331297,37.4934051],[22.9354452,37.4949473]]]},"properties":{"osm_id":425195864,"osm_type":"way","seamark_type":"marine_farm","display_class":"OTHER","min_zoom":12,"importance":1,"name":"Ιχθυοτροφείο","ref":null,"common":{"type":"marine_farm"},"children":{"marine_farm":{"category":"fish"}},"osm_tags":{"landuse":"aquaculture","name":"Ιχθυοτροφείο","seamark:marine_farm:category":"fish","seamark:type":"marine_farm"}}},{"type":"Feature","geometry":{"type":"Polygon","coordinates":[[[22.9292106,37.4962301],[22.9282236,37.4971153],[22.9269576,37.495847],[22.9280734,37.495132],[22.9292106,37.4962301]]]},"properties":{"osm_id":425195912,"osm_type":"way","seamark_type":"marine_farm","display_class":"OTHER","min_zoom":12,"importance":1,"name":"Ιχθυοτροφείο","ref":null,"common":{"type":"marine_farm"},"children":{"marine_farm":{"category":"fish"}},"osm_tags":{"landuse":"aquaculture","name":"Ιχθυοτροφείο","seamark:marine_farm:category":"fish","seamark:type":"marine_farm"}}},{"type":"Feature","geometry":{"type":"Polygon","coordinates":[[[22.9214966,37.4994136],[22.9229667,37.5013861],[22.92418,37.5008087],[22.9248031,37.5012859],[22.925536,37.5008722],[22.9221725,37.49829],[22.9213357,37.498673],[22.9214966,37.4994136]]]},"properties":{"osm_id":425196526,"osm_type":"way","seamark_type":"marine_farm","display_class":"OTHER","min_zoom":12,"importance":1,"name":"Ιχθυοτροφείο","ref":null,"common":{"type":"marine_farm"},"children":{"marine_farm":{"category":"fish"}},"osm_tags":{"landuse":"aquaculture","name":"Ιχθυοτροφείο","seamark:marine_farm:category":"fish","seamark:type":"marine_farm"}}},{"type":"Feature","geometry":{"type":"Polygon","coordinates":[[[22.9164326,37.5025714],[22.918514,37.5022905],[22.9184496,37.5018224],[22.9168832,37.5020267],[22.9170334,37.5014479],[22.916497,37.5013798],[22.9163468,37.5020948],[22.9164326,37.5025714]]]},"properties":{"osm_id":425197788,"osm_type":"way","seamark_type":"marine_farm","display_class":"OTHER","min_zoom":12,"importance":1,"name":"Ιχθυοτροφείο","ref":null,"common":{"type":"marine_farm"},"children":{"marine_farm":{"category":"fish"}},"osm_tags":{"landuse":"aquaculture","name":"Ιχθυοτροφείο","seamark:marine_farm:category":"fish","seamark:type":"marine_farm"}}},{"type":"Feature","geometry":{"type":"Polygon","coordinates":[[[22.9112414,37.5026259],[22.9112983,37.5020196],[22.9155833,37.5023034],[22.915502,37.5028969],[22.9112414,37.5026259]]]},"properties":{"osm_id":506045261,"osm_type":"way","seamark_type":"marine_farm","display_class":"OTHER","min_zoom":12,"importance":1,"name":"Ιχθυοτροφείο","ref":null,"common":{"type":"marine_farm"},"children":{"marine_farm":{"category":"fish"}},"osm_tags":{"landuse":"aquaculture","name":"Ιχθυοτροφείο","seamark:marine_farm:category":"fish","seamark:type":"marine_farm"}}},{"type":"Feature","geometry":{"type":"Point","coordinates":[22.7665412,37.4146671]},"properties":{"osm_id":5075251365,"osm_type":"node","seamark_type":"harbour","display_class":"OTHER","min_zoom":12,"importance":1,"name":"Λιμάνι Άστρους","ref":null,"common":{"type":"harbour"},"children":{"harbour":{"category":"marina"}},"osm_tags":{"harbour":"yes","leisure":"marina","name":"Λιμάνι Άστρους","seamark:harbour:category":"marina","seamark:type":"harbour"}}},{"type":"Feature","geometry":{"type":"Point","coordinates":[22.7471441,37.5832046]},"properties":{"osm_id":8325934512,"osm_type":"node","seamark_type":"harbour","display_class":"OTHER","min_zoom":12,"importance":1,"name":"Λιμάνι Νέας Κίου","ref":null,"common":{"type":"harbour"},"children":{"harbour":{"category":"marina"}},"osm_tags":{"leisure":"marina","name":"Λιμάνι Νέας Κίου","name:el":"Λιμάνι Νέας Κίου","name:en":"Nea Kios Harbour","seamark:harbour:category":"marina","seamark:type":"harbour"}}},{"type":"Feature","geometry":{"type":"Polygon","coordinates":[[[22.7959318,37.5673243],[22.7958764,37.5672945],[22.7955675,37.5671285],[22.7933969,37.5659616],[22.7928713,37.5666122],[22.792591,37.5664658],[22.7922865,37.56684],[22.792318,37.5668568],[22.7923176,37.5668624],[22.7922787,37.5669074],[22.7922798,37.5669093],[22.7922826,37.5669154],[22.7922841,37.5669203],[22.7922852,37.5669252],[22.792286,37.5669351],[22.7922856,37.5669408],[22.7922845,37.5669465],[22.7922829,37.566952],[22.7922807,37.5669574],[22.7922778,37.5669626],[22.7922744,37.5669677],[22.7922673,37.5669757],[22.7922862,37.566992],[22.7923128,37.5670105],[22.791224,37.5684454],[22.7986326,37.571802],[22.8017909,37.5717312],[22.8017851,37.5716416],[22.8018282,37.5716395],[22.8018253,37.5716017],[22.8018223,37.5715642],[22.8017792,37.5715664],[22.8017669,37.5714011],[22.8008313,37.5714227],[22.8008226,37.5714568],[22.8006252,37.5714579],[22.8005879,37.5690917],[22.8005763,37.5677325],[22.7982329,37.5678021],[22.7967239,37.5678452],[22.7967067,37.5678381],[22.7965899,37.56779],[22.7963023,37.5682455],[22.7955466,37.5679333],[22.7959318,37.5673243]]]},"properties":{"osm_id":495500892,"osm_type":"way","seamark_type":"harbour","display_class":"OTHER","min_zoom":12,"importance":1,"name":"Λιμάνι Ναυπλίου","ref":null,"common":{"type":"harbour"},"children":{"harbour":{"category":"harbour"}},"osm_tags":{"addr:city":"Nafplio","addr:postcode":"21100","landuse":"harbour","name":"Λιμάνι Ναυπλίου","name:el":"Λιμάνι Ναυπλίου","name:en":"Harbor of Nafplio","natural":"water","operator":"Λιμεναρχείο Ναυπλίου","phone":"+30 27520 27022","phone1":"+30 27529 22974","seamark:harbour:category":"harbour","seamark:type":"harbour"}}},{"type":"Feature","geometry":{"type":"Point","coordinates":[22.8686548,37.2454961]},"properties":{"osm_id":4411807952,"osm_type":"node","seamark_type":"harbour","display_class":"OTHER","min_zoom":12,"importance":1,"name":"Λιμένας Τυρού","ref":null,"common":{"type":"harbour"},"children":{"harbour":{"category":"marina"}},"osm_tags":{"addr:city":"Τυρός","addr:postcode":"22029","addr:street":"Ταγματάρχου Αλευρά","fee":"yes","leisure":"marina","name":"Λιμένας Τυρού","operator":"Δημοτικό Λιμενικό Νότιας Κυνουρίας","payment:cash":"yes","power_supply":"no","sanitary_dump_station":"no","seamark:harbour:category":"marina","seamark:type":"harbour"}}},{"type":"Feature","geometry":{"type":"Polygon","coordinates":[[[22.1061942,37.0234066],[22.1050102,37.0235657],[22.1050194,37.0235859],[22.1050159,37.0236055],[22.1049949,37.0236276],[22.1049519,37.0236403],[22.1048385,37.0236785],[22.1048189,37.0237153],[22.1047924,37.023718],[22.1036143,37.0238273],[22.103631,37.0238656],[22.1033983,37.023927],[22.103685,37.0246409],[22.1043362,37.0246373],[22.1043304,37.0241286],[22.1043873,37.0241302],[22.1043896,37.0246316],[22.1050433,37.0246277],[22.1051749,37.0240825],[22.1052185,37.0240833],[22.1052206,37.0242432],[22.1052758,37.024243],[22.1053301,37.0242428],[22.1053288,37.0240736],[22.1053534,37.0240734],[22.1053548,37.0242863],[22.1057552,37.0242821],[22.1058004,37.0242816],[22.1063336,37.0242759],[22.1063805,37.0242754],[22.1069341,37.0242694],[22.1069763,37.024269],[22.1074893,37.0242635],[22.1075347,37.024263],[22.108045,37.0242575],[22.1079707,37.0237393],[22.108195,37.0237219],[22.108189,37.0236727],[22.1079636,37.0236901],[22.1079609,37.0236712],[22.1082148,37.0236519],[22.1082046,37.0235573],[22.1081951,37.023469],[22.1079349,37.0234895],[22.1079282,37.0234427],[22.1066725,37.0235546],[22.1066341,37.0235572],[22.1065971,37.0235583],[22.1065567,37.0235569],[22.1065432,37.0235562],[22.1065331,37.0235556],[22.1065214,37.0235543],[22.1065097,37.0235528],[22.1064824,37.0235484],[22.1064491,37.0235418],[22.1062771,37.0234925],[22.1061965,37.0235451],[22.1061069,37.0234581],[22.1061942,37.0234066]]]},"properties":{"osm_id":684472510,"osm_type":"way","seamark_type":"harbour","display_class":"OTHER","min_zoom":12,"importance":1,"name":"Μαρίνα Καλαμάτας","ref":null,"common":{"type":"harbour"},"children":{"harbour":{"category":"marina"}},"osm_tags":{"addr:postcode":"24100","leisure":"marina","name":"Μαρίνα Καλαμάτας","seamark:harbour:category":"marina","seamark:type":"harbour"}}},{"type":"Feature","geometry":{"type":"Polygon","coordinates":[[[22.9287924,37.5246711],[22.9285709,37.5246814],[22.928667,37.5245032],[22.9285709,37.5243173],[22.9286621,37.5242824],[22.9287452,37.524378],[22.9289113,37.5243534],[22.9290953,37.5243935],[22.9287924,37.5246711]]]},"properties":{"osm_id":454893322,"osm_type":"way","seamark_type":"fortified_structure","display_class":"OTHER","min_zoom":12,"importance":1,"name":"Φρούριο Δρεπάνου","ref":null,"common":{"type":"fortified_structure"},"children":{"fortified_structure":{"category":"fort"}},"osm_tags":{"castle_type":"castrum","historic":"castle","int_name":"Drepanou Fort","name":"Φρούριο Δρεπάνου","name:el":"Φρούριο Δρεπάνου","name:en":"Drepanou Fort","ruins":"yes","seamark:fortified_structure:category":"fort","seamark:type":"fortified_structure"}}}],"type":"FeatureCollection"}