{"type":"FeatureCollection","features":[{"type":"Feature","geometry":{"type":"Point","coordinates":[7.5099833,37.0512]},"properties":{"osm_id":1581740841,"osm_type":"node","seamark_type":"beacon_isolated_danger","display_class":"BEACON","min_zoom":9,"importance":4,"name":"Roche Akcine","ref":null,"common":{"name":"Roche Akcine","type":"beacon_isolated_danger"},"children":{"beacon_isolated_danger":{"colour":"black;red;black","colour_pattern":"horizontal","shape":"tower"},"light":{"1:character":"Fl","1:colour":"white","1:group":"2","1:height":"16","1:period":"6","1:range":"8","1:sector_end":"324","1:sector_start":"54","1:sequence":"1+(1),1+(3)","reference":"E 6508"}},"osm_tags":{"seamark:beacon_isolated_danger:colour":"black;red;black","seamark:beacon_isolated_danger:colour_pattern":"horizontal","seamark:beacon_isolated_danger:shape":"tower","seamark:light:1:character":"Fl","seamark:light:1:colour":"white","seamark:light:1:group":"2","seamark:light:1:height":"16","seamark:light:1:period":"6","seamark:light:1:range":"8","seamark:light:1:sector_end":"324","seamark:light:1:sector_start":"54","seamark:light:1:sequence":"1+(1),1+(3)","seamark:light:reference":"E 6508","seamark:name":"Roche Akcine","seamark:type":"beacon_isolated_danger","source":"US NGA Pub. 113. 2011-10-20."}}},{"type":"Feature","geometry":{"type":"Point","coordinates":[7.384269,37.0666574]},"properties":{"osm_id":1581740581,"osm_type":"node","seamark_type":"light_minor","display_class":"OTHER","min_zoom":12,"importance":1,"name":null,"ref":null,"common":{"type":"light_minor"},"children":{"light":{"character":"F","colour":"red","height":"8","reference":"E 6514"}},"osm_tags":{"seamark:light:character":"F","seamark:light:colour":"red","seamark:light:height":"8","seamark:light:reference":"E 6514","seamark:type":"light_minor","source":"US NGA Pub. 113. 2011-10-20."}}},{"type":"Feature","geometry":{"type":"Point","coordinates":[7.3853113,37.0662947]},"properties":{"osm_id":1581740658,"osm_type":"node","seamark_type":"light_minor","display_class":"OTHER","min_zoom":12,"importance":1,"name":null,"ref":null,"common":{"type":"light_minor"},"children":{"light":{"character":"F","colour":"green","height":"9","range":"2","reference":"E 6512"}},"osm_tags":{"seamark:light:character":"F","seamark:light:colour":"green","seamark:light:height":"9","seamark:light:range":"2","seamark:light:reference":"E 6512","seamark:type":"light_minor","source":"US NGA Pub. 113. 2011-10-20."}}},{"type":"Feature","geometry":{"type":"Point","coordinates":[7.0166667,37.0666667]},"properties":{"osm_id":10154391704,"osm_type":"node","seamark_type":"wreck","display_class":"OTHER","min_zoom":12,"importance":1,"name":null,"ref":null,"common":{"type":"wreck"},"children":{"wreck":{"category":"non-dangerous"}},"osm_tags":{"seamark:type":"wreck","seamark:wreck:category":"non-dangerous"}}},{"type":"Feature","geometry":{"type":"Point","coordinates":[7.2525831,37.0270667]},"properties":{"osm_id":1581739543,"osm_type":"node","seamark_type":"light_minor","display_class":"OTHER","min_zoom":12,"importance":1,"name":"El Mersa","ref":null,"common":{"name":"El Mersa","type":"light_minor"},"children":{"light":{"character":"Iso","colour":"white","height":"10","period":"4","range":"7","reference":"E 6518"}},"osm_tags":{"seamark:light:character":"Iso","seamark:light:colour":"white","seamark:light:height":"10","seamark:light:period":"4","seamark:light:range":"7","seamark:light:reference":"E 6518","seamark:name":"El Mersa","seamark:type":"light_minor","source":"US NGA Pub. 113. 2011-10-20."}}},{"type":"Feature","geometry":{"type":"Point","coordinates":[7.2510135,37.0277598]},"properties":{"osm_id":3466104982,"osm_type":"node","seamark_type":"harbour","display_class":"OTHER","min_zoom":12,"importance":1,"name":"Port El Marsa","ref":null,"common":{"type":"harbour"},"children":{"harbour":{"category":"marina"}},"osm_tags":{"leisure":"marina","name":"Port El Marsa","seamark:harbour:category":"marina","seamark:type":"harbour"}}},{"type":"Feature","geometry":{"type":"Point","coordinates":[7.3849054,37.0669536]},"properties":{"osm_id":3465928627,"osm_type":"node","seamark_type":"harbour","display_class":"OTHER","min_zoom":12,"importance":1,"name":"Port de pêche","ref":null,"common":{"type":"harbour"},"children":{"harbour":{"category":"fishing"}},"osm_tags":{"harbour":"yes","name":"Port de pêche","seamark:harbour:category":"fishing","seamark:type":"harbour"}}}],"type":"FeatureCollection"}