{"type":"FeatureCollection","features":[{"type":"Feature","geometry":{"type":"Point","coordinates":[-119.7077461,37.0022313]},"properties":{"osm_id":11695238753,"osm_type":"node","seamark_type":"gate","display_class":"OTHER","min_zoom":12,"importance":1,"name":null,"ref":null,"common":{"type":"gate"},"children":{},"osm_tags":{"seamark:type":"gate","waterway":"lock_gate"}}},{"type":"Feature","geometry":{"type":"Point","coordinates":[-119.0755047,37.7833929]},"properties":{"osm_id":3031189162,"osm_type":"node","seamark_type":"harbour","display_class":"OTHER","min_zoom":12,"importance":1,"name":"Big Rock Resort Marina","ref":null,"common":{"type":"harbour"},"children":{"harbour":{"category":"marina"}},"osm_tags":{"leisure":"marina","name":"Big Rock Resort Marina","seamark:harbour:category":"marina","seamark:type":"harbour"}}},{"type":"Feature","geometry":{"type":"Point","coordinates":[-119.165143,37.253195]},"properties":{"osm_id":1398943348,"osm_type":"node","seamark_type":"harbour","display_class":"OTHER","min_zoom":12,"importance":1,"name":"China Peak Landing","ref":null,"common":{"type":"harbour"},"children":{"harbour":{"category":"marina"}},"osm_tags":{"area":"yes","leisure":"marina","name":"China Peak Landing","operator":"China Peak","seamark:harbour:category":"marina","seamark:type":"harbour","sport":"sailing","website":"https://www.chinapeaklanding.com/"}}},{"type":"Feature","geometry":{"type":"Polygon","coordinates":[[[-119.1660146,37.2533363],[-119.1659495,37.2543137],[-119.1653536,37.2543383],[-119.1648637,37.2539589],[-119.16363,37.2538635],[-119.1638145,37.2535573],[-119.1646205,37.2526887],[-119.1653654,37.2525539],[-119.1660146,37.2533363]]]},"properties":{"osm_id":357366688,"osm_type":"way","seamark_type":"harbour","display_class":"OTHER","min_zoom":12,"importance":1,"name":"China Peak Landing","ref":null,"common":{"type":"harbour"},"children":{"harbour":{"category":"marina"}},"osm_tags":{"area":"yes","leisure":"marina","name":"China Peak Landing","operator":"China Peak","seamark:harbour:category":"marina","seamark:type":"harbour","website":"https://www.chinapeaklanding.com/"}}},{"type":"Feature","geometry":{"type":"Point","coordinates":[-119.1212713,37.8329785]},"properties":{"osm_id":11994795901,"osm_type":"node","seamark_type":"harbour","display_class":"OTHER","min_zoom":12,"importance":1,"name":"Grant Lake Marina","ref":null,"common":{"type":"harbour"},"children":{"harbour":{"category":"marina"}},"osm_tags":{"leisure":"marina","name":"Grant Lake Marina","seamark:harbour:category":"marina","seamark:type":"harbour","website":"https://www.monocounty.org/listing/grant-lake-marina/721/"}}},{"type":"Feature","geometry":{"type":"Point","coordinates":[-119.0862565,37.7750237]},"properties":{"osm_id":3031455404,"osm_type":"node","seamark_type":"harbour","display_class":"OTHER","min_zoom":12,"importance":1,"name":"Gull Lake Carry-on Boat Launch","ref":null,"common":{"type":"harbour"},"children":{},"osm_tags":{"leisure":"slipway","name":"Gull Lake Carry-on Boat Launch","seamark:type":"harbour","surface":"gravel"}}},{"type":"Feature","geometry":{"type":"Point","coordinates":[-119.0800112,37.7771176]},"properties":{"osm_id":3031189155,"osm_type":"node","seamark_type":"harbour","display_class":"OTHER","min_zoom":12,"importance":1,"name":"Gull Lake Marina","ref":null,"common":{"type":"harbour"},"children":{"harbour":{"category":"marina"}},"osm_tags":{"leisure":"marina","name":"Gull Lake Marina","seamark:harbour:category":"marina","seamark:type":"harbour"}}},{"type":"Feature","geometry":{"type":"Point","coordinates":[-119.0766672,37.7825394]},"properties":{"osm_id":3031189163,"osm_type":"node","seamark_type":"harbour","display_class":"OTHER","min_zoom":12,"importance":1,"name":"June Lake Marina","ref":null,"common":{"type":"harbour"},"children":{"harbour":{"category":"marina"}},"osm_tags":{"leisure":"marina","name":"June Lake Marina","seamark:harbour:category":"marina","seamark:type":"harbour"}}},{"type":"Feature","geometry":{"type":"Point","coordinates":[-119.5365672,37.2983631]},"properties":{"osm_id":6874093579,"osm_type":"node","seamark_type":"harbour","display_class":"OTHER","min_zoom":12,"importance":1,"name":"Miller's Marina","ref":null,"common":{"type":"harbour"},"children":{"harbour":{"category":"marina"}},"osm_tags":{"leisure":"marina","name":"Miller's Marina","seamark:harbour:category":"marina","seamark:type":"harbour"}}}],"type":"FeatureCollection"}