{"type":"FeatureCollection","features":[{"type":"Feature","geometry":{"type":"Point","coordinates":[-88.2400725,37.0004383]},"properties":{"osm_id":270612805,"osm_type":"node","seamark_type":"harbour","display_class":"OTHER","min_zoom":12,"importance":1,"name":null,"ref":null,"common":{"type":"harbour"},"children":{"harbour":{"category":"marina"}},"osm_tags":{"leisure":"marina","seamark:harbour:category":"marina","seamark:type":"harbour"}}},{"type":"Feature","geometry":{"type":"LineString","coordinates":[[-88.2249283,37.0200959],[-88.2250843,37.0200094],[-88.2252827,37.0200123]]},"properties":{"osm_id":385194544,"osm_type":"way","seamark_type":"gate","display_class":"OTHER","min_zoom":12,"importance":1,"name":null,"ref":null,"common":{"type":"gate"},"children":{},"osm_tags":{"barrier":"lock_gate","seamark:type":"gate","waterway":"lock_gate"}}},{"type":"Feature","geometry":{"type":"LineString","coordinates":[[-88.2239752,37.0178142],[-88.2241228,37.0177232],[-88.2243411,37.0177238]]},"properties":{"osm_id":385194545,"osm_type":"way","seamark_type":"gate","display_class":"OTHER","min_zoom":12,"importance":1,"name":null,"ref":null,"common":{"type":"gate"},"children":{},"osm_tags":{"barrier":"lock_gate","seamark:type":"gate","waterway":"lock_gate"}}},{"type":"Feature","geometry":{"type":"LineString","coordinates":[[-88.2642701,37.0141274],[-88.2641109,37.0142164],[-88.2640516,37.0143852]]},"properties":{"osm_id":844671742,"osm_type":"way","seamark_type":"gate","display_class":"OTHER","min_zoom":12,"importance":1,"name":null,"ref":"01","common":{"type":"gate"},"children":{},"osm_tags":{"ref":"01","seamark:type":"gate","waterway":"lock_gate","website":"https://www.lrn.usace.army.mil/locks/kentucky/"}}},{"type":"Feature","geometry":{"type":"Polygon","coordinates":[[[-88.8959788,37.5865725],[-88.8960735,37.5861538],[-88.8964627,37.5861858],[-88.8969826,37.586625],[-88.8972815,37.5870419],[-88.8977671,37.5872689],[-88.8977547,37.5876488],[-88.8975399,37.587972],[-88.8969173,37.5880975],[-88.8967701,37.5879753],[-88.8965552,37.5878254],[-88.8965392,37.587751],[-88.8967511,37.5876873],[-88.8970651,37.5876479],[-88.8971614,37.5875237],[-88.8972124,37.5874196],[-88.897092,37.5872696],[-88.8969013,37.5871624],[-88.8967299,37.5870039],[-88.8965153,37.5868296],[-88.8962712,37.5866745],[-88.8959788,37.5865725]]]},"properties":{"osm_id":1374257896,"osm_type":"way","seamark_type":"harbour","display_class":"OTHER","min_zoom":12,"importance":1,"name":"Egyptian Hills","ref":null,"common":{"type":"harbour"},"children":{"harbour":{"category":"marina"}},"osm_tags":{"leisure":"marina","name":"Egyptian Hills","seamark:harbour:category":"marina","seamark:type":"harbour"}}},{"type":"Feature","geometry":{"type":"LineString","coordinates":[[-88.2661691,37.0151532],[-88.2660062,37.0152765],[-88.2659586,37.0154177]]},"properties":{"osm_id":844671741,"osm_type":"way","seamark_type":"gate","display_class":"OTHER","min_zoom":12,"importance":1,"name":"Kentucky Lock and Dam","ref":"01","common":{"type":"gate"},"children":{},"osm_tags":{"name":"Kentucky Lock and Dam","ref":"01","seamark:type":"gate","waterway":"lock_gate","website":"https://www.lrn.usace.army.mil/locks/kentucky/"}}},{"type":"Feature","geometry":{"type":"Polygon","coordinates":[[[-88.9349728,37.6183521],[-88.9343709,37.6187468],[-88.9339395,37.6183197],[-88.9338163,37.6183953],[-88.9335575,37.6180708],[-88.9341038,37.6176977],[-88.9342859,37.6177328],[-88.9343425,37.6178252],[-88.9343851,37.6179155],[-88.9343344,37.6180015],[-88.9343537,37.6180247],[-88.9344288,37.6181097],[-88.9345436,37.6180695],[-88.9347529,37.618146],[-88.9348306,37.6182331],[-88.9349728,37.6183521]]]},"properties":{"osm_id":1309037639,"osm_type":"way","seamark_type":"harbour","display_class":"OTHER","min_zoom":12,"importance":1,"name":"Mack's Marina","ref":null,"common":{"type":"harbour"},"children":{"harbour":{"category":"marina"}},"osm_tags":{"leisure":"marina","name":"Mack's Marina","seamark:harbour:category":"marina","seamark:type":"harbour"}}},{"type":"Feature","geometry":{"type":"Polygon","coordinates":[[[-88.935745,37.6211979],[-88.9359175,37.6210896],[-88.9360901,37.6209236],[-88.9362873,37.6207333],[-88.9365522,37.6202672],[-88.936811,37.6203623],[-88.9365769,37.6208358],[-88.9362934,37.6211628],[-88.9364444,37.6214141],[-88.9364721,37.6216362],[-88.9365029,37.6218803],[-88.9365091,37.6221731],[-88.9364752,37.6223024],[-88.9363798,37.6225101],[-88.9363238,37.6225261],[-88.9362542,37.6225857],[-88.9361167,37.6226187],[-88.9360572,37.622624],[-88.9359976,37.6226083],[-88.9358744,37.6225774],[-88.9358573,37.6225477],[-88.935859,37.6225143],[-88.9358813,37.6224861],[-88.935916,37.6224621],[-88.9359653,37.6223764],[-88.9359572,37.6223398],[-88.9360186,37.6222983],[-88.9360448,37.6221998],[-88.9360856,37.6220859],[-88.9360804,37.6220371],[-88.9360669,37.6219117],[-88.9360213,37.6217481],[-88.9360186,37.6216993],[-88.9360052,37.6215229],[-88.935981,37.6213891],[-88.9359328,37.6213105],[-88.9358818,37.6212404],[-88.935745,37.6211979]]]},"properties":{"osm_id":1309037640,"osm_type":"way","seamark_type":"harbour","display_class":"OTHER","min_zoom":12,"importance":1,"name":"Pyramid Acres","ref":null,"common":{"type":"harbour"},"children":{"harbour":{"category":"marina"}},"osm_tags":{"leisure":"marina","name":"Pyramid Acres","seamark:harbour:category":"marina","seamark:type":"harbour"}}}],"type":"FeatureCollection"}