{"type":"FeatureCollection","features":[{"type":"Feature","geometry":{"type":"Polygon","coordinates":[[[-6.5688301,37.0074931],[-6.568829,37.0074314],[-6.5687579,37.0074633],[-6.5688301,37.0074931]]]},"properties":{"osm_id":62266847,"osm_type":"way","seamark_type":"light_major","display_class":"LIGHTHOUSE","min_zoom":7,"importance":5,"name":"La Higuera","ref":"09175","common":{"name":"La Higuera","type":"light_major"},"children":{"light":{"character":"Fl","colour":"white","group":"3","height":"47","period":"20","range":"20","reference":"D 2345","sequence":"0.5+(2.8)+0.5+(2.8)+0.5+(12.9)"}},"osm_tags":{"alt_name":"Faro de Matalascañas","building":"lighthouse","man_made":"lighthouse","name":"Faro de La Higuera","ref":"09175","seamark:light:character":"Fl","seamark:light:colour":"white","seamark:light:group":"3","seamark:light:height":"47","seamark:light:period":"20","seamark:light:range":"20","seamark:light:reference":"D 2345","seamark:light:sequence":"0.5+(2.8)+0.5+(2.8)+0.5+(12.9)","seamark:name":"La Higuera","seamark:type":"light_major","source":"US NGA Pub. 113. 2011-10-20.","start_date":"1994","website":"https://www.puertosdeandalucia.es/es/arquitectura-y-patrimonio/item/486-faro-de-torre-la-higuera","wikidata":"Q28375214","wikipedia":"es:Faro de La Higuera"}}},{"type":"Feature","geometry":{"type":"Point","coordinates":[-6.1563889,37.0259167]},"properties":{"osm_id":10249475326,"osm_type":"node","seamark_type":"beacon_special_purpose","display_class":"BEACON","min_zoom":9,"importance":4,"name":null,"ref":null,"common":{"type":"beacon_special_purpose"},"children":{"beacon_special_purpose":{"category":"leading"},"light":{"1:category":"rear","1:character":"Iso","1:colour":"white","1:period":"4","1:range":"3","1:sector_end":"267.5","1:sector_start":"259.5"},"topmark":{"shape":"cone, point down"}},"osm_tags":{"seamark:beacon_special_purpose:category":"leading","seamark:light:1:category":"rear","seamark:light:1:character":"Iso","seamark:light:1:colour":"white","seamark:light:1:period":"4","seamark:light:1:range":"3","seamark:light:1:sector_end":"267.5","seamark:light:1:sector_start":"259.5","seamark:topmark:shape":"cone, point down","seamark:type":"beacon_special_purpose"}}},{"type":"Feature","geometry":{"type":"Point","coordinates":[-6.1552778,37.0260278]},"properties":{"osm_id":10249475327,"osm_type":"node","seamark_type":"beacon_special_purpose","display_class":"BEACON","min_zoom":9,"importance":4,"name":null,"ref":null,"common":{"type":"beacon_special_purpose"},"children":{"beacon_special_purpose":{"category":"leading"},"light":{"1:category":"front","1:character":"Q","1:colour":"white","1:range":"3","1:sector_end":"267.5","1:sector_start":"259.5","2:category":"front","2:character":"Fl","2:colour":"yellow","2:group":"3","2:period":"9","2:range":"3"},"topmark":{"shape":"cone, point up"}},"osm_tags":{"seamark:beacon_special_purpose:category":"leading","seamark:light:1:category":"front","seamark:light:1:character":"Q","seamark:light:1:colour":"white","seamark:light:1:range":"3","seamark:light:1:sector_end":"267.5","seamark:light:1:sector_start":"259.5","seamark:light:2:category":"front","seamark:light:2:character":"Fl","seamark:light:2:colour":"yellow","seamark:light:2:group":"3","seamark:light:2:period":"9","seamark:light:2:range":"3","seamark:topmark:shape":"cone, point up","seamark:type":"beacon_special_purpose"}}},{"type":"Feature","geometry":{"type":"Point","coordinates":[-6.9488752,37.1641142]},"properties":{"osm_id":5962143686,"osm_type":"node","seamark_type":"beacon_cardinal","display_class":"BEACON","min_zoom":9,"importance":4,"name":"Punta Umbria","ref":null,"common":{"name":"Punta Umbria","type":"beacon_cardinal"},"children":{"beacon_cardinal":{"category":"south","colour":"yellow;black","colour_pattern":"horizontal","height":"4","shape":"tower"},"light":{"character":"VQ","colour":"white","group":"6","height":"10","period":"10","range":"5","reference":"D 2315"}},"osm_tags":{"man_made":"lighthouse","name":"Faro de Punta Umbría","seamark:beacon_cardinal:category":"south","seamark:beacon_cardinal:colour":"yellow;black","seamark:beacon_cardinal:colour_pattern":"horizontal","seamark:beacon_cardinal:height":"4","seamark:beacon_cardinal:shape":"tower","seamark:light:character":"VQ","seamark:light:colour":"white","seamark:light:group":"6","seamark:light:height":"10","seamark:light:period":"10","seamark:light:range":"5","seamark:light:reference":"D 2315","seamark:name":"Punta Umbria","seamark:type":"beacon_cardinal","source":"US NGA Pub. 113. 2011-10-20."}}},{"type":"Feature","geometry":{"type":"Point","coordinates":[-6.89865,37.1609833]},"properties":{"osm_id":1568167086,"osm_type":"node","seamark_type":"light_minor","display_class":"OTHER","min_zoom":12,"importance":1,"name":null,"ref":null,"common":{"type":"light_minor"},"children":{"light":{"character":"Fl","colour":"green","group":"2","height":"5","period":"10","range":"3","reference":"D 2328.3","sequence":"1+(1)+1+(7)"}},"osm_tags":{"seamark:light:character":"Fl","seamark:light:colour":"green","seamark:light:group":"2","seamark:light:height":"5","seamark:light:period":"10","seamark:light:range":"3","seamark:light:reference":"D 2328.3","seamark:light:sequence":"1+(1)+1+(7)","seamark:type":"light_minor","source":"US NGA Pub. 113. 2011-10-20."}}},{"type":"Feature","geometry":{"type":"Point","coordinates":[-6.8982667,37.1607667]},"properties":{"osm_id":1568167232,"osm_type":"node","seamark_type":"light_minor","display_class":"OTHER","min_zoom":12,"importance":1,"name":null,"ref":null,"common":{"type":"light_minor"},"children":{"light":{"character":"Fl","colour":"green","group":"2","height":"5","period":"10","range":"3","reference":"D 2328.2","sequence":"1+(1)+1+(7)"}},"osm_tags":{"seamark:light:character":"Fl","seamark:light:colour":"green","seamark:light:group":"2","seamark:light:height":"5","seamark:light:period":"10","seamark:light:range":"3","seamark:light:reference":"D 2328.2","seamark:light:sequence":"1+(1)+1+(7)","seamark:type":"light_minor","source":"US NGA Pub. 113. 2011-10-20."}}},{"type":"Feature","geometry":{"type":"Point","coordinates":[-6.8179833,37.0925167]},"properties":{"osm_id":1568167773,"osm_type":"node","seamark_type":"buoy_cardinal","display_class":"OTHER","min_zoom":12,"importance":1,"name":null,"ref":null,"common":{"type":"buoy_cardinal"},"children":{"buoy_cardinal":{"category":"west","colour":"yellow;black;yellow","colour_pattern":"horizontal"},"light":{"character":"Q","colour":"white","group":"9","period":"15"}},"osm_tags":{"seamark:buoy_cardinal:category":"west","seamark:buoy_cardinal:colour":"yellow;black;yellow","seamark:buoy_cardinal:colour_pattern":"horizontal","seamark:light:character":"Q","seamark:light:colour":"white","seamark:light:group":"9","seamark:light:period":"15","seamark:type":"buoy_cardinal","source":"US NGA Pub. 113. 2011-10-20."}}},{"type":"Feature","geometry":{"type":"Point","coordinates":[-6.8935897,37.1582008]},"properties":{"osm_id":9530847978,"osm_type":"node","seamark_type":"light_minor","display_class":"OTHER","min_zoom":12,"importance":1,"name":null,"ref":null,"common":{"type":"light_minor"},"children":{"light":{"character":"Fl","colour":"green","group":"2","period":"6","range":"3"}},"osm_tags":{"seamark:light:character":"Fl","seamark:light:colour":"green","seamark:light:group":"2","seamark:light:period":"6","seamark:light:range":"3","seamark:type":"light_minor"}}},{"type":"Feature","geometry":{"type":"Point","coordinates":[-6.805,37.0516667]},"properties":{"osm_id":9861430971,"osm_type":"node","seamark_type":"obstruction","display_class":"OTHER","min_zoom":12,"importance":1,"name":null,"ref":null,"common":{"type":"obstruction"},"children":{"obstruction":{"depth":"18.9"}},"osm_tags":{"depth":"18.9","seamark:obstruction:depth":"18.9","seamark:type":"obstruction"}}},{"type":"Feature","geometry":{"type":"Point","coordinates":[-6.0167778,37.3146667]},"properties":{"osm_id":10292407228,"osm_type":"node","seamark_type":"buoy_lateral","display_class":"OTHER","min_zoom":12,"importance":1,"name":null,"ref":null,"common":{"type":"buoy_lateral"},"children":{"buoy_lateral":{"category":"port","colour":"red","shape":"can","system":"iala-a"},"light":{"character":"Q","colour":"red"},"topmark":{"colour":"red","shape":"cylinder"}},"osm_tags":{"seamark:buoy_lateral:category":"port","seamark:buoy_lateral:colour":"red","seamark:buoy_lateral:shape":"can","seamark:buoy_lateral:system":"iala-a","seamark:light:character":"Q","seamark:light:colour":"red","seamark:topmark:colour":"red","seamark:topmark:shape":"cylinder","seamark:type":"buoy_lateral"}}},{"type":"Feature","geometry":{"type":"Point","coordinates":[-6.9602778,37.2361111]},"properties":{"osm_id":10292436160,"osm_type":"node","seamark_type":"wreck","display_class":"OTHER","min_zoom":12,"importance":1,"name":null,"ref":null,"common":{"type":"wreck"},"children":{"wreck":{"category":"dangerous"}},"osm_tags":{"depth":"2.4","seamark:type":"wreck","seamark:wreck:category":"dangerous"}}},{"type":"Feature","geometry":{"type":"Point","coordinates":[-6.8362379,37.1315217]},"properties":{"osm_id":11495751313,"osm_type":"node","seamark_type":"light_minor","display_class":"OTHER","min_zoom":12,"importance":1,"name":null,"ref":null,"common":{"type":"light_minor"},"children":{},"osm_tags":{"seamark:type":"light_minor"}}},{"type":"Feature","geometry":{"type":"Point","coordinates":[-6.8346552,37.1313645]},"properties":{"osm_id":11495793823,"osm_type":"node","seamark_type":"light_minor","display_class":"OTHER","min_zoom":12,"importance":1,"name":null,"ref":null,"common":{"type":"light_minor"},"children":{},"osm_tags":{"seamark:type":"light_minor"}}},{"type":"Feature","geometry":{"type":"Point","coordinates":[-6.8346593,37.1326172]},"properties":{"osm_id":11495793824,"osm_type":"node","seamark_type":"light_minor","display_class":"OTHER","min_zoom":12,"importance":1,"name":null,"ref":null,"common":{"type":"light_minor"},"children":{},"osm_tags":{"seamark:type":"light_minor"}}},{"type":"Feature","geometry":{"type":"Point","coordinates":[-6.9591667,37.2515]},"properties":{"osm_id":13944563794,"osm_type":"node","seamark_type":"light_minor","display_class":"OTHER","min_zoom":12,"importance":1,"name":null,"ref":null,"common":{"type":"light_minor"},"children":{"light":{"character":"Fl","colour":"green","group":"2","height":"1","period":"5","range":"1","reference":"D 2340.5","sequence":"0.5+(1)+0.5+(3)"}},"osm_tags":{"seamark:light:character":"Fl","seamark:light:colour":"green","seamark:light:group":"2","seamark:light:height":"1","seamark:light:period":"5","seamark:light:range":"1","seamark:light:reference":"D 2340.5","seamark:light:sequence":"0.5+(1)+0.5+(3)","seamark:type":"light_minor"}}},{"type":"Feature","geometry":{"type":"Point","coordinates":[-6.959,37.2508333]},"properties":{"osm_id":13944563795,"osm_type":"node","seamark_type":"light_minor","display_class":"OTHER","min_zoom":12,"importance":1,"name":null,"ref":null,"common":{"type":"light_minor"},"children":{"light":{"character":"Fl","colour":"green","group":"2","height":"1","period":"5","range":"1","reference":"D 2340","sequence":"0.5+(1)+0.5+(3)"}},"osm_tags":{"seamark:light:character":"Fl","seamark:light:colour":"green","seamark:light:group":"2","seamark:light:height":"1","seamark:light:period":"5","seamark:light:range":"1","seamark:light:reference":"D 2340","seamark:light:sequence":"0.5+(1)+0.5+(3)","seamark:type":"light_minor"}}},{"type":"Feature","geometry":{"type":"Point","coordinates":[-6.9476667,37.1623333]},"properties":{"osm_id":10246551213,"osm_type":"node","seamark_type":"buoy_lateral","display_class":"OTHER","min_zoom":12,"importance":1,"name":"1","ref":null,"common":{"name":"1","type":"buoy_lateral"},"children":{"buoy_lateral":{"category":"starboard","colour":"green","shape":"pillar","system":"iala-a"},"light":{"character":"Fl","colour":"green","group":"2","period":"10"},"topmark":{"colour":"green","shape":"cone, point up"}},"osm_tags":{"seamark:buoy_lateral:category":"starboard","seamark:buoy_lateral:colour":"green","seamark:buoy_lateral:shape":"pillar","seamark:buoy_lateral:system":"iala-a","seamark:light:character":"Fl","seamark:light:colour":"green","seamark:light:group":"2","seamark:light:period":"10","seamark:name":"1","seamark:topmark:colour":"green","seamark:topmark:shape":"cone, point up","seamark:type":"buoy_lateral"}}},{"type":"Feature","geometry":{"type":"Point","coordinates":[-6.9483333,37.1633333]},"properties":{"osm_id":10246551212,"osm_type":"node","seamark_type":"buoy_lateral","display_class":"OTHER","min_zoom":12,"importance":1,"name":"2","ref":null,"common":{"name":"2","type":"buoy_lateral"},"children":{"buoy_lateral":{"category":"port","colour":"red","shape":"pillar","system":"iala-a"},"light":{"character":"Fl","colour":"red","group":"2","period":"10"},"topmark":{"colour":"red","shape":"cylinder"}},"osm_tags":{"seamark:buoy_lateral:category":"port","seamark:buoy_lateral:colour":"red","seamark:buoy_lateral:shape":"pillar","seamark:buoy_lateral:system":"iala-a","seamark:light:character":"Fl","seamark:light:colour":"red","seamark:light:group":"2","seamark:light:period":"10","seamark:name":"2","seamark:topmark:colour":"red","seamark:topmark:shape":"cylinder","seamark:type":"buoy_lateral"}}},{"type":"Feature","geometry":{"type":"Point","coordinates":[-6.9448333,37.1643333]},"properties":{"osm_id":10246551211,"osm_type":"node","seamark_type":"buoy_lateral","display_class":"OTHER","min_zoom":12,"importance":1,"name":"3","ref":null,"common":{"name":"3","type":"buoy_lateral"},"children":{"buoy_lateral":{"category":"starboard","colour":"green","shape":"conical","system":"iala-a"},"light":{"character":"Fl","colour":"green","group":"3","period":"15"},"topmark":{"colour":"green","shape":"cone, point up"}},"osm_tags":{"seamark:buoy_lateral:category":"starboard","seamark:buoy_lateral:colour":"green","seamark:buoy_lateral:shape":"conical","seamark:buoy_lateral:system":"iala-a","seamark:light:character":"Fl","seamark:light:colour":"green","seamark:light:group":"3","seamark:light:period":"15","seamark:name":"3","seamark:topmark:colour":"green","seamark:topmark:shape":"cone, point up","seamark:type":"buoy_lateral"}}},{"type":"Feature","geometry":{"type":"Point","coordinates":[-6.9456667,37.1645]},"properties":{"osm_id":10246551210,"osm_type":"node","seamark_type":"buoy_lateral","display_class":"OTHER","min_zoom":12,"importance":1,"name":"4","ref":null,"common":{"name":"4","type":"buoy_lateral"},"children":{"buoy_lateral":{"category":"port","colour":"red","shape":"spar","system":"iala-a"},"light":{"character":"Fl","colour":"red","group":"3","period":"15"},"topmark":{"colour":"red","shape":"cylinder"}},"osm_tags":{"seamark:buoy_lateral:category":"port","seamark:buoy_lateral:colour":"red","seamark:buoy_lateral:shape":"spar","seamark:buoy_lateral:system":"iala-a","seamark:light:character":"Fl","seamark:light:colour":"red","seamark:light:group":"3","seamark:light:period":"15","seamark:name":"4","seamark:topmark:colour":"red","seamark:topmark:shape":"cylinder","seamark:type":"buoy_lateral"}}},{"type":"Feature","geometry":{"type":"Point","coordinates":[-6.9448333,37.1673333]},"properties":{"osm_id":10246551209,"osm_type":"node","seamark_type":"buoy_lateral","display_class":"OTHER","min_zoom":12,"importance":1,"name":"5","ref":null,"common":{"name":"5","type":"buoy_lateral"},"children":{"buoy_lateral":{"category":"starboard","colour":"green","shape":"pillar","system":"iala-a"},"light":{"character":"Fl","colour":"green","group":"4","period":"15"},"topmark":{"colour":"green","shape":"cone, point up"}},"osm_tags":{"seamark:buoy_lateral:category":"starboard","seamark:buoy_lateral:colour":"green","seamark:buoy_lateral:shape":"pillar","seamark:buoy_lateral:system":"iala-a","seamark:light:character":"Fl","seamark:light:colour":"green","seamark:light:group":"4","seamark:light:period":"15","seamark:name":"5","seamark:topmark:colour":"green","seamark:topmark:shape":"cone, point up","seamark:type":"buoy_lateral"}}},{"type":"Feature","geometry":{"type":"Point","coordinates":[-6.9472222,37.1716667]},"properties":{"osm_id":10254072046,"osm_type":"node","seamark_type":"buoy_lateral","display_class":"OTHER","min_zoom":12,"importance":1,"name":"8","ref":null,"common":{"name":"8","type":"buoy_lateral"},"children":{"buoy_lateral":{"category":"port","colour":"red","shape":"spar","system":"iala-a"},"light":{"character":"Fl","colour":"red","period":"5"},"topmark":{"colour":"red","shape":"cylinder"}},"osm_tags":{"seamark:buoy_lateral:category":"port","seamark:buoy_lateral:colour":"red","seamark:buoy_lateral:shape":"spar","seamark:buoy_lateral:system":"iala-a","seamark:light:character":"Fl","seamark:light:colour":"red","seamark:light:period":"5","seamark:name":"8","seamark:topmark:colour":"red","seamark:topmark:shape":"cylinder","seamark:type":"buoy_lateral"}}},{"type":"Feature","geometry":{"type":"Polygon","coordinates":[[[-6.5694904,37.0079476],[-6.5697922,37.0077775],[-6.5698934,37.0077654],[-6.570274,37.0079823],[-6.5704664,37.0081463],[-6.5707048,37.0082986],[-6.5709375,37.0084213],[-6.5711638,37.0085827],[-6.5714612,37.0088248],[-6.5717679,37.0090161],[-6.5716589,37.0091875],[-6.571542,37.0092135],[-6.5708704,37.0088246],[-6.5704407,37.0085096],[-6.57031,37.0083443],[-6.5701765,37.0082314],[-6.5695675,37.0079803],[-6.5694904,37.0079476]]]},"properties":{"osm_id":69630501,"osm_type":"way","seamark_type":"harbour","display_class":"OTHER","min_zoom":12,"importance":1,"name":"Club Náutico y Pesca Matalascañas","ref":null,"common":{"type":"harbour"},"children":{"harbour":{"category":"marina"}},"osm_tags":{"leisure":"marina","name":"Club Náutico y Pesca Matalascañas","seamark:harbour:category":"marina","seamark:type":"harbour","website":"https://clubnauticomatalascanas.es"}}},{"type":"Feature","geometry":{"type":"Polygon","coordinates":[[[-6.5750819,37.0121113],[-6.575431,37.0124024],[-6.5754536,37.0124386],[-6.5745152,37.0130975],[-6.5743547,37.0129512],[-6.5740658,37.0131095],[-6.5738959,37.0127401],[-6.5736504,37.0125049],[-6.5736391,37.0123632],[-6.5736861,37.012206],[-6.5736652,37.0121848],[-6.5736987,37.012154],[-6.5737373,37.0121069],[-6.5735655,37.0119094],[-6.5737448,37.0117149],[-6.5739185,37.0118792],[-6.5740054,37.0118219],[-6.574147,37.0119456],[-6.5743151,37.0118732],[-6.5750819,37.0121113]]]},"properties":{"osm_id":1164461482,"osm_type":"way","seamark_type":"harbour","display_class":"OTHER","min_zoom":12,"importance":1,"name":"Club Náutico y Pesca Matalascañas","ref":null,"common":{"type":"harbour"},"children":{"harbour":{"category":"marina"}},"osm_tags":{"leisure":"marina","name":"Club Náutico y Pesca Matalascañas","seamark:harbour:category":"marina","seamark:type":"harbour","website":"https://clubnauticomatalascanas.es"}}},{"type":"Feature","geometry":{"type":"Polygon","coordinates":[[[-6.8323555,37.1081232],[-6.8323487,37.1081185],[-6.8323442,37.1081123],[-6.8323424,37.1081053],[-6.8323434,37.1080981],[-6.8323473,37.1080917],[-6.8323535,37.1080865],[-6.8323615,37.1080832],[-6.8323703,37.1080821],[-6.8323792,37.1080832],[-6.8323871,37.1080866],[-6.8323933,37.1080918],[-6.8323972,37.1080988],[-6.832398,37.1081064],[-6.8323954,37.1081138],[-6.8323899,37.10812],[-6.832382,37.1081244],[-6.8323728,37.1081264],[-6.8323638,37.1081259],[-6.8323555,37.1081232]]]},"properties":{"osm_id":1304624730,"osm_type":"way","seamark_type":"light_minor","display_class":"OTHER","min_zoom":12,"importance":1,"name":"Faro del Espigón","ref":null,"common":{"type":"light_minor"},"children":{"light":{"1:character":"Fl","1:colour":"red","1:group":"3+1","1:height":"31","1:period":"20","1:range":"9","1:sector_end":"125","1:sector_start":"100","1:sequence":"0.8+(2.2),0.8+(2.2),0.8+(6.2),0.8+(6.2)","2:character":"Fl","2:colour":"white","2:group":"3+1","2:height":"31","2:period":"20","2:range":"12","2:sector_end":"100","2:sector_start":"165","2:sequence":"0.8+(2.2),0.8+(2.2),0.8+(6.2),0.8+(6.2)","reference":"D 2321"},"radar_transponder":{"category":"racon","group":"K","period":"72"}},"osm_tags":{"building":"yes","man_made":"lighthouse","name":"Faro del Espigón","seamark:light:1:character":"Fl","seamark:light:1:colour":"red","seamark:light:1:group":"3+1","seamark:light:1:height":"31","seamark:light:1:period":"20","seamark:light:1:range":"9","seamark:light:1:sector_end":"125","seamark:light:1:sector_start":"100","seamark:light:1:sequence":"0.8+(2.2),0.8+(2.2),0.8+(6.2),0.8+(6.2)","seamark:light:2:character":"Fl","seamark:light:2:colour":"white","seamark:light:2:group":"3+1","seamark:light:2:height":"31","seamark:light:2:period":"20","seamark:light:2:range":"12","seamark:light:2:sector_end":"100","seamark:light:2:sector_start":"165","seamark:light:2:sequence":"0.8+(2.2),0.8+(2.2),0.8+(6.2),0.8+(6.2)","seamark:light:reference":"D 2321","seamark:radar_transponder:category":"racon","seamark:radar_transponder:group":"K","seamark:radar_transponder:period":"72","seamark:type":"light_minor","source":"US NGA Pub. 113. 2011-10-20."}}},{"type":"Feature","geometry":{"type":"Point","coordinates":[-6.9265333,37.0799167]},"properties":{"osm_id":1568167989,"osm_type":"node","seamark_type":"buoy_special_purpose","display_class":"OTHER","min_zoom":12,"importance":1,"name":"Huelva Terminal","ref":null,"common":{"name":"Huelva Terminal","type":"buoy_special_purpose"},"children":{"buoy_special_purpose":{"colour":"yellow","shape":"super-buoy"},"fog_signal":{"category":"siren","group":"E","period":"30"},"light":{"character":"Fl","colour":"yellow","group":"4","period":"20","reference":"D 2319","sequence":"0.5+(2.5)+0.5+(2.5)+0.5+(2.5)+0.5+(10.5)"},"topmark":{"colour":"yellow","shape":"x-shape"}},"osm_tags":{"seamark:buoy_special_purpose:colour":"yellow","seamark:buoy_special_purpose:shape":"super-buoy","seamark:fog_signal:category":"siren","seamark:fog_signal:group":"E","seamark:fog_signal:period":"30","seamark:light:character":"Fl","seamark:light:colour":"yellow","seamark:light:group":"4","seamark:light:period":"20","seamark:light:reference":"D 2319","seamark:light:sequence":"0.5+(2.5)+0.5+(2.5)+0.5+(2.5)+0.5+(10.5)","seamark:name":"Huelva Terminal","seamark:topmark:colour":"yellow","seamark:topmark:shape":"x-shape","seamark:type":"buoy_special_purpose","source":"US NGA Pub. 113. 2011-10-20."}}},{"type":"Feature","geometry":{"type":"Polygon","coordinates":[[[-6.9637271,37.2566052],[-6.9611355,37.2572624],[-6.9614625,37.2580947],[-6.9620563,37.2596059],[-6.9645028,37.2589961],[-6.9646558,37.258958],[-6.963803,37.2567952],[-6.9637271,37.2566052]]]},"properties":{"osm_id":1046115214,"osm_type":"way","seamark_type":"harbour","display_class":"OTHER","min_zoom":12,"importance":1,"name":"Marina del Odiel","ref":null,"common":{"type":"harbour"},"children":{"harbour":{"category":"marina"}},"osm_tags":{"capacity":"400","email":"administracion@marinadelodiel.com","leisure":"marina","name":"Marina del Odiel","phone":"+34 643 67 10 10","seamark:harbour:category":"marina","seamark:type":"harbour","website":"https://marinadelodiel.es"}}},{"type":"Feature","geometry":{"type":"Point","coordinates":[-6.8446667,37.14225]},"properties":{"osm_id":1568167490,"osm_type":"node","seamark_type":"light_minor","display_class":"OTHER","min_zoom":12,"importance":1,"name":"Padre Santo","ref":null,"common":{"name":"Padre Santo","type":"light_minor"},"children":{"light":{"1:character":"Fl","1:colour":"green","1:height":"61","1:range":"8","1:sector_end":"338","1:sector_start":"337.5","2:character":"F","2:colour":"green","2:height":"61","2:range":"8","2:sector_end":"338.6","2:sector_start":"338","3:character":"Oc","3:colour":"green","3:height":"61","3:range":"8","3:sector_end":"339.1","3:sector_start":"338.6","4:character":"F","4:colour":"white","4:height":"61","4:range":"8","4:sector_end":"339.3","4:sector_start":"339.1","5:character":"Oc","5:colour":"red","5:height":"61","5:range":"8","5:sector_end":"339.8","5:sector_start":"339.3","6:character":"F","6:colour":"red","6:height":"61","6:range":"8","6:sector_end":"340.4","6:sector_start":"339.8","7:character":"Fl","7:colour":"red","7:height":"61","7:range":"8","7:sector_end":"340.9","7:sector_start":"340.4","reference":"D 2324.05"}},"osm_tags":{"seamark:light:1:character":"Fl","seamark:light:1:colour":"green","seamark:light:1:height":"61","seamark:light:1:range":"8","seamark:light:1:sector_end":"338","seamark:light:1:sector_start":"337.5","seamark:light:2:character":"F","seamark:light:2:colour":"green","seamark:light:2:height":"61","seamark:light:2:range":"8","seamark:light:2:sector_end":"338.6","seamark:light:2:sector_start":"338","seamark:light:3:character":"Oc","seamark:light:3:colour":"green","seamark:light:3:height":"61","seamark:light:3:range":"8","seamark:light:3:sector_end":"339.1","seamark:light:3:sector_start":"338.6","seamark:light:4:character":"F","seamark:light:4:colour":"white","seamark:light:4:height":"61","seamark:light:4:range":"8","seamark:light:4:sector_end":"339.3","seamark:light:4:sector_start":"339.1","seamark:light:5:character":"Oc","seamark:light:5:colour":"red","seamark:light:5:height":"61","seamark:light:5:range":"8","seamark:light:5:sector_end":"339.8","seamark:light:5:sector_start":"339.3","seamark:light:6:character":"F","seamark:light:6:colour":"red","seamark:light:6:height":"61","seamark:light:6:range":"8","seamark:light:6:sector_end":"340.4","seamark:light:6:sector_start":"339.8","seamark:light:7:character":"Fl","seamark:light:7:colour":"red","seamark:light:7:height":"61","seamark:light:7:range":"8","seamark:light:7:sector_end":"340.9","seamark:light:7:sector_start":"340.4","seamark:light:reference":"D 2324.05","seamark:name":"Padre Santo","seamark:type":"light_minor","source":"US NGA Pub. 113. 2011-10-20."}}},{"type":"Feature","geometry":{"type":"Point","coordinates":[-6.8304811,37.1318105]},"properties":{"osm_id":292317963,"osm_type":"node","seamark_type":"harbour","display_class":"OTHER","min_zoom":12,"importance":1,"name":"Puerto Deportivo","ref":null,"common":{"type":"harbour"},"children":{"harbour":{"category":"marina"}},"osm_tags":{"leisure":"marina","name":"Puerto Deportivo","seamark:harbour:category":"marina","seamark:type":"harbour"}}},{"type":"Feature","geometry":{"type":"Polygon","coordinates":[[[-6.9533635,37.1768407],[-6.9526222,37.1773318],[-6.9530318,37.1777243],[-6.952751,37.1779103],[-6.9501654,37.1754321],[-6.9511877,37.174755],[-6.9533635,37.1768407]]]},"properties":{"osm_id":568761374,"osm_type":"way","seamark_type":"harbour","display_class":"OTHER","min_zoom":12,"importance":1,"name":"Puerto Deportivo Canaleta","ref":null,"common":{"type":"harbour"},"children":{"harbour":{"category":"marina"}},"osm_tags":{"capacity":"260","email":"rcmtpu@rcmtpu.com","internet_access":"wlan","leisure":"marina","name":"Puerto Deportivo Canaleta","operator":"Real Club Marítimo y Tenis de Punta Umbría","phone":"+34 687 80 28 14","seamark:harbour:category":"marina","seamark:type":"harbour","source":"https://www.rcmtpu.com/puerto-deportivo","website":"https://www.rcmtpu.com"}}},{"type":"Feature","geometry":{"type":"Polygon","coordinates":[[[-6.9564594,37.1797659],[-6.9587009,37.1814155],[-6.958874,37.1816567],[-6.9584945,37.1819716],[-6.9584296,37.1822066],[-6.9582144,37.1823384],[-6.9580192,37.1821821],[-6.9576604,37.1818647],[-6.9575857,37.1817786],[-6.9574736,37.1817081],[-6.9570037,37.1812863],[-6.9565888,37.1809522],[-6.9559695,37.1804646],[-6.9557906,37.180353],[-6.9561936,37.1799065],[-6.9563352,37.1798799],[-6.9564594,37.1797659]]]},"properties":{"osm_id":1156218331,"osm_type":"way","seamark_type":"harbour","display_class":"OTHER","min_zoom":12,"importance":1,"name":"Puerto Deportivo Punta Umbría","ref":null,"common":{"type":"harbour"},"children":{"harbour":{"category":"marina"}},"osm_tags":{"capacity":"267","leisure":"marina","name":"Puerto Deportivo Punta Umbría","seamark:harbour:category":"marina","seamark:type":"harbour","source":"https://www.puertosdeandalucia.es/puertos/puertos/huelva/puerto-de-punta-umbria"}}},{"type":"Feature","geometry":{"type":"Polygon","coordinates":[[[-6.9663697,37.1962291],[-6.9660186,37.1957593],[-6.9655647,37.1905935],[-6.9662185,37.1906492],[-6.9668169,37.1906086],[-6.9669536,37.192746],[-6.9668703,37.1927623],[-6.9668901,37.1928476],[-6.9669835,37.1928391],[-6.9670521,37.1929684],[-6.9670186,37.1931277],[-6.9670541,37.1933461],[-6.9671052,37.1934565],[-6.9671505,37.1938347],[-6.9672164,37.1940582],[-6.9672763,37.1943585],[-6.9673749,37.194493],[-6.9675087,37.1948845],[-6.9674931,37.1949627],[-6.9675933,37.1951389],[-6.9677361,37.1956785],[-6.9678092,37.1958387],[-6.9663697,37.1962291]]]},"properties":{"osm_id":1156218332,"osm_type":"way","seamark_type":"harbour","display_class":"OTHER","min_zoom":12,"importance":1,"name":"Puerto Deportivo del Club Deportivo Náutico Punta Umbría","ref":null,"common":{"type":"harbour"},"children":{"harbour":{"category":"marina"}},"osm_tags":{"capacity":"471","leisure":"marina","name":"Puerto Deportivo del Club Deportivo Náutico Punta Umbría","operator":"Club Deportivo Náutico Punta Umbría","seamark:harbour:category":"marina","seamark:type":"harbour","website":"https://www.cdnpuntaumbria.es"}}},{"type":"Feature","geometry":{"type":"Point","coordinates":[-6.9492901,37.2148235]},"properties":{"osm_id":7206313089,"osm_type":"node","seamark_type":"harbour","display_class":"OTHER","min_zoom":12,"importance":1,"name":"Real Club Marítimo de Huelva","ref":null,"common":{"name":"Real Club Marítimo de Huelva","type":"harbour"},"children":{"harbour":{"category":"marina"}},"osm_tags":{"harbour":"yes","leisure":"marina","name":"Real Club Marítimo de Huelva","seamark:harbour:category":"marina","seamark:name":"Real Club Marítimo de Huelva","seamark:type":"harbour"}}}],"type":"FeatureCollection"}