{"type":"FeatureCollection","features":[{"type":"Feature","geometry":{"type":"Point","coordinates":[22.8506874,38.8706964]},"properties":{"osm_id":1776841702,"osm_type":"node","seamark_type":"light_major","display_class":"LIGHTHOUSE","min_zoom":7,"importance":5,"name":"Φάρος Βασιλίνας","ref":null,"common":{"type":"light_major"},"children":{},"osm_tags":{"description":"Ο φάρος αυτός κατασκευάστηκε το 1892 και βρίσκεται στην Εύβοια. Το ύψος του πύργου του ειναι 8 μέτρα και τό εστιακό του ύψος είναι 10 μέτρα. Στα βόρεια της Εύβοιας , μετά από μια παραθαλάσσια διαδρομή από τον Κάβο συναντούμε την περιοχή της Βασιλίνας. Εδ","height":"8","man_made":"lighthouse","name":"Φάρος Βασιλίνας","operator":"Πολεμικό Ναυτικό","seamark:type":"light_major","wikidata":"Q17173392"}}},{"type":"Feature","geometry":{"type":"Point","coordinates":[22.4907799,38.1359688]},"properties":{"osm_id":2629261654,"osm_type":"node","seamark_type":"light_major","display_class":"LIGHTHOUSE","min_zoom":7,"importance":5,"name":"Φάρος Λυκοποριάς","ref":null,"common":{"type":"light_major"},"children":{},"osm_tags":{"man_made":"lighthouse","name":"Φάρος Λυκοποριάς","seamark:type":"light_major"}}},{"type":"Feature","geometry":{"type":"Point","coordinates":[22.8858061,38.2356244]},"properties":{"osm_id":1294463423,"osm_type":"node","seamark_type":"harbour","display_class":"OTHER","min_zoom":12,"importance":1,"name":null,"ref":null,"common":{"type":"harbour"},"children":{"harbour":{"category":"marina"}},"osm_tags":{"leisure":"marina","seamark:harbour:category":"marina","seamark:type":"harbour"}}},{"type":"Feature","geometry":{"type":"Point","coordinates":[22.9706136,38.1768206]},"properties":{"osm_id":1431277784,"osm_type":"node","seamark_type":"light_minor","display_class":"OTHER","min_zoom":12,"importance":1,"name":null,"ref":null,"common":{"type":"light_minor"},"children":{"light":{"character":"Fl","colour":"red","height":"10","period":"4","range":"4","reference":"E 3965.07","sequence":"0.4+(3.6)"}},"osm_tags":{"seamark:light:character":"Fl","seamark:light:colour":"red","seamark:light:height":"10","seamark:light:period":"4","seamark:light:range":"4","seamark:light:reference":"E 3965.07","seamark:light:sequence":"0.4+(3.6)","seamark:type":"light_minor","source":"US NGA Pub. 113. 2010-09-02"}}},{"type":"Feature","geometry":{"type":"Point","coordinates":[22.7529109,38.0124809]},"properties":{"osm_id":1574360610,"osm_type":"node","seamark_type":"light_minor","display_class":"OTHER","min_zoom":12,"importance":1,"name":null,"ref":null,"common":{"type":"light_minor"},"children":{"light":{"character":"Fl","colour":"red","height":"8","period":"3","range":"3","sequence":"0.3+(2.7)"}},"osm_tags":{"man_made":"lighthouse","seamark:light:character":"Fl","seamark:light:colour":"red","seamark:light:height":"8","seamark:light:period":"3","seamark:light:range":"3","seamark:light:sequence":"0.3+(2.7)","seamark:type":"light_minor","source":"US NGA Pub. 113. 2011-10-20."}}},{"type":"Feature","geometry":{"type":"Point","coordinates":[22.0133004,38.3906935]},"properties":{"osm_id":1574396846,"osm_type":"node","seamark_type":"light_minor","display_class":"OTHER","min_zoom":12,"importance":1,"name":null,"ref":null,"common":{"type":"light_minor"},"children":{"light":{"character":"Fl","colour":"green","height":"6","period":"3","range":"3","reference":"E 3954.22","sequence":"0.3+(2.7)"}},"osm_tags":{"man_made":"lighthouse","seamark:light:character":"Fl","seamark:light:colour":"green","seamark:light:height":"6","seamark:light:period":"3","seamark:light:range":"3","seamark:light:reference":"E 3954.22","seamark:light:sequence":"0.3+(2.7)","seamark:type":"light_minor","source":"US NGA Pub. 113. 2011-10-20."}}},{"type":"Feature","geometry":{"type":"Point","coordinates":[22.6243999,38.9053609]},"properties":{"osm_id":1576079924,"osm_type":"node","seamark_type":"light_minor","display_class":"OTHER","min_zoom":12,"importance":1,"name":null,"ref":null,"common":{"type":"light_minor"},"children":{"light":{"character":"Fl","colour":"green","height":"7","period":"2","range":"3","reference":"E 4428","sequence":"0.3+(1.7)"}},"osm_tags":{"man_made":"lighthouse","seamark:light:character":"Fl","seamark:light:colour":"green","seamark:light:height":"7","seamark:light:period":"2","seamark:light:range":"3","seamark:light:reference":"E 4428","seamark:light:sequence":"0.3+(1.7)","seamark:type":"light_minor","source":"US NGA Pub. 113. 2011-10-20."}}},{"type":"Feature","geometry":{"type":"Point","coordinates":[22.6238767,38.9049665]},"properties":{"osm_id":1576080069,"osm_type":"node","seamark_type":"light_minor","display_class":"OTHER","min_zoom":12,"importance":1,"name":null,"ref":null,"common":{"type":"light_minor"},"children":{"light":{"character":"Fl","colour":"red","height":"7","period":"2","range":"3","reference":"E 4428.2","sequence":"0.3+(1.7)"}},"osm_tags":{"man_made":"lighthouse","seamark:light:character":"Fl","seamark:light:colour":"red","seamark:light:height":"7","seamark:light:period":"2","seamark:light:range":"3","seamark:light:reference":"E 4428.2","seamark:light:sequence":"0.3+(1.7)","seamark:type":"light_minor","source":"US NGA Pub. 113. 2011-10-20."}}},{"type":"Feature","geometry":{"type":"Point","coordinates":[22.7118014,38.8280897]},"properties":{"osm_id":1576080348,"osm_type":"node","seamark_type":"light_minor","display_class":"OTHER","min_zoom":12,"importance":1,"name":null,"ref":null,"common":{"type":"light_minor"},"children":{"light":{"character":"Q","colour":"green","height":"8","range":"3","reference":"E 4423.52"}},"osm_tags":{"man_made":"lighthouse","seamark:light:character":"Q","seamark:light:colour":"green","seamark:light:height":"8","seamark:light:range":"3","seamark:light:reference":"E 4423.52","seamark:type":"light_minor","source":"US NGA Pub. 113. 2011-10-20."}}},{"type":"Feature","geometry":{"type":"Point","coordinates":[22.8606866,38.7595469]},"properties":{"osm_id":1576184962,"osm_type":"node","seamark_type":"light_minor","display_class":"OTHER","min_zoom":12,"importance":1,"name":null,"ref":null,"common":{"type":"light_minor"},"children":{"light":{"character":"F","colour":"green","height":"6","range":"3","reference":"E 4418.5"}},"osm_tags":{"man_made":"lighthouse","seamark:light:character":"F","seamark:light:colour":"green","seamark:light:height":"6","seamark:light:range":"3","seamark:light:reference":"E 4418.5","seamark:type":"light_minor","source":"US NGA Pub. 113. 2011-10-20."}}},{"type":"Feature","geometry":{"type":"Point","coordinates":[22.8599885,38.7575333]},"properties":{"osm_id":1576185220,"osm_type":"node","seamark_type":"light_minor","display_class":"OTHER","min_zoom":12,"importance":1,"name":null,"ref":null,"common":{"type":"light_minor"},"children":{"light":{"character":"F","colour":"green","height":"7","range":"7","reference":"E 4418"}},"osm_tags":{"man_made":"lighthouse","seamark:light:character":"F","seamark:light:colour":"green","seamark:light:height":"7","seamark:light:range":"7","seamark:light:reference":"E 4418","seamark:type":"light_minor","source":"US NGA Pub. 113. 2011-10-20."}}},{"type":"Feature","geometry":{"type":"Point","coordinates":[22.7848631,38.7816248]},"properties":{"osm_id":1576185616,"osm_type":"node","seamark_type":"light_minor","display_class":"OTHER","min_zoom":12,"importance":1,"name":null,"ref":null,"common":{"type":"light_minor"},"children":{"light":{"character":"Fl","colour":"green","height":"9","period":"4","range":"6","reference":"E 4423.1","sequence":"0.8+(3.2)"}},"osm_tags":{"man_made":"lighthouse","seamark:light:character":"Fl","seamark:light:colour":"green","seamark:light:height":"9","seamark:light:period":"4","seamark:light:range":"6","seamark:light:reference":"E 4423.1","seamark:light:sequence":"0.8+(3.2)","seamark:type":"light_minor","source":"US NGA Pub. 113. 2011-10-20."}}},{"type":"Feature","geometry":{"type":"Point","coordinates":[22.3177446,38.1722201]},"properties":{"osm_id":1887521977,"osm_type":"node","seamark_type":"harbour","display_class":"OTHER","min_zoom":12,"importance":1,"name":null,"ref":null,"common":{"type":"harbour"},"children":{"harbour":{"category":"marina"}},"osm_tags":{"leisure":"marina","seamark:harbour:category":"marina","seamark:type":"harbour"}}},{"type":"Feature","geometry":{"type":"Point","coordinates":[22.4430371,38.427752]},"properties":{"osm_id":1915997660,"osm_type":"node","seamark_type":"harbour","display_class":"OTHER","min_zoom":12,"importance":1,"name":null,"ref":null,"common":{"type":"harbour"},"children":{"harbour":{"category":"marina"}},"osm_tags":{"leisure":"marina","seamark:harbour:category":"marina","seamark:type":"harbour"}}},{"type":"Feature","geometry":{"type":"Point","coordinates":[22.6453333,38.3816667]},"properties":{"osm_id":3813742896,"osm_type":"node","seamark_type":"buoy_special_purpose","display_class":"OTHER","min_zoom":12,"importance":1,"name":null,"ref":null,"common":{"source":"Greek Notice 9/169/12","type":"buoy_special_purpose"},"children":{"buoy_special_purpose":{"colour":"yellow","shape":"pillar"},"light":{"character":"Fl","colour":"yellow"}},"osm_tags":{"seamark:buoy_special_purpose:colour":"yellow","seamark:buoy_special_purpose:shape":"pillar","seamark:light:character":"Fl","seamark:light:colour":"yellow","seamark:source":"Greek Notice 9/169/12","seamark:type":"buoy_special_purpose"}}},{"type":"Feature","geometry":{"type":"Point","coordinates":[22.7530864,38.0109763]},"properties":{"osm_id":4643084430,"osm_type":"node","seamark_type":"harbour","display_class":"OTHER","min_zoom":12,"importance":1,"name":null,"ref":null,"common":{"type":"harbour"},"children":{"harbour":{"category":"marina"}},"osm_tags":{"leisure":"marina","seamark:harbour:category":"marina","seamark:type":"harbour"}}},{"type":"Feature","geometry":{"type":"Point","coordinates":[22.0934683,38.2574312]},"properties":{"osm_id":7010873265,"osm_type":"node","seamark_type":"harbour","display_class":"OTHER","min_zoom":12,"importance":1,"name":null,"ref":null,"common":{"type":"harbour"},"children":{"harbour":{"category":"marina"}},"osm_tags":{"harbour":"yes","leisure":"marina","seamark:harbour:category":"marina","seamark:type":"harbour"}}},{"type":"Feature","geometry":{"type":"Point","coordinates":[22.5525921,38.2820341]},"properties":{"osm_id":9275762981,"osm_type":"node","seamark_type":"harbour","display_class":"OTHER","min_zoom":12,"importance":1,"name":null,"ref":null,"common":{"type":"harbour"},"children":{"harbour":{"category":"marina"}},"osm_tags":{"leisure":"marina","seamark:harbour:category":"marina","seamark:type":"harbour"}}},{"type":"Feature","geometry":{"type":"Point","coordinates":[22.6228398,38.080477]},"properties":{"osm_id":14070011219,"osm_type":"node","seamark_type":"harbour","display_class":"OTHER","min_zoom":12,"importance":1,"name":null,"ref":null,"common":{"type":"harbour"},"children":{"harbour":{"category":"marina"}},"osm_tags":{"check_date":"2026-08-03","leisure":"marina","seamark:harbour:category":"marina","seamark:type":"harbour"}}},{"type":"Feature","geometry":{"type":"LineString","coordinates":[[22.9601079,38.2148806],[22.9602027,38.2148294]]},"properties":{"osm_id":142774944,"osm_type":"way","seamark_type":"small_craft_facility","display_class":"OTHER","min_zoom":12,"importance":1,"name":null,"ref":null,"common":{"information":"by car","type":"small_craft_facility"},"children":{"small_craft_facility":{"category":"slipway"}},"osm_tags":{"leisure":"slipway","seamark:information":"by car","seamark:small_craft_facility:category":"slipway","seamark:type":"small_craft_facility"}}},{"type":"Feature","geometry":{"type":"Polygon","coordinates":[[[22.0763867,38.3684695],[22.0761332,38.3692034],[22.0761332,38.3692939],[22.0743401,38.3693995],[22.0742711,38.3694064],[22.0742375,38.3694179],[22.07421,38.36946],[22.0741738,38.3695399],[22.0741658,38.369624],[22.0741779,38.3697239],[22.0741376,38.369991],[22.0741215,38.3701424],[22.0741108,38.3702412],[22.074434,38.3702633],[22.0747277,38.3702812],[22.0748135,38.3696608],[22.0748498,38.3696682],[22.0747653,38.3702854],[22.0755659,38.3703232],[22.0756517,38.3696366],[22.0756973,38.3696408],[22.0756035,38.3703232],[22.0762002,38.3703727],[22.0769392,38.3704273],[22.0770223,38.3704189],[22.0770827,38.370401],[22.0771249,38.3703795],[22.0771625,38.370359],[22.0771987,38.3703327],[22.0772316,38.3703017],[22.0772517,38.3702675],[22.0772651,38.3702181],[22.0772765,38.3701645],[22.0773053,38.3700488],[22.077416,38.3700572],[22.0774227,38.3700146],[22.0773194,38.3700015],[22.0774099,38.3696072],[22.0775132,38.3691751],[22.0764805,38.3685305],[22.0763867,38.3684695]]]},"properties":{"osm_id":597345437,"osm_type":"way","seamark_type":"harbour","display_class":"OTHER","min_zoom":12,"importance":1,"name":null,"ref":null,"common":{"type":"harbour"},"children":{"harbour":{"category":"marina"}},"osm_tags":{"leisure":"marina","seamark:harbour:category":"marina","seamark:type":"harbour"}}},{"type":"Feature","geometry":{"type":"Polygon","coordinates":[[[22.0937862,38.2578128],[22.0938698,38.2576085],[22.0938603,38.2576024],[22.0938612,38.2575939],[22.0938677,38.2575857],[22.0938898,38.2575826],[22.0939189,38.2575705],[22.0939364,38.2575596],[22.0939702,38.2575234],[22.094066,38.2574181],[22.0932325,38.2569323],[22.092968,38.2572501],[22.0929715,38.2573089],[22.0930856,38.2574473],[22.0932498,38.2576338],[22.0933192,38.2576916],[22.0934828,38.2577714],[22.0936841,38.2577463],[22.0937862,38.2578128]]]},"properties":{"osm_id":806294881,"osm_type":"way","seamark_type":"harbour","display_class":"OTHER","min_zoom":12,"importance":1,"name":null,"ref":null,"common":{"type":"harbour"},"children":{"harbour":{"category":"marina"}},"osm_tags":{"leisure":"marina","seamark:harbour:category":"marina","seamark:type":"harbour"}}},{"type":"Feature","geometry":{"type":"Polygon","coordinates":[[[22.8572548,38.926269],[22.8562248,38.9262773],[22.8561899,38.9266237],[22.8567612,38.9266884],[22.8572521,38.9266446],[22.8572548,38.926269]]]},"properties":{"osm_id":1031913038,"osm_type":"way","seamark_type":"harbour","display_class":"OTHER","min_zoom":12,"importance":1,"name":null,"ref":null,"common":{"type":"harbour"},"children":{"harbour":{"category":"marina"}},"osm_tags":{"leisure":"marina","seamark:harbour:category":"marina","seamark:type":"harbour"}}},{"type":"Feature","geometry":{"type":"Polygon","coordinates":[[[22.8599553,38.7575128],[22.859789,38.7577883],[22.8595721,38.7583422],[22.8594147,38.7583509],[22.8594349,38.7578401],[22.8595068,38.7575661],[22.8596465,38.7572901],[22.8599553,38.7575128]]]},"properties":{"osm_id":1545364847,"osm_type":"way","seamark_type":"harbour","display_class":"OTHER","min_zoom":12,"importance":1,"name":null,"ref":null,"common":{"type":"harbour"},"children":{"harbour":{"category":"marina"}},"osm_tags":{"leisure":"marina","seamark:harbour:category":"marina","seamark:type":"harbour"}}},{"type":"Feature","geometry":{"type":"Point","coordinates":[22.713,38.8273003]},"properties":{"osm_id":1576080387,"osm_type":"node","seamark_type":"light_minor","display_class":"OTHER","min_zoom":12,"importance":1,"name":"Agios Serafeim","ref":null,"common":{"name":"Agios Serafeim","type":"light_minor"},"children":{"light":{"character":"Fl","colour":"green","height":"8","period":"3","range":"3","reference":"E 4423.5","sequence":"0.3+(2.7)"}},"osm_tags":{"man_made":"lighthouse","seamark:light:character":"Fl","seamark:light:colour":"green","seamark:light:height":"8","seamark:light:period":"3","seamark:light:range":"3","seamark:light:reference":"E 4423.5","seamark:light:sequence":"0.3+(2.7)","seamark:name":"Agios Serafeim","seamark:type":"light_minor","source":"US NGA Pub. 113. 2011-10-20."}}},{"type":"Feature","geometry":{"type":"Point","coordinates":[22.3775118,38.3322333]},"properties":{"osm_id":1431277323,"osm_type":"node","seamark_type":"light_minor","display_class":"OTHER","min_zoom":12,"importance":1,"name":"Akra Andromakhi","ref":null,"common":{"name":"Akra Andromakhi","type":"light_minor"},"children":{"light":{"1:character":"Fl","1:colour":"white","1:group":"3","1:height":"14","1:period":"15","1:range":"10","1:sector_end":"87.0","1:sector_start":"235.0","1:sequence":"1+(2)","reference":"E 3958"}},"osm_tags":{"man_made":"lighthouse","seamark:light:1:character":"Fl","seamark:light:1:colour":"white","seamark:light:1:group":"3","seamark:light:1:height":"14","seamark:light:1:period":"15","seamark:light:1:range":"10","seamark:light:1:sector_end":"87.0","seamark:light:1:sector_start":"235.0","seamark:light:1:sequence":"1+(2)","seamark:light:reference":"E 3958","seamark:name":"Akra Andromakhi","seamark:type":"light_minor","source":"US NGA Pub. 113. 2010-09-02"}}},{"type":"Feature","geometry":{"type":"Point","coordinates":[22.7582679,38.8679147]},"properties":{"osm_id":1576080306,"osm_type":"node","seamark_type":"light_minor","display_class":"OTHER","min_zoom":12,"importance":1,"name":"Akra Dhrepanon","ref":null,"common":{"name":"Akra Dhrepanon","type":"light_minor"},"children":{"light":{"character":"Fl","colour":"white","height":"7","period":"6","range":"5","reference":"E 4430","sequence":"1+(5)"}},"osm_tags":{"man_made":"lighthouse","seamark:light:character":"Fl","seamark:light:colour":"white","seamark:light:height":"7","seamark:light:period":"6","seamark:light:range":"5","seamark:light:reference":"E 4430","seamark:light:sequence":"1+(5)","seamark:name":"Akra Dhrepanon","seamark:type":"light_minor","source":"US NGA Pub. 113. 2011-10-20."}}},{"type":"Feature","geometry":{"type":"Point","coordinates":[22.6965986,38.851409]},"properties":{"osm_id":1576080249,"osm_type":"node","seamark_type":"light_minor","display_class":"OTHER","min_zoom":12,"importance":1,"name":"Akra Khiliomili","ref":null,"common":{"name":"Akra Khiliomili","type":"light_minor"},"children":{"light":{"character":"Fl","colour":"white","group":"3","height":"10","period":"15","range":"10","reference":"E 4424","sequence":"0.4+(1.5)+0.4+(1.5)+0.4+(10.8)"}},"osm_tags":{"man_made":"lighthouse","name":"Χιλιομίλι","name:el":"Χιλιομίλι","name:en":"Akra Khiliomili Lighthouse","seamark:light:character":"Fl","seamark:light:colour":"white","seamark:light:group":"3","seamark:light:height":"10","seamark:light:period":"15","seamark:light:range":"10","seamark:light:reference":"E 4424","seamark:light:sequence":"0.4+(1.5)+0.4+(1.5)+0.4+(10.8)","seamark:name":"Akra Khiliomili","seamark:type":"light_minor","source":"US NGA Pub. 113. 2011-10-20.","start_date":"1890","wikidata":"Q17173382"}}},{"type":"Feature","geometry":{"type":"Point","coordinates":[22.8246092,38.7896836]},"properties":{"osm_id":1576185398,"osm_type":"node","seamark_type":"light_minor","display_class":"OTHER","min_zoom":12,"importance":1,"name":"Akra Knimis","ref":null,"common":{"name":"Akra Knimis","type":"light_minor"},"children":{"light":{"1:character":"Fl","1:colour":"white","1:height":"6","1:period":"2","1:range":"6","1:sector_end":"140","1:sector_start":"98","1:sequence":"0.2+(1.8)","2:character":"Fl","2:colour":"red","2:height":"6","2:period":"2","2:range":"3","2:sector_end":"230","2:sector_start":"140","2:sequence":"0.2+(1.8)","3:character":"Fl","3:colour":"white","3:height":"6","3:period":"2","3:range":"6","3:sector_end":"278","3:sector_start":"230","3:sequence":"0.2+(1.8)","reference":"E 4422"}},"osm_tags":{"man_made":"lighthouse","seamark:light:1:character":"Fl","seamark:light:1:colour":"white","seamark:light:1:height":"6","seamark:light:1:period":"2","seamark:light:1:range":"6","seamark:light:1:sector_end":"140","seamark:light:1:sector_start":"98","seamark:light:1:sequence":"0.2+(1.8)","seamark:light:2:character":"Fl","seamark:light:2:colour":"red","seamark:light:2:height":"6","seamark:light:2:period":"2","seamark:light:2:range":"3","seamark:light:2:sector_end":"230","seamark:light:2:sector_start":"140","seamark:light:2:sequence":"0.2+(1.8)","seamark:light:3:character":"Fl","seamark:light:3:colour":"white","seamark:light:3:height":"6","seamark:light:3:period":"2","seamark:light:3:range":"6","seamark:light:3:sector_end":"278","seamark:light:3:sector_start":"230","seamark:light:3:sequence":"0.2+(1.8)","seamark:light:reference":"E 4422","seamark:name":"Akra Knimis","seamark:type":"light_minor","source":"US NGA Pub. 113. 2011-10-20."}}},{"type":"Feature","geometry":{"type":"Point","coordinates":[22.4907833,38.13575]},"properties":{"osm_id":1431283315,"osm_type":"node","seamark_type":"light_minor","display_class":"OTHER","min_zoom":12,"importance":1,"name":"Akra Likoporia","ref":null,"common":{"name":"Akra Likoporia","type":"light_minor"},"children":{"light":{"1:character":"Fl","1:colour":"white","1:group":"2","1:height":"17","1:period":"16","1:range":"10","1:sector_end":"297.0","1:sector_start":"109.0","1:sequence":"1+(2)","reference":"E 3967"}},"osm_tags":{"seamark:light:1:character":"Fl","seamark:light:1:colour":"white","seamark:light:1:group":"2","seamark:light:1:height":"17","seamark:light:1:period":"16","seamark:light:1:range":"10","seamark:light:1:sector_end":"297.0","seamark:light:1:sector_start":"109.0","seamark:light:1:sequence":"1+(2)","seamark:light:reference":"E 3967","seamark:name":"Akra Likoporia","seamark:type":"light_minor","source":"US NGA Pub. 113. 2010-09-02"}}},{"type":"Feature","geometry":{"type":"Point","coordinates":[22.5517973,38.2820329]},"properties":{"osm_id":1431277636,"osm_type":"node","seamark_type":"light_minor","display_class":"OTHER","min_zoom":12,"importance":1,"name":"Akra MakriNicolaos","ref":null,"common":{"name":"Akra MakriNicolaos","type":"light_minor"},"children":{"light":{"character":"Fl","colour":"white","height":"18","period":"4.5","range":"5","reference":"E 3964","sequence":"0.4+(4.1)"}},"osm_tags":{"man_made":"lighthouse","seamark:light:character":"Fl","seamark:light:colour":"white","seamark:light:height":"18","seamark:light:period":"4.5","seamark:light:range":"5","seamark:light:reference":"E 3964","seamark:light:sequence":"0.4+(4.1)","seamark:name":"Akra MakriNicolaos","seamark:type":"light_minor","source":"US NGA Pub. 113. 2010-09-02"}}},{"type":"Feature","geometry":{"type":"Point","coordinates":[22.0127244,38.3905632]},"properties":{"osm_id":1431277012,"osm_type":"node","seamark_type":"light_minor","display_class":"OTHER","min_zoom":12,"importance":1,"name":"Akra Marathias","ref":null,"common":{"name":"Akra Marathias","type":"light_minor"},"children":{"light":{"character":"Fl","colour":"red","height":"6","period":"3","range":"3","reference":"E 3954.2","sequence":"0.3+(2.7)"}},"osm_tags":{"man_made":"lighthouse","seamark:light:character":"Fl","seamark:light:colour":"red","seamark:light:height":"6","seamark:light:period":"3","seamark:light:range":"3","seamark:light:reference":"E 3954.2","seamark:light:sequence":"0.3+(2.7)","seamark:name":"Akra Marathias","seamark:type":"light_minor","source":"US NGA Pub. 113. 2010-09-02"}}},{"type":"Feature","geometry":{"type":"Point","coordinates":[22.8507167,38.8704167]},"properties":{"osm_id":1576079569,"osm_type":"node","seamark_type":"light_minor","display_class":"OTHER","min_zoom":12,"importance":1,"name":"Akra Vasilinas","ref":null,"common":{"name":"Akra Vasilinas","type":"light_minor"},"children":{"light":{"1:character":"Oc","1:colour":"green","1:height":"9","1:period":"5","1:range":"11","1:sector_end":"41","1:sector_start":"25","1:sequence":"4+(1)","2:character":"Oc","2:colour":"white","2:height":"9","2:period":"5","2:range":"14","2:sector_end":"252","2:sector_start":"41","2:sequence":"4+(1)","reference":"E 4432"}},"osm_tags":{"seamark:light:1:character":"Oc","seamark:light:1:colour":"green","seamark:light:1:height":"9","seamark:light:1:period":"5","seamark:light:1:range":"11","seamark:light:1:sector_end":"41","seamark:light:1:sector_start":"25","seamark:light:1:sequence":"4+(1)","seamark:light:2:character":"Oc","seamark:light:2:colour":"white","seamark:light:2:height":"9","seamark:light:2:period":"5","seamark:light:2:range":"14","seamark:light:2:sector_end":"252","seamark:light:2:sector_start":"41","seamark:light:2:sequence":"4+(1)","seamark:light:reference":"E 4432","seamark:name":"Akra Vasilinas","seamark:type":"light_minor","source":"US NGA Pub. 113. 2011-10-20."}}},{"type":"Feature","geometry":{"type":"Point","coordinates":[22.63325,38.3760167]},"properties":{"osm_id":1431277709,"osm_type":"node","seamark_type":"light_minor","display_class":"OTHER","min_zoom":12,"importance":1,"name":"Andikira","ref":null,"common":{"name":"Andikira","type":"light_minor"},"children":{"light":{"character":"Fl","colour":"green","height":"10","period":"4","range":"7","reference":"E 3970.5","sequence":"0.5+(3.5)"}},"osm_tags":{"man_made":"lighthouse","seamark:light:character":"Fl","seamark:light:colour":"green","seamark:light:height":"10","seamark:light:period":"4","seamark:light:range":"7","seamark:light:reference":"E 3970.5","seamark:light:sequence":"0.5+(3.5)","seamark:name":"Andikira","seamark:type":"light_minor","source":"US NGA Pub. 113. 2010-09-02"}}},{"type":"Feature","geometry":{"type":"Point","coordinates":[22.9545333,38.21195]},"properties":{"osm_id":1431277845,"osm_type":"node","seamark_type":"light_minor","display_class":"OTHER","min_zoom":12,"importance":1,"name":"Cape Ioannis","ref":null,"common":{"name":"Cape Ioannis","type":"light_minor"},"children":{"light":{"character":"Fl","colour":"green","height":"7","period":"3","range":"4","reference":"E 3965.16","sequence":"0.3+(2.7)"}},"osm_tags":{"man_made":"lighthouse","seamark:light:character":"Fl","seamark:light:colour":"green","seamark:light:height":"7","seamark:light:period":"3","seamark:light:range":"4","seamark:light:reference":"E 3965.16","seamark:light:sequence":"0.3+(2.7)","seamark:name":"Cape Ioannis","seamark:type":"light_minor","source":"US NGA Pub. 113. 2010-09-02"}}},{"type":"Feature","geometry":{"type":"Point","coordinates":[22.9682887,38.1891346]},"properties":{"osm_id":1431277825,"osm_type":"node","seamark_type":"light_minor","display_class":"OTHER","min_zoom":12,"importance":1,"name":"Cape Tsarla","ref":null,"common":{"name":"Cape Tsarla","type":"light_minor"},"children":{"light":{"character":"Fl","colour":"red","height":"6","period":"3","range":"4","reference":"E 3965.13","sequence":"0.3+(2.7)"}},"osm_tags":{"seamark:light:character":"Fl","seamark:light:colour":"red","seamark:light:height":"6","seamark:light:period":"3","seamark:light:range":"4","seamark:light:reference":"E 3965.13","seamark:light:sequence":"0.3+(2.7)","seamark:name":"Cape Tsarla","seamark:type":"light_minor","source":"US NGA Pub. 113. 2010-09-02"}}},{"type":"Feature","geometry":{"type":"Point","coordinates":[22.2301345,38.3595135]},"properties":{"osm_id":1431277214,"osm_type":"node","seamark_type":"light_minor","display_class":"OTHER","min_zoom":12,"importance":1,"name":"Eratini","ref":null,"common":{"name":"Eratini","type":"light_minor"},"children":{"light":{"category":"vertical","character":"F","colour":"red","height":"7","multiple":"2","range":"3","reference":"E 3957"}},"osm_tags":{"man_made":"lighthouse","seamark:light:category":"vertical","seamark:light:character":"F","seamark:light:colour":"red","seamark:light:height":"7","seamark:light:multiple":"2","seamark:light:range":"3","seamark:light:reference":"E 3957","seamark:name":"Eratini","seamark:type":"light_minor","source":"US NGA Pub. 113. 2010-09-02"}}},{"type":"Feature","geometry":{"type":"Point","coordinates":[22.945762,38.1738076]},"properties":{"osm_id":1431277764,"osm_type":"node","seamark_type":"light_minor","display_class":"OTHER","min_zoom":12,"importance":1,"name":"Fonas","ref":null,"common":{"name":"Fonas","type":"light_minor"},"children":{"light":{"character":"Fl","colour":"white","group":"2","height":"16","period":"10","range":"7","reference":"E 3965.03","sequence":"0.5+(1.5)"}},"osm_tags":{"seamark:light:character":"Fl","seamark:light:colour":"white","seamark:light:group":"2","seamark:light:height":"16","seamark:light:period":"10","seamark:light:range":"7","seamark:light:reference":"E 3965.03","seamark:light:sequence":"0.5+(1.5)","seamark:name":"Fonas","seamark:type":"light_minor","source":"US NGA Pub. 113. 2010-09-02"}}},{"type":"Feature","geometry":{"type":"Point","coordinates":[22.98155,38.1818333]},"properties":{"osm_id":1431277796,"osm_type":"node","seamark_type":"light_minor","display_class":"OTHER","min_zoom":12,"importance":1,"name":"Grompoloura","ref":null,"common":{"name":"Grompoloura","type":"light_minor"},"children":{"light":{"character":"Fl","colour":"green","height":"7","period":"4","range":"4","reference":"E 3965.1","sequence":"0.3+(3.7)"}},"osm_tags":{"seamark:light:character":"Fl","seamark:light:colour":"green","seamark:light:height":"7","seamark:light:period":"4","seamark:light:range":"4","seamark:light:reference":"E 3965.1","seamark:light:sequence":"0.3+(3.7)","seamark:name":"Grompoloura","seamark:type":"light_minor","source":"US NGA Pub. 113. 2010-09-02"}}},{"type":"Feature","geometry":{"type":"Point","coordinates":[22.4238399,38.4288497]},"properties":{"osm_id":1574371073,"osm_type":"node","seamark_type":"light_minor","display_class":"OTHER","min_zoom":12,"importance":1,"name":"Itea","ref":null,"common":{"name":"Itea","type":"light_minor"},"children":{"light":{"1:character":"Fl","1:colour":"green","1:height":"9","1:period":"3","1:range":"4","1:sector_end":"355","1:sector_start":"295","1:sequence":"0.4+(2.6)","2:character":"Fl","2:colour":"red","2:height":"9","2:period":"3","2:range":"4","2:sector_end":"30","2:sector_start":"355","2:sequence":"0.4+(2.6)","3:character":"Fl","3:colour":"green","3:height":"9","3:period":"3","3:range":"4","3:sector_end":"111","3:sector_start":"30","3:sequence":"0.4+(2.6)","reference":"E 3963"}},"osm_tags":{"man_made":"lighthouse","seamark:light:1:character":"Fl","seamark:light:1:colour":"green","seamark:light:1:height":"9","seamark:light:1:period":"3","seamark:light:1:range":"4","seamark:light:1:sector_end":"355","seamark:light:1:sector_start":"295","seamark:light:1:sequence":"0.4+(2.6)","seamark:light:2:character":"Fl","seamark:light:2:colour":"red","seamark:light:2:height":"9","seamark:light:2:period":"3","seamark:light:2:range":"4","seamark:light:2:sector_end":"30","seamark:light:2:sector_start":"355","seamark:light:2:sequence":"0.4+(2.6)","seamark:light:3:character":"Fl","seamark:light:3:colour":"green","seamark:light:3:height":"9","seamark:light:3:period":"3","seamark:light:3:range":"4","seamark:light:3:sector_end":"111","seamark:light:3:sector_start":"30","seamark:light:3:sequence":"0.4+(2.6)","seamark:light:reference":"E 3963","seamark:name":"Itea","seamark:type":"light_minor","source":"US NGA Pub. 113. 2011-10-20."}}},{"type":"Feature","geometry":{"type":"Point","coordinates":[22.4251019,38.4316945]},"properties":{"osm_id":1574371372,"osm_type":"node","seamark_type":"light_minor","display_class":"OTHER","min_zoom":12,"importance":1,"name":"Itea","ref":null,"common":{"name":"Itea","type":"light_minor"},"children":{"light":{"character":"Q","colour":"red","height":"7","range":"5","reference":"E 3963.2"}},"osm_tags":{"seamark:light:character":"Q","seamark:light:colour":"red","seamark:light:height":"7","seamark:light:range":"5","seamark:light:reference":"E 3963.2","seamark:name":"Itea","seamark:type":"light_minor","source":"US NGA Pub. 113. 2011-10-20."}}},{"type":"Feature","geometry":{"type":"Point","coordinates":[22.78485,38.7820167]},"properties":{"osm_id":1576185713,"osm_type":"node","seamark_type":"light_minor","display_class":"OTHER","min_zoom":12,"importance":1,"name":"Kammena Vourla Marina","ref":null,"common":{"name":"Kammena Vourla Marina","type":"light_minor"},"children":{"light":{"character":"Fl","colour":"red","height":"7","period":"4","range":"6","reference":"E 4423","sequence":"0.8+(3.2)"}},"osm_tags":{"man_made":"lighthouse","seamark:light:character":"Fl","seamark:light:colour":"red","seamark:light:height":"7","seamark:light:period":"4","seamark:light:range":"6","seamark:light:reference":"E 4423","seamark:light:sequence":"0.8+(3.2)","seamark:name":"Kammena Vourla Marina","seamark:type":"light_minor","source":"US NGA Pub. 113. 2011-10-20."}}},{"type":"Feature","geometry":{"type":"Point","coordinates":[22.7544601,38.0137708]},"properties":{"osm_id":1431283155,"osm_type":"node","seamark_type":"light_minor","display_class":"OTHER","min_zoom":12,"importance":1,"name":"Kiaton","ref":null,"common":{"name":"Kiaton","type":"light_minor"},"children":{"light":{"character":"Fl","colour":"green","height":"9","period":"3","range":"3","reference":"E 3973","sequence":"1+(2)"}},"osm_tags":{"man_made":"lighthouse","seamark:light:character":"Fl","seamark:light:colour":"green","seamark:light:height":"9","seamark:light:period":"3","seamark:light:range":"3","seamark:light:reference":"E 3973","seamark:light:sequence":"1+(2)","seamark:name":"Kiaton","seamark:type":"light_minor","source":"US NGA Pub. 113. 2010-09-02"}}},{"type":"Feature","geometry":{"type":"Point","coordinates":[22.8209959,38.8083107]},"properties":{"osm_id":1576080418,"osm_type":"node","seamark_type":"light_minor","display_class":"OTHER","min_zoom":12,"importance":1,"name":"Nisis Strongili","ref":null,"common":{"name":"Nisis Strongili","type":"light_minor"},"children":{"light":{"1:character":"Fl","1:colour":"red","1:group":"2","1:height":"41","1:period":"10","1:range":"9","1:sector_end":"293","1:sector_start":"113","1:sequence":"1+(2),1+(6)","2:character":"Fl","2:colour":"white","2:group":"2","2:height":"41","2:period":"10","2:range":"12","2:sector_end":"113","2:sector_start":"293","2:sequence":"1+(2),1+(6)","reference":"E 4420"}},"osm_tags":{"seamark:light:1:character":"Fl","seamark:light:1:colour":"red","seamark:light:1:group":"2","seamark:light:1:height":"41","seamark:light:1:period":"10","seamark:light:1:range":"9","seamark:light:1:sector_end":"293","seamark:light:1:sector_start":"113","seamark:light:1:sequence":"1+(2),1+(6)","seamark:light:2:character":"Fl","seamark:light:2:colour":"white","seamark:light:2:group":"2","seamark:light:2:height":"41","seamark:light:2:period":"10","seamark:light:2:range":"12","seamark:light:2:sector_end":"113","seamark:light:2:sector_start":"293","seamark:light:2:sequence":"1+(2),1+(6)","seamark:light:reference":"E 4420","seamark:name":"Nisis Strongili","seamark:type":"light_minor","source":"US NGA Pub. 113. 2011-10-20."}}},{"type":"Feature","geometry":{"type":"Point","coordinates":[22.0783333,38.3666667]},"properties":{"osm_id":1431277074,"osm_type":"node","seamark_type":"light_minor","display_class":"OTHER","min_zoom":12,"importance":1,"name":"Nisis Trizonia","ref":null,"common":{"name":"Nisis Trizonia","type":"light_minor"},"children":{"light":{"character":"Fl","colour":"white","height":"9","period":"4","range":"4","reference":"E 3952","sequence":"0.8+(3.2)"}},"osm_tags":{"seamark:light:character":"Fl","seamark:light:colour":"white","seamark:light:height":"9","seamark:light:period":"4","seamark:light:range":"4","seamark:light:reference":"E 3952","seamark:light:sequence":"0.8+(3.2)","seamark:name":"Nisis Trizonia","seamark:type":"light_minor","source":"US NGA Pub. 113. 2010-09-02"}}},{"type":"Feature","geometry":{"type":"Point","coordinates":[22.083207,38.2544196]},"properties":{"osm_id":1431283388,"osm_type":"node","seamark_type":"light_minor","display_class":"OTHER","min_zoom":12,"importance":1,"name":"Ormos Aiyou","ref":null,"common":{"name":"Ormos Aiyou","type":"light_minor"},"children":{"light":{"character":"Fl","colour":"red","height":"8","period":"1.5","range":"6","reference":"E 3950","sequence":"0.2+(1.3)"}},"osm_tags":{"seamark:light:character":"Fl","seamark:light:colour":"red","seamark:light:height":"8","seamark:light:period":"1.5","seamark:light:range":"6","seamark:light:reference":"E 3950","seamark:light:sequence":"0.2+(1.3)","seamark:name":"Ormos Aiyou","seamark:type":"light_minor"}}},{"type":"Feature","geometry":{"type":"Point","coordinates":[22.6462,38.3582667]},"properties":{"osm_id":1431277662,"osm_type":"node","seamark_type":"light_minor","display_class":"OTHER","min_zoom":12,"importance":1,"name":"Ormos Andikiron","ref":null,"common":{"name":"Ormos Andikiron","type":"light_minor"},"children":{"light":{"character":"Fl","colour":"white","height":"19","period":"3","range":"4","reference":"E 3970","sequence":"0.3+(2.7)"}},"osm_tags":{"man_made":"lighthouse","seamark:light:character":"Fl","seamark:light:colour":"white","seamark:light:height":"19","seamark:light:period":"3","seamark:light:range":"4","seamark:light:reference":"E 3970","seamark:light:sequence":"0.3+(2.7)","seamark:name":"Ormos Andikiron","seamark:type":"light_minor","source":"US NGA Pub. 113. 2010-09-02"}}},{"type":"Feature","geometry":{"type":"Point","coordinates":[22.5807667,38.8894667]},"properties":{"osm_id":1576079773,"osm_type":"node","seamark_type":"light_minor","display_class":"OTHER","min_zoom":12,"importance":1,"name":"Ormos Ayios Marinas","ref":null,"common":{"information":"Private light.","name":"Ormos Ayios Marinas","type":"light_minor"},"children":{"light":{"character":"F","colour":"red","height":"26","range":"3","reference":"E 4425"}},"osm_tags":{"seamark:information":"Private light.","seamark:light:character":"F","seamark:light:colour":"red","seamark:light:height":"26","seamark:light:range":"3","seamark:light:reference":"E 4425","seamark:name":"Ormos Ayios Marinas","seamark:type":"light_minor","source":"US NGA Pub. 113. 2011-10-20."}}},{"type":"Feature","geometry":{"type":"Point","coordinates":[22.402615,38.3781691]},"properties":{"osm_id":1431277470,"osm_type":"node","seamark_type":"light_minor","display_class":"OTHER","min_zoom":12,"importance":1,"name":"Ormos Galaxidhiou","ref":null,"common":{"name":"Ormos Galaxidhiou","type":"light_minor"},"children":{"light":{"1:character":"Fl","1:colour":"white","1:height":"13","1:period":"7","1:range":"5","1:sector_end":"357.0","1:sector_start":"111.0","1:sequence":"0.6+(6.4)","reference":"E 3960"}},"osm_tags":{"man_made":"lighthouse","seamark:light:1:character":"Fl","seamark:light:1:colour":"white","seamark:light:1:height":"13","seamark:light:1:period":"7","seamark:light:1:range":"5","seamark:light:1:sector_end":"357.0","seamark:light:1:sector_start":"111.0","seamark:light:1:sequence":"0.6+(6.4)","seamark:light:reference":"E 3960","seamark:name":"Ormos Galaxidhiou","seamark:type":"light_minor","source":"US NGA Pub. 113. 2010-09-02"}}},{"type":"Feature","geometry":{"type":"Point","coordinates":[22.3872333,38.3787333]},"properties":{"osm_id":1431277523,"osm_type":"node","seamark_type":"light_minor","display_class":"OTHER","min_zoom":12,"importance":1,"name":"Ormos Galaxidhiou","ref":null,"common":{"name":"Ormos Galaxidhiou","type":"light_minor"},"children":{"light":{"1:character":"Fl","1:colour":"red","1:height":"11","1:period":"1.5","1:range":"3","1:sector_end":"216.0","1:sector_start":"80.0","1:sequence":"0.3+(1.2)","2:character":"Fl","2:colour":"green","2:height":"11","2:period":"1.5","2:range":"3","2:sector_end":"347.0","2:sector_start":"216.0","2:sequence":"0.3+(1.2)","reference":"E 3962"}},"osm_tags":{"seamark:light:1:character":"Fl","seamark:light:1:colour":"red","seamark:light:1:height":"11","seamark:light:1:period":"1.5","seamark:light:1:range":"3","seamark:light:1:sector_end":"216.0","seamark:light:1:sector_start":"80.0","seamark:light:1:sequence":"0.3+(1.2)","seamark:light:2:character":"Fl","seamark:light:2:colour":"green","seamark:light:2:height":"11","seamark:light:2:period":"1.5","seamark:light:2:range":"3","seamark:light:2:sector_end":"347.0","seamark:light:2:sector_start":"216.0","seamark:light:2:sequence":"0.3+(1.2)","seamark:light:reference":"E 3962","seamark:name":"Ormos Galaxidhiou","seamark:type":"light_minor","source":"US NGA Pub. 113. 2010-09-02"}}},{"type":"Feature","geometry":{"type":"Point","coordinates":[22.254088,38.3597133]},"properties":{"osm_id":1431277284,"osm_type":"node","seamark_type":"light_minor","display_class":"OTHER","min_zoom":12,"importance":1,"name":"Ormos Panormou","ref":null,"common":{"name":"Ormos Panormou","type":"light_minor"},"children":{"light":{"character":"Fl","colour":"red","height":"8","period":"3","range":"4","reference":"E 3957.5"}},"osm_tags":{"seamark:light:character":"Fl","seamark:light:colour":"red","seamark:light:height":"8","seamark:light:period":"3","seamark:light:range":"4","seamark:light:reference":"E 3957.5","seamark:name":"Ormos Panormou","seamark:type":"light_minor","source":"US NGA Pub. 113. 2010-09-02"}}},{"type":"Feature","geometry":{"type":"Point","coordinates":[22.9797,38.8732667]},"properties":{"osm_id":1576186736,"osm_type":"node","seamark_type":"light_minor","display_class":"OTHER","min_zoom":12,"importance":1,"name":"Ormos Yialtrou","ref":null,"common":{"name":"Ormos Yialtrou","type":"light_minor"},"children":{"light":{"character":"Fl","colour":"white","height":"7","period":"3","range":"5","reference":"E 4417","sequence":"0.3+(2.7)"}},"osm_tags":{"seamark:light:character":"Fl","seamark:light:colour":"white","seamark:light:height":"7","seamark:light:period":"3","seamark:light:range":"5","seamark:light:reference":"E 4417","seamark:light:sequence":"0.3+(2.7)","seamark:name":"Ormos Yialtrou","seamark:type":"light_minor","source":"US NGA Pub. 113. 2011-10-20."}}},{"type":"Feature","geometry":{"type":"Point","coordinates":[22.8860922,38.2354512]},"properties":{"osm_id":1431277735,"osm_type":"node","seamark_type":"light_minor","display_class":"OTHER","min_zoom":12,"importance":1,"name":"Saranti Bay","ref":null,"common":{"name":"Saranti Bay","type":"light_minor"},"children":{"light":{"character":"Fl","colour":"red","height":"8","period":"3","range":"3","reference":"E 3965","sequence":"0.3+(2.7)"}},"osm_tags":{"seamark:light:character":"Fl","seamark:light:colour":"red","seamark:light:height":"8","seamark:light:period":"3","seamark:light:range":"3","seamark:light:reference":"E 3965","seamark:light:sequence":"0.3+(2.7)","seamark:name":"Saranti Bay","seamark:type":"light_minor","source":"US NGA Pub. 113. 2010-09-02"}}},{"type":"Feature","geometry":{"type":"Point","coordinates":[22.9904477,38.9442585]},"properties":{"osm_id":1576079276,"osm_type":"node","seamark_type":"light_minor","display_class":"OTHER","min_zoom":12,"importance":1,"name":"St. Sostis Point","ref":null,"common":{"name":"St. Sostis Point","type":"light_minor"},"children":{"light":{"character":"Fl","colour":"white","height":"16","period":"8","range":"6","reference":"E 4433.5","sequence":"1+(7)"}},"osm_tags":{"man_made":"lighthouse","seamark:light:character":"Fl","seamark:light:colour":"white","seamark:light:height":"16","seamark:light:period":"8","seamark:light:range":"6","seamark:light:reference":"E 4433.5","seamark:light:sequence":"1+(7)","seamark:name":"St. Sostis Point","seamark:type":"light_minor","source":"US NGA Pub. 113. 2011-10-20."}}},{"type":"Feature","geometry":{"type":"Point","coordinates":[22.6246136,38.0814147]},"properties":{"osm_id":1431283246,"osm_type":"node","seamark_type":"light_minor","display_class":"OTHER","min_zoom":12,"importance":1,"name":"Xylokastro","ref":null,"common":{"name":"Xylokastro","type":"light_minor"},"children":{"light":{"character":"F","colour":"red","height":"8","range":"3","reference":"E 3968.2"}},"osm_tags":{"man_made":"lighthouse","seamark:light:character":"F","seamark:light:colour":"red","seamark:light:height":"8","seamark:light:range":"3","seamark:light:reference":"E 3968.2","seamark:name":"Xylokastro","seamark:type":"light_minor","source":"US NGA Pub. 113. 2010-09-02"}}},{"type":"Feature","geometry":{"type":"Polygon","coordinates":[[[22.712047,38.8276344],[22.7119551,38.827684],[22.7114601,38.8272331],[22.7113555,38.8273042],[22.7118812,38.8277848],[22.7117404,38.8281202],[22.7118132,38.8281346],[22.712313,38.8280616],[22.7129325,38.8276559],[22.713109,38.8272223],[22.7130855,38.8272088],[22.7130399,38.8272011],[22.7125857,38.8272598],[22.712218,38.8275289],[22.712047,38.8276344]]]},"properties":{"osm_id":306304899,"osm_type":"way","seamark_type":"harbour","display_class":"OTHER","min_zoom":12,"importance":1,"name":"Λιμάνι Άγιου Σεραφείμ","ref":null,"common":{"type":"harbour"},"children":{"harbour":{"category":"marina"}},"osm_tags":{"leisure":"marina","name":"Λιμάνι Άγιου Σεραφείμ","seamark:harbour:category":"marina","seamark:type":"harbour"}}},{"type":"Feature","geometry":{"type":"Point","coordinates":[22.3875833,38.3759072]},"properties":{"osm_id":8064035070,"osm_type":"node","seamark_type":"harbour","display_class":"OTHER","min_zoom":12,"importance":1,"name":"Λιμάνι Αγοράς","ref":null,"common":{"type":"harbour"},"children":{"harbour":{"category":"marina"}},"osm_tags":{"leisure":"marina","name":"Λιμάνι Αγοράς","seamark:harbour:category":"marina","seamark:type":"harbour"}}},{"type":"Feature","geometry":{"type":"Point","coordinates":[22.3849878,38.3800056]},"properties":{"osm_id":8064035069,"osm_type":"node","seamark_type":"harbour","display_class":"OTHER","min_zoom":12,"importance":1,"name":"Λιμάνι Χηρόλακα","ref":null,"common":{"type":"harbour"},"children":{"harbour":{"category":"marina"}},"osm_tags":{"leisure":"marina","name":"Λιμάνι Χηρόλακα","seamark:harbour:category":"marina","seamark:type":"harbour"}}},{"type":"Feature","geometry":{"type":"Point","coordinates":[22.7855391,38.7822745]},"properties":{"osm_id":1221370928,"osm_type":"node","seamark_type":"harbour","display_class":"OTHER","min_zoom":12,"importance":1,"name":"Μαρίνα Καμμένων Βούρλων","ref":null,"common":{"type":"harbour"},"children":{"harbour":{"category":"marina"}},"osm_tags":{"leisure":"marina","name":"Μαρίνα Καμμένων Βούρλων","seamark:harbour:category":"marina","seamark:type":"harbour"}}}],"type":"FeatureCollection"}