{"type":"FeatureCollection","features":[{"type":"Feature","geometry":{"type":"Point","coordinates":[-84.9433969,38.7709921]},"properties":{"osm_id":3995973149,"osm_type":"node","seamark_type":"pile","display_class":"OTHER","min_zoom":12,"importance":1,"name":null,"ref":null,"common":{"type":"pile"},"children":{},"osm_tags":{"seamark:type":"pile"}}},{"type":"Feature","geometry":{"type":"Point","coordinates":[-84.9413691,38.7710674]},"properties":{"osm_id":3995973150,"osm_type":"node","seamark_type":"pile","display_class":"OTHER","min_zoom":12,"importance":1,"name":null,"ref":null,"common":{"type":"pile"},"children":{},"osm_tags":{"seamark:type":"pile"}}},{"type":"Feature","geometry":{"type":"Point","coordinates":[-84.9629038,38.7784631]},"properties":{"osm_id":3995973151,"osm_type":"node","seamark_type":"pile","display_class":"OTHER","min_zoom":12,"importance":1,"name":null,"ref":null,"common":{"type":"pile"},"children":{},"osm_tags":{"seamark:type":"pile"}}},{"type":"Feature","geometry":{"type":"LineString","coordinates":[[-84.8304983,38.0527121],[-84.8305302,38.0527676],[-84.8305076,38.0528183]]},"properties":{"osm_id":889967556,"osm_type":"way","seamark_type":"gate","display_class":"OTHER","min_zoom":12,"importance":1,"name":null,"ref":null,"common":{"type":"gate"},"children":{},"osm_tags":{"seamark:type":"gate","waterway":"lock_gate"}}},{"type":"Feature","geometry":{"type":"LineString","coordinates":[[-84.8311181,38.0528146],[-84.8311429,38.0527627],[-84.8311165,38.0527062]]},"properties":{"osm_id":889967557,"osm_type":"way","seamark_type":"gate","display_class":"OTHER","min_zoom":12,"importance":1,"name":null,"ref":null,"common":{"type":"gate"},"children":{},"osm_tags":{"seamark:type":"gate","waterway":"lock_gate"}}},{"type":"Feature","geometry":{"type":"LineString","coordinates":[[-84.9669296,38.7744068],[-84.9668689,38.7742025],[-84.9669482,38.7740605]]},"properties":{"osm_id":1015099666,"osm_type":"way","seamark_type":"gate","display_class":"OTHER","min_zoom":12,"importance":1,"name":null,"ref":null,"common":{"type":"gate"},"children":{},"osm_tags":{"seamark:type":"gate","waterway":"lock_gate"}}},{"type":"Feature","geometry":{"type":"LineString","coordinates":[[-84.9684452,38.7749321],[-84.9683902,38.7747497],[-84.9685227,38.7745317]]},"properties":{"osm_id":1015099668,"osm_type":"way","seamark_type":"gate","display_class":"OTHER","min_zoom":12,"importance":1,"name":null,"ref":null,"common":{"type":"gate"},"children":{},"osm_tags":{"seamark:type":"gate","waterway":"lock_gate"}}},{"type":"Feature","geometry":{"type":"LineString","coordinates":[[-84.964583,38.7742195],[-84.9645167,38.7740118],[-84.9645934,38.7738749]]},"properties":{"osm_id":1416969534,"osm_type":"way","seamark_type":"gate","display_class":"OTHER","min_zoom":12,"importance":1,"name":null,"ref":null,"common":{"type":"gate"},"children":{},"osm_tags":{"seamark:type":"gate","waterway":"lock_gate"}}},{"type":"Feature","geometry":{"type":"Polygon","coordinates":[[[-84.8874067,38.2071016],[-84.8860665,38.2065338],[-84.8860665,38.2063085],[-84.8869986,38.2064428],[-84.8874674,38.2065122],[-84.8875391,38.2070279],[-84.8874067,38.2071016]]]},"properties":{"osm_id":243448069,"osm_type":"way","seamark_type":"harbour","display_class":"OTHER","min_zoom":12,"importance":1,"name":"Benson Marina/ Bar and Grill","ref":null,"common":{"type":"harbour"},"children":{"harbour":{"category":"marina"}},"osm_tags":{"leisure":"marina","name":"Benson Marina/ Bar and Grill","seamark:harbour:category":"marina","seamark:type":"harbour"}}},{"type":"Feature","geometry":{"type":"Polygon","coordinates":[[[-84.2761594,38.9421967],[-84.2751745,38.9427329],[-84.2749579,38.9424894],[-84.273307,38.941565],[-84.2736043,38.9411483],[-84.2736667,38.9411592],[-84.2737072,38.9411563],[-84.2738005,38.941128],[-84.2738791,38.9411199],[-84.2739615,38.9411247],[-84.274924,38.940839],[-84.2764332,38.9420478],[-84.2761594,38.9421967]]]},"properties":{"osm_id":1322364534,"osm_type":"way","seamark_type":"small_craft_facility","display_class":"OTHER","min_zoom":12,"importance":1,"name":"Little Indian Creek Boat Club","ref":null,"common":{"type":"small_craft_facility"},"children":{"harbour":{"category":"marina"}},"osm_tags":{"addr:city":"New Richmond","addr:housenumber":"793","addr:postcode":"45157","addr:state":"OH","addr:street":"Washington Street","fee":"yes","leisure":"marina","name":"Little Indian Creek Boat Club","power_supply":"no","sanitary_dump_station":"no","seamark:harbour:category":"marina","seamark:type":"small_craft_facility"}}},{"type":"Feature","geometry":{"type":"Point","coordinates":[-84.9632859,38.4387702]},"properties":{"osm_id":1757724175,"osm_type":"node","seamark_type":"gate","display_class":"OTHER","min_zoom":12,"importance":1,"name":"Lock and Dam 2","ref":null,"common":{"type":"gate"},"children":{},"osm_tags":{"name":"Lock and Dam 2","seamark:type":"gate","waterway":"lock_gate","website":"https://finance.ky.gov/offices/Pages/LockandDam2.aspx"}}},{"type":"Feature","geometry":{"type":"Point","coordinates":[-84.9629295,38.4391691]},"properties":{"osm_id":1757724179,"osm_type":"node","seamark_type":"gate","display_class":"OTHER","min_zoom":12,"importance":1,"name":"Lock and Dam 2","ref":null,"common":{"type":"gate"},"children":{},"osm_tags":{"name":"Lock and Dam 2","seamark:type":"gate","waterway":"lock_gate","website":"https://finance.ky.gov/offices/Pages/LockandDam2.aspx"}}},{"type":"Feature","geometry":{"type":"Point","coordinates":[-84.8808002,38.4167045]},"properties":{"osm_id":1757724184,"osm_type":"node","seamark_type":"gate","display_class":"OTHER","min_zoom":12,"importance":1,"name":"Lock and Dam 3","ref":null,"common":{"type":"gate"},"children":{},"osm_tags":{"name":"Lock and Dam 3","seamark:type":"gate","waterway":"lock_gate","website":"https://finance.ky.gov/offices/Pages/LockandDam3.aspx"}}},{"type":"Feature","geometry":{"type":"Point","coordinates":[-84.880723,38.4172122]},"properties":{"osm_id":1757724190,"osm_type":"node","seamark_type":"gate","display_class":"OTHER","min_zoom":12,"importance":1,"name":"Lock and Dam 3","ref":null,"common":{"type":"gate"},"children":{},"osm_tags":{"name":"Lock and Dam 3","seamark:type":"gate","waterway":"lock_gate","website":"https://finance.ky.gov/offices/Pages/LockandDam3.aspx"}}},{"type":"Feature","geometry":{"type":"Point","coordinates":[-84.8730711,38.2119372]},"properties":{"osm_id":1757724195,"osm_type":"node","seamark_type":"gate","display_class":"OTHER","min_zoom":12,"importance":1,"name":"Lock and Dam 4","ref":null,"common":{"type":"gate"},"children":{},"osm_tags":{"name":"Lock and Dam 4","seamark:type":"gate","waterway":"lock_gate","website":"https://finance.ky.gov/offices/Pages/LockandDam4.aspx"}}},{"type":"Feature","geometry":{"type":"Point","coordinates":[-84.8728776,38.2123876]},"properties":{"osm_id":1757724202,"osm_type":"node","seamark_type":"gate","display_class":"OTHER","min_zoom":12,"importance":1,"name":"Lock and Dam 4","ref":null,"common":{"type":"gate"},"children":{},"osm_tags":{"name":"Lock and Dam 4","seamark:type":"gate","waterway":"lock_gate","website":"https://finance.ky.gov/offices/Pages/LockandDam4.aspx"}}},{"type":"Feature","geometry":{"type":"LineString","coordinates":[[-84.964003,38.7745786],[-84.9639401,38.7743894],[-84.9640823,38.7741838]]},"properties":{"osm_id":1015099667,"osm_type":"way","seamark_type":"gate","display_class":"OTHER","min_zoom":12,"importance":1,"name":"Markland Dam","ref":null,"common":{"type":"gate"},"children":{},"osm_tags":{"ele":"131","gnis:feature_id":"446736","name":"Markland Dam","seamark:type":"gate","waterway":"lock_gate"}}},{"type":"Feature","geometry":{"type":"Point","coordinates":[-84.9639401,38.7743894]},"properties":{"osm_id":1756851729,"osm_type":"node","seamark_type":"gate","display_class":"OTHER","min_zoom":12,"importance":1,"name":"Markland Lock and Dam","ref":"41","common":{"type":"gate"},"children":{},"osm_tags":{"name":"Markland Lock and Dam","ref":"41","seamark:type":"gate","waterway":"lock_gate","website":"https://www.lrl.usace.army.mil/opl/article.asp?id=106&MyCategory=1"}}},{"type":"Feature","geometry":{"type":"Point","coordinates":[-84.9683902,38.7747497]},"properties":{"osm_id":1756851730,"osm_type":"node","seamark_type":"gate","display_class":"OTHER","min_zoom":12,"importance":1,"name":"Markland Lock and Dam","ref":"41","common":{"type":"gate"},"children":{},"osm_tags":{"name":"Markland Lock and Dam","ref":"41","seamark:type":"gate","waterway":"lock_gate","website":"https://www.lrl.usace.army.mil/opl/article.asp?id=106&MyCategory=1"}}},{"type":"Feature","geometry":{"type":"Point","coordinates":[-84.9645167,38.7740118]},"properties":{"osm_id":1756853087,"osm_type":"node","seamark_type":"gate","display_class":"OTHER","min_zoom":12,"importance":1,"name":"Markland Lock and Dam","ref":"41","common":{"type":"gate"},"children":{},"osm_tags":{"name":"Markland Lock and Dam","ref":"41","seamark:type":"gate","waterway":"lock_gate","website":"https://www.lrl.usace.army.mil/opl/article.asp?id=106&MyCategory=1"}}},{"type":"Feature","geometry":{"type":"Point","coordinates":[-84.9668689,38.7742025]},"properties":{"osm_id":1756853088,"osm_type":"node","seamark_type":"gate","display_class":"OTHER","min_zoom":12,"importance":1,"name":"Markland Lock and Dam","ref":"41","common":{"type":"gate"},"children":{},"osm_tags":{"name":"Markland Lock and Dam","ref":"41","seamark:type":"gate","waterway":"lock_gate","website":"https://www.lrl.usace.army.mil/opl/article.asp?id=106&MyCategory=1"}}},{"type":"Feature","geometry":{"type":"Polygon","coordinates":[[[-84.2810386,38.9467807],[-84.2814226,38.9465985],[-84.282964,38.9484922],[-84.2825799,38.9486573],[-84.2822221,38.9481391],[-84.281552,38.9474153],[-84.2810386,38.9467807]]]},"properties":{"osm_id":1322378014,"osm_type":"way","seamark_type":"small_craft_facility","display_class":"OTHER","min_zoom":12,"importance":1,"name":"New Richmond Harbor","ref":null,"common":{"type":"small_craft_facility"},"children":{"harbour":{"category":"marina"}},"osm_tags":{"leisure":"marina","name":"New Richmond Harbor","operator":"Village of New Richmond","seamark:harbour:category":"marina","seamark:type":"small_craft_facility"}}},{"type":"Feature","geometry":{"type":"Polygon","coordinates":[[[-84.9312237,38.7714784],[-84.9309454,38.7715027],[-84.9309328,38.7714155],[-84.9312111,38.7713911],[-84.9312237,38.7714784]]]},"properties":{"osm_id":881145525,"osm_type":"way","seamark_type":"harbour","display_class":"OTHER","min_zoom":12,"importance":1,"name":"Smugglers Cove","ref":null,"common":{"type":"harbour"},"children":{"harbour":{"category":"marina"}},"osm_tags":{"addr:city":"Warsaw","addr:housenumber":"1147","addr:postcode":"41095","addr:state":"KY","addr:street":"US 42 W","leisure":"marina","name":"Smugglers Cove","phone":"+1 859-567-7601","seamark:harbour:category":"marina","seamark:type":"harbour"}}}],"type":"FeatureCollection"}