{"type":"FeatureCollection","features":[{"type":"Feature","geometry":{"type":"Point","coordinates":[-6.3456343,38.9944838]},"properties":{"osm_id":13660795375,"osm_type":"node","seamark_type":"beacon_isolated_danger","display_class":"BEACON","min_zoom":9,"importance":4,"name":null,"ref":null,"common":{"type":"beacon_isolated_danger"},"children":{},"osm_tags":{"description":"Peligro por arena suelta","seamark:type":"beacon_isolated_danger"}}},{"type":"Feature","geometry":{"type":"Point","coordinates":[-6.5516173,38.9144456]},"properties":{"osm_id":8977969437,"osm_type":"node","seamark_type":"gate","display_class":"OTHER","min_zoom":12,"importance":1,"name":null,"ref":null,"common":{"type":"gate"},"children":{},"osm_tags":{"seamark:type":"gate","waterway":"lock_gate"}}},{"type":"Feature","geometry":{"type":"Point","coordinates":[-6.4859626,38.9145387]},"properties":{"osm_id":8977969701,"osm_type":"node","seamark_type":"gate","display_class":"OTHER","min_zoom":12,"importance":1,"name":null,"ref":null,"common":{"type":"gate"},"children":{},"osm_tags":{"seamark:type":"gate","waterway":"lock_gate"}}},{"type":"Feature","geometry":{"type":"Polygon","coordinates":[[[-6.9292278,38.2965591],[-6.9291896,38.2965736],[-6.9291698,38.2965321],[-6.9291774,38.2965306],[-6.9291475,38.2964835],[-6.9291736,38.2964775],[-6.9292049,38.2965276],[-6.9292138,38.2965271],[-6.9292278,38.2965591]]]},"properties":{"osm_id":924562470,"osm_type":"way","seamark_type":"harbour","display_class":"OTHER","min_zoom":12,"importance":1,"name":null,"ref":null,"common":{"type":"harbour"},"children":{"harbour":{"category":"marina"}},"osm_tags":{"leisure":"marina","seamark:harbour:category":"marina","seamark:type":"harbour"}}}],"type":"FeatureCollection"}