{"type":"FeatureCollection","features":[{"type":"Feature","geometry":{"type":"Polygon","coordinates":[[[-94.6026417,38.8316165],[-94.6022704,38.8315185],[-94.6020014,38.8321078],[-94.6023673,38.832201],[-94.6024103,38.8321079],[-94.6026059,38.8316914],[-94.6026417,38.8316165]]]},"properties":{"osm_id":379388526,"osm_type":"way","seamark_type":"harbour","display_class":"OTHER","min_zoom":12,"importance":1,"name":null,"ref":null,"common":{"type":"harbour"},"children":{"harbour":{"category":"marina"}},"osm_tags":{"leisure":"marina","seamark:harbour:category":"marina","seamark:type":"harbour","source":"bing"}}},{"type":"Feature","geometry":{"type":"Polygon","coordinates":[[[-94.3267975,38.9836673],[-94.326432,38.9837839],[-94.3264402,38.9838664],[-94.3262932,38.983946],[-94.3262969,38.9839982],[-94.3263854,38.9844202],[-94.3264763,38.9845755],[-94.3270077,38.9847856],[-94.3271031,38.9848015],[-94.3272144,38.9847609],[-94.3275094,38.9846427],[-94.3274297,38.9843891],[-94.3268304,38.983694],[-94.3267975,38.9836673]]]},"properties":{"osm_id":638665215,"osm_type":"way","seamark_type":"harbour","display_class":"OTHER","min_zoom":12,"importance":1,"name":"Jacomo Marina","ref":null,"common":{"type":"harbour"},"children":{"harbour":{"category":"marina"}},"osm_tags":{"addr:city":"Blue Springs","addr:housenumber":"7401","addr:postcode":"64015","addr:state":"MO","addr:street":"West Park Road","leisure":"marina","name":"Jacomo Marina","operator":"Jackson County Parks + Rec","power_supply":"no","seamark:harbour:category":"marina","seamark:type":"harbour"}}},{"type":"Feature","geometry":{"type":"Polygon","coordinates":[[[-94.6649348,38.3681579],[-94.6653588,38.3679897],[-94.6651088,38.3676573],[-94.6645977,38.367369],[-94.6642251,38.3673451],[-94.6641891,38.3676226],[-94.6645067,38.3676301],[-94.6646027,38.3677591],[-94.6647705,38.3678857],[-94.6648961,38.3680148],[-94.6649348,38.3681579]]]},"properties":{"osm_id":1394455135,"osm_type":"way","seamark_type":"harbour","display_class":"OTHER","min_zoom":12,"importance":1,"name":"Linn County Park Marina","ref":null,"common":{"type":"harbour"},"children":{"harbour":{"category":"marina"}},"osm_tags":{"leisure":"marina","name":"Linn County Park Marina","seamark:harbour:category":"marina","seamark:type":"harbour"}}},{"type":"Feature","geometry":{"type":"Polygon","coordinates":[[[-94.4746919,38.9180723],[-94.4746519,38.9180633],[-94.4746855,38.9179731],[-94.4747255,38.9179821],[-94.474711,38.9180211],[-94.4746919,38.9180723]]]},"properties":{"osm_id":906962802,"osm_type":"way","seamark_type":"small_craft_facility","display_class":"OTHER","min_zoom":12,"importance":1,"name":"Longview Lake Marina","ref":null,"common":{"type":"small_craft_facility"},"children":{"small_craft_facility":{"category":"fuel_station"}},"osm_tags":{"addr:city":"Kansas City","addr:housenumber":"9898","addr:postcode":"64134","addr:state":"MO","addr:street":"Longview Road","building":"yes","layer":"1","name":"Longview Lake Marina","seamark:small_craft_facility:category":"fuel_station","seamark:type":"small_craft_facility","waterway":"fuel"}}},{"type":"Feature","geometry":{"type":"Polygon","coordinates":[[[-94.4763229,38.9180803],[-94.4772431,38.918264],[-94.4770355,38.9188494],[-94.475944,38.9188583],[-94.4755802,38.9188509],[-94.4746144,38.9186375],[-94.4745668,38.9180639],[-94.4746144,38.9179098],[-94.4750869,38.9176462],[-94.4751556,38.9176662],[-94.4752071,38.9176662],[-94.4752586,38.9176462],[-94.4753272,38.9176462],[-94.4759194,38.9179534],[-94.4762113,38.9180602],[-94.4763229,38.9180803]]]},"properties":{"osm_id":906963379,"osm_type":"way","seamark_type":"harbour","display_class":"OTHER","min_zoom":12,"importance":1,"name":"Longview Lake Marina","ref":null,"common":{"type":"harbour"},"children":{"harbour":{"category":"marina"}},"osm_tags":{"leisure":"marina","name":"Longview Lake Marina","seamark:harbour:category":"marina","seamark:type":"harbour"}}},{"type":"Feature","geometry":{"type":"Polygon","coordinates":[[[-94.3274307,38.9515163],[-94.3269321,38.9508781],[-94.3267172,38.9501057],[-94.3267204,38.9498473],[-94.326906,38.9494117],[-94.3269972,38.9491103],[-94.3273946,38.9487937],[-94.3273783,38.9484822],[-94.3280166,38.9483454],[-94.3280557,38.9485809],[-94.3282965,38.9489598],[-94.328288,38.9495939],[-94.3277901,38.9496673],[-94.3279961,38.9502147],[-94.3280734,38.9508221],[-94.3280149,38.9509527],[-94.3278545,38.951081],[-94.3274307,38.9515163]]]},"properties":{"osm_id":638675277,"osm_type":"way","seamark_type":"harbour","display_class":"OTHER","min_zoom":12,"importance":1,"name":"South Boat Dock","ref":null,"common":{"type":"harbour"},"children":{"harbour":{"category":"marina"}},"osm_tags":{"leisure":"marina","name":"South Boat Dock","operator":"Jackson County Parks + Rec","seamark:harbour:category":"marina","seamark:type":"harbour"}}}],"type":"FeatureCollection"}