{"type":"FeatureCollection","features":[{"type":"Feature","geometry":{"type":"Point","coordinates":[128.2241499,39.9952568]},"properties":{"osm_id":1271042128,"osm_type":"node","seamark_type":"light_major","display_class":"LIGHTHOUSE","min_zoom":7,"importance":5,"name":"Mayang Do","ref":null,"common":{"information":"Obscured by Song Do Gap when bearing less than 236°.","name":"Mayang Do","type":"light_major"},"children":{"light":{"1:character":"Fl","1:colour":"white","1:group":"4","1:height":"68","1:period":"22","1:range":"16","1:sector_end":"58","1:sector_start":"196","reference":"M 4510"}},"osm_tags":{"seamark:information":"Obscured by Song Do Gap when bearing less than 236°.","seamark:light:1:character":"Fl","seamark:light:1:colour":"white","seamark:light:1:group":"4","seamark:light:1:height":"68","seamark:light:1:period":"22","seamark:light:1:range":"16","seamark:light:1:sector_end":"58","seamark:light:1:sector_start":"196","seamark:light:reference":"M 4510","seamark:name":"Mayang Do","seamark:type":"light_major","source":"US NGA Pub. 112. 2009-11-12."}}}],"type":"FeatureCollection"}