{"type":"FeatureCollection","features":[{"type":"Feature","geometry":{"type":"Point","coordinates":[142.0711959,39.5466876]},"properties":{"osm_id":1930761501,"osm_type":"node","seamark_type":"light_major","display_class":"LIGHTHOUSE","min_zoom":7,"importance":5,"name":"Todo ga Saki","ref":null,"common":{"name":"Todo ga Saki","type":"light_major"},"children":{"light":{"1:character":"Fl","1:colour":"white","1:exhibition":"storm","1:height":"57","1:period":"15","1:range":"20","1:sector_end":"18","1:sector_start":"168","reference":"M 6598"}},"osm_tags":{"man_made":"lighthouse","name":"魹ヶ崎灯台","seamark:light:1:character":"Fl","seamark:light:1:colour":"white","seamark:light:1:exhibition":"storm","seamark:light:1:height":"57","seamark:light:1:period":"15","seamark:light:1:range":"20","seamark:light:1:sector_end":"18","seamark:light:1:sector_start":"168","seamark:light:reference":"M 6598","seamark:name":"Todo ga Saki","seamark:type":"light_major","wikidata":"Q11273253","wikipedia":"ja:魹ヶ埼灯台"}}}],"type":"FeatureCollection"}