{"type":"FeatureCollection","features":[{"type":"Feature","geometry":{"type":"Point","coordinates":[140.0665203,39.7667072]},"properties":{"osm_id":10973598312,"osm_type":"node","seamark_type":"gate","display_class":"OTHER","min_zoom":12,"importance":1,"name":null,"ref":null,"common":{"type":"gate"},"children":{},"osm_tags":{"seamark:type":"gate","waterway":"lock_gate"}}},{"type":"Feature","geometry":{"type":"Point","coordinates":[140.0252606,39.7935546]},"properties":{"osm_id":13816829043,"osm_type":"node","seamark_type":"landmark","display_class":"OTHER","min_zoom":12,"importance":1,"name":null,"ref":null,"common":{"type":"landmark"},"children":{"landmark":{"category":"windmotor"},"light":{"character":"Fl","colour":"yellow","group":"2","height":"25","period":"6","range":"5","reference":"M 7066.48"}},"osm_tags":{"generator:method":"wind_turbine","generator:source":"wind","generator:type":"horizontal_axis","offshore":"yes","power":"generator","seamark:landmark:category":"windmotor","seamark:light:character":"Fl","seamark:light:colour":"yellow","seamark:light:group":"2","seamark:light:height":"25","seamark:light:period":"6","seamark:light:range":"5","seamark:light:reference":"M 7066.48","seamark:type":"landmark"}}},{"type":"Feature","geometry":{"type":"Point","coordinates":[140.0192928,39.7925189]},"properties":{"osm_id":13816829044,"osm_type":"node","seamark_type":"landmark","display_class":"OTHER","min_zoom":12,"importance":1,"name":null,"ref":null,"common":{"type":"landmark"},"children":{"landmark":{"category":"windmotor"},"light":{"character":"Fl","colour":"yellow","group":"2","height":"25","period":"6","range":"5","reference":"M 7066.47"}},"osm_tags":{"generator:method":"wind_turbine","generator:source":"wind","generator:type":"horizontal_axis","offshore":"yes","power":"generator","seamark:landmark:category":"windmotor","seamark:light:character":"Fl","seamark:light:colour":"yellow","seamark:light:group":"2","seamark:light:height":"25","seamark:light:period":"6","seamark:light:range":"5","seamark:light:reference":"M 7066.47","seamark:type":"landmark"}}},{"type":"Feature","geometry":{"type":"Point","coordinates":[140.0191496,39.7885575]},"properties":{"osm_id":13816829045,"osm_type":"node","seamark_type":"landmark","display_class":"OTHER","min_zoom":12,"importance":1,"name":null,"ref":null,"common":{"type":"landmark"},"children":{"landmark":{"category":"windmotor"}},"osm_tags":{"generator:method":"wind_turbine","generator:source":"wind","generator:type":"horizontal_axis","offshore":"yes","power":"generator","seamark:landmark:category":"windmotor","seamark:type":"landmark"}}},{"type":"Feature","geometry":{"type":"Point","coordinates":[140.0195043,39.7851624]},"properties":{"osm_id":13816829046,"osm_type":"node","seamark_type":"landmark","display_class":"OTHER","min_zoom":12,"importance":1,"name":null,"ref":null,"common":{"type":"landmark"},"children":{"landmark":{"category":"windmotor"},"light":{"character":"Fl","colour":"yellow","group":"2","height":"25","period":"6","range":"5","reference":"M 7066.46"}},"osm_tags":{"generator:method":"wind_turbine","generator:source":"wind","generator:type":"horizontal_axis","offshore":"yes","power":"generator","seamark:landmark:category":"windmotor","seamark:light:character":"Fl","seamark:light:colour":"yellow","seamark:light:group":"2","seamark:light:height":"25","seamark:light:period":"6","seamark:light:range":"5","seamark:light:reference":"M 7066.46","seamark:type":"landmark"}}},{"type":"Feature","geometry":{"type":"Point","coordinates":[140.0004045,39.7833195]},"properties":{"osm_id":13816829047,"osm_type":"node","seamark_type":"landmark","display_class":"OTHER","min_zoom":12,"importance":1,"name":null,"ref":null,"common":{"type":"landmark"},"children":{"landmark":{"category":"windmotor"},"light":{"character":"Fl","colour":"yellow","group":"2","height":"22","period":"6","range":"5","reference":"M 7066.44"}},"osm_tags":{"generator:method":"wind_turbine","generator:source":"wind","generator:type":"horizontal_axis","offshore":"yes","power":"generator","seamark:landmark:category":"windmotor","seamark:light:character":"Fl","seamark:light:colour":"yellow","seamark:light:group":"2","seamark:light:height":"22","seamark:light:period":"6","seamark:light:range":"5","seamark:light:reference":"M 7066.44","seamark:type":"landmark"}}},{"type":"Feature","geometry":{"type":"Point","coordinates":[140.0001484,39.7797701]},"properties":{"osm_id":13816829048,"osm_type":"node","seamark_type":"landmark","display_class":"OTHER","min_zoom":12,"importance":1,"name":null,"ref":null,"common":{"type":"landmark"},"children":{"landmark":{"category":"windmotor"}},"osm_tags":{"generator:method":"wind_turbine","generator:source":"wind","generator:type":"horizontal_axis","offshore":"yes","power":"generator","seamark:landmark:category":"windmotor","seamark:type":"landmark"}}},{"type":"Feature","geometry":{"type":"Point","coordinates":[140.0079992,39.7750875]},"properties":{"osm_id":13816829051,"osm_type":"node","seamark_type":"landmark","display_class":"OTHER","min_zoom":12,"importance":1,"name":null,"ref":null,"common":{"type":"landmark"},"children":{"landmark":{"category":"windmotor"},"light":{"character":"Fl","colour":"yellow","group":"2","height":"22","period":"6","range":"5","reference":"M 7066.43"}},"osm_tags":{"generator:method":"wind_turbine","generator:source":"wind","generator:type":"horizontal_axis","offshore":"yes","power":"generator","seamark:landmark:category":"windmotor","seamark:light:character":"Fl","seamark:light:colour":"yellow","seamark:light:group":"2","seamark:light:height":"22","seamark:light:period":"6","seamark:light:range":"5","seamark:light:reference":"M 7066.43","seamark:type":"landmark"}}},{"type":"Feature","geometry":{"type":"Point","coordinates":[140.0240546,39.7636726]},"properties":{"osm_id":13816829052,"osm_type":"node","seamark_type":"landmark","display_class":"OTHER","min_zoom":12,"importance":1,"name":null,"ref":null,"common":{"type":"landmark"},"children":{"landmark":{"category":"windmotor"},"light":{"character":"Fl","colour":"yellow","group":"2","height":"25","period":"6","range":"5","reference":"M 7066.41"}},"osm_tags":{"generator:method":"wind_turbine","generator:source":"wind","generator:type":"horizontal_axis","offshore":"yes","power":"generator","seamark:landmark:category":"windmotor","seamark:light:character":"Fl","seamark:light:colour":"yellow","seamark:light:group":"2","seamark:light:height":"25","seamark:light:period":"6","seamark:light:range":"5","seamark:light:reference":"M 7066.41","seamark:type":"landmark"}}},{"type":"Feature","geometry":{"type":"Point","coordinates":[140.0345889,39.7579717]},"properties":{"osm_id":13816829053,"osm_type":"node","seamark_type":"landmark","display_class":"OTHER","min_zoom":12,"importance":1,"name":null,"ref":null,"common":{"type":"landmark"},"children":{"landmark":{"category":"windmotor"},"light":{"character":"Fl","colour":"yellow","group":"2","height":"25","period":"6","range":"5","reference":"M 7066.2"}},"osm_tags":{"generator:method":"wind_turbine","generator:source":"wind","generator:type":"horizontal_axis","offshore":"yes","power":"generator","seamark:landmark:category":"windmotor","seamark:light:character":"Fl","seamark:light:colour":"yellow","seamark:light:group":"2","seamark:light:height":"25","seamark:light:period":"6","seamark:light:range":"5","seamark:light:reference":"M 7066.2","seamark:type":"landmark"}}},{"type":"Feature","geometry":{"type":"Point","coordinates":[140.0284144,39.7559298]},"properties":{"osm_id":13816829054,"osm_type":"node","seamark_type":"landmark","display_class":"OTHER","min_zoom":12,"importance":1,"name":null,"ref":null,"common":{"type":"landmark"},"children":{"landmark":{"category":"windmotor"}},"osm_tags":{"generator:method":"wind_turbine","generator:source":"wind","generator:type":"horizontal_axis","offshore":"yes","power":"generator","seamark:landmark:category":"windmotor","seamark:type":"landmark"}}},{"type":"Feature","geometry":{"type":"Point","coordinates":[140.0286957,39.7536926]},"properties":{"osm_id":13816829055,"osm_type":"node","seamark_type":"landmark","display_class":"OTHER","min_zoom":12,"importance":1,"name":null,"ref":null,"common":{"type":"landmark"},"children":{"landmark":{"category":"windmotor"},"light":{"character":"Fl","colour":"yellow","group":"2","height":"25","period":"6","range":"5","reference":"M 7066.4"}},"osm_tags":{"generator:method":"wind_turbine","generator:source":"wind","generator:type":"horizontal_axis","offshore":"yes","power":"generator","seamark:landmark:category":"windmotor","seamark:light:character":"Fl","seamark:light:colour":"yellow","seamark:light:group":"2","seamark:light:height":"25","seamark:light:period":"6","seamark:light:range":"5","seamark:light:reference":"M 7066.4","seamark:type":"landmark"}}},{"type":"Feature","geometry":{"type":"Polygon","coordinates":[[[140.0174609,39.3942245],[140.0141173,39.394805],[140.0129985,39.3916269],[140.0134565,39.3915641],[140.0166246,39.3910666],[140.016877,39.391415],[140.0166966,39.3915402],[140.0166516,39.3915802],[140.0166286,39.3916192],[140.0166126,39.3916722],[140.0166086,39.3917352],[140.0166146,39.3918122],[140.0166185,39.3918825],[140.0166398,39.391969],[140.0167085,39.3922014],[140.0174609,39.3942245]]]},"properties":{"osm_id":354029526,"osm_type":"way","seamark_type":"harbour","display_class":"OTHER","min_zoom":12,"importance":1,"name":"本荘マリーナ","ref":null,"common":{"type":"harbour"},"children":{"harbour":{"category":"marina"}},"osm_tags":{"leisure":"marina","name":"本荘マリーナ","seamark:harbour:category":"marina","seamark:type":"harbour"}}},{"type":"Feature","geometry":{"type":"Point","coordinates":[140.0294354,39.388186]},"properties":{"osm_id":10290870412,"osm_type":"node","seamark_type":"mooring","display_class":"OTHER","min_zoom":12,"importance":1,"name":"由利本荘市田頭係留施設","ref":null,"common":{"type":"mooring"},"children":{},"osm_tags":{"name":"由利本荘市田頭係留施設","seamark:type":"mooring"}}}],"type":"FeatureCollection"}