{"type":"FeatureCollection","features":[{"type":"Feature","geometry":{"type":"Polygon","coordinates":[[[-123.8262497,39.3486047],[-123.8262164,39.3485249],[-123.8260772,39.3485597],[-123.8260944,39.3486009],[-123.8261105,39.3486395],[-123.8262497,39.3486047]]]},"properties":{"osm_id":134243077,"osm_type":"way","seamark_type":"light_major","display_class":"LIGHTHOUSE","min_zoom":7,"importance":5,"name":"Point Cabrillo Light Station","ref":null,"common":{"type":"light_major"},"children":{},"osm_tags":{"building":"yes","dog":"leashed","man_made":"lighthouse","museum":"local","name":"Point Cabrillo Light Station","seamark:type":"light_major","shop":"gift","tourism":"museum","website":"https://www.pointcabrillo.org/"}}},{"type":"Feature","geometry":{"type":"Point","coordinates":[-123.7741323,39.228188]},"properties":{"osm_id":13031746089,"osm_type":"node","seamark_type":"beacon_lateral","display_class":"BEACON","min_zoom":9,"importance":4,"name":null,"ref":null,"common":{"type":"beacon_lateral"},"children":{"beacon_lateral":{"colour":"green"}},"osm_tags":{"seamark:beacon_lateral:colour":"green","seamark:type":"beacon_lateral"}}},{"type":"Feature","geometry":{"type":"Polygon","coordinates":[[[-123.2810653,39.419111],[-123.2809126,39.4189423],[-123.2806238,39.4191413],[-123.2802591,39.4193931],[-123.280157,39.4194635],[-123.2802613,39.4195569],[-123.2810653,39.419111]]]},"properties":{"osm_id":971701517,"osm_type":"way","seamark_type":"harbour","display_class":"OTHER","min_zoom":12,"importance":1,"name":"Waterfront","ref":null,"common":{"type":"harbour"},"children":{"harbour":{"category":"marina"}},"osm_tags":{"leisure":"marina","name":"Waterfront","seamark:harbour:category":"marina","seamark:type":"harbour"}}}],"type":"FeatureCollection"}