{"type":"FeatureCollection","features":[{"type":"Feature","geometry":{"type":"Point","coordinates":[-8.4116418,39.6046789]},"properties":{"osm_id":8910160785,"osm_type":"node","seamark_type":"gate","display_class":"OTHER","min_zoom":12,"importance":1,"name":null,"ref":null,"common":{"type":"gate"},"children":{},"osm_tags":{"seamark:type":"gate","waterway":"lock_gate"}}},{"type":"Feature","geometry":{"type":"Point","coordinates":[-8.4880233,39.6752334]},"properties":{"osm_id":9188034445,"osm_type":"node","seamark_type":"gate","display_class":"OTHER","min_zoom":12,"importance":1,"name":null,"ref":null,"common":{"type":"gate"},"children":{},"osm_tags":{"seamark:type":"gate","waterway":"lock_gate"}}},{"type":"Feature","geometry":{"type":"Polygon","coordinates":[[[-8.7936232,39.0321109],[-8.7935269,39.0318077],[-8.7931448,39.0317852],[-8.7927662,39.0323099],[-8.792774,39.0323577],[-8.7943669,39.0321037],[-8.7943353,39.0320039],[-8.7936232,39.0321109]]]},"properties":{"osm_id":273082056,"osm_type":"way","seamark_type":"harbour","display_class":"OTHER","min_zoom":12,"importance":1,"name":"Clube Náutico de Salvaterra de Magos","ref":null,"common":{"type":"harbour"},"children":{"harbour":{"category":"marina"}},"osm_tags":{"leisure":"marina","name":"Clube Náutico de Salvaterra de Magos","seamark:harbour:category":"marina","seamark:type":"harbour"}}},{"type":"Feature","geometry":{"type":"Point","coordinates":[-8.7571657,39.0820562]},"properties":{"osm_id":9587550889,"osm_type":"node","seamark_type":"harbour","display_class":"OTHER","min_zoom":12,"importance":1,"name":"Fluvina de Valada","ref":null,"common":{"type":"harbour"},"children":{"harbour":{"category":"marina"}},"osm_tags":{"leisure":"marina","name":"Fluvina de Valada","seamark:harbour:category":"marina","seamark:type":"harbour"}}},{"type":"Feature","geometry":{"type":"Polygon","coordinates":[[[-8.1328453,39.9211275],[-8.1325173,39.9210746],[-8.132488,39.9211816],[-8.1328159,39.9212345],[-8.1328453,39.9211275]]]},"properties":{"osm_id":771616833,"osm_type":"way","seamark_type":"harbour","display_class":"OTHER","min_zoom":12,"importance":1,"name":"Praia Fluvial do Cabril","ref":null,"common":{"type":"harbour"},"children":{"harbour":{"category":"marina"}},"osm_tags":{"alt_name":"Cais de embarcações do Clube Náutico de Pedrogão Grande","leisure":"marina","name":"Praia Fluvial do Cabril","seamark:harbour:category":"marina","seamark:type":"harbour"}}}],"type":"FeatureCollection"}