{"type":"FeatureCollection","features":[{"type":"Feature","geometry":{"type":"Point","coordinates":[-82.0032059,39.9339245]},"properties":{"osm_id":384822312,"osm_type":"node","seamark_type":"gate","display_class":"OTHER","min_zoom":12,"importance":1,"name":null,"ref":null,"common":{"type":"gate"},"children":{},"osm_tags":{"seamark:type":"gate","source":"bing","waterway":"lock_gate"}}},{"type":"Feature","geometry":{"type":"Point","coordinates":[-82.0030229,39.9329383]},"properties":{"osm_id":384822317,"osm_type":"node","seamark_type":"gate","display_class":"OTHER","min_zoom":12,"importance":1,"name":null,"ref":null,"common":{"type":"gate"},"children":{},"osm_tags":{"seamark:type":"gate","source":"bing","waterway":"lock_gate"}}},{"type":"Feature","geometry":{"type":"Point","coordinates":[-82.0031133,39.9334363]},"properties":{"osm_id":4321083681,"osm_type":"node","seamark_type":"gate","display_class":"OTHER","min_zoom":12,"importance":1,"name":null,"ref":null,"common":{"type":"gate"},"children":{},"osm_tags":{"seamark:type":"gate","source":"bing","waterway":"lock_gate"}}},{"type":"Feature","geometry":{"type":"Polygon","coordinates":[[[-82.0028272,39.903621],[-82.0025767,39.9036896],[-82.0022903,39.903113],[-82.0022724,39.9024814],[-82.0026304,39.9023853],[-82.0028272,39.903621]]]},"properties":{"osm_id":448337480,"osm_type":"way","seamark_type":"harbour","display_class":"OTHER","min_zoom":12,"importance":1,"name":null,"ref":null,"common":{"type":"harbour"},"children":{"harbour":{"category":"marina"}},"osm_tags":{"leisure":"marina","seamark:harbour:category":"marina","seamark:type":"harbour"}}},{"type":"Feature","geometry":{"type":"Polygon","coordinates":[[[-82.0444414,39.5334843],[-82.0445837,39.5329574],[-82.0411607,39.5314936],[-82.0407808,39.5319351],[-82.0403946,39.5324151],[-82.0404151,39.5325749],[-82.0410855,39.5329381],[-82.0411777,39.532988],[-82.0433143,39.5341456],[-82.0436378,39.5341765],[-82.0440076,39.5340054],[-82.0441185,39.5338105],[-82.0443218,39.533839],[-82.0444414,39.5334843]]]},"properties":{"osm_id":1279931689,"osm_type":"way","seamark_type":"harbour","display_class":"OTHER","min_zoom":12,"importance":1,"name":"Burr Oak Marina","ref":null,"common":{"type":"harbour"},"children":{"harbour":{"category":"marina"}},"osm_tags":{"leisure":"marina","name":"Burr Oak Marina","seamark:harbour:category":"marina","seamark:type":"harbour"}}},{"type":"Feature","geometry":{"type":"Polygon","coordinates":[[[-82.0485006,39.519001],[-82.0497264,39.5190341],[-82.0497773,39.5184404],[-82.0487725,39.5184172],[-82.0488097,39.5178564],[-82.0481481,39.5178391],[-82.0480752,39.5178391],[-82.047645,39.5180575],[-82.0476377,39.5183181],[-82.0475207,39.5187891],[-82.0473529,39.5188483],[-82.0469922,39.5190956],[-82.0464478,39.519335],[-82.0454563,39.5199673],[-82.0459579,39.5203728],[-82.0455716,39.5208384],[-82.0456943,39.5208583],[-82.045737,39.5208652],[-82.0458399,39.520888],[-82.0463709,39.5203294],[-82.046801,39.5200611],[-82.0474127,39.5196796],[-82.0478079,39.5194331],[-82.0485006,39.519001]]]},"properties":{"osm_id":1279922373,"osm_type":"way","seamark_type":"harbour","display_class":"OTHER","min_zoom":12,"importance":1,"name":"Dock #1","ref":null,"common":{"type":"harbour"},"children":{"harbour":{"category":"marina"}},"osm_tags":{"leisure":"marina","name":"Dock #1","operator":"Burr Oak State Park","seamark:harbour:category":"marina","seamark:type":"harbour"}}},{"type":"Feature","geometry":{"type":"Polygon","coordinates":[[[-82.0413202,39.5219431],[-82.041669,39.5213525],[-82.040734,39.520992],[-82.0401537,39.520939],[-82.039953,39.5210241],[-82.0398638,39.5213507],[-82.039811,39.521447],[-82.0394942,39.5215919],[-82.0401825,39.5220801],[-82.0404641,39.521978],[-82.040774,39.521936],[-82.0413202,39.5219431]]]},"properties":{"osm_id":1279924184,"osm_type":"way","seamark_type":"harbour","display_class":"OTHER","min_zoom":12,"importance":1,"name":"Dock #2","ref":null,"common":{"type":"harbour"},"children":{"harbour":{"category":"marina"}},"osm_tags":{"leisure":"marina","name":"Dock #2","operator":"Burr Oak State Park","seamark:harbour:category":"marina","seamark:type":"harbour"}}},{"type":"Feature","geometry":{"type":"Polygon","coordinates":[[[-82.024619,39.551457],[-82.024779,39.5515907],[-82.0248944,39.551687],[-82.0250968,39.5517775],[-82.0255244,39.552148],[-82.0247044,39.5527107],[-82.0242804,39.5523434],[-82.0242206,39.5521409],[-82.0242063,39.5520927],[-82.024619,39.551457]]]},"properties":{"osm_id":1280245375,"osm_type":"way","seamark_type":"harbour","display_class":"OTHER","min_zoom":12,"importance":1,"name":"Dock #3","ref":null,"common":{"type":"harbour"},"children":{"harbour":{"category":"marina"}},"osm_tags":{"leisure":"marina","name":"Dock #3","seamark:harbour:category":"marina","seamark:type":"harbour"}}}],"type":"FeatureCollection"}