{"type":"FeatureCollection","features":[{"type":"Feature","geometry":{"type":"Polygon","coordinates":[[[19.4352865,41.3154047],[19.4352659,41.3153821],[19.4353053,41.3153619],[19.4353259,41.3153845],[19.4352865,41.3154047]]]},"properties":{"osm_id":1387608933,"osm_type":"way","seamark_type":"light_major","display_class":"LIGHTHOUSE","min_zoom":7,"importance":5,"name":"Faro","ref":null,"common":{"type":"light_major"},"children":{"light":{"range":"24"}},"osm_tags":{"building":"yes","height":"14","loc_name":"Feneri i Durrësit","man_made":"tower;lighthouse","name":"Faro","seamark:light:range":"24","seamark:type":"light_major","wikidata":"Q131381486"}}},{"type":"Feature","geometry":{"type":"Point","coordinates":[19.435296,41.3153794]},"properties":{"osm_id":1431358694,"osm_type":"node","seamark_type":"light_major","display_class":"LIGHTHOUSE","min_zoom":7,"importance":5,"name":"Kep i Durresit","ref":null,"common":{"name":"Kep i Durresit","type":"light_major"},"children":{"light":{"character":"Fl","colour":"white","group":"2","height":"126","period":"10","range":"20","reference":"E 3711","sequence":"0.2+(2.3)"}},"osm_tags":{"seamark:light:character":"Fl","seamark:light:colour":"white","seamark:light:group":"2","seamark:light:height":"126","seamark:light:period":"10","seamark:light:range":"20","seamark:light:reference":"E 3711","seamark:light:sequence":"0.2+(2.3)","seamark:name":"Kep i Durresit","seamark:type":"light_major","source":"US NGA Pub. 113. 2010-09-02"}}},{"type":"Feature","geometry":{"type":"Point","coordinates":[19.4518901,41.3009928]},"properties":{"osm_id":5116542135,"osm_type":"node","seamark_type":"beacon_lateral","display_class":"BEACON","min_zoom":9,"importance":4,"name":null,"ref":null,"common":{"type":"beacon_lateral"},"children":{"beacon_lateral":{"category":"port","colour":"red","shape":"pile","system":"iala-a"}},"osm_tags":{"seamark:beacon_lateral:category":"port","seamark:beacon_lateral:colour":"red","seamark:beacon_lateral:shape":"pile","seamark:beacon_lateral:system":"iala-a","seamark:type":"beacon_lateral"}}},{"type":"Feature","geometry":{"type":"Point","coordinates":[19.2397696,41.9095812]},"properties":{"osm_id":9960427827,"osm_type":"node","seamark_type":"beacon_lateral","display_class":"BEACON","min_zoom":9,"importance":4,"name":null,"ref":null,"common":{"type":"beacon_lateral"},"children":{},"osm_tags":{"seamark:type":"beacon_lateral"}}},{"type":"Feature","geometry":{"type":"Point","coordinates":[19.4658667,41.3135]},"properties":{"osm_id":1431358959,"osm_type":"node","seamark_type":"light_minor","display_class":"OTHER","min_zoom":12,"importance":1,"name":null,"ref":null,"common":{"type":"light_minor"},"children":{"light":{"1:character":"Iso","1:colour":"white","1:height":"12","1:period":"2","1:range":"7","1:sector_end":"19.5","1:sector_start":"18.5","2:character":"Iso","2:colour":"red","2:height":"12","2:period":"2","2:range":"5","2:sector_end":"21.0","2:sector_start":"19.5","3:character":"Iso","3:colour":"green","3:height":"12","3:period":"2","3:range":"5","3:sector_end":"18.5","3:sector_start":"17.0","reference":"E 3714.1"}},"osm_tags":{"seamark:light:1:character":"Iso","seamark:light:1:colour":"white","seamark:light:1:height":"12","seamark:light:1:period":"2","seamark:light:1:range":"7","seamark:light:1:sector_end":"19.5","seamark:light:1:sector_start":"18.5","seamark:light:2:character":"Iso","seamark:light:2:colour":"red","seamark:light:2:height":"12","seamark:light:2:period":"2","seamark:light:2:range":"5","seamark:light:2:sector_end":"21.0","seamark:light:2:sector_start":"19.5","seamark:light:3:character":"Iso","seamark:light:3:colour":"green","seamark:light:3:height":"12","seamark:light:3:period":"2","seamark:light:3:range":"5","seamark:light:3:sector_end":"18.5","seamark:light:3:sector_start":"17.0","seamark:light:reference":"E 3714.1","seamark:type":"light_minor","source":"US NGA Pub. 113. 2010-09-02"}}},{"type":"Feature","geometry":{"type":"Point","coordinates":[19.4554853,41.3024665]},"properties":{"osm_id":2483402790,"osm_type":"node","seamark_type":"light_minor","display_class":"OTHER","min_zoom":12,"importance":1,"name":null,"ref":null,"common":{"type":"light_minor"},"children":{"light":{"character":"Fl","colour":"red","height":"9","period":"5","range":"6","reference":"E 3712","sequence":"0.5+(4.5)"}},"osm_tags":{"height":"5","man_made":"beacon","seamark:light:character":"Fl","seamark:light:colour":"red","seamark:light:height":"9","seamark:light:period":"5","seamark:light:range":"6","seamark:light:reference":"E 3712","seamark:light:sequence":"0.5+(4.5)","seamark:type":"light_minor","source":"US NGA Pub. 113. 2010-09-02"}}},{"type":"Feature","geometry":{"type":"Point","coordinates":[19.4564368,41.3043002]},"properties":{"osm_id":2483402791,"osm_type":"node","seamark_type":"light_minor","display_class":"OTHER","min_zoom":12,"importance":1,"name":null,"ref":null,"common":{"type":"light_minor"},"children":{"light":{"character":"Fl","colour":"green","height":"9","period":"5","range":"3","reference":"E 3714","sequence":"0.5+(4.5)"}},"osm_tags":{"height":"5","man_made":"beacon","seamark:light:character":"Fl","seamark:light:colour":"green","seamark:light:height":"9","seamark:light:period":"5","seamark:light:range":"3","seamark:light:reference":"E 3714","seamark:light:sequence":"0.5+(4.5)","seamark:type":"light_minor","source":"US NGA Pub. 113. 2010-09-02"}}},{"type":"Feature","geometry":{"type":"Point","coordinates":[19.5830352,41.810533]},"properties":{"osm_id":8294568010,"osm_type":"node","seamark_type":"landmark","display_class":"OTHER","min_zoom":12,"importance":1,"name":null,"ref":null,"common":{"type":"landmark"},"children":{"light":{"character":"Fl","colour":"white","period":"5","range":"12"}},"osm_tags":{"height":"11","man_made":"lighthouse","seamark:light:character":"Fl","seamark:light:colour":"white","seamark:light:period":"5","seamark:light:range":"12","seamark:type":"landmark"}}},{"type":"Feature","geometry":{"type":"Point","coordinates":[19.395,41.3658333]},"properties":{"osm_id":9942037029,"osm_type":"node","seamark_type":"buoy_safe_water","display_class":"OTHER","min_zoom":12,"importance":1,"name":null,"ref":null,"common":{"type":"buoy_safe_water"},"children":{"buoy_safe_water":{"colour":"red;white","colour_pattern":"vertical","shape":"spherical"},"light":{"character":"LFl","colour":"white","period":"10"}},"osm_tags":{"seamark:buoy_safe_water:colour":"red;white","seamark:buoy_safe_water:colour_pattern":"vertical","seamark:buoy_safe_water:shape":"spherical","seamark:light:character":"LFl","seamark:light:colour":"white","seamark:light:period":"10","seamark:type":"buoy_safe_water"}}},{"type":"Feature","geometry":{"type":"LineString","coordinates":[[19.213061,41.9192594],[19.2136948,41.9192675]]},"properties":{"osm_id":1081878896,"osm_type":"way","seamark_type":"obstruction","display_class":"OTHER","min_zoom":12,"importance":1,"name":null,"ref":null,"common":{"type":"obstruction"},"children":{"obstruction":{"category":"boom"}},"osm_tags":{"seamark:obstruction:category":"boom","seamark:type":"obstruction","waterway":"floating_barrier"}}},{"type":"Feature","geometry":{"type":"LineString","coordinates":[[19.2142407,41.9182816],[19.2143802,41.918098],[19.214627,41.9179184],[19.215099,41.9177268],[19.2151098,41.9177946],[19.215201,41.9178625]]},"properties":{"osm_id":1081878897,"osm_type":"way","seamark_type":"obstruction","display_class":"OTHER","min_zoom":12,"importance":1,"name":null,"ref":null,"common":{"type":"obstruction"},"children":{"obstruction":{"category":"boom"}},"osm_tags":{"seamark:obstruction:category":"boom","seamark:type":"obstruction","waterway":"floating_barrier"}}},{"type":"Feature","geometry":{"type":"LineString","coordinates":[[19.215437,41.9177427],[19.2154209,41.917623],[19.2155926,41.917607],[19.2158608,41.9175312],[19.2158393,41.9176789],[19.2158876,41.9177667]]},"properties":{"osm_id":1081878898,"osm_type":"way","seamark_type":"obstruction","display_class":"OTHER","min_zoom":12,"importance":1,"name":null,"ref":null,"common":{"type":"obstruction"},"children":{"obstruction":{"category":"boom"}},"osm_tags":{"seamark:obstruction:category":"boom","seamark:type":"obstruction","waterway":"floating_barrier"}}},{"type":"Feature","geometry":{"type":"LineString","coordinates":[[19.2111192,41.9191957],[19.2111679,41.9192371],[19.2112219,41.9192546],[19.2113323,41.9192621],[19.2114213,41.9192576],[19.2115357,41.9192272],[19.2116502,41.9191848],[19.2117539,41.9191264],[19.2118361,41.919068]]},"properties":{"osm_id":1082813848,"osm_type":"way","seamark_type":"obstruction","display_class":"OTHER","min_zoom":12,"importance":1,"name":null,"ref":null,"common":{"type":"obstruction"},"children":{"obstruction":{"category":"boom"}},"osm_tags":{"seamark:obstruction:category":"boom","seamark:type":"obstruction","waterway":"floating_barrier"}}},{"type":"Feature","geometry":{"type":"LineString","coordinates":[[19.202714,41.9238006],[19.2029377,41.9236524],[19.2034452,41.9234189],[19.2042959,41.9230341],[19.2046026,41.922851],[19.2048623,41.9226175],[19.205085,41.9221784]]},"properties":{"osm_id":1082813849,"osm_type":"way","seamark_type":"obstruction","display_class":"OTHER","min_zoom":12,"importance":1,"name":null,"ref":null,"common":{"type":"obstruction"},"children":{"obstruction":{"category":"boom"}},"osm_tags":{"seamark:obstruction:category":"boom","seamark:type":"obstruction","waterway":"floating_barrier"}}},{"type":"Feature","geometry":{"type":"LineString","coordinates":[[19.1642106,41.9508084],[19.1642249,41.9508456],[19.1642499,41.9508828],[19.1642883,41.950914],[19.1643321,41.9509372],[19.1643596,41.9510941],[19.1644246,41.9512549],[19.1645192,41.9514177],[19.1646888,41.9515566]]},"properties":{"osm_id":1082813850,"osm_type":"way","seamark_type":"obstruction","display_class":"OTHER","min_zoom":12,"importance":1,"name":null,"ref":null,"common":{"type":"obstruction"},"children":{"obstruction":{"category":"boom"}},"osm_tags":{"seamark:obstruction:category":"boom","seamark:type":"obstruction","waterway":"floating_barrier"}}},{"type":"Feature","geometry":{"type":"LineString","coordinates":[[19.1648838,41.9518038],[19.1648319,41.952133],[19.1648354,41.9523036],[19.1648765,41.9524662]]},"properties":{"osm_id":1082813851,"osm_type":"way","seamark_type":"obstruction","display_class":"OTHER","min_zoom":12,"importance":1,"name":null,"ref":null,"common":{"type":"obstruction"},"children":{"obstruction":{"category":"boom"}},"osm_tags":{"seamark:obstruction:category":"boom","seamark:type":"obstruction","waterway":"floating_barrier"}}},{"type":"Feature","geometry":{"type":"LineString","coordinates":[[19.2096968,41.9203292],[19.2103923,41.9204012]]},"properties":{"osm_id":1082813852,"osm_type":"way","seamark_type":"obstruction","display_class":"OTHER","min_zoom":12,"importance":1,"name":null,"ref":null,"common":{"type":"obstruction"},"children":{"obstruction":{"category":"boom"}},"osm_tags":{"seamark:obstruction:category":"boom","seamark:type":"obstruction","waterway":"floating_barrier"}}},{"type":"Feature","geometry":{"type":"LineString","coordinates":[[19.1993945,41.9250718],[19.1989956,41.9252993]]},"properties":{"osm_id":1083204996,"osm_type":"way","seamark_type":"obstruction","display_class":"OTHER","min_zoom":12,"importance":1,"name":null,"ref":null,"common":{"type":"obstruction"},"children":{"obstruction":{"category":"boom"}},"osm_tags":{"seamark:obstruction:category":"boom","seamark:type":"obstruction","waterway":"floating_barrier"}}},{"type":"Feature","geometry":{"type":"LineString","coordinates":[[19.1972377,41.9264907],[19.1969616,41.9265276],[19.1968615,41.9265409],[19.1967413,41.9264189]]},"properties":{"osm_id":1083204997,"osm_type":"way","seamark_type":"obstruction","display_class":"OTHER","min_zoom":12,"importance":1,"name":null,"ref":null,"common":{"type":"obstruction"},"children":{"obstruction":{"category":"boom"}},"osm_tags":{"seamark:obstruction:category":"boom","seamark:type":"obstruction","waterway":"floating_barrier"}}},{"type":"Feature","geometry":{"type":"Polygon","coordinates":[[[19.1972615,41.9268222],[19.1972315,41.9268355],[19.1971869,41.9267614],[19.1971633,41.9267701],[19.1971495,41.9267467],[19.1971712,41.9267365],[19.1971102,41.926637],[19.1970886,41.9266458],[19.1970611,41.9266004],[19.1971318,41.9265756],[19.1971613,41.9266195],[19.1971397,41.9266268],[19.1972615,41.9268222]]]},"properties":{"osm_id":1083204998,"osm_type":"way","seamark_type":"harbour","display_class":"OTHER","min_zoom":12,"importance":1,"name":null,"ref":null,"common":{"type":"harbour"},"children":{"harbour":{"category":"marina"}},"osm_tags":{"seamark:harbour:category":"marina","seamark:type":"harbour"}}},{"type":"Feature","geometry":{"type":"Polygon","coordinates":[[[19.1971413,41.9271007],[19.1971117,41.9271103],[19.1970778,41.9270277],[19.1971109,41.9270216],[19.1971413,41.9271007]]]},"properties":{"osm_id":1083204999,"osm_type":"way","seamark_type":"harbour","display_class":"OTHER","min_zoom":12,"importance":1,"name":null,"ref":null,"common":{"type":"harbour"},"children":{"harbour":{"category":"marina"}},"osm_tags":{"seamark:harbour:category":"marina","seamark:type":"harbour"}}},{"type":"Feature","geometry":{"type":"LineString","coordinates":[[19.3327607,41.8703317],[19.33233,41.8701606],[19.3321565,41.8699638],[19.3322041,41.869813],[19.3326687,41.8694133],[19.3331421,41.8691559],[19.3333115,41.8689407],[19.3338199,41.8684835],[19.3349431,41.8677886]]},"properties":{"osm_id":1083210430,"osm_type":"way","seamark_type":"obstruction","display_class":"OTHER","min_zoom":12,"importance":1,"name":null,"ref":null,"common":{"type":"obstruction"},"children":{"obstruction":{"category":"boom"}},"osm_tags":{"seamark:obstruction:category":"boom","seamark:type":"obstruction","waterway":"floating_barrier"}}},{"type":"Feature","geometry":{"type":"LineString","coordinates":[[19.2409851,41.908231],[19.2414061,41.9080955],[19.2420079,41.9078875],[19.2429186,41.9075537],[19.2432682,41.9073705],[19.2434679,41.9072072],[19.2438751,41.9070769],[19.2444709,41.906985],[19.2445975,41.9069028],[19.2449062,41.9068645],[19.244829,41.9067496],[19.2449233,41.9066858],[19.2450777,41.9066858],[19.2452664,41.9066283],[19.245395,41.9067177],[19.2456094,41.9066475],[19.2458752,41.9066283],[19.2468185,41.9064688],[19.2470501,41.90689]]},"properties":{"osm_id":1083210431,"osm_type":"way","seamark_type":"obstruction","display_class":"OTHER","min_zoom":12,"importance":1,"name":null,"ref":null,"common":{"type":"obstruction"},"children":{"obstruction":{"category":"boom"}},"osm_tags":{"seamark:obstruction:category":"boom","seamark:type":"obstruction","waterway":"floating_barrier"}}},{"type":"Feature","geometry":{"type":"LineString","coordinates":[[19.2571834,41.9038041],[19.2574071,41.9036559],[19.2576608,41.9037009],[19.2580035,41.9035473],[19.2584338,41.9034909],[19.2586072,41.9037873],[19.2592399,41.9035159],[19.2599836,41.9033191],[19.2604753,41.9032282],[19.2614806,41.9029313]]},"properties":{"osm_id":1083210432,"osm_type":"way","seamark_type":"obstruction","display_class":"OTHER","min_zoom":12,"importance":1,"name":null,"ref":null,"common":{"type":"obstruction"},"children":{"obstruction":{"category":"boom"}},"osm_tags":{"seamark:obstruction:category":"boom","seamark:type":"obstruction","waterway":"floating_barrier"}}},{"type":"Feature","geometry":{"type":"LineString","coordinates":[[19.2481045,41.9064493],[19.2483282,41.9063011],[19.2486184,41.9062052],[19.2490433,41.9061677],[19.2494265,41.905992],[19.2499725,41.9059165],[19.2502119,41.9056832],[19.2509036,41.9056083],[19.2515625,41.9055591],[19.2520642,41.9053929],[19.2536792,41.9050313],[19.2538852,41.905471]]},"properties":{"osm_id":1083210433,"osm_type":"way","seamark_type":"obstruction","display_class":"OTHER","min_zoom":12,"importance":1,"name":null,"ref":null,"common":{"type":"obstruction"},"children":{"obstruction":{"category":"boom"}},"osm_tags":{"seamark:obstruction:category":"boom","seamark:type":"obstruction","waterway":"floating_barrier"}}},{"type":"Feature","geometry":{"type":"LineString","coordinates":[[19.2540519,41.9052759],[19.2539078,41.9050403],[19.2539909,41.9047977],[19.254414,41.9046472],[19.2546856,41.9045927],[19.2547744,41.9044657],[19.2551775,41.9044472]]},"properties":{"osm_id":1083210434,"osm_type":"way","seamark_type":"obstruction","display_class":"OTHER","min_zoom":12,"importance":1,"name":null,"ref":null,"common":{"type":"obstruction"},"children":{"obstruction":{"category":"boom"}},"osm_tags":{"seamark:obstruction:category":"boom","seamark:type":"obstruction","waterway":"floating_barrier"}}},{"type":"Feature","geometry":{"type":"LineString","coordinates":[[19.2556791,41.9047205],[19.2559028,41.9045723],[19.2567072,41.9042047],[19.2571677,41.904084]]},"properties":{"osm_id":1083210435,"osm_type":"way","seamark_type":"obstruction","display_class":"OTHER","min_zoom":12,"importance":1,"name":null,"ref":null,"common":{"type":"obstruction"},"children":{"obstruction":{"category":"boom"}},"osm_tags":{"seamark:obstruction:category":"boom","seamark:type":"obstruction","waterway":"floating_barrier"}}},{"type":"Feature","geometry":{"type":"LineString","coordinates":[[19.2381047,41.9086308],[19.2383284,41.9084825],[19.2385915,41.9083839],[19.2388097,41.9083354],[19.2389458,41.9083757],[19.2391886,41.9085079],[19.2392026,41.9083667],[19.2392672,41.9083007],[19.2394365,41.9082779],[19.2397181,41.9083052],[19.240122,41.9084618]]},"properties":{"osm_id":1083210436,"osm_type":"way","seamark_type":"obstruction","display_class":"OTHER","min_zoom":12,"importance":1,"name":null,"ref":null,"common":{"type":"obstruction"},"children":{"obstruction":{"category":"boom"}},"osm_tags":{"seamark:obstruction:category":"boom","seamark:type":"obstruction","waterway":"floating_barrier"}}},{"type":"Feature","geometry":{"type":"LineString","coordinates":[[19.3038343,41.887694],[19.3039461,41.8875273],[19.3042123,41.8874627],[19.3043203,41.8873108],[19.3046855,41.8872419],[19.3048521,41.8871417],[19.3049651,41.8870398],[19.3051563,41.8868877],[19.3055534,41.8868249],[19.3057743,41.8865843],[19.3061283,41.8864528],[19.3064841,41.8860959],[19.306977,41.8858666]]},"properties":{"osm_id":1083213578,"osm_type":"way","seamark_type":"obstruction","display_class":"OTHER","min_zoom":12,"importance":1,"name":null,"ref":null,"common":{"type":"obstruction"},"children":{"obstruction":{"category":"boom"}},"osm_tags":{"seamark:obstruction:category":"boom","seamark:type":"obstruction","waterway":"floating_barrier"}}},{"type":"Feature","geometry":{"type":"LineString","coordinates":[[19.2937693,41.8918398],[19.2946129,41.8915725],[19.2947785,41.891457],[19.2955635,41.8911054],[19.2959912,41.8909728]]},"properties":{"osm_id":1083213579,"osm_type":"way","seamark_type":"obstruction","display_class":"OTHER","min_zoom":12,"importance":1,"name":null,"ref":null,"common":{"type":"obstruction"},"children":{"obstruction":{"category":"boom"}},"osm_tags":{"seamark:obstruction:category":"boom","seamark:type":"obstruction","waterway":"floating_barrier"}}},{"type":"Feature","geometry":{"type":"LineString","coordinates":[[19.2896487,41.8932516],[19.2897462,41.8931155],[19.2899223,41.8930665],[19.2904923,41.8929844],[19.291211,41.8928173],[19.2918577,41.8924731],[19.2928386,41.8922817]]},"properties":{"osm_id":1083213580,"osm_type":"way","seamark_type":"obstruction","display_class":"OTHER","min_zoom":12,"importance":1,"name":null,"ref":null,"common":{"type":"obstruction"},"children":{"obstruction":{"category":"boom"}},"osm_tags":{"seamark:obstruction:category":"boom","seamark:type":"obstruction","waterway":"floating_barrier"}}},{"type":"Feature","geometry":{"type":"LineString","coordinates":[[19.2874953,41.8944575],[19.28825,41.8941902],[19.2887218,41.8940012]]},"properties":{"osm_id":1083213581,"osm_type":"way","seamark_type":"obstruction","display_class":"OTHER","min_zoom":12,"importance":1,"name":null,"ref":null,"common":{"type":"obstruction"},"children":{"obstruction":{"category":"boom"}},"osm_tags":{"seamark:obstruction:category":"boom","seamark:type":"obstruction","waterway":"floating_barrier"}}},{"type":"Feature","geometry":{"type":"LineString","coordinates":[[19.28475,41.894847],[19.284848,41.8946557],[19.2852874,41.8946459],[19.2855288,41.8945784],[19.2858888,41.8946138],[19.2862142,41.8944912],[19.2865396,41.8945156],[19.2866771,41.894435],[19.2868351,41.8944203],[19.2869734,41.894332],[19.2871216,41.8943173]]},"properties":{"osm_id":1083213582,"osm_type":"way","seamark_type":"obstruction","display_class":"OTHER","min_zoom":12,"importance":1,"name":null,"ref":null,"common":{"type":"obstruction"},"children":{"obstruction":{"category":"boom"}},"osm_tags":{"seamark:obstruction:category":"boom","seamark:type":"obstruction","waterway":"floating_barrier"}}},{"type":"Feature","geometry":{"type":"LineString","coordinates":[[19.2815101,41.8961117],[19.2824327,41.8957709],[19.2833293,41.8954641]]},"properties":{"osm_id":1083213583,"osm_type":"way","seamark_type":"obstruction","display_class":"OTHER","min_zoom":12,"importance":1,"name":null,"ref":null,"common":{"type":"obstruction"},"children":{"obstruction":{"category":"boom"}},"osm_tags":{"seamark:obstruction:category":"boom","seamark:type":"obstruction","waterway":"floating_barrier"}}},{"type":"Feature","geometry":{"type":"LineString","coordinates":[[19.2788924,41.8968543],[19.2791907,41.8966802],[19.2795878,41.8965944],[19.2799905,41.8963538]]},"properties":{"osm_id":1083213584,"osm_type":"way","seamark_type":"obstruction","display_class":"OTHER","min_zoom":12,"importance":1,"name":null,"ref":null,"common":{"type":"obstruction"},"children":{"obstruction":{"category":"boom"}},"osm_tags":{"seamark:obstruction:category":"boom","seamark:type":"obstruction","waterway":"floating_barrier"}}},{"type":"Feature","geometry":{"type":"LineString","coordinates":[[19.2767948,41.8973672],[19.2777505,41.8970943],[19.2784496,41.8969126]]},"properties":{"osm_id":1083213585,"osm_type":"way","seamark_type":"obstruction","display_class":"OTHER","min_zoom":12,"importance":1,"name":null,"ref":null,"common":{"type":"obstruction"},"children":{"obstruction":{"category":"boom"}},"osm_tags":{"seamark:obstruction:category":"boom","seamark:type":"obstruction","waterway":"floating_barrier"}}},{"type":"Feature","geometry":{"type":"LineString","coordinates":[[19.2734694,41.8987218],[19.2736986,41.8985698],[19.273987,41.8985207],[19.2742581,41.898365],[19.2745292,41.8983122],[19.274815,41.8981749],[19.2751009,41.8981111]]},"properties":{"osm_id":1083213586,"osm_type":"way","seamark_type":"obstruction","display_class":"OTHER","min_zoom":12,"importance":1,"name":null,"ref":null,"common":{"type":"obstruction"},"children":{"obstruction":{"category":"boom"}},"osm_tags":{"seamark:obstruction:category":"boom","seamark:type":"obstruction","waterway":"floating_barrier"}}},{"type":"Feature","geometry":{"type":"LineString","coordinates":[[19.2712568,41.9001555],[19.2716736,41.8999153],[19.2720114,41.8997927]]},"properties":{"osm_id":1083213587,"osm_type":"way","seamark_type":"obstruction","display_class":"OTHER","min_zoom":12,"importance":1,"name":null,"ref":null,"common":{"type":"obstruction"},"children":{"obstruction":{"category":"boom"}},"osm_tags":{"seamark:obstruction:category":"boom","seamark:type":"obstruction","waterway":"floating_barrier"}}},{"type":"Feature","geometry":{"type":"LineString","coordinates":[[19.2639965,41.9020009],[19.2644676,41.9016357],[19.2650376,41.9014763],[19.2656774,41.9013314]]},"properties":{"osm_id":1083213588,"osm_type":"way","seamark_type":"obstruction","display_class":"OTHER","min_zoom":12,"importance":1,"name":null,"ref":null,"common":{"type":"obstruction"},"children":{"obstruction":{"category":"boom"}},"osm_tags":{"seamark:obstruction:category":"boom","seamark:type":"obstruction","waterway":"floating_barrier"}}},{"type":"Feature","geometry":{"type":"LineString","coordinates":[[19.2969838,41.8904267],[19.2975109,41.8901594],[19.2979827,41.8899703]]},"properties":{"osm_id":1083213589,"osm_type":"way","seamark_type":"obstruction","display_class":"OTHER","min_zoom":12,"importance":1,"name":null,"ref":null,"common":{"type":"obstruction"},"children":{"obstruction":{"category":"boom"}},"osm_tags":{"seamark:obstruction:category":"boom","seamark:type":"obstruction","waterway":"floating_barrier"}}},{"type":"Feature","geometry":{"type":"LineString","coordinates":[[19.2994073,41.8896305],[19.299614,41.8894969],[19.2998548,41.8894395],[19.3001362,41.8892009],[19.3005997,41.8890979]]},"properties":{"osm_id":1083213590,"osm_type":"way","seamark_type":"obstruction","display_class":"OTHER","min_zoom":12,"importance":1,"name":null,"ref":null,"common":{"type":"obstruction"},"children":{"obstruction":{"category":"boom"}},"osm_tags":{"seamark:obstruction:category":"boom","seamark:type":"obstruction","waterway":"floating_barrier"}}},{"type":"Feature","geometry":{"type":"LineString","coordinates":[[19.3082489,41.8852524],[19.3087368,41.8849998],[19.3094123,41.8847287],[19.3100878,41.8845459]]},"properties":{"osm_id":1083213591,"osm_type":"way","seamark_type":"obstruction","display_class":"OTHER","min_zoom":12,"importance":1,"name":null,"ref":null,"common":{"type":"obstruction"},"children":{"obstruction":{"category":"boom"}},"osm_tags":{"seamark:obstruction:category":"boom","seamark:type":"obstruction","waterway":"floating_barrier"}}},{"type":"Feature","geometry":{"type":"LineString","coordinates":[[19.2473762,41.9070282],[19.2471361,41.9064355]]},"properties":{"osm_id":1083213592,"osm_type":"way","seamark_type":"obstruction","display_class":"OTHER","min_zoom":12,"importance":1,"name":null,"ref":null,"common":{"type":"obstruction"},"children":{"obstruction":{"category":"boom"}},"osm_tags":{"seamark:obstruction:category":"boom","seamark:type":"obstruction","waterway":"floating_barrier"}}},{"type":"Feature","geometry":{"type":"LineString","coordinates":[[19.243179,41.9082634],[19.2429186,41.9075537]]},"properties":{"osm_id":1083213593,"osm_type":"way","seamark_type":"obstruction","display_class":"OTHER","min_zoom":12,"importance":1,"name":null,"ref":null,"common":{"type":"obstruction"},"children":{"obstruction":{"category":"boom"}},"osm_tags":{"seamark:obstruction:category":"boom","seamark:type":"obstruction","waterway":"floating_barrier"}}},{"type":"Feature","geometry":{"type":"LineString","coordinates":[[19.2890398,41.8935458],[19.2887604,41.8931871]]},"properties":{"osm_id":1083213594,"osm_type":"way","seamark_type":"obstruction","display_class":"OTHER","min_zoom":12,"importance":1,"name":null,"ref":null,"common":{"type":"obstruction"},"children":{"obstruction":{"category":"boom"}},"osm_tags":{"seamark:obstruction:category":"boom","seamark:type":"obstruction","waterway":"floating_barrier"}}},{"type":"Feature","geometry":{"type":"Polygon","coordinates":[[[19.4256097,41.3227172],[19.4253687,41.3224213],[19.4256484,41.3221829],[19.4258565,41.3222223],[19.4259578,41.3223225],[19.4261057,41.3226079],[19.4262663,41.3228886],[19.4262224,41.3229457],[19.4261768,41.3230048],[19.4261262,41.3230346],[19.4260897,41.3230562],[19.4260624,41.3230594],[19.425785,41.3230925],[19.4256186,41.322732],[19.4256097,41.3227172]]]},"properties":{"osm_id":1094899879,"osm_type":"way","seamark_type":"harbour","display_class":"OTHER","min_zoom":12,"importance":1,"name":null,"ref":null,"common":{"type":"harbour"},"children":{"harbour":{"category":"marina"}},"osm_tags":{"leisure":"marina","seamark:harbour:category":"marina","seamark:type":"harbour"}}},{"type":"Feature","geometry":{"type":"Point","coordinates":[19.437275,41.1458466]},"properties":{"osm_id":1431359978,"osm_type":"node","seamark_type":"light_minor","display_class":"OTHER","min_zoom":12,"importance":1,"name":"Kep i Lagit","ref":null,"common":{"name":"Kep i Lagit","type":"light_minor"},"children":{"light":{"character":"LFl","colour":"white","height":"13","period":"6","range":"10","reference":"E 3719"}},"osm_tags":{"seamark:light:character":"LFl","seamark:light:colour":"white","seamark:light:height":"13","seamark:light:period":"6","seamark:light:range":"10","seamark:light:reference":"E 3719","seamark:name":"Kep i Lagit","seamark:type":"light_minor","source":"US NGA Pub. 113. 2010-09-02"}}},{"type":"Feature","geometry":{"type":"Point","coordinates":[19.3917103,41.4133019]},"properties":{"osm_id":1431358609,"osm_type":"node","seamark_type":"light_minor","display_class":"OTHER","min_zoom":12,"importance":1,"name":"Kep i Palit","ref":null,"common":{"name":"Kep i Palit","type":"light_minor"},"children":{"light":{"1:character":"Fl","1:colour":"white","1:height":"32","1:period":"10","1:range":"10","1:sector_end":"140.0","1:sector_start":"160.0","2:character":"Fl","2:colour":"red","2:height":"32","2:period":"10","2:range":"10","2:sector_end":"160.0","2:sector_start":"140.0","reference":"E 3708"}},"osm_tags":{"height":"11","man_made":"lighthouse","seamark:light:1:character":"Fl","seamark:light:1:colour":"white","seamark:light:1:height":"32","seamark:light:1:period":"10","seamark:light:1:range":"10","seamark:light:1:sector_end":"140.0","seamark:light:1:sector_start":"160.0","seamark:light:2:character":"Fl","seamark:light:2:colour":"red","seamark:light:2:height":"32","seamark:light:2:period":"10","seamark:light:2:range":"10","seamark:light:2:sector_end":"160.0","seamark:light:2:sector_start":"140.0","seamark:light:reference":"E 3708","seamark:name":"Kep i Palit","seamark:type":"light_minor","source":"US NGA Pub. 113. 2010-09-02"}}},{"type":"Feature","geometry":{"type":"Point","coordinates":[19.4450339,41.5871668]},"properties":{"osm_id":1431358474,"osm_type":"node","seamark_type":"light_minor","display_class":"OTHER","min_zoom":12,"importance":1,"name":"Kep i Rodonit","ref":null,"common":{"name":"Kep i Rodonit","type":"light_minor"},"children":{"light":{"character":"Fl","colour":"white","group":"2","height":"40","period":"10","range":"8","reference":"E 3705"}},"osm_tags":{"height":"3.5","man_made":"lighthouse","seamark:light:character":"Fl","seamark:light:colour":"white","seamark:light:group":"2","seamark:light:height":"40","seamark:light:period":"10","seamark:light:range":"8","seamark:light:reference":"E 3705","seamark:name":"Kep i Rodonit","seamark:type":"light_minor","source":"US NGA Pub. 113. 2010-09-02"}}},{"type":"Feature","geometry":{"type":"Point","coordinates":[19.5850345,41.8082606]},"properties":{"osm_id":1431352707,"osm_type":"node","seamark_type":"light_minor","display_class":"OTHER","min_zoom":12,"importance":1,"name":"Kep i Shengjinit","ref":null,"common":{"name":"Kep i Shengjinit","type":"light_minor"},"children":{"light":{"character":"Fl","colour":"red"}},"osm_tags":{"seamark:light:character":"Fl","seamark:light:colour":"red","seamark:name":"Kep i Shengjinit","seamark:type":"light_minor","source":"US NGA Pub. 113. 2010-09-02"}}},{"type":"Feature","geometry":{"type":"Polygon","coordinates":[[[19.4664619,41.3166502],[19.4653458,41.3168528],[19.4653628,41.3169061],[19.4651735,41.3169393],[19.4651566,41.3168831],[19.4642378,41.3170422],[19.4637415,41.317131],[19.4631713,41.3172335],[19.4627288,41.3172978],[19.462289,41.3173371],[19.4618084,41.3173694],[19.4616191,41.3173794],[19.4614543,41.3173829],[19.4612145,41.3173892],[19.4609793,41.3173857],[19.4605266,41.3173732],[19.4600977,41.3173687],[19.4596939,41.3173589],[19.4593355,41.3173461],[19.4587036,41.3173235],[19.45841,41.3173188],[19.4580739,41.3173071],[19.4578819,41.3172964],[19.4577011,41.3172817],[19.4573557,41.3172475],[19.4569746,41.3172133],[19.4566438,41.3171747],[19.4564777,41.3171691],[19.4553845,41.3170448],[19.4552324,41.3170215],[19.4551001,41.3169996],[19.4549635,41.3169752],[19.4548363,41.3169473],[19.4546821,41.316908],[19.4545118,41.3168596],[19.4543561,41.3168074],[19.4541945,41.3167467],[19.454064,41.3166921],[19.453945,41.3166373],[19.4538357,41.3165837],[19.4537382,41.3165298],[19.4536549,41.3164806],[19.4535827,41.316434],[19.4534286,41.3163306],[19.4532794,41.3162215],[19.4531547,41.3161209],[19.4530718,41.3160524],[19.452994,41.3159813],[19.4529095,41.3158929],[19.4527137,41.3156611],[19.4522009,41.3149709],[19.4520918,41.3147872],[19.4519337,41.3145133],[19.4514091,41.3135828],[19.4508798,41.312644],[19.4508333,41.3125656],[19.4507912,41.3125081],[19.4507452,41.3124504],[19.4506983,41.3123992],[19.4506466,41.3123411],[19.4505896,41.3122882],[19.4505281,41.3122412],[19.4504412,41.312164],[19.4503989,41.3121268],[19.4503738,41.3120928],[19.4503391,41.3120347],[19.4498599,41.311228],[19.4496147,41.3108147],[19.4493582,41.3103783],[19.4492062,41.3101159],[19.4491198,41.3099731],[19.4490955,41.3099432],[19.4490444,41.3098893],[19.4487773,41.309803],[19.4487373,41.3098571],[19.4479536,41.3095985],[19.4481564,41.3092745],[19.4480542,41.3090793],[19.4478861,41.3090233],[19.4476705,41.3089527],[19.4474101,41.30903],[19.4473816,41.3090536],[19.447357,41.3090999],[19.4470181,41.3090923],[19.4470179,41.3091038],[19.4468905,41.3092381],[19.4468982,41.3090651],[19.4468574,41.3087973],[19.4468639,41.3080027],[19.4468763,41.3073562],[19.4470444,41.3072086],[19.4484387,41.3059839],[19.4488809,41.3055967],[19.4489365,41.3055479],[19.449031,41.305465],[19.4514967,41.3032965],[19.452553,41.302365],[19.4526607,41.3023638],[19.4529237,41.3024043],[19.4553822,41.3024305],[19.455483,41.30239],[19.4554993,41.3023914],[19.455514,41.3023943],[19.4555291,41.3023993],[19.4555428,41.3024059],[19.4555546,41.3024137],[19.4555648,41.3024229],[19.4555731,41.3024332],[19.4555792,41.3024444],[19.4555829,41.3024561],[19.4555843,41.3024681],[19.4555832,41.30248],[19.4555797,41.3024915],[19.4555738,41.3025029],[19.4555656,41.3025134],[19.4555554,41.3025228],[19.4555439,41.3025306],[19.4555302,41.3025374],[19.4555156,41.3025424],[19.4555002,41.3025457],[19.4554843,41.3025471],[19.4554683,41.3025467],[19.4554523,41.3025445],[19.4554372,41.3025404],[19.4554228,41.3025346],[19.4554104,41.3025275],[19.4553993,41.302519],[19.45539,41.3025092],[19.4553859,41.3025035],[19.455386,41.3024968],[19.4553781,41.3024968],[19.455377,41.3025128],[19.4553737,41.3025664],[19.4553025,41.3025777],[19.4552374,41.3025799],[19.4552362,41.3026805],[19.4543085,41.3026548],[19.4506127,41.3059398],[19.4508879,41.3061114],[19.4495511,41.3073112],[19.4516399,41.3110049],[19.452564,41.3126046],[19.4533875,41.3140805],[19.4536921,41.3147367],[19.4538605,41.3146932],[19.4541576,41.31463],[19.4545042,41.3145399],[19.4548218,41.3144654],[19.4550891,41.3144126],[19.4554133,41.3143281],[19.4557354,41.3142398],[19.4558784,41.3143912],[19.4559119,41.3143815],[19.4561043,41.3142786],[19.4561722,41.3142107],[19.4562261,41.3141977],[19.4563574,41.3142028],[19.4564516,41.3141875],[19.4566095,41.3141628],[19.4567844,41.3141601],[19.4568382,41.3141475],[19.4569281,41.314151],[19.4569621,41.3141588],[19.4570087,41.3141741],[19.4570718,41.3141943],[19.4571443,41.3141969],[19.4572198,41.3141918],[19.4572917,41.3141719],[19.4573107,41.3141359],[19.4573417,41.3141053],[19.4572954,41.3139943],[19.4585131,41.3137075],[19.4586176,41.3136821],[19.4587266,41.3139434],[19.458845,41.3139137],[19.458722,41.3136219],[19.4588089,41.3135979],[19.4588277,41.3136379],[19.4588498,41.3136314],[19.4589342,41.3136065],[19.4590097,41.3137945],[19.4593407,41.3137102],[19.4593342,41.3136946],[19.4595551,41.3136301],[19.4595186,41.3136042],[19.4595489,41.3135966],[19.4595958,41.3135849],[19.4596014,41.3135835],[19.4596251,41.3135776],[19.4596533,41.3135899],[19.4596684,41.3135806],[19.4592867,41.3128694],[19.4577441,41.309907],[19.4579224,41.30984],[19.4580141,41.3097915],[19.4583347,41.3096222],[19.4583277,41.3095974],[19.4583398,41.3095636],[19.458345,41.3095155],[19.4582385,41.3095456],[19.4582173,41.3095069],[19.4584595,41.3094393],[19.4584514,41.3094246],[19.4586356,41.3093591],[19.4586676,41.3093287],[19.4587003,41.309272],[19.4586793,41.309221],[19.4586421,41.3091728],[19.4584708,41.3090482],[19.4583939,41.3090135],[19.4583544,41.3089616],[19.4583244,41.3089465],[19.4583143,41.3088877],[19.4582991,41.3087861],[19.458289,41.3086959],[19.4582643,41.3086561],[19.4582628,41.3085547],[19.4582681,41.3084468],[19.4583366,41.3082701],[19.4583566,41.3081361],[19.4583902,41.3080812],[19.4571512,41.3057488],[19.45685,41.3058367],[19.4568341,41.3058048],[19.4571345,41.3057201],[19.4564819,41.3044281],[19.4564719,41.3044311],[19.4564446,41.3043786],[19.4564286,41.3043782],[19.4564128,41.304376],[19.4563977,41.304372],[19.4563837,41.3043663],[19.4563709,41.3043591],[19.4563596,41.3043505],[19.4563503,41.3043406],[19.4563431,41.3043299],[19.4563381,41.3043184],[19.4563356,41.3043067],[19.4563355,41.3042943],[19.4563378,41.3042827],[19.4563426,41.3042711],[19.4563496,41.3042603],[19.4563587,41.3042504],[19.4563698,41.3042416],[19.4563824,41.3042343],[19.4563965,41.3042285],[19.4564116,41.3042243],[19.4564273,41.3042219],[19.4564433,41.3042214],[19.4564592,41.3042227],[19.4564747,41.3042259],[19.4564894,41.3042307],[19.4565028,41.3042372],[19.4565149,41.3042452],[19.4565252,41.3042544],[19.4565334,41.3042646],[19.4565395,41.3042758],[19.4566022,41.3044114],[19.4565896,41.3044148],[19.458495,41.3080522],[19.4587553,41.3085751],[19.4587698,41.3086388],[19.458806,41.3086549],[19.4588459,41.3087343],[19.4588603,41.3088039],[19.4587363,41.3087875],[19.4589171,41.3092437],[19.4589817,41.3094605],[19.459201,41.3100159],[19.4594426,41.3099485],[19.4599588,41.3112444],[19.4600895,41.3115525],[19.4603521,41.3120547],[19.4611645,41.3124316],[19.4619819,41.3128461],[19.4626022,41.3131415],[19.4629136,41.3133109],[19.4631912,41.3131117],[19.4632838,41.3131834],[19.4644703,41.3141028],[19.4653848,41.3134959],[19.4654948,41.3134229],[19.4661332,41.3139172],[19.4668608,41.3144894],[19.4670901,41.3146903],[19.4672761,41.3149465],[19.4673687,41.3150845],[19.4675036,41.3154603],[19.4673415,41.3154981],[19.4673195,41.3154462],[19.4670946,41.3155267],[19.4669943,41.3156215],[19.4671021,41.3160601],[19.4671196,41.3160986],[19.4671463,41.3161268],[19.4669789,41.3161603],[19.466795,41.3163504],[19.4666949,41.3165573],[19.4667042,41.3166164],[19.4664619,41.3166502]]]},"properties":{"osm_id":256294603,"osm_type":"way","seamark_type":"harbour","display_class":"OTHER","min_zoom":12,"importance":1,"name":"Porti i Durrësit","ref":null,"common":{"type":"harbour"},"children":{"harbour":{"category":"ferry"}},"osm_tags":{"harbour":"yes","landuse":"industrial","name":"Porti i Durrësit","name:de":"Durrës Hafen","name:en":"Port of Durrës","name:it":"Porto di Durazzo","operator":"Autoriteti Portual Durrës","port_of_entry":"yes","seamark:harbour:category":"ferry","seamark:type":"harbour","website":"https://www.durresport.al/"}}},{"type":"Feature","geometry":{"type":"Point","coordinates":[19.1495892,41.9526284]},"properties":{"osm_id":1431352606,"osm_type":"node","seamark_type":"light_minor","display_class":"OTHER","min_zoom":12,"importance":1,"name":"Rt Mendre","ref":null,"common":{"name":"Rt Mendre","type":"light_minor"},"children":{"light":{"character":"Fl.(3)W","colour":"white","group":"3","height":"35","period":"10","range":"25","reference":"E 3696"}},"osm_tags":{"seamark:light:character":"Fl.(3)W","seamark:light:colour":"white","seamark:light:group":"3","seamark:light:height":"35","seamark:light:period":"10","seamark:light:range":"25","seamark:light:reference":"E 3696","seamark:name":"Rt Mendre","seamark:type":"light_minor","source":"US NGA Pub. 113. 2010-09-02"}}},{"type":"Feature","geometry":{"type":"Point","coordinates":[19.2013732,41.9223707]},"properties":{"osm_id":1431352641,"osm_type":"node","seamark_type":"light_minor","display_class":"OTHER","min_zoom":12,"importance":1,"name":"Ulcinj","ref":null,"common":{"name":"Ulcinj","type":"light_minor"},"children":{"light":{"character":"Fl","colour":"white","height":"27","period":"3","range":"8","reference":"E 3698","sequence":"0.3+(2.7)"}},"osm_tags":{"man_made":"lighthouse","seamark:light:character":"Fl","seamark:light:colour":"white","seamark:light:height":"27","seamark:light:period":"3","seamark:light:range":"8","seamark:light:reference":"E 3698","seamark:light:sequence":"0.3+(2.7)","seamark:name":"Ulcinj","seamark:type":"light_minor","source":"US NGA Pub. 113. 2010-09-02"}}}],"type":"FeatureCollection"}