{"type":"FeatureCollection","features":[{"type":"Feature","geometry":{"type":"Point","coordinates":[12.6217163,41.4457956]},"properties":{"osm_id":302319490,"osm_type":"node","seamark_type":"light_major","display_class":"LIGHTHOUSE","min_zoom":7,"importance":5,"name":"Capo d'Anzio","ref":null,"common":{"name":"Capo d'Anzio","type":"light_major"},"children":{"light":{"1:character":"Fl","1:colour":"white","1:group":"2","1:height":"37","1:period":"10","1:range":"22","1:sector_end":"155","1:sector_start":"255","1:sequence":"0.2+(2.3),0.2+(7.3)","reference":"E 1538"},"radio_station":{"category":"ais","mmsi":"992471034"}},"osm_tags":{"man_made":"lighthouse","name":"Faro di Capo d'Anzio","seamark:light:1:character":"Fl","seamark:light:1:colour":"white","seamark:light:1:group":"2","seamark:light:1:height":"37","seamark:light:1:period":"10","seamark:light:1:range":"22","seamark:light:1:sector_end":"155","seamark:light:1:sector_start":"255","seamark:light:1:sequence":"0.2+(2.3),0.2+(7.3)","seamark:light:reference":"E 1538","seamark:name":"Capo d'Anzio","seamark:radio_station:category":"ais","seamark:radio_station:mmsi":"992471034","seamark:type":"light_major","source":"US NGA Pub. 113. 2010-10-22.","wikidata":"Q28376143","wikipedia":"en:Capo d'Anzio Lighthouse"}}},{"type":"Feature","geometry":{"type":"Point","coordinates":[12.2146342,41.7711067]},"properties":{"osm_id":1340857938,"osm_type":"node","seamark_type":"beacon_lateral","display_class":"BEACON","min_zoom":9,"importance":4,"name":null,"ref":null,"common":{"type":"beacon_lateral"},"children":{"light":{"character":"Fl","colour":"green","height":"10","period":"3","range":"9","reference":"E 1526.3","sequence":"1+(2)"}},"osm_tags":{"seamark:light:character":"Fl","seamark:light:colour":"green","seamark:light:height":"10","seamark:light:period":"3","seamark:light:range":"9","seamark:light:reference":"E 1526.3","seamark:light:sequence":"1+(2)","seamark:type":"beacon_lateral","source":"US NGA Pub. 113. 2021"}}},{"type":"Feature","geometry":{"type":"Point","coordinates":[12.2182504,41.7716528]},"properties":{"osm_id":1340857939,"osm_type":"node","seamark_type":"beacon_lateral","display_class":"BEACON","min_zoom":9,"importance":4,"name":null,"ref":null,"common":{"type":"beacon_lateral"},"children":{"light":{"character":"Fl","colour":"red","height":"10","period":"3","range":"8","reference":"E 1524","sequence":"1+(2)"}},"osm_tags":{"man_made":"beacon","seamark:light:character":"Fl","seamark:light:colour":"red","seamark:light:height":"10","seamark:light:period":"3","seamark:light:range":"8","seamark:light:reference":"E 1524","seamark:light:sequence":"1+(2)","seamark:type":"beacon_lateral","source":"US NGA Pub. 113. 2021"}}},{"type":"Feature","geometry":{"type":"Point","coordinates":[12.2338101,41.7403237]},"properties":{"osm_id":9808162724,"osm_type":"node","seamark_type":"beacon_lateral","display_class":"BEACON","min_zoom":9,"importance":4,"name":null,"ref":null,"common":{"type":"beacon_lateral"},"children":{"beacon_lateral":{"category":"starboard","colour":"green","shape":"buoyant","system":"iala-a"},"light":{"character":"Fl","colour":"green","period":"5","range":"5"}},"osm_tags":{"seamark:beacon_lateral:category":"starboard","seamark:beacon_lateral:colour":"green","seamark:beacon_lateral:shape":"buoyant","seamark:beacon_lateral:system":"iala-a","seamark:light:character":"Fl","seamark:light:colour":"green","seamark:light:period":"5","seamark:light:range":"5","seamark:type":"beacon_lateral"}}},{"type":"Feature","geometry":{"type":"Point","coordinates":[12.2329706,41.7406319]},"properties":{"osm_id":9808162725,"osm_type":"node","seamark_type":"beacon_lateral","display_class":"BEACON","min_zoom":9,"importance":4,"name":null,"ref":null,"common":{"type":"beacon_lateral"},"children":{"beacon_lateral":{"category":"port","colour":"red","shape":"buoyant","system":"iala-a"},"light":{"character":"Fl","colour":"red","period":"5","range":"5"}},"osm_tags":{"seamark:beacon_lateral:category":"port","seamark:beacon_lateral:colour":"red","seamark:beacon_lateral:shape":"buoyant","seamark:beacon_lateral:system":"iala-a","seamark:light:character":"Fl","seamark:light:colour":"red","seamark:light:period":"5","seamark:light:range":"5","seamark:type":"beacon_lateral"}}},{"type":"Feature","geometry":{"type":"Point","coordinates":[12.9532483,41.5826829]},"properties":{"osm_id":747171290,"osm_type":"node","seamark_type":"gate","display_class":"OTHER","min_zoom":12,"importance":1,"name":null,"ref":null,"common":{"type":"gate"},"children":{},"osm_tags":{"seamark:type":"gate","waterway":"lock_gate"}}},{"type":"Feature","geometry":{"type":"Point","coordinates":[12.6599161,41.451618]},"properties":{"osm_id":1340857929,"osm_type":"node","seamark_type":"light_minor","display_class":"OTHER","min_zoom":12,"importance":1,"name":null,"ref":null,"common":{"type":"light_minor"},"children":{"light":{"character":"Fl","height":"11","period":"5","reference":"E 1541.2","sequence":"1.5+(3.5)"}},"osm_tags":{"seamark:light:character":"Fl","seamark:light:height":"11","seamark:light:period":"5","seamark:light:reference":"E 1541.2","seamark:light:sequence":"1.5+(3.5)","seamark:type":"light_minor","source":"US NGA Pub. 113. 2010-10-22."}}},{"type":"Feature","geometry":{"type":"Point","coordinates":[12.6587747,41.451719]},"properties":{"osm_id":1340857930,"osm_type":"node","seamark_type":"light_minor","display_class":"OTHER","min_zoom":12,"importance":1,"name":null,"ref":null,"common":{"type":"light_minor"},"children":{"light":{"character":"Fl","colour":"red","height":"11","period":"5","range":"7","reference":"E 1541.3","sequence":"1.5+(3.5)"}},"osm_tags":{"seamark:light:character":"Fl","seamark:light:colour":"red","seamark:light:height":"11","seamark:light:period":"5","seamark:light:range":"7","seamark:light:reference":"E 1541.3","seamark:light:sequence":"1.5+(3.5)","seamark:type":"light_minor","source":"US NGA Pub. 113. 2010-10-22."}}},{"type":"Feature","geometry":{"type":"Point","coordinates":[12.6376646,41.4459555]},"properties":{"osm_id":1340857931,"osm_type":"node","seamark_type":"light_minor","display_class":"OTHER","min_zoom":12,"importance":1,"name":null,"ref":null,"common":{"type":"light_minor"},"children":{"light":{"character":"Fl","colour":"green","height":"5","period":"3","range":"4","reference":"E 1541","sequence":"0.5+(2.5)"}},"osm_tags":{"seamark:light:character":"Fl","seamark:light:colour":"green","seamark:light:height":"5","seamark:light:period":"3","seamark:light:range":"4","seamark:light:reference":"E 1541","seamark:light:sequence":"0.5+(2.5)","seamark:type":"light_minor","source":"US NGA Pub. 113. 2010-10-22."}}},{"type":"Feature","geometry":{"type":"Point","coordinates":[12.6380579,41.4435987]},"properties":{"osm_id":1340857932,"osm_type":"node","seamark_type":"light_minor","display_class":"OTHER","min_zoom":12,"importance":1,"name":null,"ref":null,"common":{"type":"light_minor"},"children":{"light":{"character":"Fl","colour":"red","height":"10","period":"3","range":"5","reference":"E 1540.5","sequence":"1+(2)"}},"osm_tags":{"note":"Please fix position by survey. Fotos are showing seamark at the end of the wall approx. 40 m SSW from this position. This would fit to description of seamark index. Maybe moved a very little time before?","seamark:light:character":"Fl","seamark:light:colour":"red","seamark:light:height":"10","seamark:light:period":"3","seamark:light:range":"5","seamark:light:reference":"E 1540.5","seamark:light:sequence":"1+(2)","seamark:type":"light_minor","source":"US NGA Pub. 113. 2010-10-22."}}},{"type":"Feature","geometry":{"type":"Point","coordinates":[12.1532092,41.7526333]},"properties":{"osm_id":1340857934,"osm_type":"node","seamark_type":"light_minor","display_class":"OTHER","min_zoom":12,"importance":1,"name":null,"ref":null,"common":{"type":"light_minor"},"children":{"fog_signal":{"category":"horn","group":"N","period":"30"},"light":{"character":"Fl","colour":"white","height":"10","period":"2","range":"5","reference":"E 7054","sequence":"0.5+(1.5)"}},"osm_tags":{"seamark:fog_signal:category":"horn","seamark:fog_signal:group":"N","seamark:fog_signal:period":"30","seamark:light:character":"Fl","seamark:light:colour":"white","seamark:light:height":"10","seamark:light:period":"2","seamark:light:range":"5","seamark:light:reference":"E 7054","seamark:light:sequence":"0.5+(1.5)","seamark:type":"light_minor","source":"US NGA Pub. 113. 2010-10-22."}}},{"type":"Feature","geometry":{"type":"Point","coordinates":[12.1671777,41.7445002]},"properties":{"osm_id":1340857935,"osm_type":"node","seamark_type":"light_minor","display_class":"OTHER","min_zoom":12,"importance":1,"name":null,"ref":null,"common":{"information":"Floating hose with Fl.R. lights attached to platform.","type":"light_minor"},"children":{"light":{"character":"Fl","colour":"white","group":"2","height":"10","period":"4","range":"5","reference":"E 7053","sequence":"0.5+(0.5)+1+(2)"}},"osm_tags":{"seamark:information":"Floating hose with Fl.R. lights attached to platform.","seamark:light:character":"Fl","seamark:light:colour":"white","seamark:light:group":"2","seamark:light:height":"10","seamark:light:period":"4","seamark:light:range":"5","seamark:light:reference":"E 7053","seamark:light:sequence":"0.5+(0.5)+1+(2)","seamark:type":"light_minor","source":"US NGA Pub. 113. 2010-10-22."}}},{"type":"Feature","geometry":{"type":"Point","coordinates":[12.2209383,41.7706365]},"properties":{"osm_id":1340857936,"osm_type":"node","seamark_type":"light_minor","display_class":"OTHER","min_zoom":12,"importance":1,"name":null,"ref":null,"common":{"information":"Fl.G. 5s 5M and Fl.R. 5s 5M mark mouth of Tevere River 1.9 miles SSE.","type":"light_minor"},"children":{"light":{"character":"Fl","colour":"white","height":"20","period":"3","range":"11","reference":"E 1526","sequence":"1+(2)"}},"osm_tags":{"seamark:information":"Fl.G. 5s 5M and Fl.R. 5s 5M mark mouth of Tevere River 1.9 miles SSE.","seamark:light:character":"Fl","seamark:light:colour":"white","seamark:light:height":"20","seamark:light:period":"3","seamark:light:range":"11","seamark:light:reference":"E 1526","seamark:light:sequence":"1+(2)","seamark:type":"light_minor","source":"US NGA Pub. 113. 2021"}}},{"type":"Feature","geometry":{"type":"Point","coordinates":[12.2176965,41.7711866]},"properties":{"osm_id":1340857937,"osm_type":"node","seamark_type":"light_minor","display_class":"OTHER","min_zoom":12,"importance":1,"name":null,"ref":null,"common":{"type":"light_minor"},"children":{"light":{"character":"F","colour":"green","height":"9","range":"4","reference":"E 1526.2"}},"osm_tags":{"man_made":"beacon","seamark:light:character":"F","seamark:light:colour":"green","seamark:light:height":"9","seamark:light:range":"4","seamark:light:reference":"E 1526.2","seamark:type":"light_minor","source":"US NGA Pub. 113. 2010-10-22."}}},{"type":"Feature","geometry":{"type":"Point","coordinates":[12.549246,41.3340036]},"properties":{"osm_id":3145392362,"osm_type":"node","seamark_type":"wreck","display_class":"OTHER","min_zoom":12,"importance":1,"name":null,"ref":null,"common":{"type":"wreck"},"children":{"wreck":{"category":"non-dangerous"}},"osm_tags":{"historic":"wreck","seamark:type":"wreck","seamark:wreck:category":"non-dangerous"}}},{"type":"Feature","geometry":{"type":"Point","coordinates":[12.7399094,41.3529304]},"properties":{"osm_id":3145392363,"osm_type":"node","seamark_type":"wreck","display_class":"OTHER","min_zoom":12,"importance":1,"name":null,"ref":null,"common":{"type":"wreck"},"children":{"wreck":{"category":"non-dangerous"}},"osm_tags":{"historic":"wreck","seamark:type":"wreck","seamark:wreck:category":"non-dangerous"}}},{"type":"Feature","geometry":{"type":"Point","coordinates":[12.7555341,41.3711532]},"properties":{"osm_id":3145392365,"osm_type":"node","seamark_type":"wreck","display_class":"OTHER","min_zoom":12,"importance":1,"name":null,"ref":null,"common":{"type":"wreck"},"children":{"wreck":{"category":"non-dangerous"}},"osm_tags":{"historic":"wreck","seamark:type":"wreck","seamark:wreck:category":"non-dangerous"}}},{"type":"Feature","geometry":{"type":"Point","coordinates":[12.6174142,41.4001257]},"properties":{"osm_id":3145392366,"osm_type":"node","seamark_type":"wreck","display_class":"OTHER","min_zoom":12,"importance":1,"name":null,"ref":null,"common":{"type":"wreck"},"children":{"wreck":{"category":"non-dangerous"}},"osm_tags":{"historic":"wreck","seamark:type":"wreck","seamark:wreck:category":"non-dangerous"}}},{"type":"Feature","geometry":{"type":"Point","coordinates":[12.6173479,41.4442575]},"properties":{"osm_id":3145392369,"osm_type":"node","seamark_type":"wreck","display_class":"OTHER","min_zoom":12,"importance":1,"name":null,"ref":null,"common":{"type":"wreck"},"children":{"wreck":{"category":"dangerous"}},"osm_tags":{"historic":"wreck","seamark:type":"wreck","seamark:wreck:category":"dangerous"}}},{"type":"Feature","geometry":{"type":"Point","coordinates":[12.4981667,41.5153247]},"properties":{"osm_id":3145392372,"osm_type":"node","seamark_type":"wreck","display_class":"OTHER","min_zoom":12,"importance":1,"name":null,"ref":null,"common":{"type":"wreck"},"children":{"wreck":{"category":"non-dangerous"}},"osm_tags":{"historic":"wreck","seamark:type":"wreck","seamark:wreck:category":"non-dangerous"}}},{"type":"Feature","geometry":{"type":"Point","coordinates":[12.4578547,41.5232337]},"properties":{"osm_id":3145392373,"osm_type":"node","seamark_type":"wreck","display_class":"OTHER","min_zoom":12,"importance":1,"name":null,"ref":null,"common":{"type":"wreck"},"children":{"wreck":{"category":"non-dangerous"}},"osm_tags":{"historic":"wreck","seamark:type":"wreck","seamark:wreck:category":"non-dangerous"}}},{"type":"Feature","geometry":{"type":"Point","coordinates":[12.445181,41.5272166]},"properties":{"osm_id":3145392374,"osm_type":"node","seamark_type":"wreck","display_class":"OTHER","min_zoom":12,"importance":1,"name":null,"ref":null,"common":{"type":"wreck"},"children":{"wreck":{"category":"non-dangerous"}},"osm_tags":{"historic":"wreck","seamark:type":"wreck","seamark:wreck:category":"non-dangerous"}}},{"type":"Feature","geometry":{"type":"Point","coordinates":[12.278816,41.5451968]},"properties":{"osm_id":3145392375,"osm_type":"node","seamark_type":"wreck","display_class":"OTHER","min_zoom":12,"importance":1,"name":null,"ref":null,"common":{"type":"wreck"},"children":{"wreck":{"category":"non-dangerous"}},"osm_tags":{"historic":"wreck","seamark:type":"wreck","seamark:wreck:category":"non-dangerous"}}},{"type":"Feature","geometry":{"type":"Point","coordinates":[12.4159393,41.5527075]},"properties":{"osm_id":3145392376,"osm_type":"node","seamark_type":"wreck","display_class":"OTHER","min_zoom":12,"importance":1,"name":null,"ref":null,"common":{"type":"wreck"},"children":{"wreck":{"category":"non-dangerous"}},"osm_tags":{"historic":"wreck","seamark:type":"wreck","seamark:wreck:category":"non-dangerous"}}},{"type":"Feature","geometry":{"type":"Point","coordinates":[12.4420504,41.5596492]},"properties":{"osm_id":3145392377,"osm_type":"node","seamark_type":"wreck","display_class":"OTHER","min_zoom":12,"importance":1,"name":null,"ref":null,"common":{"type":"wreck"},"children":{"wreck":{"category":"dangerous"}},"osm_tags":{"historic":"wreck","seamark:type":"wreck","seamark:wreck:category":"dangerous"}}},{"type":"Feature","geometry":{"type":"Point","coordinates":[12.3613496,41.6178572]},"properties":{"osm_id":3145392378,"osm_type":"node","seamark_type":"wreck","display_class":"OTHER","min_zoom":12,"importance":1,"name":null,"ref":null,"common":{"type":"wreck"},"children":{"wreck":{"category":"non-dangerous"}},"osm_tags":{"historic":"wreck","seamark:type":"wreck","seamark:wreck:category":"non-dangerous"}}},{"type":"Feature","geometry":{"type":"Point","coordinates":[12.3669228,41.6178572]},"properties":{"osm_id":3145392379,"osm_type":"node","seamark_type":"wreck","display_class":"OTHER","min_zoom":12,"importance":1,"name":null,"ref":null,"common":{"type":"wreck"},"children":{"wreck":{"category":"non-dangerous"}},"osm_tags":{"historic":"wreck","seamark:type":"wreck","seamark:wreck:category":"non-dangerous"}}},{"type":"Feature","geometry":{"type":"Point","coordinates":[12.4505249,41.617971]},"properties":{"osm_id":3145392380,"osm_type":"node","seamark_type":"wreck","display_class":"OTHER","min_zoom":12,"importance":1,"name":null,"ref":null,"common":{"type":"wreck"},"children":{"wreck":{"category":"dangerous"}},"osm_tags":{"historic":"wreck","seamark:type":"wreck","seamark:wreck:category":"dangerous"}}},{"type":"Feature","geometry":{"type":"Point","coordinates":[12.349785,41.6506486]},"properties":{"osm_id":3145392381,"osm_type":"node","seamark_type":"wreck","display_class":"OTHER","min_zoom":12,"importance":1,"name":null,"ref":null,"common":{"type":"wreck"},"children":{"wreck":{"category":"dangerous"}},"osm_tags":{"historic":"wreck","seamark:type":"wreck","seamark:wreck:category":"dangerous"}}},{"type":"Feature","geometry":{"type":"Point","coordinates":[12.1170327,41.6764634]},"properties":{"osm_id":3145392383,"osm_type":"node","seamark_type":"wreck","display_class":"OTHER","min_zoom":12,"importance":1,"name":null,"ref":null,"common":{"type":"wreck"},"children":{"wreck":{"category":"non-dangerous"}},"osm_tags":{"historic":"wreck","seamark:type":"wreck","seamark:wreck:category":"non-dangerous"}}},{"type":"Feature","geometry":{"type":"Point","coordinates":[12.285306,41.7186827]},"properties":{"osm_id":3145392384,"osm_type":"node","seamark_type":"wreck","display_class":"OTHER","min_zoom":12,"importance":1,"name":null,"ref":null,"common":{"type":"wreck"},"children":{"wreck":{"category":"dangerous"}},"osm_tags":{"historic":"wreck","seamark:type":"wreck","seamark:wreck:category":"dangerous"}}},{"type":"Feature","geometry":{"type":"Point","coordinates":[12.2068954,41.7289814]},"properties":{"osm_id":3145392385,"osm_type":"node","seamark_type":"wreck","display_class":"OTHER","min_zoom":12,"importance":1,"name":null,"ref":null,"common":{"type":"wreck"},"children":{"wreck":{"category":"dangerous"}},"osm_tags":{"historic":"wreck","seamark:type":"wreck","seamark:wreck:category":"dangerous"}}},{"type":"Feature","geometry":{"type":"Point","coordinates":[12.0647337,41.7428649]},"properties":{"osm_id":3145392386,"osm_type":"node","seamark_type":"wreck","display_class":"OTHER","min_zoom":12,"importance":1,"name":null,"ref":null,"common":{"type":"wreck"},"children":{"wreck":{"category":"non-dangerous"}},"osm_tags":{"historic":"wreck","seamark:type":"wreck","seamark:wreck:category":"non-dangerous"}}},{"type":"Feature","geometry":{"type":"Point","coordinates":[12.0770256,41.8014711]},"properties":{"osm_id":3145392388,"osm_type":"node","seamark_type":"wreck","display_class":"OTHER","min_zoom":12,"importance":1,"name":null,"ref":null,"common":{"type":"wreck"},"children":{"wreck":{"category":"non-dangerous"}},"osm_tags":{"historic":"wreck","seamark:type":"wreck","seamark:wreck:category":"non-dangerous"}}},{"type":"Feature","geometry":{"type":"Point","coordinates":[12.1666596,41.8055109]},"properties":{"osm_id":3145392389,"osm_type":"node","seamark_type":"wreck","display_class":"OTHER","min_zoom":12,"importance":1,"name":null,"ref":null,"common":{"type":"wreck"},"children":{"wreck":{"category":"dangerous"}},"osm_tags":{"historic":"wreck","seamark:type":"wreck","seamark:wreck:category":"dangerous"}}},{"type":"Feature","geometry":{"type":"Point","coordinates":[12.1916253,41.838797]},"properties":{"osm_id":3145392390,"osm_type":"node","seamark_type":"wreck","display_class":"OTHER","min_zoom":12,"importance":1,"name":null,"ref":null,"common":{"type":"wreck"},"children":{"wreck":{"category":"dangerous"}},"osm_tags":{"historic":"wreck","seamark:type":"wreck","seamark:wreck:category":"dangerous"}}},{"type":"Feature","geometry":{"type":"Point","coordinates":[12.1781117,41.8610446]},"properties":{"osm_id":3145392392,"osm_type":"node","seamark_type":"wreck","display_class":"OTHER","min_zoom":12,"importance":1,"name":null,"ref":null,"common":{"type":"wreck"},"children":{"wreck":{"category":"dangerous"}},"osm_tags":{"historic":"wreck","seamark:type":"wreck","seamark:wreck:category":"dangerous"}}},{"type":"Feature","geometry":{"type":"Point","coordinates":[12.9158229,41.3828904]},"properties":{"osm_id":7294623693,"osm_type":"node","seamark_type":"light_minor","display_class":"OTHER","min_zoom":12,"importance":1,"name":null,"ref":null,"common":{"type":"light_minor"},"children":{},"osm_tags":{"man_made":"lighthouse","seamark:type":"light_minor"}}},{"type":"Feature","geometry":{"type":"Point","coordinates":[12.9153699,41.3831941]},"properties":{"osm_id":7294623694,"osm_type":"node","seamark_type":"light_minor","display_class":"OTHER","min_zoom":12,"importance":1,"name":null,"ref":null,"common":{"type":"light_minor"},"children":{},"osm_tags":{"man_made":"lighthouse","seamark:type":"light_minor"}}},{"type":"Feature","geometry":{"type":"Point","coordinates":[12.3419901,41.6033123]},"properties":{"osm_id":9660909660,"osm_type":"node","seamark_type":"mooring","display_class":"OTHER","min_zoom":12,"importance":1,"name":null,"ref":"Boa 1","common":{"type":"mooring"},"children":{"mooring":{"category":"buoy"}},"osm_tags":{"ref":"Boa 1","seamark:mooring:category":"buoy","seamark:type":"mooring"}}},{"type":"Feature","geometry":{"type":"Point","coordinates":[12.6346562,41.4461649]},"properties":{"osm_id":11085876550,"osm_type":"node","seamark_type":"light_minor","display_class":"OTHER","min_zoom":12,"importance":1,"name":null,"ref":null,"common":{"type":"light_minor"},"children":{"light":{"colour":"green"}},"osm_tags":{"seamark:light:colour":"green","seamark:type":"light_minor"}}},{"type":"Feature","geometry":{"type":"Point","coordinates":[12.8142963,41.6962391]},"properties":{"osm_id":11752249729,"osm_type":"node","seamark_type":"gate","display_class":"OTHER","min_zoom":12,"importance":1,"name":null,"ref":null,"common":{"type":"gate"},"children":{},"osm_tags":{"material":"steel","seamark:type":"gate","waterway":"lock_gate"}}},{"type":"Feature","geometry":{"type":"Point","coordinates":[12.2419606,41.7415446]},"properties":{"osm_id":12290644735,"osm_type":"node","seamark_type":"small_craft_facility","display_class":"OTHER","min_zoom":12,"importance":1,"name":null,"ref":null,"common":{"type":"small_craft_facility"},"children":{"small_craft_facility":{"category":"boat_hoist"}},"osm_tags":{"colour":"blue","crane:type":"floor-mounted_crane","man_made":"crane","seamark:small_craft_facility:category":"boat_hoist","seamark:type":"small_craft_facility"}}},{"type":"Feature","geometry":{"type":"LineString","coordinates":[[12.2254557,41.7438607],[12.2254827,41.7439672]]},"properties":{"osm_id":174662206,"osm_type":"way","seamark_type":"small_craft_facility","display_class":"OTHER","min_zoom":12,"importance":1,"name":null,"ref":null,"common":{"information":"by car","type":"small_craft_facility"},"children":{"small_craft_facility":{"category":"slipway"}},"osm_tags":{"highway":"service","leisure":"slipway","seamark:information":"by car","seamark:small_craft_facility:category":"slipway","seamark:type":"small_craft_facility"}}},{"type":"Feature","geometry":{"type":"LineString","coordinates":[[12.2661351,41.7496824],[12.2663284,41.7498781]]},"properties":{"osm_id":174662223,"osm_type":"way","seamark_type":"small_craft_facility","display_class":"OTHER","min_zoom":12,"importance":1,"name":null,"ref":null,"common":{"information":"cable winch","type":"small_craft_facility"},"children":{"small_craft_facility":{"category":"slipway"}},"osm_tags":{"leisure":"slipway","seamark:information":"cable winch","seamark:small_craft_facility:category":"slipway","seamark:type":"small_craft_facility"}}},{"type":"Feature","geometry":{"type":"LineString","coordinates":[[12.2553597,41.7471272],[12.2554865,41.7468694]]},"properties":{"osm_id":174662225,"osm_type":"way","seamark_type":"small_craft_facility","display_class":"OTHER","min_zoom":12,"importance":1,"name":null,"ref":null,"common":{"information":"cable winch","type":"small_craft_facility"},"children":{"small_craft_facility":{"category":"slipway"}},"osm_tags":{"leisure":"slipway","seamark:information":"cable winch","seamark:small_craft_facility:category":"slipway","seamark:type":"small_craft_facility"}}},{"type":"Feature","geometry":{"type":"LineString","coordinates":[[12.2246947,41.769818],[12.2242683,41.7698792]]},"properties":{"osm_id":174668188,"osm_type":"way","seamark_type":"small_craft_facility","display_class":"OTHER","min_zoom":12,"importance":1,"name":null,"ref":null,"common":{"information":"cable winch","type":"small_craft_facility"},"children":{"small_craft_facility":{"category":"slipway"}},"osm_tags":{"leisure":"slipway","seamark:information":"cable winch","seamark:small_craft_facility:category":"slipway","seamark:type":"small_craft_facility"}}},{"type":"Feature","geometry":{"type":"LineString","coordinates":[[12.2247808,41.7699417],[12.2244521,41.7700203]]},"properties":{"osm_id":174668189,"osm_type":"way","seamark_type":"small_craft_facility","display_class":"OTHER","min_zoom":12,"importance":1,"name":null,"ref":null,"common":{"information":"cable winch","type":"small_craft_facility"},"children":{"small_craft_facility":{"category":"slipway"}},"osm_tags":{"leisure":"slipway","seamark:information":"cable winch","seamark:small_craft_facility:category":"slipway","seamark:type":"small_craft_facility"}}},{"type":"Feature","geometry":{"type":"Polygon","coordinates":[[[12.1625367,41.8681001],[12.181013,41.8395936],[12.1819291,41.8380004],[12.1662778,41.8345296],[12.1533748,41.8661087],[12.1625367,41.8681001]]]},"properties":{"osm_id":308186925,"osm_type":"way","seamark_type":"restricted_area","display_class":"OTHER","min_zoom":12,"importance":1,"name":null,"ref":null,"common":{"type":"restricted_area"},"children":{"restricted_area":{"restriction":"no_anchoring;no_fishing"}},"osm_tags":{"seamark:restricted_area:restriction":"no_anchoring;no_fishing","seamark:type":"restricted_area"}}},{"type":"Feature","geometry":{"type":"Polygon","coordinates":[[[12.4454859,41.52477],[12.3169909,41.5888385],[12.2725554,41.638284],[12.4034943,41.6640594],[12.4177216,41.6535468],[12.4346737,41.6421883],[12.4427686,41.6353552],[12.4454859,41.52477]]]},"properties":{"osm_id":308186929,"osm_type":"way","seamark_type":"restricted_area","display_class":"OTHER","min_zoom":12,"importance":1,"name":null,"ref":null,"common":{"type":"restricted_area"},"children":{"restricted_area":{"restriction":"no_anchoring;no_fishing"}},"osm_tags":{"seamark:restricted_area:restriction":"no_anchoring;no_fishing","seamark:type":"restricted_area"}}},{"type":"Feature","geometry":{"type":"Polygon","coordinates":[[[12.2215662,41.7653922],[12.1831507,41.7459943],[12.1828452,41.7474168],[12.1825402,41.7483272],[12.1819291,41.749579],[12.1809368,41.7511721],[12.180097,41.7520825],[12.1789516,41.7532205],[12.1775775,41.7541878],[12.1761265,41.7550413],[12.1749817,41.7555534],[12.173149,41.7562362],[12.1720804,41.7565207],[12.1700952,41.7569759],[12.1694841,41.7570897],[12.1691791,41.7572604],[12.1687973,41.7575449],[12.1678813,41.7589104],[12.1673464,41.7595932],[12.1661248,41.7607312],[12.1653618,41.761414],[12.1638346,41.7623813],[12.1629947,41.7628934],[12.1614676,41.76369],[12.1603222,41.7640883],[12.1582613,41.7646573],[12.1572684,41.7648849],[12.1552832,41.7651125],[12.1542909,41.7651694],[12.1523057,41.7651694],[12.1510078,41.7650556],[12.1490226,41.7647142],[12.147954,41.7644866],[12.1467324,41.7640883],[12.1452052,41.7635193],[12.1439836,41.7628934],[12.1425332,41.761983],[12.1411591,41.7609588],[12.1403193,41.760276],[12.1394026,41.7591949],[12.1387921,41.7583415],[12.1379522,41.7569759],[12.1375704,41.7561224],[12.1371124,41.7547568],[12.1370362,41.7535619],[12.1370362,41.7524808],[12.1371124,41.7515135],[12.137418,41.7499773],[12.1376467,41.7491238],[12.1382578,41.747872],[12.1389446,41.746734],[12.1404717,41.7449701],[12.1419989,41.7438321],[12.142915,41.7431494],[12.1442891,41.7423528],[12.1452814,41.7418976],[12.1470379,41.7412717],[12.1480302,41.7409872],[12.1505497,41.7404182],[12.1217661,41.7289814],[12.1218424,41.7606174],[12.142457,41.764259],[12.1477247,41.7652263],[12.1511608,41.7660229],[12.1524587,41.7664211],[12.1714693,41.7713714],[12.1820054,41.7809874],[12.1963593,41.7937328],[12.2220553,41.7887024],[12.2214875,41.7858769],[12.2231652,41.7833631],[12.2229261,41.7785341],[12.2207368,41.7773954],[12.2193323,41.768636],[12.2215662,41.7653922]]]},"properties":{"osm_id":308186931,"osm_type":"way","seamark_type":"restricted_area","display_class":"OTHER","min_zoom":12,"importance":1,"name":null,"ref":null,"common":{"type":"restricted_area"},"children":{"restricted_area":{"restriction":"no_anchoring;no_fishing"}},"osm_tags":{"seamark:restricted_area:restriction":"no_anchoring;no_fishing","seamark:type":"restricted_area"}}},{"type":"Feature","geometry":{"type":"Polygon","coordinates":[[[12.1461778,41.9107275],[12.0790871,41.8296362],[12.0785528,41.8298638],[12.0372479,41.847844],[12.103101,41.9323254],[12.1050831,41.9319539],[12.1067016,41.9326619],[12.1214947,41.9273617],[12.138236,41.9175608],[12.1461778,41.9107275]]]},"properties":{"osm_id":308186934,"osm_type":"way","seamark_type":"restricted_area","display_class":"OTHER","min_zoom":12,"importance":1,"name":null,"ref":null,"common":{"type":"restricted_area"},"children":{"restricted_area":{"restriction":"no_anchoring;no_fishing"}},"osm_tags":{"seamark:restricted_area:restriction":"no_anchoring;no_fishing","seamark:type":"restricted_area"}}},{"type":"Feature","geometry":{"type":"Polygon","coordinates":[[[12.2537166,41.7731292],[12.2537283,41.7731303],[12.2537418,41.7731313],[12.2537487,41.7731283],[12.253752,41.7731213],[12.2537524,41.7731164],[12.2537473,41.7731098],[12.2537381,41.7730973],[12.2537286,41.7730864],[12.2537195,41.7730768],[12.2537078,41.7730673],[12.2536957,41.7730589],[12.253672,41.7730417],[12.2536453,41.773024],[12.253626,41.7730101],[12.2536059,41.773],[12.2535869,41.7729872],[12.2535639,41.7729771],[12.2535474,41.7729703],[12.2535288,41.7729649],[12.2535171,41.7729621],[12.2535058,41.7729624],[12.253501,41.7729629],[12.2534871,41.7729738],[12.2534816,41.7729801],[12.2534754,41.7729858],[12.2534784,41.7729951],[12.2534857,41.7730055],[12.2535043,41.7730155],[12.2535251,41.7730281],[12.2535675,41.7730531],[12.2535982,41.7730703],[12.2536274,41.773088],[12.2536526,41.7731014],[12.2536906,41.7731196],[12.2537166,41.7731292]]]},"properties":{"osm_id":1222306337,"osm_type":"way","seamark_type":"wreck","display_class":"OTHER","min_zoom":12,"importance":1,"name":null,"ref":null,"common":{"type":"wreck"},"children":{},"osm_tags":{"historic":"wreck","seamark:type":"wreck","wreck:type":"ship"}}},{"type":"Feature","geometry":{"type":"Point","coordinates":[12.6599683,41.4531487]},"properties":{"osm_id":1340857928,"osm_type":"node","seamark_type":"light_minor","display_class":"OTHER","min_zoom":12,"importance":1,"name":"Avamporto","ref":null,"common":{"name":"Avamporto","type":"light_minor"},"children":{"light":{"1:category":"vertical","1:character":"F","1:colour":"green","1:height":"9","1:multiple":"2","1:sector_end":"295","1:sector_start":"355","reference":"E 1541.35"}},"osm_tags":{"seamark:light:1:category":"vertical","seamark:light:1:character":"F","seamark:light:1:colour":"green","seamark:light:1:height":"9","seamark:light:1:multiple":"2","seamark:light:1:sector_end":"295","seamark:light:1:sector_start":"355","seamark:light:reference":"E 1541.35","seamark:name":"Avamporto","seamark:type":"light_minor","source":"US NGA Pub. 113. 2010-10-22."}}},{"type":"Feature","geometry":{"type":"Point","coordinates":[12.2419819,41.7419216]},"properties":{"osm_id":4687820677,"osm_type":"node","seamark_type":"harbour","display_class":"OTHER","min_zoom":12,"importance":1,"name":"Cantieri di Ostia Small Harbour","ref":null,"common":{"type":"harbour"},"children":{"harbour":{"category":"marina"}},"osm_tags":{"leisure":"marina","name":"Cantieri di Ostia Small Harbour","seamark:harbour:category":"marina","seamark:type":"harbour"}}},{"type":"Feature","geometry":{"type":"Polygon","coordinates":[[[12.3013142,41.7186913],[12.301438,41.7188536],[12.3016796,41.7191702],[12.3017159,41.7192199],[12.3019116,41.7194791],[12.3019381,41.7195177],[12.3020156,41.7194847],[12.3022967,41.7193814],[12.3029712,41.7190861],[12.3024211,41.718365],[12.302338,41.7182561],[12.3013142,41.7186913]]]},"properties":{"osm_id":404693990,"osm_type":"way","seamark_type":"harbour","display_class":"OTHER","min_zoom":12,"importance":1,"name":"Lega Navale Italiana","ref":null,"common":{"type":"harbour"},"children":{"harbour":{"category":"marina"}},"osm_tags":{"addr:city":"Roma","addr:housenumber":"36","addr:postcode":"00122","addr:street":"Lungomare Duilio","leisure":"marina","name":"Lega Navale Italiana","operator":"Lega Navale Italiana","phone":"+39 0656470474","seamark:harbour:category":"marina","seamark:type":"harbour","website":"https://leganavaleostia.it/","wikipedia":"it:Lega navale italiana"}}},{"type":"Feature","geometry":{"type":"Point","coordinates":[12.6609134,41.4552951]},"properties":{"osm_id":4688823260,"osm_type":"node","seamark_type":"harbour","display_class":"OTHER","min_zoom":12,"importance":1,"name":"Nettuno Marina","ref":null,"common":{"type":"harbour"},"children":{"harbour":{"category":"marina"}},"osm_tags":{"leisure":"marina","name":"Nettuno Marina","seamark:harbour:category":"marina","seamark:type":"harbour"}}},{"type":"Feature","geometry":{"type":"Polygon","coordinates":[[[12.2249938,41.7444655],[12.225177,41.7445092],[12.2262333,41.7448332],[12.2263827,41.7448294],[12.2265504,41.7447286],[12.2266429,41.7445807],[12.2265648,41.7444558],[12.2265371,41.7444265],[12.226394,41.7443009],[12.226225,41.7441548],[12.226146,41.7440878],[12.2260553,41.7440082],[12.2258924,41.7438651],[12.2254961,41.7439237],[12.225488,41.7438912],[12.2254451,41.7438967],[12.2254552,41.7439297],[12.2254183,41.7439362],[12.2250193,41.7440192],[12.2248859,41.744416],[12.2249938,41.7444655]]]},"properties":{"osm_id":33439243,"osm_type":"way","seamark_type":"harbour","display_class":"OTHER","min_zoom":12,"importance":1,"name":"Porticciolo Il Faro","ref":null,"common":{"type":"harbour"},"children":{"harbour":{"category":"marina"}},"osm_tags":{"leisure":"marina","name":"Porticciolo Il Faro","natural":"water","seamark:harbour:category":"marina","seamark:type":"harbour"}}},{"type":"Feature","geometry":{"type":"Polygon","coordinates":[[[12.303443,41.721449],[12.3035383,41.7214751],[12.3037856,41.721543],[12.3037896,41.7216594],[12.3046655,41.7216233],[12.3046477,41.7214071],[12.3046298,41.72119],[12.3037746,41.7212231],[12.3037782,41.7213268],[12.3035651,41.7212701],[12.3034662,41.7212438],[12.303443,41.721449]]]},"properties":{"osm_id":34019256,"osm_type":"way","seamark_type":"harbour","display_class":"OTHER","min_zoom":12,"importance":1,"name":"Porticciolo di Ostia","ref":null,"common":{"type":"harbour"},"children":{"harbour":{"category":"marina"}},"osm_tags":{"leisure":"marina","name":"Porticciolo di Ostia","seamark:harbour:category":"marina","seamark:type":"harbour"}}},{"type":"Feature","geometry":{"type":"Polygon","coordinates":[[[12.2254734,41.7705359],[12.2254508,41.7705175],[12.2254177,41.7704908],[12.2247961,41.7705042],[12.2247898,41.7702221],[12.2247859,41.7700462],[12.2247808,41.7699417],[12.2247094,41.7698752],[12.2246947,41.769818],[12.2246865,41.7697859],[12.2245744,41.769518],[12.2244776,41.7694154],[12.2244735,41.7693431],[12.2249684,41.7693325],[12.2254238,41.7693196],[12.2259383,41.769309],[12.2262104,41.7693037],[12.2265164,41.7692992],[12.2265424,41.7702297],[12.2265489,41.7704642],[12.2258992,41.7704775],[12.2258483,41.7704985],[12.2258464,41.7705221],[12.2254734,41.7705359]]]},"properties":{"osm_id":449378426,"osm_type":"way","seamark_type":"harbour","display_class":"OTHER","min_zoom":12,"importance":1,"name":"Porto Canale","ref":null,"common":{"type":"harbour"},"children":{"harbour":{"category":"marina"}},"osm_tags":{"leisure":"marina","name":"Porto Canale","seamark:harbour:category":"marina","seamark:type":"harbour"}}},{"type":"Feature","geometry":{"type":"Point","coordinates":[12.634007,41.4454354]},"properties":{"osm_id":1346018278,"osm_type":"node","seamark_type":"harbour","display_class":"OTHER","min_zoom":12,"importance":1,"name":"Porto di Anzio","ref":null,"common":{"type":"harbour"},"children":{"harbour":{"category":"marina"}},"osm_tags":{"ele":"0","harbour":"yes","leisure":"marina","name":"Porto di Anzio","seamark:harbour:category":"marina","seamark:type":"harbour"}}},{"type":"Feature","geometry":{"type":"Polygon","coordinates":[[[12.2544132,41.7459586],[12.2528037,41.7455788],[12.2521686,41.7454785],[12.2513879,41.745374],[12.2513478,41.7455237],[12.2512931,41.7455335],[12.2512299,41.7454722],[12.2511578,41.7453954],[12.2510879,41.7453128],[12.2511102,41.7452169],[12.2504176,41.7451213],[12.2506173,41.7451966],[12.250951,41.7455078],[12.2509738,41.7456071],[12.2509701,41.745677],[12.2508432,41.7459562],[12.2524206,41.7463707],[12.2539835,41.7468341],[12.2542426,41.7463514],[12.2544132,41.7459586]]]},"properties":{"osm_id":28598671,"osm_type":"way","seamark_type":"harbour","display_class":"OTHER","min_zoom":12,"importance":1,"name":"Porto di Fiumicino","ref":null,"common":{"type":"harbour"},"children":{"harbour":{"category":"marina"}},"osm_tags":{"leisure":"marina","name":"Porto di Fiumicino","seamark:harbour:category":"marina","seamark:type":"harbour"}}},{"type":"Feature","geometry":{"type":"Point","coordinates":[12.2459244,41.7374226]},"properties":{"osm_id":4688823258,"osm_type":"node","seamark_type":"harbour","display_class":"OTHER","min_zoom":12,"importance":1,"name":"Porto di Roma","ref":null,"common":{"type":"harbour"},"children":{"harbour":{"category":"marina"}},"osm_tags":{"capacity":"800","fee":"yes","leisure":"marina","name":"Porto di Roma","payment:credit_cards":"yes","power_supply":"yes","sanitary_dump_station":"no","seamark:harbour:category":"marina","seamark:type":"harbour"}}},{"type":"Feature","geometry":{"type":"Polygon","coordinates":[[[12.2449341,41.7363888],[12.2450771,41.7364904],[12.2450252,41.7365936],[12.244864,41.7366623],[12.244743,41.7366709],[12.2445422,41.7367911],[12.2447949,41.7373543],[12.2450792,41.7373932],[12.2453074,41.7374088],[12.2455927,41.7373895],[12.2456322,41.7374588],[12.2456345,41.7375225],[12.2455956,41.7375829],[12.2455409,41.7376052],[12.2454388,41.7375753],[12.2453784,41.7375784],[12.2447679,41.7374984],[12.2442273,41.737205],[12.2439502,41.7371717],[12.2423487,41.7375907],[12.2419629,41.7377748],[12.2416264,41.7381043],[12.2410673,41.7389328],[12.2411346,41.7389539],[12.2408956,41.7393163],[12.2410103,41.7393598],[12.2412466,41.7390018],[12.2413024,41.7389885],[12.2416044,41.7396524],[12.2416682,41.7396376],[12.2416895,41.7396847],[12.2417547,41.7396665],[12.2417775,41.7397097],[12.2418381,41.7396961],[12.2418729,41.7397588],[12.2435051,41.7393463],[12.2441861,41.7391741],[12.2445929,41.7390713],[12.2445348,41.738953],[12.2447777,41.7388941],[12.2453268,41.738761],[12.2450318,41.738095],[12.2450792,41.7380887],[12.2452234,41.7384137],[12.2456971,41.7384394],[12.2461357,41.7384087],[12.2463731,41.7383514],[12.246581,41.7382755],[12.247129,41.737975],[12.2471408,41.7378982],[12.2471973,41.7378521],[12.2470891,41.7375898],[12.2471297,41.7375721],[12.2472681,41.7378699],[12.2474134,41.7382087],[12.2480276,41.7380552],[12.2482025,41.7380153],[12.2482527,41.7381365],[12.2486407,41.738036],[12.2491732,41.737898],[12.2489805,41.7374865],[12.2490028,41.7374809],[12.2496325,41.7373228],[12.2502603,41.7371651],[12.2502829,41.7371594],[12.250467,41.7375724],[12.2510133,41.7374338],[12.2515668,41.7372935],[12.2514416,41.7370138],[12.2514599,41.7370091],[12.2518348,41.7369142],[12.2522045,41.7368205],[12.2519882,41.7363504],[12.2515562,41.7362945],[12.2510493,41.7361856],[12.2506663,41.7361333],[12.2503409,41.7361333],[12.2498919,41.7361624],[12.2471115,41.7366976],[12.24698,41.7368833],[12.2469397,41.7368833],[12.2469145,41.7369159],[12.2466787,41.7370967],[12.2464403,41.7372847],[12.2464393,41.737335],[12.2464167,41.7373693],[12.2462809,41.7373865],[12.2461974,41.7373371],[12.2461743,41.7372554],[12.2462118,41.737191],[12.2465421,41.7370023],[12.2467376,41.7367981],[12.2467926,41.7367044],[12.2467762,41.736615],[12.2466958,41.7364876],[12.2465516,41.7363915],[12.2463385,41.7363271],[12.2461551,41.7363092],[12.2460812,41.7363319],[12.2459971,41.7363517],[12.2459528,41.7363561],[12.2459055,41.7363578],[12.2458552,41.7363489],[12.2458079,41.736331],[12.2457823,41.7363118],[12.2457587,41.7362728],[12.245751,41.7362298],[12.2449341,41.7363888]]]},"properties":{"osm_id":149850735,"osm_type":"way","seamark_type":"harbour","display_class":"OTHER","min_zoom":12,"importance":1,"name":"Porto di Roma","ref":null,"common":{"type":"harbour"},"children":{"harbour":{"category":"marina"}},"osm_tags":{"landuse":"harbour","name":"Porto di Roma","seamark:harbour:category":"marina","seamark:type":"harbour"}}},{"type":"Feature","geometry":{"type":"Point","coordinates":[12.6378095,41.4481524]},"properties":{"osm_id":4688823259,"osm_type":"node","seamark_type":"anchorage","display_class":"OTHER","min_zoom":12,"importance":1,"name":"Rada di Anzio","ref":null,"common":{"type":"anchorage"},"children":{},"osm_tags":{"name":"Rada di Anzio","seamark:type":"anchorage"}}},{"type":"Feature","geometry":{"type":"Point","coordinates":[12.6520713,41.4524647]},"properties":{"osm_id":13970305021,"osm_type":"node","seamark_type":"anchorage","display_class":"OTHER","min_zoom":12,"importance":1,"name":"Rada di Nettuno","ref":null,"common":{"type":"anchorage"},"children":{},"osm_tags":{"name":"Rada di Nettuno","seamark:type":"anchorage"}}},{"type":"Feature","geometry":{"type":"Point","coordinates":[12.3335468,41.5978518]},"properties":{"osm_id":2411843653,"osm_type":"node","seamark_type":"restricted_area","display_class":"OTHER","min_zoom":12,"importance":1,"name":"Secche di Tor Paterno","ref":null,"common":{"type":"restricted_area"},"children":{},"osm_tags":{"name":"Secche di Tor Paterno","seamark:type":"restricted_area","sport":"scuba_diving","website":"https://www.ampsecchetorpaterno.it/"}}},{"type":"Feature","geometry":{"type":"Point","coordinates":[12.8123421,41.4077314]},"properties":{"osm_id":1340857927,"osm_type":"node","seamark_type":"light_minor","display_class":"OTHER","min_zoom":12,"importance":1,"name":"Tori di Foce Verde","ref":null,"common":{"information":"Private light.","name":"Tori di Foce Verde","type":"light_minor"},"children":{"light":{"character":"Fl","colour":"yellow","group":"2","height":"14","period":"6","range":"4","reference":"E 1541.6","sequence":"1+(1)+1+(3)"}},"osm_tags":{"seamark:information":"Private light.","seamark:light:character":"Fl","seamark:light:colour":"yellow","seamark:light:group":"2","seamark:light:height":"14","seamark:light:period":"6","seamark:light:range":"4","seamark:light:reference":"E 1541.6","seamark:light:sequence":"1+(1)+1+(3)","seamark:name":"Tori di Foce Verde","seamark:type":"light_minor","source":"US NGA Pub. 113. 2010-10-22."}}},{"type":"Feature","geometry":{"type":"Point","coordinates":[12.7689311,41.4103236]},"properties":{"osm_id":13970305022,"osm_type":"node","seamark_type":"anchorage","display_class":"OTHER","min_zoom":12,"importance":1,"name":"Torre Astura","ref":null,"common":{"type":"anchorage"},"children":{},"osm_tags":{"name":"Torre Astura","seamark:type":"anchorage"}}},{"type":"Feature","geometry":{"type":"Point","coordinates":[12.7649137,41.4078607]},"properties":{"osm_id":13970305023,"osm_type":"node","seamark_type":"landmark","display_class":"OTHER","min_zoom":12,"importance":1,"name":"Torre Astura","ref":null,"common":{"type":"landmark"},"children":{},"osm_tags":{"historic":"fort","name":"Torre Astura","seamark:type":"landmark"}}}],"type":"FeatureCollection"}