{"type":"FeatureCollection","features":[{"type":"Feature","geometry":{"type":"Polygon","coordinates":[[[61.0921801,41.3269828],[61.0922821,41.3269687],[61.0922418,41.3268217],[61.092148,41.3268257],[61.0921801,41.3269828]]]},"properties":{"osm_id":1229501356,"osm_type":"way","seamark_type":"small_craft_facility","display_class":"OTHER","min_zoom":12,"importance":1,"name":null,"ref":null,"common":{"type":"small_craft_facility"},"children":{"small_craft_facility":{"category":"fuel_station"}},"osm_tags":{"seamark:small_craft_facility:category":"fuel_station","seamark:type":"small_craft_facility","waterway":"fuel"}}},{"type":"Feature","geometry":{"type":"Polygon","coordinates":[[[61.0919146,41.3272567],[61.0923745,41.3271641],[61.0924114,41.3271271],[61.0923098,41.3266366],[61.0922204,41.3266273],[61.0916824,41.3267153],[61.0916258,41.3267245],[61.0919146,41.3272567]]]},"properties":{"osm_id":1229501357,"osm_type":"way","seamark_type":"small_craft_facility","display_class":"OTHER","min_zoom":12,"importance":1,"name":null,"ref":null,"common":{"type":"small_craft_facility"},"children":{"small_craft_facility":{"category":"fuel_station"}},"osm_tags":{"building":"retail","seamark:small_craft_facility:category":"fuel_station","seamark:type":"small_craft_facility","waterway":"fuel"}}},{"type":"Feature","geometry":{"type":"Polygon","coordinates":[[[61.0916824,41.3267153],[61.0923098,41.3266366],[61.0922475,41.3262391],[61.0915401,41.3263398],[61.0916615,41.3266892],[61.0916824,41.3267153]]]},"properties":{"osm_id":1229501358,"osm_type":"way","seamark_type":"small_craft_facility","display_class":"OTHER","min_zoom":12,"importance":1,"name":null,"ref":null,"common":{"type":"small_craft_facility"},"children":{"small_craft_facility":{"category":"fuel_station"}},"osm_tags":{"seamark:small_craft_facility:category":"fuel_station","seamark:type":"small_craft_facility","waterway":"fuel"}}}],"type":"FeatureCollection"}