{"type":"FeatureCollection","features":[{"type":"Feature","geometry":{"type":"Point","coordinates":[35.9548426,41.7370594]},"properties":{"osm_id":1581242388,"osm_type":"node","seamark_type":"light_major","display_class":"LIGHTHOUSE","min_zoom":7,"importance":5,"name":"Bafra Burnu","ref":null,"common":{"name":"Bafra Burnu","type":"light_major"},"children":{"light":{"character":"Fl","colour":"white","height":"25","period":"5","range":"20","reference":"E 5806","sequence":"0.5+(4.5)"}},"osm_tags":{"seamark:light:character":"Fl","seamark:light:colour":"white","seamark:light:height":"25","seamark:light:period":"5","seamark:light:range":"20","seamark:light:reference":"E 5806","seamark:light:sequence":"0.5+(4.5)","seamark:name":"Bafra Burnu","seamark:type":"light_major","source":"US NGA Pub. 113. 2011-10-20."}}},{"type":"Feature","geometry":{"type":"Point","coordinates":[35.2013651,41.7972225]},"properties":{"osm_id":1581241745,"osm_type":"node","seamark_type":"light_minor","display_class":"OTHER","min_zoom":12,"importance":1,"name":null,"ref":null,"common":{"type":"light_minor"},"children":{"light":{"character":"F","colour":"red","height":"10","range":"3","reference":"E 5807.2"}},"osm_tags":{"seamark:light:character":"F","seamark:light:colour":"red","seamark:light:height":"10","seamark:light:range":"3","seamark:light:reference":"E 5807.2","seamark:type":"light_minor","source":"US NGA Pub. 113. 2011-10-20."}}},{"type":"Feature","geometry":{"type":"Point","coordinates":[35.2040482,41.7982524]},"properties":{"osm_id":1581241936,"osm_type":"node","seamark_type":"light_minor","display_class":"OTHER","min_zoom":12,"importance":1,"name":null,"ref":null,"common":{"type":"light_minor"},"children":{"light":{"character":"F","colour":"green","height":"11","range":"3","reference":"E 5807.1"}},"osm_tags":{"seamark:light:character":"F","seamark:light:colour":"green","seamark:light:height":"11","seamark:light:range":"3","seamark:light:reference":"E 5807.1","seamark:type":"light_minor","source":"US NGA Pub. 113. 2011-10-20."}}},{"type":"Feature","geometry":{"type":"Point","coordinates":[35.5090424,41.6400592]},"properties":{"osm_id":1581242226,"osm_type":"node","seamark_type":"light_minor","display_class":"OTHER","min_zoom":12,"importance":1,"name":null,"ref":null,"common":{"type":"light_minor"},"children":{"light":{"character":"F","colour":"red","height":"8","reference":"E 5806.6"}},"osm_tags":{"seamark:light:character":"F","seamark:light:colour":"red","seamark:light:height":"8","seamark:light:reference":"E 5806.6","seamark:type":"light_minor","source":"US NGA Pub. 113. 2011-10-20."}}},{"type":"Feature","geometry":{"type":"Point","coordinates":[35.9465361,41.730326]},"properties":{"osm_id":5541521498,"osm_type":"node","seamark_type":"light_minor","display_class":"OTHER","min_zoom":12,"importance":1,"name":"Bafra Burnu","ref":null,"common":{"type":"light_minor"},"children":{"light":{"character":"Fl","colour":"white","period":"5"}},"osm_tags":{"man_made":"lighthouse","name":"Bafra Burnu","seamark:light:character":"Fl","seamark:light:colour":"white","seamark:light:period":"5","seamark:type":"light_minor"}}},{"type":"Feature","geometry":{"type":"Point","coordinates":[35.2072032,41.8021105]},"properties":{"osm_id":1581242021,"osm_type":"node","seamark_type":"light_minor","display_class":"OTHER","min_zoom":12,"importance":1,"name":"Gerze Kosk Burnu","ref":null,"common":{"name":"Gerze Kosk Burnu","type":"light_minor"},"children":{"light":{"character":"Fl","colour":"white","group":"2","height":"15","period":"3","range":"6","reference":"E 5807","sequence":"0.3+(1)+0.3+(1.4)"}},"osm_tags":{"seamark:light:character":"Fl","seamark:light:colour":"white","seamark:light:group":"2","seamark:light:height":"15","seamark:light:period":"3","seamark:light:range":"6","seamark:light:reference":"E 5807","seamark:light:sequence":"0.3+(1)+0.3+(1.4)","seamark:name":"Gerze Kosk Burnu","seamark:type":"light_minor","source":"US NGA Pub. 113. 2011-10-20."}}},{"type":"Feature","geometry":{"type":"Point","coordinates":[35.5103364,41.6426317]},"properties":{"osm_id":1581242152,"osm_type":"node","seamark_type":"light_minor","display_class":"OTHER","min_zoom":12,"importance":1,"name":"Yakakent","ref":null,"common":{"name":"Yakakent","type":"light_minor"},"children":{"light":{"character":"F","colour":"green","height":"11","reference":"E 5806.5"}},"osm_tags":{"seamark:light:character":"F","seamark:light:colour":"green","seamark:light:height":"11","seamark:light:reference":"E 5806.5","seamark:name":"Yakakent","seamark:type":"light_minor","source":"US NGA Pub. 113. 2011-10-20."}}}],"type":"FeatureCollection"}