{"type":"FeatureCollection","features":[{"type":"Feature","geometry":{"type":"Point","coordinates":[32.3831158,41.7528959]},"properties":{"osm_id":1581240225,"osm_type":"node","seamark_type":"light_major","display_class":"LIGHTHOUSE","min_zoom":7,"importance":5,"name":"Amasra","ref":null,"common":{"name":"Amasra","type":"light_major"},"children":{"light":{"character":"Fl","colour":"white","height":"77","period":"10","range":"20","reference":"E 5817","sequence":"1+(9)"}},"osm_tags":{"man_made":"lighthouse","name":"Amasra Feneri","name:de":"Leuchtturm Amasra","name:en":"Amasra Lighthouse","name:fr":"Phare d'Amasra","name:it":"Faro di Amasra","seamark:light:character":"Fl","seamark:light:colour":"white","seamark:light:height":"77","seamark:light:period":"10","seamark:light:range":"20","seamark:light:reference":"E 5817","seamark:light:sequence":"1+(9)","seamark:name":"Amasra","seamark:type":"light_major","source":"US NGA Pub. 113. 2011-10-20.","wikidata":"Q103152519","wikimedia_commons":"Category:Amasra Lighthouse"}}},{"type":"Feature","geometry":{"type":"Point","coordinates":[32.2241464,41.6849203]},"properties":{"osm_id":1581239601,"osm_type":"node","seamark_type":"light_minor","display_class":"OTHER","min_zoom":12,"importance":1,"name":null,"ref":null,"common":{"type":"light_minor"},"children":{"light":{"character":"Q","colour":"green","height":"11","range":"5","reference":"N 5818.62"},"radio_station":{"category":"ais","mmsi":"992711022"}},"osm_tags":{"seamark:light:character":"Q","seamark:light:colour":"green","seamark:light:height":"11","seamark:light:range":"5","seamark:light:reference":"N 5818.62","seamark:radio_station:category":"ais","seamark:radio_station:mmsi":"992711022","seamark:type":"light_minor","source":"US NGA Pub. 113. 2011-10-20."}}},{"type":"Feature","geometry":{"type":"Point","coordinates":[32.2259503,41.6862]},"properties":{"osm_id":1581239666,"osm_type":"node","seamark_type":"light_minor","display_class":"OTHER","min_zoom":12,"importance":1,"name":null,"ref":null,"common":{"type":"light_minor"},"children":{"light":{"character":"Fl","colour":"green","group":"3","height":"10","period":"10","range":"5","reference":"N 5818.6","sequence":"0.6+(0.6)+0.6+(0.6)+0.6+(7)"},"radio_station":{"category":"ais","mmsi":"992711019"}},"osm_tags":{"seamark:light:character":"Fl","seamark:light:colour":"green","seamark:light:group":"3","seamark:light:height":"10","seamark:light:period":"10","seamark:light:range":"5","seamark:light:reference":"N 5818.6","seamark:light:sequence":"0.6+(0.6)+0.6+(0.6)+0.6+(7)","seamark:radio_station:category":"ais","seamark:radio_station:mmsi":"992711019","seamark:type":"light_minor","source":"US NGA Pub. 113. 2011-10-20."}}},{"type":"Feature","geometry":{"type":"Point","coordinates":[32.2235892,41.6873704]},"properties":{"osm_id":1581239949,"osm_type":"node","seamark_type":"light_minor","display_class":"OTHER","min_zoom":12,"importance":1,"name":null,"ref":null,"common":{"type":"light_minor"},"children":{"light":{"character":"Fl","colour":"red","group":"2","height":"10","period":"5","range":"10","reference":"N 5818.5","sequence":"0.3+(0.9)+0.3+(3.5)"},"radio_station":{"category":"ais","mmsi":"992711020"}},"osm_tags":{"seamark:light:character":"Fl","seamark:light:colour":"red","seamark:light:group":"2","seamark:light:height":"10","seamark:light:period":"5","seamark:light:range":"10","seamark:light:reference":"N 5818.5","seamark:light:sequence":"0.3+(0.9)+0.3+(3.5)","seamark:radio_station:category":"ais","seamark:radio_station:mmsi":"992711020","seamark:type":"light_minor","source":"US NGA Pub. 113. 2011-10-20."}}},{"type":"Feature","geometry":{"type":"Point","coordinates":[32.3382303,41.7235162]},"properties":{"osm_id":1581240142,"osm_type":"node","seamark_type":"light_minor","display_class":"OTHER","min_zoom":12,"importance":1,"name":null,"ref":null,"common":{"type":"light_minor"},"children":{"light":{"character":"F","colour":"red","reference":"E 5818.31"}},"osm_tags":{"seamark:light:character":"F","seamark:light:colour":"red","seamark:light:reference":"E 5818.31","seamark:type":"light_minor","source":"US NGA Pub. 113. 2011-10-20."}}},{"type":"Feature","geometry":{"type":"Point","coordinates":[32.39805,41.74755]},"properties":{"osm_id":1581240190,"osm_type":"node","seamark_type":"light_minor","display_class":"OTHER","min_zoom":12,"importance":1,"name":null,"ref":null,"common":{"type":"light_minor"},"children":{"light":{"character":"Fl","colour":"green","height":"14","period":"6","range":"10","reference":"E 5817.5","sequence":"0.3+(5.7)"}},"osm_tags":{"seamark:light:character":"Fl","seamark:light:colour":"green","seamark:light:height":"14","seamark:light:period":"6","seamark:light:range":"10","seamark:light:reference":"E 5817.5","seamark:light:sequence":"0.3+(5.7)","seamark:type":"light_minor","source":"US NGA Pub. 113. 2011-10-20."}}},{"type":"Feature","geometry":{"type":"Point","coordinates":[32.3956503,41.7453003]},"properties":{"osm_id":1581240245,"osm_type":"node","seamark_type":"light_minor","display_class":"OTHER","min_zoom":12,"importance":1,"name":null,"ref":null,"common":{"type":"light_minor"},"children":{"light":{"character":"Fl","colour":"red","height":"12","period":"6","range":"10","reference":"E 5818"}},"osm_tags":{"seamark:light:character":"Fl","seamark:light:colour":"red","seamark:light:height":"12","seamark:light:period":"6","seamark:light:range":"10","seamark:light:reference":"E 5818","seamark:type":"light_minor","source":"US NGA Pub. 113. 2011-10-20."}}},{"type":"Feature","geometry":{"type":"Point","coordinates":[32.9778551,41.9003268]},"properties":{"osm_id":1581240352,"osm_type":"node","seamark_type":"light_minor","display_class":"OTHER","min_zoom":12,"importance":1,"name":null,"ref":null,"common":{"type":"light_minor"},"children":{"light":{"character":"Fl","colour":"red","height":"12","period":"5","range":"5","reference":"N 5816.55","sequence":"1+(4)"},"radio_station":{"category":"ais","mmsi":"992711013"}},"osm_tags":{"man_made":"lighthouse","seamark:light:character":"Fl","seamark:light:colour":"red","seamark:light:height":"12","seamark:light:period":"5","seamark:light:range":"5","seamark:light:reference":"N 5816.55","seamark:light:sequence":"1+(4)","seamark:radio_station:category":"ais","seamark:radio_station:mmsi":"992711013","seamark:type":"light_minor","source":"US NGA Pub. 113. 2011-10-20."}}},{"type":"Feature","geometry":{"type":"Point","coordinates":[32.5029434,41.7999984]},"properties":{"osm_id":2510203504,"osm_type":"node","seamark_type":"harbour","display_class":"OTHER","min_zoom":12,"importance":1,"name":null,"ref":null,"common":{"type":"harbour"},"children":{"harbour":{"category":"bulk"}},"osm_tags":{"harbour":"yes","seamark:harbour:category":"bulk","seamark:type":"harbour","size":"verysmall"}}},{"type":"Feature","geometry":{"type":"Point","coordinates":[32.3859506,41.7499382]},"properties":{"osm_id":3750636873,"osm_type":"node","seamark_type":"landmark","display_class":"OTHER","min_zoom":12,"importance":1,"name":null,"ref":null,"common":{"type":"landmark"},"children":{"landmark":{"category":"minaret"}},"osm_tags":{"man_made":"tower","seamark:landmark:category":"minaret","seamark:type":"landmark","tower:type":"minaret"}}},{"type":"Feature","geometry":{"type":"Point","coordinates":[32.9801447,41.9001959]},"properties":{"osm_id":10075237739,"osm_type":"node","seamark_type":"light_minor","display_class":"OTHER","min_zoom":12,"importance":1,"name":null,"ref":null,"common":{"type":"light_minor"},"children":{"light":{"character":"Fl","colour":"green","height":"9","period":"5","range":"5","reference":"N 5816.6","sequence":"1+(4)"},"radio_station":{"category":"ais","mmsi":"992711014"}},"osm_tags":{"man_made":"lighthouse","seamark:light:character":"Fl","seamark:light:colour":"green","seamark:light:height":"9","seamark:light:period":"5","seamark:light:range":"5","seamark:light:reference":"N 5816.6","seamark:light:sequence":"1+(4)","seamark:radio_station:category":"ais","seamark:radio_station:mmsi":"992711014","seamark:type":"light_minor"}}},{"type":"Feature","geometry":{"type":"Polygon","coordinates":[[[32.3387217,41.724682],[32.3387289,41.7247855],[32.3386108,41.7248094],[32.3374999,41.7244936],[32.3351642,41.723805],[32.3348359,41.7236933],[32.3344916,41.7233994],[32.3343617,41.7231283],[32.3343526,41.7227848],[32.3345388,41.7228128],[32.3347909,41.722806],[32.3354775,41.7214687],[32.3371507,41.7219494],[32.3367706,41.7226553],[32.3376171,41.7229019],[32.3379033,41.7224181],[32.3386407,41.7226523],[32.3381907,41.7234175],[32.3380779,41.7234765],[32.3380919,41.7235624],[32.338185,41.7236276],[32.3383121,41.723611],[32.3384151,41.723553],[32.338911,41.724667],[32.3387217,41.724682]]]},"properties":{"osm_id":313363041,"osm_type":"way","seamark_type":"harbour","display_class":"OTHER","min_zoom":12,"importance":1,"name":"Amasra Tarlaağzı Limanı","ref":null,"common":{"type":"harbour"},"children":{"harbour":{"category":"marina"}},"osm_tags":{"addr:city":"Amasra / Bartın","leisure":"marina","name":"Amasra Tarlaağzı Limanı","seamark:harbour:category":"marina","seamark:type":"harbour"}}},{"type":"Feature","geometry":{"type":"Point","coordinates":[32.2242175,41.6835258]},"properties":{"osm_id":1581240095,"osm_type":"node","seamark_type":"light_minor","display_class":"OTHER","min_zoom":12,"importance":1,"name":"Demirli Burnu","ref":null,"common":{"name":"Demirli Burnu","type":"light_minor"},"children":{"light":{"character":"Fl","colour":"white","group":"2","height":"70","period":"6","range":"10","reference":"E 5818.4","sequence":"0.8+(0.8)+0.8+(3.6)"}},"osm_tags":{"seamark:light:character":"Fl","seamark:light:colour":"white","seamark:light:group":"2","seamark:light:height":"70","seamark:light:period":"6","seamark:light:range":"10","seamark:light:reference":"E 5818.4","seamark:light:sequence":"0.8+(0.8)+0.8+(3.6)","seamark:name":"Demirli Burnu","seamark:type":"light_minor","source":"US NGA Pub. 113. 2011-10-20."}}},{"type":"Feature","geometry":{"type":"Point","coordinates":[32.0177113,41.5637486]},"properties":{"osm_id":10310493989,"osm_type":"node","seamark_type":"light_minor","display_class":"OTHER","min_zoom":12,"importance":1,"name":"Hisaronu","ref":null,"common":{"name":"Hisaronu","type":"light_minor"},"children":{"light":{"character":"Fl","colour":"white","period":"5","range":"18"}},"osm_tags":{"man_made":"beacon","seamark:light:character":"Fl","seamark:light:colour":"white","seamark:light:period":"5","seamark:light:range":"18","seamark:name":"Hisaronu","seamark:type":"light_minor","source":"https://msi.nga.mil/Publications/NGALOL"}}},{"type":"Feature","geometry":{"type":"Point","coordinates":[32.2319294,41.6867788]},"properties":{"osm_id":1581240025,"osm_type":"node","seamark_type":"light_minor","display_class":"OTHER","min_zoom":12,"importance":1,"name":"Kapakli Burnu","ref":null,"common":{"name":"Kapakli Burnu","type":"light_minor"},"children":{"light":{"1:character":"Fl","1:colour":"white","1:height":"10","1:period":"3","1:range":"10","1:sector_end":"73","1:sector_start":"68","1:sequence":"1+(2)","reference":"E 5818.51"}},"osm_tags":{"seamark:light:1:character":"Fl","seamark:light:1:colour":"white","seamark:light:1:height":"10","seamark:light:1:period":"3","seamark:light:1:range":"10","seamark:light:1:sector_end":"73","seamark:light:1:sector_start":"68","seamark:light:1:sequence":"1+(2)","seamark:light:reference":"E 5818.51","seamark:name":"Kapakli Burnu","seamark:type":"light_minor","source":"US NGA Pub. 113. 2011-10-20."}}},{"type":"Feature","geometry":{"type":"Point","coordinates":[32.9865167,41.9071]},"properties":{"osm_id":1581240387,"osm_type":"node","seamark_type":"light_minor","display_class":"OTHER","min_zoom":12,"importance":1,"name":"Kopekkayasi Burnu","ref":null,"common":{"name":"Kopekkayasi Burnu","type":"light_minor"},"children":{"light":{"character":"Fl","colour":"white","group":"2","height":"203","period":"5","range":"10","reference":"E 5816.5","sequence":"0.5+(1)+0.5+(3)"}},"osm_tags":{"seamark:light:character":"Fl","seamark:light:colour":"white","seamark:light:group":"2","seamark:light:height":"203","seamark:light:period":"5","seamark:light:range":"10","seamark:light:reference":"E 5816.5","seamark:light:sequence":"0.5+(1)+0.5+(3)","seamark:name":"Kopekkayasi Burnu","seamark:type":"light_minor","source":"US NGA Pub. 113. 2011-10-20."}}},{"type":"Feature","geometry":{"type":"Point","coordinates":[32.7169188,41.8475358]},"properties":{"osm_id":1581240275,"osm_type":"node","seamark_type":"light_minor","display_class":"OTHER","min_zoom":12,"importance":1,"name":"Kurucasile","ref":null,"common":{"name":"Kurucasile","type":"light_minor"},"children":{"light":{"character":"Fl","colour":"white","height":"41","period":"3","range":"8","reference":"E 5816.7","sequence":"0.3+(2.7)"}},"osm_tags":{"seamark:light:character":"Fl","seamark:light:colour":"white","seamark:light:height":"41","seamark:light:period":"3","seamark:light:range":"8","seamark:light:reference":"E 5816.7","seamark:light:sequence":"0.3+(2.7)","seamark:name":"Kurucasile","seamark:type":"light_minor","source":"US NGA Pub. 113. 2011-10-20."}}},{"type":"Feature","geometry":{"type":"Point","coordinates":[32.723319,41.8461409]},"properties":{"osm_id":11573214388,"osm_type":"node","seamark_type":"harbour","display_class":"OTHER","min_zoom":12,"importance":1,"name":"Kurucaşile Limanı","ref":null,"common":{"type":"harbour"},"children":{"harbour":{"category":"marina"}},"osm_tags":{"leisure":"marina","name":"Kurucaşile Limanı","seamark:harbour:category":"marina","seamark:type":"harbour"}}},{"type":"Feature","geometry":{"type":"Point","coordinates":[32.3387557,41.7249492]},"properties":{"osm_id":1581240165,"osm_type":"node","seamark_type":"light_minor","display_class":"OTHER","min_zoom":12,"importance":1,"name":"Tarlaagzi","ref":null,"common":{"name":"Tarlaagzi","type":"light_minor"},"children":{"light":{"character":"F","colour":"green","reference":"E 5818.3"}},"osm_tags":{"seamark:light:character":"F","seamark:light:colour":"green","seamark:light:reference":"E 5818.3","seamark:name":"Tarlaagzi","seamark:type":"light_minor","source":"US NGA Pub. 113. 2011-10-20."}}}],"type":"FeatureCollection"}