{"type":"FeatureCollection","features":[{"type":"Feature","geometry":{"type":"Polygon","coordinates":[[[-76.0465917,41.2516744],[-76.0465111,41.2516611],[-76.0464339,41.2516144],[-76.0464829,41.2515686],[-76.0464305,41.2515118],[-76.0465351,41.2514572],[-76.0465622,41.2514866],[-76.0466245,41.2514728],[-76.046652,41.2514786],[-76.0466797,41.2514845],[-76.0467275,41.2515135],[-76.0467452,41.2515608],[-76.0465917,41.2516744]]]},"properties":{"osm_id":309678574,"osm_type":"way","seamark_type":"harbour","display_class":"OTHER","min_zoom":12,"importance":1,"name":"Moon Lake Boat Launch","ref":null,"common":{"type":"harbour"},"children":{"harbour":{"category":"marina"}},"osm_tags":{"fee":"no","leisure":"marina","name":"Moon Lake Boat Launch","operator":"Pennsylvania Department of Conservation and Nautral Resources","power_supply":"no","sanitary_dump_station":"no","seamark:harbour:category":"marina","seamark:type":"harbour"}}}],"type":"FeatureCollection"}