{"type":"FeatureCollection","features":[{"type":"Feature","geometry":{"type":"Point","coordinates":[-96.3293215,41.3132426]},"properties":{"osm_id":1928503690,"osm_type":"node","seamark_type":"harbour","display_class":"OTHER","min_zoom":12,"importance":1,"name":null,"ref":null,"common":{"type":"harbour"},"children":{"harbour":{"category":"marina"}},"osm_tags":{"leisure":"marina","seamark:harbour:category":"marina","seamark:type":"harbour","source":"bing"}}},{"type":"Feature","geometry":{"type":"Polygon","coordinates":[[[-96.0960223,41.5890401],[-96.0961841,41.5889493],[-96.0963426,41.5886517],[-96.0970776,41.5877842],[-96.0970203,41.5876808],[-96.0950613,41.5870705],[-96.0948219,41.5871537],[-96.0943802,41.587643],[-96.0942218,41.5877237],[-96.093925,41.5877136],[-96.0936452,41.5876279],[-96.0930855,41.5881196],[-96.0930046,41.5881297],[-96.0928782,41.5883377],[-96.0943371,41.5886803],[-96.0960223,41.5890401]]]},"properties":{"osm_id":1082775298,"osm_type":"way","seamark_type":"harbour","display_class":"OTHER","min_zoom":12,"importance":1,"name":"Cottonwood Cove Marina","ref":null,"common":{"type":"harbour"},"children":{"harbour":{"category":"marina"}},"osm_tags":{"leisure":"marina","name":"Cottonwood Cove Marina","seamark:harbour:category":"marina","seamark:type":"harbour"}}},{"type":"Feature","geometry":{"type":"Polygon","coordinates":[[[-96.0921984,41.5864136],[-96.0923912,41.5864369],[-96.0925472,41.5863096],[-96.0927797,41.5859428],[-96.0927683,41.5857986],[-96.091844,41.5853935],[-96.0916796,41.5854402],[-96.0916126,41.5854175],[-96.0915378,41.585385],[-96.0908573,41.585911],[-96.0910757,41.5860446],[-96.0913053,41.5860488],[-96.0915775,41.5861612],[-96.0921984,41.5864136]]]},"properties":{"osm_id":1082775284,"osm_type":"way","seamark_type":"harbour","display_class":"OTHER","min_zoom":12,"importance":1,"name":"River View Park Marina","ref":null,"common":{"type":"harbour"},"children":{"harbour":{"category":"marina"}},"osm_tags":{"leisure":"marina","name":"River View Park Marina","seamark:harbour:category":"marina","seamark:type":"harbour"}}},{"type":"Feature","geometry":{"type":"Polygon","coordinates":[[[-96.2983443,41.2607028],[-96.2982719,41.2607358],[-96.2983631,41.2608568],[-96.2977213,41.2611388],[-96.2977556,41.2612266],[-96.2977824,41.2613027],[-96.2978133,41.2614393],[-96.2976101,41.2615335],[-96.297535,41.2615431],[-96.2975389,41.261592],[-96.2971809,41.261636],[-96.2971695,41.2614972],[-96.2971427,41.261405],[-96.2971045,41.2613097],[-96.2970609,41.261219],[-96.2969884,41.2611111],[-96.2969121,41.2610204],[-96.2968115,41.2609263],[-96.2967098,41.2608446],[-96.2965855,41.2607693],[-96.2964942,41.2607245],[-96.2967163,41.2605082],[-96.2967712,41.2605375],[-96.2968134,41.2604936],[-96.2975095,41.2601851],[-96.2974538,41.2601112],[-96.2975004,41.2600905],[-96.2975457,41.2600704],[-96.2976054,41.2601418],[-96.2977596,41.2600743],[-96.29807,41.2604793],[-96.298166,41.2604342],[-96.2983443,41.2607028]]]},"properties":{"osm_id":182128550,"osm_type":"way","seamark_type":"harbour","display_class":"OTHER","min_zoom":12,"importance":1,"name":"West Shores Marina","ref":null,"common":{"type":"harbour"},"children":{"harbour":{"category":"marina"}},"osm_tags":{"access":"private","leisure":"marina","name":"West Shores Marina","seamark:harbour:category":"marina","seamark:type":"harbour","source":"bing"}}}],"type":"FeatureCollection"}