{"type":"FeatureCollection","features":[{"type":"Feature","geometry":{"type":"Point","coordinates":[141.6200787,42.6212738]},"properties":{"osm_id":13529629545,"osm_type":"node","seamark_type":"light_minor","display_class":"OTHER","min_zoom":12,"importance":1,"name":null,"ref":null,"common":{"type":"light_minor"},"children":{"light":{"character":"Fl","colour":"green","group":"2","height":"13","period":"6","range":"5"}},"osm_tags":{"seamark:light:character":"Fl","seamark:light:colour":"green","seamark:light:group":"2","seamark:light:height":"13","seamark:light:period":"6","seamark:light:range":"5","seamark:type":"light_minor"}}},{"type":"Feature","geometry":{"type":"Point","coordinates":[141.6191669,42.6268085]},"properties":{"osm_id":13529629546,"osm_type":"node","seamark_type":"light_minor","display_class":"OTHER","min_zoom":12,"importance":1,"name":null,"ref":null,"common":{"type":"light_minor"},"children":{"light":{"character":"Iso","colour":"green","height":"10","period":"6","range":"4"}},"osm_tags":{"seamark:light:character":"Iso","seamark:light:colour":"green","seamark:light:height":"10","seamark:light:period":"6","seamark:light:range":"4","seamark:type":"light_minor"}}},{"type":"Feature","geometry":{"type":"Point","coordinates":[141.6224682,42.6247913]},"properties":{"osm_id":13529629547,"osm_type":"node","seamark_type":"buoy_lateral","display_class":"OTHER","min_zoom":12,"importance":1,"name":"No.1","ref":null,"common":{"name":"No.1","radar_reflector":"yes","type":"buoy_lateral"},"children":{"buoy_lateral":{"category":"port","colour":"green","shape":"pillar","system":"iala-b"},"light":{"character":"Fl","colour":"green","period":"3"},"topmark":{"colour":"green","shape":"cylinder"}},"osm_tags":{"seamark:buoy_lateral:category":"port","seamark:buoy_lateral:colour":"green","seamark:buoy_lateral:shape":"pillar","seamark:buoy_lateral:system":"iala-b","seamark:light:character":"Fl","seamark:light:colour":"green","seamark:light:period":"3","seamark:name":"No.1","seamark:radar_reflector":"yes","seamark:topmark:colour":"green","seamark:topmark:shape":"cylinder","seamark:type":"buoy_lateral"}}},{"type":"Feature","geometry":{"type":"Point","coordinates":[141.6105563,42.9996164]},"properties":{"osm_id":7192449382,"osm_type":"node","seamark_type":"gate","display_class":"OTHER","min_zoom":12,"importance":1,"name":"馬追運河 水門","ref":null,"common":{"type":"gate"},"children":{},"osm_tags":{"name":"馬追運河 水門","name:en":"Umaoi Canal water gate","name:ja":"馬追運河 水門","name:ja-Hira":"うまおい うんが すいもん","seamark:type":"gate","waterway":"lock_gate"}}},{"type":"Feature","geometry":{"type":"Polygon","coordinates":[[[141.9436311,42.5467764],[141.9436227,42.5467811],[141.9437335,42.5468756],[141.9436516,42.5469815],[141.9426974,42.5475601],[141.9413811,42.5483555],[141.9412497,42.5484281],[141.9414643,42.5488991],[141.9402301,42.5495932],[141.9401301,42.5494728],[141.9391616,42.5486066],[141.937995,42.5475658],[141.9373674,42.5475526],[141.9372292,42.5474005],[141.9370428,42.5474983],[141.9352041,42.5474345],[141.9352055,42.5474239],[141.9351448,42.5474229],[141.9351489,42.5473344],[141.9352179,42.547337],[141.9363589,42.5473802],[141.9363561,42.5474279],[141.9370018,42.5474483],[141.9396191,42.5459816],[141.9398041,42.545876],[141.9415767,42.5448645],[141.9429964,42.5461513],[141.9429674,42.5461706],[141.9436311,42.5467764]]]},"properties":{"osm_id":1535310269,"osm_type":"way","seamark_type":"harbour","display_class":"OTHER","min_zoom":12,"importance":1,"name":"鵡川漁港","ref":"1115065","common":{"name":"鵡川漁港","type":"harbour"},"children":{"harbour":{"category":"fishing"}},"osm_tags":{"harbour":"yes","industrial":"port","landuse":"industrial","name":"鵡川漁港","name:en":"Mukawa Fishing Port","name:ja":"鵡川漁港","name:ja-Hira":"むかわぎょこう","name:ja-Latn":"Mukawa Gyokō","note":"ref番号は水産庁漁港番号です","operator":"北海道","port":"fishing","port:type":"seaport","ref":"1115065","seamark:harbour:category":"fishing","seamark:name":"鵡川漁港","seamark:type":"harbour"}}}],"type":"FeatureCollection"}