{"type":"FeatureCollection","features":[{"type":"Feature","geometry":{"type":"Point","coordinates":[9.5413254,42.3406627]},"properties":{"osm_id":6844192695,"osm_type":"node","seamark_type":"light_major","display_class":"LIGHTHOUSE","min_zoom":7,"importance":5,"name":null,"ref":null,"common":{"type":"light_major"},"children":{},"osm_tags":{"man_made":"lighthouse","seamark:type":"light_major"}}},{"type":"Feature","geometry":{"type":"Polygon","coordinates":[[[9.4541186,42.6942421],[9.454118,42.6942502],[9.4541099,42.6942557],[9.4540989,42.6942553],[9.4540915,42.6942493],[9.4540921,42.6942412],[9.4541002,42.6942358],[9.4541112,42.6942362],[9.4541186,42.6942421]]]},"properties":{"osm_id":1087978269,"osm_type":"way","seamark_type":"light_major","display_class":"LIGHTHOUSE","min_zoom":7,"importance":5,"name":null,"ref":null,"common":{"type":"light_major"},"children":{"light":{"1:character":"Fl","1:colour":"red","1:height":"16","1:period":"4","1:range":"12","1:sector_end":"130","1:sector_start":"40","1:sequence":"1+(3)","1:visibility":"unintensified","2:character":"Fl","2:colour":"red","2:height":"16","2:period":"4","2:range":"12","2:sector_end":"215","2:sector_start":"130","2:sequence":"1+(3)","3:character":"Fl","3:colour":"white","3:height":"16","3:period":"4","3:range":"15","3:sector_end":"325","3:sector_start":"215","3:sequence":"1+(3)","4:character":"Fl","4:colour":"red","4:height":"16","4:period":"4","4:range":"12","4:sector_end":"40","4:sector_start":"325","4:sequence":"1+(3)","reference":"E 0856"}},"osm_tags":{"man_made":"lighthouse","seamark:light:1:character":"Fl","seamark:light:1:colour":"red","seamark:light:1:height":"16","seamark:light:1:period":"4","seamark:light:1:range":"12","seamark:light:1:sector_end":"130","seamark:light:1:sector_start":"40","seamark:light:1:sequence":"1+(3)","seamark:light:1:visibility":"unintensified","seamark:light:2:character":"Fl","seamark:light:2:colour":"red","seamark:light:2:height":"16","seamark:light:2:period":"4","seamark:light:2:range":"12","seamark:light:2:sector_end":"215","seamark:light:2:sector_start":"130","seamark:light:2:sequence":"1+(3)","seamark:light:3:character":"Fl","seamark:light:3:colour":"white","seamark:light:3:height":"16","seamark:light:3:period":"4","seamark:light:3:range":"15","seamark:light:3:sector_end":"325","seamark:light:3:sector_start":"215","seamark:light:3:sequence":"1+(3)","seamark:light:4:character":"Fl","seamark:light:4:colour":"red","seamark:light:4:height":"16","seamark:light:4:period":"4","seamark:light:4:range":"12","seamark:light:4:sector_end":"40","seamark:light:4:sector_start":"325","seamark:light:4:sequence":"1+(3)","seamark:light:reference":"E 0856","seamark:type":"light_major","source":"US NGA Pub. 113. 2010-10-22."}}},{"type":"Feature","geometry":{"type":"Polygon","coordinates":[[[9.4531575,42.6948451],[9.4531569,42.6948532],[9.4531488,42.6948587],[9.4531378,42.6948583],[9.4531304,42.6948523],[9.453131,42.6948442],[9.4531391,42.6948388],[9.4531501,42.6948392],[9.4531575,42.6948451]]]},"properties":{"osm_id":1463881783,"osm_type":"way","seamark_type":"light_major","display_class":"LIGHTHOUSE","min_zoom":7,"importance":5,"name":null,"ref":null,"common":{"type":"light_major"},"children":{"light":{"1:character":"Fl","1:colour":"red","1:height":"16","1:period":"4","1:range":"12","1:sector_end":"130","1:sector_start":"40","1:sequence":"1+(3)","1:visibility":"unintensified","2:character":"Fl","2:colour":"red","2:height":"16","2:period":"4","2:range":"12","2:sector_end":"215","2:sector_start":"130","2:sequence":"1+(3)","3:character":"Fl","3:colour":"white","3:height":"16","3:period":"4","3:range":"15","3:sector_end":"325","3:sector_start":"215","3:sequence":"1+(3)","4:character":"Fl","4:colour":"red","4:height":"16","4:period":"4","4:range":"12","4:sector_end":"40","4:sector_start":"325","4:sequence":"1+(3)","reference":"E 0856"}},"osm_tags":{"man_made":"lighthouse","seamark:light:1:character":"Fl","seamark:light:1:colour":"red","seamark:light:1:height":"16","seamark:light:1:period":"4","seamark:light:1:range":"12","seamark:light:1:sector_end":"130","seamark:light:1:sector_start":"40","seamark:light:1:sequence":"1+(3)","seamark:light:1:visibility":"unintensified","seamark:light:2:character":"Fl","seamark:light:2:colour":"red","seamark:light:2:height":"16","seamark:light:2:period":"4","seamark:light:2:range":"12","seamark:light:2:sector_end":"215","seamark:light:2:sector_start":"130","seamark:light:2:sequence":"1+(3)","seamark:light:3:character":"Fl","seamark:light:3:colour":"white","seamark:light:3:height":"16","seamark:light:3:period":"4","seamark:light:3:range":"15","seamark:light:3:sector_end":"325","seamark:light:3:sector_start":"215","seamark:light:3:sequence":"1+(3)","seamark:light:4:character":"Fl","seamark:light:4:colour":"red","seamark:light:4:height":"16","seamark:light:4:period":"4","seamark:light:4:range":"12","seamark:light:4:sector_end":"40","seamark:light:4:sector_start":"325","seamark:light:4:sequence":"1+(3)","seamark:light:reference":"E 0856","seamark:type":"light_major","source":"US NGA Pub. 113. 2010-10-22."}}},{"type":"Feature","geometry":{"type":"Polygon","coordinates":[[[9.255402,42.7175218],[9.255312,42.7174077],[9.2554529,42.7173453],[9.2555419,42.7174573],[9.255402,42.7175218]]]},"properties":{"osm_id":364911402,"osm_type":"way","seamark_type":"light_minor","display_class":"LIGHTHOUSE","min_zoom":7,"importance":5,"name":"Punta Mortella","ref":null,"common":{"name":"Punta Mortella","type":"light_minor"},"children":{"light":{"character":"Oc","colour":"green","height":"43","period":"4","range":"8","reference":"E 0930","sequence":"3+(1)"}},"osm_tags":{"building":"yes","man_made":"lighthouse","name":"Phare de la Mortella","seamark:light:character":"Oc","seamark:light:colour":"green","seamark:light:height":"43","seamark:light:period":"4","seamark:light:range":"8","seamark:light:reference":"E 0930","seamark:light:sequence":"3+(1)","seamark:name":"Punta Mortella","seamark:type":"light_minor","source":"©IGN 2010 dans le cadre de la cartographie réglementaire"}}},{"type":"Feature","geometry":{"type":"Polygon","coordinates":[[[9.2796563,42.6887714],[9.2796144,42.6888272],[9.2796741,42.6888515],[9.279641,42.6888955],[9.2794198,42.6888058],[9.2794948,42.6887059],[9.2796292,42.6887604],[9.2796563,42.6887714]]]},"properties":{"osm_id":364911986,"osm_type":"way","seamark_type":"light_minor","display_class":"LIGHTHOUSE","min_zoom":7,"importance":5,"name":"Punte de Fornali","ref":null,"common":{"name":"Punte de Fornali","type":"light_minor"},"children":{"light":{"character":"Fl","colour":"green","height":"14","period":"4","range":"6","reference":"E 0932","sequence":"1+(3)"}},"osm_tags":{"building":"yes","man_made":"lighthouse","name":"Phare de Fornali","seamark:light:character":"Fl","seamark:light:colour":"green","seamark:light:height":"14","seamark:light:period":"4","seamark:light:range":"6","seamark:light:reference":"E 0932","seamark:light:sequence":"1+(3)","seamark:name":"Punte de Fornali","seamark:type":"light_minor","source":"cadastre-dgi-fr source : Direction Générale des Finances Publiques - Cadastre. Mise à jour : 2015;US NGA Pub. 113. 2010-10-22."}}},{"type":"Feature","geometry":{"type":"Point","coordinates":[9.5405008,42.2604241]},"properties":{"osm_id":8066123486,"osm_type":"node","seamark_type":"light_major","display_class":"LIGHTHOUSE","min_zoom":7,"importance":5,"name":"Ruisseau d′Alistro","ref":null,"common":{"name":"Ruisseau d′Alistro","type":"light_major"},"children":{"light":{"character":"Fl","colour":"white","group":"2","height":"93","period":"10","range":"22","reference":"E 0864","sequence":"0.1+(2.4)+0.1+(7.4)"}},"osm_tags":{"man_made":"lighthouse","name":"Phare d'Alistro","ref:mhs":"IA2B000178","seamark:light:character":"Fl","seamark:light:colour":"white","seamark:light:group":"2","seamark:light:height":"93","seamark:light:period":"10","seamark:light:range":"22","seamark:light:reference":"E 0864","seamark:light:sequence":"0.1+(2.4)+0.1+(7.4)","seamark:name":"Ruisseau d′Alistro","seamark:type":"light_major","source":"US NGA Pub. 113. 2010-10-22.","wikidata":"Q3378146","wikipedia":"fr:Phare d'Alistro"}}},{"type":"Feature","geometry":{"type":"Point","coordinates":[9.4520322,42.6948562]},"properties":{"osm_id":4157027535,"osm_type":"node","seamark_type":"beacon_lateral","display_class":"BEACON","min_zoom":9,"importance":4,"name":null,"ref":null,"common":{"type":"beacon_lateral"},"children":{"beacon_lateral":{"category":"port","colour":"red","shape":"tower","system":"iala-a"},"light":{"character":"Fl","colour":"red"}},"osm_tags":{"seamark:beacon_lateral:category":"port","seamark:beacon_lateral:colour":"red","seamark:beacon_lateral:shape":"tower","seamark:beacon_lateral:system":"iala-a","seamark:light:character":"Fl","seamark:light:colour":"red","seamark:type":"beacon_lateral"}}},{"type":"Feature","geometry":{"type":"Point","coordinates":[9.4542049,42.9595836]},"properties":{"osm_id":1306157859,"osm_type":"node","seamark_type":"small_craft_facility","display_class":"OTHER","min_zoom":12,"importance":1,"name":null,"ref":null,"common":{"type":"small_craft_facility"},"children":{"small_craft_facility":{"category":"boat_hoist"}},"osm_tags":{"crane:type":"travel_lift","man_made":"crane","seamark:small_craft_facility:category":"boat_hoist","seamark:type":"small_craft_facility"}}},{"type":"Feature","geometry":{"type":"Point","coordinates":[9.4559133,42.6982151]},"properties":{"osm_id":1327347728,"osm_type":"node","seamark_type":"light_minor","display_class":"OTHER","min_zoom":12,"importance":1,"name":null,"ref":null,"common":{"type":"light_minor"},"children":{"light":{"character":"Fl","colour":"green","height":"9","period":"4","range":"11","reference":"E 0860","sequence":"1+(3)"}},"osm_tags":{"seamark:light:character":"Fl","seamark:light:colour":"green","seamark:light:height":"9","seamark:light:period":"4","seamark:light:range":"11","seamark:light:reference":"E 0860","seamark:light:sequence":"1+(3)","seamark:type":"light_minor","source":"US NGA Pub. 113. 2010-10-22."}}},{"type":"Feature","geometry":{"type":"Point","coordinates":[9.4531032,42.6948599]},"properties":{"osm_id":1327347729,"osm_type":"node","seamark_type":"light_minor","display_class":"OTHER","min_zoom":12,"importance":1,"name":null,"ref":null,"common":{"type":"light_minor"},"children":{"light":{"character":"Fl","colour":"green","group":"2","height":"13","period":"6","range":"4","reference":"E 0858","sequence":"1+(1)+1+(3)"}},"osm_tags":{"seamark:light:character":"Fl","seamark:light:colour":"green","seamark:light:group":"2","seamark:light:height":"13","seamark:light:period":"6","seamark:light:range":"4","seamark:light:reference":"E 0858","seamark:light:sequence":"1+(1)+1+(3)","seamark:type":"light_minor","source":"US NGA Pub. 113. 2010-10-22."}}},{"type":"Feature","geometry":{"type":"Point","coordinates":[9.4541284,42.6998455]},"properties":{"osm_id":1327347730,"osm_type":"node","seamark_type":"light_minor","display_class":"OTHER","min_zoom":12,"importance":1,"name":null,"ref":null,"common":{"information":"Visible 153°-026°.","type":"light_minor"},"children":{"light":{"1:character":"Fl","1:colour":"red","1:group":"2","1:height":"2","1:period":"6","1:range":"4","1:sector_end":"26","1:sector_start":"153","1:sequence":"1+(1),1+(3)","reference":"E 0861"}},"osm_tags":{"seamark:information":"Visible 153°-026°.","seamark:light:1:character":"Fl","seamark:light:1:colour":"red","seamark:light:1:group":"2","seamark:light:1:height":"2","seamark:light:1:period":"6","seamark:light:1:range":"4","seamark:light:1:sector_end":"26","seamark:light:1:sector_start":"153","seamark:light:1:sequence":"1+(1),1+(3)","seamark:light:reference":"E 0861","seamark:type":"light_minor","source":"US NGA Pub. 113. 2010-10-22."}}},{"type":"Feature","geometry":{"type":"Point","coordinates":[9.4562091,42.7092214]},"properties":{"osm_id":1327347732,"osm_type":"node","seamark_type":"light_minor","display_class":"OTHER","min_zoom":12,"importance":1,"name":null,"ref":null,"common":{"type":"light_minor"},"children":{"light":{"character":"Q","colour":"green","range":"2","reference":"E 0862.6"}},"osm_tags":{"seamark:light:character":"Q","seamark:light:colour":"green","seamark:light:range":"2","seamark:light:reference":"E 0862.6","seamark:type":"light_minor","source":"US NGA Pub. 113. 2010-10-22."}}},{"type":"Feature","geometry":{"type":"Point","coordinates":[9.2978143,42.6799454]},"properties":{"osm_id":1327347738,"osm_type":"node","seamark_type":"light_minor","display_class":"OTHER","min_zoom":12,"importance":1,"name":null,"ref":null,"common":{"type":"light_minor"},"children":{"light":{"character":"Fl","colour":"green","group":"2","height":"4","period":"6","range":"3","reference":"E 0933.2","sequence":"1+(1)+1+(3)"}},"osm_tags":{"man_made":"lighthouse","seamark:light:character":"Fl","seamark:light:colour":"green","seamark:light:group":"2","seamark:light:height":"4","seamark:light:period":"6","seamark:light:range":"3","seamark:light:reference":"E 0933.2","seamark:light:sequence":"1+(1)+1+(3)","seamark:type":"light_minor","source":"US NGA Pub. 113. 2010-10-22."}}},{"type":"Feature","geometry":{"type":"Point","coordinates":[9.2973963,42.6803472]},"properties":{"osm_id":1328950615,"osm_type":"node","seamark_type":"small_craft_facility","display_class":"OTHER","min_zoom":12,"importance":1,"name":null,"ref":null,"common":{"information":"diesel","type":"small_craft_facility"},"children":{"small_craft_facility":{"category":"fuel_station"}},"osm_tags":{"seamark:information":"diesel","seamark:small_craft_facility:category":"fuel_station","seamark:type":"small_craft_facility","waterway":"fuel"}}},{"type":"Feature","geometry":{"type":"Point","coordinates":[9.4540628,42.9609931]},"properties":{"osm_id":2234332285,"osm_type":"node","seamark_type":"light_minor","display_class":"OTHER","min_zoom":12,"importance":1,"name":null,"ref":null,"common":{"type":"light_minor"},"children":{"light":{"character":"Fl","colour":"green","group":"2","height":"4","period":"6"}},"osm_tags":{"seamark:light:character":"Fl","seamark:light:colour":"green","seamark:light:group":"2","seamark:light:height":"4","seamark:light:period":"6","seamark:type":"light_minor"}}},{"type":"Feature","geometry":{"type":"Point","coordinates":[9.300451,42.6785203]},"properties":{"osm_id":3037002761,"osm_type":"node","seamark_type":"small_craft_facility","display_class":"OTHER","min_zoom":12,"importance":1,"name":null,"ref":null,"common":{"type":"small_craft_facility"},"children":{"small_craft_facility":{"category":"water_tap"}},"osm_tags":{"access":"customers","seamark:small_craft_facility:category":"water_tap","seamark:type":"small_craft_facility","waterway":"water_point"}}},{"type":"Feature","geometry":{"type":"Point","coordinates":[9.3002841,42.6785618]},"properties":{"osm_id":3037002762,"osm_type":"node","seamark_type":"small_craft_facility","display_class":"OTHER","min_zoom":12,"importance":1,"name":null,"ref":null,"common":{"type":"small_craft_facility"},"children":{"small_craft_facility":{"category":"water_tap"}},"osm_tags":{"access":"customers","seamark:small_craft_facility:category":"water_tap","seamark:type":"small_craft_facility","waterway":"water_point"}}},{"type":"Feature","geometry":{"type":"Point","coordinates":[9.2989456,42.6789358]},"properties":{"osm_id":3037002763,"osm_type":"node","seamark_type":"small_craft_facility","display_class":"OTHER","min_zoom":12,"importance":1,"name":null,"ref":null,"common":{"type":"small_craft_facility"},"children":{"small_craft_facility":{"category":"water_tap"}},"osm_tags":{"access":"customers","seamark:small_craft_facility:category":"water_tap","seamark:type":"small_craft_facility","waterway":"water_point"}}},{"type":"Feature","geometry":{"type":"Point","coordinates":[9.3020158,42.678901]},"properties":{"osm_id":3037009457,"osm_type":"node","seamark_type":"small_craft_facility","display_class":"OTHER","min_zoom":12,"importance":1,"name":null,"ref":null,"common":{"type":"small_craft_facility"},"children":{"small_craft_facility":{"category":"water_tap"}},"osm_tags":{"access":"customers","seamark:small_craft_facility:category":"water_tap","seamark:type":"small_craft_facility","waterway":"water_point"}}},{"type":"Feature","geometry":{"type":"Point","coordinates":[9.3021518,42.6789974]},"properties":{"osm_id":3037009458,"osm_type":"node","seamark_type":"small_craft_facility","display_class":"OTHER","min_zoom":12,"importance":1,"name":null,"ref":null,"common":{"type":"small_craft_facility"},"children":{"small_craft_facility":{"category":"water_tap"}},"osm_tags":{"access":"customers","seamark:small_craft_facility:category":"water_tap","seamark:type":"small_craft_facility","waterway":"water_point"}}},{"type":"Feature","geometry":{"type":"Point","coordinates":[9.3010064,42.6803106]},"properties":{"osm_id":3037009462,"osm_type":"node","seamark_type":"small_craft_facility","display_class":"OTHER","min_zoom":12,"importance":1,"name":null,"ref":null,"common":{"type":"small_craft_facility"},"children":{"small_craft_facility":{"category":"water_tap"}},"osm_tags":{"access":"customers","seamark:small_craft_facility:category":"water_tap","seamark:type":"small_craft_facility","waterway":"water_point"}}},{"type":"Feature","geometry":{"type":"Point","coordinates":[9.3011466,42.6802774]},"properties":{"osm_id":3037009463,"osm_type":"node","seamark_type":"small_craft_facility","display_class":"OTHER","min_zoom":12,"importance":1,"name":null,"ref":null,"common":{"type":"small_craft_facility"},"children":{"small_craft_facility":{"category":"water_tap"}},"osm_tags":{"access":"customers","seamark:small_craft_facility:category":"water_tap","seamark:type":"small_craft_facility","waterway":"water_point"}}},{"type":"Feature","geometry":{"type":"Point","coordinates":[9.3001504,42.6785943]},"properties":{"osm_id":3037017795,"osm_type":"node","seamark_type":"small_craft_facility","display_class":"OTHER","min_zoom":12,"importance":1,"name":null,"ref":null,"common":{"type":"small_craft_facility"},"children":{"small_craft_facility":{"category":"water_tap"}},"osm_tags":{"access":"customers","seamark:small_craft_facility:category":"water_tap","seamark:type":"small_craft_facility","waterway":"water_point"}}},{"type":"Feature","geometry":{"type":"Point","coordinates":[9.300039,42.6805484]},"properties":{"osm_id":3037019314,"osm_type":"node","seamark_type":"small_craft_facility","display_class":"OTHER","min_zoom":12,"importance":1,"name":null,"ref":null,"common":{"type":"small_craft_facility"},"children":{"small_craft_facility":{"category":"water_tap"}},"osm_tags":{"access":"customers","seamark:small_craft_facility:category":"water_tap","seamark:type":"small_craft_facility","waterway":"water_point"}}},{"type":"Feature","geometry":{"type":"Point","coordinates":[9.2999826,42.6786432]},"properties":{"osm_id":3037019315,"osm_type":"node","seamark_type":"small_craft_facility","display_class":"OTHER","min_zoom":12,"importance":1,"name":null,"ref":null,"common":{"type":"small_craft_facility"},"children":{"small_craft_facility":{"category":"water_tap"}},"osm_tags":{"access":"customers","seamark:small_craft_facility:category":"water_tap","seamark:type":"small_craft_facility","waterway":"water_point"}}},{"type":"Feature","geometry":{"type":"Point","coordinates":[9.2998341,42.6786856]},"properties":{"osm_id":3037019316,"osm_type":"node","seamark_type":"small_craft_facility","display_class":"OTHER","min_zoom":12,"importance":1,"name":null,"ref":null,"common":{"type":"small_craft_facility"},"children":{"small_craft_facility":{"category":"water_tap"}},"osm_tags":{"access":"customers","seamark:small_craft_facility:category":"water_tap","seamark:type":"small_craft_facility","waterway":"water_point"}}},{"type":"Feature","geometry":{"type":"Point","coordinates":[9.2996588,42.678732]},"properties":{"osm_id":3037019317,"osm_type":"node","seamark_type":"small_craft_facility","display_class":"OTHER","min_zoom":12,"importance":1,"name":null,"ref":null,"common":{"type":"small_craft_facility"},"children":{"small_craft_facility":{"category":"water_tap"}},"osm_tags":{"access":"customers","seamark:small_craft_facility:category":"water_tap","seamark:type":"small_craft_facility","waterway":"water_point"}}},{"type":"Feature","geometry":{"type":"Point","coordinates":[9.2994693,42.6787893]},"properties":{"osm_id":3037019318,"osm_type":"node","seamark_type":"small_craft_facility","display_class":"OTHER","min_zoom":12,"importance":1,"name":null,"ref":null,"common":{"type":"small_craft_facility"},"children":{"small_craft_facility":{"category":"water_tap"}},"osm_tags":{"access":"customers","seamark:small_craft_facility:category":"water_tap","seamark:type":"small_craft_facility","waterway":"water_point"}}},{"type":"Feature","geometry":{"type":"Point","coordinates":[9.2993059,42.6788282]},"properties":{"osm_id":3037019319,"osm_type":"node","seamark_type":"small_craft_facility","display_class":"OTHER","min_zoom":12,"importance":1,"name":null,"ref":null,"common":{"type":"small_craft_facility"},"children":{"small_craft_facility":{"category":"water_tap"}},"osm_tags":{"access":"customers","seamark:small_craft_facility:category":"water_tap","seamark:type":"small_craft_facility","waterway":"water_point"}}},{"type":"Feature","geometry":{"type":"Point","coordinates":[9.2991156,42.6788889]},"properties":{"osm_id":3037019320,"osm_type":"node","seamark_type":"small_craft_facility","display_class":"OTHER","min_zoom":12,"importance":1,"name":null,"ref":null,"common":{"type":"small_craft_facility"},"children":{"small_craft_facility":{"category":"water_tap"}},"osm_tags":{"access":"customers","seamark:small_craft_facility:category":"water_tap","seamark:type":"small_craft_facility","waterway":"water_point"}}},{"type":"Feature","geometry":{"type":"Point","coordinates":[9.3007138,42.6784444]},"properties":{"osm_id":3037019321,"osm_type":"node","seamark_type":"small_craft_facility","display_class":"OTHER","min_zoom":12,"importance":1,"name":null,"ref":null,"common":{"type":"small_craft_facility"},"children":{"small_craft_facility":{"category":"water_tap"}},"osm_tags":{"access":"customers","seamark:small_craft_facility:category":"water_tap","seamark:type":"small_craft_facility","waterway":"water_point"}}},{"type":"Feature","geometry":{"type":"Point","coordinates":[9.3008674,42.6783993]},"properties":{"osm_id":3037019322,"osm_type":"node","seamark_type":"small_craft_facility","display_class":"OTHER","min_zoom":12,"importance":1,"name":null,"ref":null,"common":{"type":"small_craft_facility"},"children":{"small_craft_facility":{"category":"water_tap"}},"osm_tags":{"access":"customers","seamark:small_craft_facility:category":"water_tap","seamark:type":"small_craft_facility","waterway":"water_point"}}},{"type":"Feature","geometry":{"type":"Point","coordinates":[9.301049,42.6783478]},"properties":{"osm_id":3037019323,"osm_type":"node","seamark_type":"small_craft_facility","display_class":"OTHER","min_zoom":12,"importance":1,"name":null,"ref":null,"common":{"type":"small_craft_facility"},"children":{"small_craft_facility":{"category":"water_tap"}},"osm_tags":{"access":"customers","seamark:small_craft_facility:category":"water_tap","seamark:type":"small_craft_facility","waterway":"water_point"}}},{"type":"Feature","geometry":{"type":"Point","coordinates":[9.3023688,42.6783169]},"properties":{"osm_id":3037019324,"osm_type":"node","seamark_type":"small_craft_facility","display_class":"OTHER","min_zoom":12,"importance":1,"name":null,"ref":null,"common":{"type":"small_craft_facility"},"children":{"small_craft_facility":{"category":"water_tap"}},"osm_tags":{"access":"customers","seamark:small_craft_facility:category":"water_tap","seamark:type":"small_craft_facility","waterway":"water_point"}}},{"type":"Feature","geometry":{"type":"Point","coordinates":[9.3022245,42.6785525]},"properties":{"osm_id":3037019325,"osm_type":"node","seamark_type":"small_craft_facility","display_class":"OTHER","min_zoom":12,"importance":1,"name":null,"ref":null,"common":{"type":"small_craft_facility"},"children":{"small_craft_facility":{"category":"water_tap"}},"osm_tags":{"access":"customers","seamark:small_craft_facility:category":"water_tap","seamark:type":"small_craft_facility","waterway":"water_point"}}},{"type":"Feature","geometry":{"type":"Point","coordinates":[9.3020781,42.6786483]},"properties":{"osm_id":3037019326,"osm_type":"node","seamark_type":"small_craft_facility","display_class":"OTHER","min_zoom":12,"importance":1,"name":null,"ref":null,"common":{"type":"small_craft_facility"},"children":{"small_craft_facility":{"category":"water_tap"}},"osm_tags":{"access":"customers","seamark:small_craft_facility:category":"water_tap","seamark:type":"small_craft_facility","waterway":"water_point"}}},{"type":"Feature","geometry":{"type":"Point","coordinates":[9.3019175,42.6787222]},"properties":{"osm_id":3037019327,"osm_type":"node","seamark_type":"small_craft_facility","display_class":"OTHER","min_zoom":12,"importance":1,"name":null,"ref":null,"common":{"type":"small_craft_facility"},"children":{"small_craft_facility":{"category":"water_tap"}},"osm_tags":{"access":"customers","seamark:small_craft_facility:category":"water_tap","seamark:type":"small_craft_facility","waterway":"water_point"}}},{"type":"Feature","geometry":{"type":"Point","coordinates":[9.2987508,42.6790377]},"properties":{"osm_id":3037019351,"osm_type":"node","seamark_type":"small_craft_facility","display_class":"OTHER","min_zoom":12,"importance":1,"name":null,"ref":null,"common":{"type":"small_craft_facility"},"children":{"small_craft_facility":{"category":"water_tap"}},"osm_tags":{"access":"customers","seamark:small_craft_facility:category":"water_tap","seamark:type":"small_craft_facility","waterway":"water_point"}}},{"type":"Feature","geometry":{"type":"Point","coordinates":[9.2985809,42.6791794]},"properties":{"osm_id":3037019352,"osm_type":"node","seamark_type":"small_craft_facility","display_class":"OTHER","min_zoom":12,"importance":1,"name":null,"ref":null,"common":{"type":"small_craft_facility"},"children":{"small_craft_facility":{"category":"water_tap"}},"osm_tags":{"access":"customers","seamark:small_craft_facility:category":"water_tap","seamark:type":"small_craft_facility","waterway":"water_point"}}},{"type":"Feature","geometry":{"type":"Point","coordinates":[9.2984314,42.6792988]},"properties":{"osm_id":3037019353,"osm_type":"node","seamark_type":"small_craft_facility","display_class":"OTHER","min_zoom":12,"importance":1,"name":null,"ref":null,"common":{"type":"small_craft_facility"},"children":{"small_craft_facility":{"category":"water_tap"}},"osm_tags":{"access":"customers","seamark:small_craft_facility:category":"water_tap","seamark:type":"small_craft_facility","waterway":"water_point"}}},{"type":"Feature","geometry":{"type":"Point","coordinates":[9.2982702,42.6794476]},"properties":{"osm_id":3037019354,"osm_type":"node","seamark_type":"small_craft_facility","display_class":"OTHER","min_zoom":12,"importance":1,"name":null,"ref":null,"common":{"type":"small_craft_facility"},"children":{"small_craft_facility":{"category":"water_tap"}},"osm_tags":{"access":"customers","seamark:small_craft_facility:category":"water_tap","seamark:type":"small_craft_facility","waterway":"water_point"}}},{"type":"Feature","geometry":{"type":"Point","coordinates":[9.2981209,42.6795838]},"properties":{"osm_id":3037019355,"osm_type":"node","seamark_type":"small_craft_facility","display_class":"OTHER","min_zoom":12,"importance":1,"name":null,"ref":null,"common":{"type":"small_craft_facility"},"children":{"small_craft_facility":{"category":"water_tap"}},"osm_tags":{"access":"customers","seamark:small_craft_facility:category":"water_tap","seamark:type":"small_craft_facility","waterway":"water_point"}}},{"type":"Feature","geometry":{"type":"Point","coordinates":[9.3005966,42.6784781]},"properties":{"osm_id":3037019357,"osm_type":"node","seamark_type":"small_craft_facility","display_class":"OTHER","min_zoom":12,"importance":1,"name":null,"ref":null,"common":{"type":"small_craft_facility"},"children":{"small_craft_facility":{"category":"water_tap"}},"osm_tags":{"access":"customers","seamark:small_craft_facility:category":"water_tap","seamark:type":"small_craft_facility","waterway":"water_point"}}},{"type":"Feature","geometry":{"type":"Point","coordinates":[9.3022395,42.6791106]},"properties":{"osm_id":3037020647,"osm_type":"node","seamark_type":"small_craft_facility","display_class":"OTHER","min_zoom":12,"importance":1,"name":null,"ref":null,"common":{"type":"small_craft_facility"},"children":{"small_craft_facility":{"category":"water_tap"}},"osm_tags":{"access":"customers","seamark:small_craft_facility:category":"water_tap","seamark:type":"small_craft_facility","waterway":"water_point"}}},{"type":"Feature","geometry":{"type":"Point","coordinates":[9.2995753,42.6809202]},"properties":{"osm_id":3037824735,"osm_type":"node","seamark_type":"small_craft_facility","display_class":"OTHER","min_zoom":12,"importance":1,"name":null,"ref":null,"common":{"type":"small_craft_facility"},"children":{"small_craft_facility":{"category":"water_tap"}},"osm_tags":{"access":"customers","seamark:small_craft_facility:category":"water_tap","seamark:type":"small_craft_facility","waterway":"water_point"}}},{"type":"Feature","geometry":{"type":"Point","coordinates":[9.3010741,42.679723]},"properties":{"osm_id":3037825870,"osm_type":"node","seamark_type":"small_craft_facility","display_class":"OTHER","min_zoom":12,"importance":1,"name":null,"ref":null,"common":{"type":"small_craft_facility"},"children":{"small_craft_facility":{"category":"water_tap"}},"osm_tags":{"access":"customers","seamark:small_craft_facility:category":"water_tap","seamark:type":"small_craft_facility","waterway":"water_point"}}},{"type":"Feature","geometry":{"type":"Point","coordinates":[9.3012264,42.6801037]},"properties":{"osm_id":3037825878,"osm_type":"node","seamark_type":"small_craft_facility","display_class":"OTHER","min_zoom":12,"importance":1,"name":null,"ref":null,"common":{"type":"small_craft_facility"},"children":{"small_craft_facility":{"category":"water_tap"}},"osm_tags":{"access":"customers","seamark:small_craft_facility:category":"water_tap","seamark:type":"small_craft_facility","waterway":"water_point"}}},{"type":"Feature","geometry":{"type":"Point","coordinates":[9.2994438,42.6810159]},"properties":{"osm_id":3037825879,"osm_type":"node","seamark_type":"small_craft_facility","display_class":"OTHER","min_zoom":12,"importance":1,"name":null,"ref":null,"common":{"type":"small_craft_facility"},"children":{"small_craft_facility":{"category":"water_tap"}},"osm_tags":{"access":"customers","seamark:small_craft_facility:category":"water_tap","seamark:type":"small_craft_facility","waterway":"water_point"}}},{"type":"Feature","geometry":{"type":"Point","coordinates":[9.3011212,42.679836]},"properties":{"osm_id":3037826054,"osm_type":"node","seamark_type":"small_craft_facility","display_class":"OTHER","min_zoom":12,"importance":1,"name":null,"ref":null,"common":{"type":"small_craft_facility"},"children":{"small_craft_facility":{"category":"water_tap"}},"osm_tags":{"access":"customers","seamark:small_craft_facility:category":"water_tap","seamark:type":"small_craft_facility","waterway":"water_point"}}},{"type":"Feature","geometry":{"type":"Point","coordinates":[9.3011558,42.6799134]},"properties":{"osm_id":3037826055,"osm_type":"node","seamark_type":"small_craft_facility","display_class":"OTHER","min_zoom":12,"importance":1,"name":null,"ref":null,"common":{"type":"small_craft_facility"},"children":{"small_craft_facility":{"category":"water_tap"}},"osm_tags":{"access":"customers","seamark:small_craft_facility:category":"water_tap","seamark:type":"small_craft_facility","waterway":"water_point"}}},{"type":"Feature","geometry":{"type":"Point","coordinates":[9.3011932,42.6800121]},"properties":{"osm_id":3037826056,"osm_type":"node","seamark_type":"small_craft_facility","display_class":"OTHER","min_zoom":12,"importance":1,"name":null,"ref":null,"common":{"type":"small_craft_facility"},"children":{"small_craft_facility":{"category":"water_tap"}},"osm_tags":{"access":"customers","seamark:small_craft_facility:category":"water_tap","seamark:type":"small_craft_facility","waterway":"water_point"}}},{"type":"Feature","geometry":{"type":"Point","coordinates":[9.3002927,42.6804288]},"properties":{"osm_id":3037826057,"osm_type":"node","seamark_type":"small_craft_facility","display_class":"OTHER","min_zoom":12,"importance":1,"name":null,"ref":null,"common":{"type":"small_craft_facility"},"children":{"small_craft_facility":{"category":"water_tap"}},"osm_tags":{"access":"customers","seamark:small_craft_facility:category":"water_tap","seamark:type":"small_craft_facility","waterway":"water_point"}}},{"type":"Feature","geometry":{"type":"Point","coordinates":[9.2998973,42.6806584]},"properties":{"osm_id":3037826058,"osm_type":"node","seamark_type":"small_craft_facility","display_class":"OTHER","min_zoom":12,"importance":1,"name":null,"ref":null,"common":{"type":"small_craft_facility"},"children":{"small_craft_facility":{"category":"water_tap"}},"osm_tags":{"access":"customers","seamark:small_craft_facility:category":"water_tap","seamark:type":"small_craft_facility","waterway":"water_point"}}},{"type":"Feature","geometry":{"type":"Point","coordinates":[9.2997912,42.6807468]},"properties":{"osm_id":3037826059,"osm_type":"node","seamark_type":"small_craft_facility","display_class":"OTHER","min_zoom":12,"importance":1,"name":null,"ref":null,"common":{"type":"small_craft_facility"},"children":{"small_craft_facility":{"category":"water_tap"}},"osm_tags":{"access":"customers","seamark:small_craft_facility:category":"water_tap","seamark:type":"small_craft_facility","waterway":"water_point"}}},{"type":"Feature","geometry":{"type":"Point","coordinates":[9.3001968,42.6804958]},"properties":{"osm_id":3037826218,"osm_type":"node","seamark_type":"small_craft_facility","display_class":"OTHER","min_zoom":12,"importance":1,"name":null,"ref":null,"common":{"type":"small_craft_facility"},"children":{"small_craft_facility":{"category":"water_tap"}},"osm_tags":{"access":"customers","seamark:small_craft_facility:category":"water_tap","seamark:type":"small_craft_facility","waterway":"water_point"}}},{"type":"Feature","geometry":{"type":"Point","coordinates":[9.341,42.7501667]},"properties":{"osm_id":9303562202,"osm_type":"node","seamark_type":"obstruction","display_class":"OTHER","min_zoom":12,"importance":1,"name":null,"ref":null,"common":{"type":"obstruction"},"children":{"obstruction":{"depth":"11.3"}},"osm_tags":{"depth":"11.3","seamark:obstruction:depth":"11.3","seamark:type":"obstruction"}}},{"type":"Feature","geometry":{"type":"Point","coordinates":[9.339433,42.7613342]},"properties":{"osm_id":11032881846,"osm_type":"node","seamark_type":"rock","display_class":"OTHER","min_zoom":12,"importance":1,"name":null,"ref":null,"common":{"type":"rock"},"children":{"rock":{"water_level":"awash"}},"osm_tags":{"seamark:rock:water_level":"awash","seamark:type":"rock"}}},{"type":"Feature","geometry":{"type":"Point","coordinates":[9.33937,42.761472]},"properties":{"osm_id":11032881847,"osm_type":"node","seamark_type":"rock","display_class":"OTHER","min_zoom":12,"importance":1,"name":null,"ref":null,"common":{"type":"rock"},"children":{"rock":{"water_level":"awash"}},"osm_tags":{"seamark:rock:water_level":"awash","seamark:type":"rock"}}},{"type":"Feature","geometry":{"type":"Point","coordinates":[9.4525579,42.6955752]},"properties":{"osm_id":11733843315,"osm_type":"node","seamark_type":"small_craft_facility","display_class":"OTHER","min_zoom":12,"importance":1,"name":null,"ref":null,"common":{"type":"small_craft_facility"},"children":{"small_craft_facility":{"category":"showers"}},"osm_tags":{"seamark:small_craft_facility:category":"showers","seamark:type":"small_craft_facility"}}},{"type":"Feature","geometry":{"type":"Point","coordinates":[9.4520275,42.6953086]},"properties":{"osm_id":11733843316,"osm_type":"node","seamark_type":"small_craft_facility","display_class":"OTHER","min_zoom":12,"importance":1,"name":null,"ref":null,"common":{"type":"small_craft_facility"},"children":{"small_craft_facility":{"category":"fuel_station"}},"osm_tags":{"seamark:small_craft_facility:category":"fuel_station","seamark:type":"small_craft_facility"}}},{"type":"Feature","geometry":{"type":"Point","coordinates":[9.4520375,42.6953421]},"properties":{"osm_id":11733843326,"osm_type":"node","seamark_type":"bunker_station","display_class":"OTHER","min_zoom":12,"importance":1,"name":null,"ref":null,"common":{"type":"bunker_station"},"children":{"bunker_station":{"category":"water"}},"osm_tags":{"seamark:bunker_station:category":"water","seamark:type":"bunker_station"}}},{"type":"Feature","geometry":{"type":"Point","coordinates":[9.0537791,42.6766786]},"properties":{"osm_id":14087618569,"osm_type":"node","seamark_type":"rock","display_class":"OTHER","min_zoom":12,"importance":1,"name":null,"ref":null,"common":{"type":"rock"},"children":{"rock":{"water_level":"awash"}},"osm_tags":{"seamark:rock:water_level":"awash","seamark:type":"rock"}}},{"type":"Feature","geometry":{"type":"Point","coordinates":[9.0540634,42.6769892]},"properties":{"osm_id":14087618570,"osm_type":"node","seamark_type":"rock","display_class":"OTHER","min_zoom":12,"importance":1,"name":null,"ref":null,"common":{"type":"rock"},"children":{"rock":{"water_level":"awash"}},"osm_tags":{"seamark:rock:water_level":"awash","seamark:type":"rock"}}},{"type":"Feature","geometry":{"type":"Point","coordinates":[9.0545972,42.6768561]},"properties":{"osm_id":14087618571,"osm_type":"node","seamark_type":"rock","display_class":"OTHER","min_zoom":12,"importance":1,"name":null,"ref":null,"common":{"type":"rock"},"children":{"rock":{"water_level":"awash"}},"osm_tags":{"seamark:rock:water_level":"awash","seamark:type":"rock"}}},{"type":"Feature","geometry":{"type":"Point","coordinates":[9.0573867,42.6684087]},"properties":{"osm_id":14087630582,"osm_type":"node","seamark_type":"rock","display_class":"OTHER","min_zoom":12,"importance":1,"name":null,"ref":null,"common":{"type":"rock"},"children":{"rock":{"water_level":"submerged"}},"osm_tags":{"seamark:rock:water_level":"submerged","seamark:type":"rock"}}},{"type":"Feature","geometry":{"type":"Point","coordinates":[9.0597363,42.6714468]},"properties":{"osm_id":14087630583,"osm_type":"node","seamark_type":"rock","display_class":"OTHER","min_zoom":12,"importance":1,"name":null,"ref":null,"common":{"type":"rock"},"children":{"rock":{"water_level":"submerged"}},"osm_tags":{"seamark:rock:water_level":"submerged","seamark:type":"rock"}}},{"type":"Feature","geometry":{"type":"Point","coordinates":[9.0566759,42.6728263]},"properties":{"osm_id":14087630584,"osm_type":"node","seamark_type":"rock","display_class":"OTHER","min_zoom":12,"importance":1,"name":null,"ref":null,"common":{"type":"rock"},"children":{"rock":{"water_level":"submerged"}},"osm_tags":{"seamark:rock:water_level":"submerged","seamark:type":"rock"}}},{"type":"Feature","geometry":{"type":"Point","coordinates":[9.0571681,42.6702488]},"properties":{"osm_id":14087630585,"osm_type":"node","seamark_type":"rock","display_class":"OTHER","min_zoom":12,"importance":1,"name":null,"ref":null,"common":{"type":"rock"},"children":{"rock":{"water_level":"awash"}},"osm_tags":{"seamark:rock:water_level":"awash","seamark:type":"rock"}}},{"type":"Feature","geometry":{"type":"Point","coordinates":[9.0577957,42.6703356]},"properties":{"osm_id":14087630586,"osm_type":"node","seamark_type":"rock","display_class":"OTHER","min_zoom":12,"importance":1,"name":null,"ref":null,"common":{"type":"rock"},"children":{"rock":{"water_level":"awash"}},"osm_tags":{"seamark:rock:water_level":"awash","seamark:type":"rock"}}},{"type":"Feature","geometry":{"type":"Point","coordinates":[9.0552503,42.6696216]},"properties":{"osm_id":14087630587,"osm_type":"node","seamark_type":"rock","display_class":"OTHER","min_zoom":12,"importance":1,"name":null,"ref":null,"common":{"type":"rock"},"children":{"rock":{"water_level":"awash"}},"osm_tags":{"seamark:rock:water_level":"awash","seamark:type":"rock"}}},{"type":"Feature","geometry":{"type":"Point","coordinates":[9.0557948,42.6700772]},"properties":{"osm_id":14087630588,"osm_type":"node","seamark_type":"rock","display_class":"OTHER","min_zoom":12,"importance":1,"name":null,"ref":null,"common":{"type":"rock"},"children":{"rock":{"water_level":"awash"}},"osm_tags":{"seamark:rock:water_level":"awash","seamark:type":"rock"}}},{"type":"Feature","geometry":{"type":"Point","coordinates":[9.0556151,42.6702389]},"properties":{"osm_id":14087630589,"osm_type":"node","seamark_type":"rock","display_class":"OTHER","min_zoom":12,"importance":1,"name":null,"ref":null,"common":{"type":"rock"},"children":{"rock":{"water_level":"awash"}},"osm_tags":{"seamark:rock:water_level":"awash","seamark:type":"rock"}}},{"type":"Feature","geometry":{"type":"Point","coordinates":[9.055025,42.6693514]},"properties":{"osm_id":14087630590,"osm_type":"node","seamark_type":"rock","display_class":"OTHER","min_zoom":12,"importance":1,"name":null,"ref":null,"common":{"type":"rock"},"children":{"rock":{"water_level":"submerged"}},"osm_tags":{"seamark:rock:water_level":"submerged","seamark:type":"rock"}}},{"type":"Feature","geometry":{"type":"Point","coordinates":[9.0582919,42.6679137]},"properties":{"osm_id":14087630591,"osm_type":"node","seamark_type":"rock","display_class":"OTHER","min_zoom":12,"importance":1,"name":null,"ref":null,"common":{"type":"rock"},"children":{"rock":{"water_level":"submerged"}},"osm_tags":{"seamark:rock:water_level":"submerged","seamark:type":"rock"}}},{"type":"Feature","geometry":{"type":"Point","coordinates":[9.0548372,42.6745814]},"properties":{"osm_id":14087630789,"osm_type":"node","seamark_type":"rock","display_class":"OTHER","min_zoom":12,"importance":1,"name":null,"ref":null,"common":{"type":"rock"},"children":{"rock":{"water_level":"awash"}},"osm_tags":{"seamark:rock:water_level":"awash","seamark:type":"rock"}}},{"type":"Feature","geometry":{"type":"Point","coordinates":[9.0545382,42.6747658]},"properties":{"osm_id":14087630790,"osm_type":"node","seamark_type":"rock","display_class":"OTHER","min_zoom":12,"importance":1,"name":null,"ref":null,"common":{"type":"rock"},"children":{"rock":{"water_level":"awash"}},"osm_tags":{"seamark:rock:water_level":"awash","seamark:type":"rock"}}},{"type":"Feature","geometry":{"type":"Point","coordinates":[9.0546736,42.674612]},"properties":{"osm_id":14087630791,"osm_type":"node","seamark_type":"rock","display_class":"OTHER","min_zoom":12,"importance":1,"name":null,"ref":null,"common":{"type":"rock"},"children":{"rock":{"water_level":"awash"}},"osm_tags":{"seamark:rock:water_level":"awash","seamark:type":"rock"}}},{"type":"Feature","geometry":{"type":"Point","coordinates":[9.0546589,42.6751139]},"properties":{"osm_id":14087630792,"osm_type":"node","seamark_type":"rock","display_class":"OTHER","min_zoom":12,"importance":1,"name":null,"ref":null,"common":{"type":"rock"},"children":{"rock":{"water_level":"awash"}},"osm_tags":{"seamark:rock:water_level":"awash","seamark:type":"rock"}}},{"type":"Feature","geometry":{"type":"Point","coordinates":[9.0549941,42.6752864]},"properties":{"osm_id":14087630793,"osm_type":"node","seamark_type":"rock","display_class":"OTHER","min_zoom":12,"importance":1,"name":null,"ref":null,"common":{"type":"rock"},"children":{"rock":{"water_level":"awash"}},"osm_tags":{"seamark:rock:water_level":"awash","seamark:type":"rock"}}},{"type":"Feature","geometry":{"type":"Point","coordinates":[9.0549968,42.6753939]},"properties":{"osm_id":14087630794,"osm_type":"node","seamark_type":"rock","display_class":"OTHER","min_zoom":12,"importance":1,"name":null,"ref":null,"common":{"type":"rock"},"children":{"rock":{"water_level":"awash"}},"osm_tags":{"seamark:rock:water_level":"awash","seamark:type":"rock"}}},{"type":"Feature","geometry":{"type":"Point","coordinates":[9.0534478,42.6778391]},"properties":{"osm_id":14087630795,"osm_type":"node","seamark_type":"rock","display_class":"OTHER","min_zoom":12,"importance":1,"name":null,"ref":null,"common":{"type":"rock"},"children":{"rock":{"water_level":"awash"}},"osm_tags":{"seamark:rock:water_level":"awash","seamark:type":"rock"}}},{"type":"Feature","geometry":{"type":"Point","coordinates":[9.0542673,42.6772495]},"properties":{"osm_id":14087630796,"osm_type":"node","seamark_type":"rock","display_class":"OTHER","min_zoom":12,"importance":1,"name":null,"ref":null,"common":{"type":"rock"},"children":{"rock":{"water_level":"awash"}},"osm_tags":{"seamark:rock:water_level":"awash","seamark:type":"rock"}}},{"type":"Feature","geometry":{"type":"Point","coordinates":[9.0541144,42.6760417]},"properties":{"osm_id":14087630797,"osm_type":"node","seamark_type":"rock","display_class":"OTHER","min_zoom":12,"importance":1,"name":null,"ref":null,"common":{"type":"rock"},"children":{"rock":{"water_level":"awash"}},"osm_tags":{"seamark:rock:water_level":"awash","seamark:type":"rock"}}},{"type":"Feature","geometry":{"type":"Point","coordinates":[9.0541989,42.6757754]},"properties":{"osm_id":14087630798,"osm_type":"node","seamark_type":"rock","display_class":"OTHER","min_zoom":12,"importance":1,"name":null,"ref":null,"common":{"type":"rock"},"children":{"rock":{"water_level":"awash"}},"osm_tags":{"seamark:rock:water_level":"awash","seamark:type":"rock"}}},{"type":"Feature","geometry":{"type":"Point","coordinates":[9.0545234,42.6753958]},"properties":{"osm_id":14087630799,"osm_type":"node","seamark_type":"rock","display_class":"OTHER","min_zoom":12,"importance":1,"name":null,"ref":null,"common":{"type":"rock"},"children":{"rock":{"water_level":"awash"}},"osm_tags":{"seamark:rock:water_level":"awash","seamark:type":"rock"}}},{"type":"Feature","geometry":{"type":"Point","coordinates":[9.056873,42.690387]},"properties":{"osm_id":14087631198,"osm_type":"node","seamark_type":"rock","display_class":"OTHER","min_zoom":12,"importance":1,"name":null,"ref":null,"common":{"type":"rock"},"children":{"rock":{"water_level":"submerged"}},"osm_tags":{"seamark:rock:water_level":"submerged","seamark:type":"rock"}}},{"type":"Feature","geometry":{"type":"Point","coordinates":[9.0564251,42.6899749]},"properties":{"osm_id":14087631202,"osm_type":"node","seamark_type":"rock","display_class":"OTHER","min_zoom":12,"importance":1,"name":null,"ref":null,"common":{"type":"rock"},"children":{"rock":{"water_level":"submerged"}},"osm_tags":{"seamark:rock:water_level":"submerged","seamark:type":"rock"}}},{"type":"Feature","geometry":{"type":"Point","coordinates":[9.0573893,42.6886313]},"properties":{"osm_id":14087631203,"osm_type":"node","seamark_type":"rock","display_class":"OTHER","min_zoom":12,"importance":1,"name":null,"ref":null,"common":{"type":"rock"},"children":{"rock":{"water_level":"awash"}},"osm_tags":{"seamark:rock:water_level":"awash","seamark:type":"rock"}}},{"type":"Feature","geometry":{"type":"Point","coordinates":[9.0576133,42.6889813]},"properties":{"osm_id":14087631204,"osm_type":"node","seamark_type":"rock","display_class":"OTHER","min_zoom":12,"importance":1,"name":null,"ref":null,"common":{"type":"rock"},"children":{"rock":{"water_level":"awash"}},"osm_tags":{"seamark:rock:water_level":"awash","seamark:type":"rock"}}},{"type":"Feature","geometry":{"type":"Point","coordinates":[9.0574296,42.6891035]},"properties":{"osm_id":14087631205,"osm_type":"node","seamark_type":"rock","display_class":"OTHER","min_zoom":12,"importance":1,"name":null,"ref":null,"common":{"type":"rock"},"children":{"rock":{"water_level":"awash"}},"osm_tags":{"seamark:rock:water_level":"awash","seamark:type":"rock"}}},{"type":"Feature","geometry":{"type":"Point","coordinates":[9.0573035,42.6894288]},"properties":{"osm_id":14087631206,"osm_type":"node","seamark_type":"rock","display_class":"OTHER","min_zoom":12,"importance":1,"name":null,"ref":null,"common":{"type":"rock"},"children":{"rock":{"water_level":"awash"}},"osm_tags":{"seamark:rock:water_level":"awash","seamark:type":"rock"}}},{"type":"Feature","geometry":{"type":"Point","coordinates":[9.0561475,42.6907783]},"properties":{"osm_id":14087631207,"osm_type":"node","seamark_type":"rock","display_class":"OTHER","min_zoom":12,"importance":1,"name":null,"ref":null,"common":{"type":"rock"},"children":{"rock":{"water_level":"awash"}},"osm_tags":{"seamark:rock:water_level":"awash","seamark:type":"rock"}}},{"type":"Feature","geometry":{"type":"Point","coordinates":[9.0566115,42.6917601]},"properties":{"osm_id":14087631227,"osm_type":"node","seamark_type":"rock","display_class":"OTHER","min_zoom":12,"importance":1,"name":null,"ref":null,"common":{"type":"rock"},"children":{"rock":{"water_level":"awash"}},"osm_tags":{"seamark:rock:water_level":"awash","seamark:type":"rock"}}},{"type":"Feature","geometry":{"type":"Point","coordinates":[9.0565813,42.6911775]},"properties":{"osm_id":14087631242,"osm_type":"node","seamark_type":"rock","display_class":"OTHER","min_zoom":12,"importance":1,"name":null,"ref":null,"common":{"type":"rock"},"children":{"rock":{"water_level":"awash"}},"osm_tags":{"seamark:rock:water_level":"awash","seamark:type":"rock"}}},{"type":"Feature","geometry":{"type":"Point","coordinates":[9.0585963,42.6940154]},"properties":{"osm_id":14087631243,"osm_type":"node","seamark_type":"rock","display_class":"OTHER","min_zoom":12,"importance":1,"name":null,"ref":null,"common":{"type":"rock"},"children":{"rock":{"water_level":"awash"}},"osm_tags":{"seamark:rock:water_level":"awash","seamark:type":"rock"}}},{"type":"Feature","geometry":{"type":"Point","coordinates":[9.0566102,42.6955639]},"properties":{"osm_id":14087631244,"osm_type":"node","seamark_type":"rock","display_class":"OTHER","min_zoom":12,"importance":1,"name":null,"ref":null,"common":{"type":"rock"},"children":{"rock":{"water_level":"awash"}},"osm_tags":{"seamark:rock:water_level":"awash","seamark:type":"rock"}}},{"type":"Feature","geometry":{"type":"Point","coordinates":[9.0587714,42.6966432]},"properties":{"osm_id":14087631245,"osm_type":"node","seamark_type":"rock","display_class":"OTHER","min_zoom":12,"importance":1,"name":null,"ref":null,"common":{"type":"rock"},"children":{"rock":{"water_level":"awash"}},"osm_tags":{"seamark:rock:water_level":"awash","seamark:type":"rock"}}},{"type":"Feature","geometry":{"type":"LineString","coordinates":[[9.4534784,42.959175],[9.4536661,42.959147]]},"properties":{"osm_id":115669112,"osm_type":"way","seamark_type":"small_craft_facility","display_class":"OTHER","min_zoom":12,"importance":1,"name":null,"ref":null,"common":{"information":"by car","type":"small_craft_facility"},"children":{"small_craft_facility":{"category":"slipway"}},"osm_tags":{"leisure":"slipway","seamark:information":"by car","seamark:small_craft_facility:category":"slipway","seamark:type":"small_craft_facility"}}},{"type":"Feature","geometry":{"type":"LineString","coordinates":[[9.3012129,42.679147],[9.3009557,42.6792141]]},"properties":{"osm_id":115674279,"osm_type":"way","seamark_type":"small_craft_facility","display_class":"OTHER","min_zoom":12,"importance":1,"name":null,"ref":null,"common":{"type":"small_craft_facility"},"children":{"small_craft_facility":{"category":"slipway"}},"osm_tags":{"leisure":"slipway","seamark:small_craft_facility:category":"slipway","seamark:type":"small_craft_facility"}}},{"type":"Feature","geometry":{"type":"LineString","coordinates":[[9.44991,42.6962546],[9.4500375,42.6961584],[9.4501721,42.6960569]]},"properties":{"osm_id":115781720,"osm_type":"way","seamark_type":"small_craft_facility","display_class":"OTHER","min_zoom":12,"importance":1,"name":null,"ref":null,"common":{"information":"by car","type":"small_craft_facility"},"children":{"small_craft_facility":{"category":"slipway"}},"osm_tags":{"highway":"service","leisure":"slipway","seamark:information":"by car","seamark:small_craft_facility:category":"slipway","seamark:type":"small_craft_facility","service":"slipway"}}},{"type":"Feature","geometry":{"type":"Polygon","coordinates":[[[9.5390571,42.3403452],[9.5390419,42.3403416],[9.5390268,42.3403358],[9.5390113,42.3403236],[9.5390075,42.3403175],[9.5390051,42.3403003],[9.5390143,42.3402781],[9.53903,42.3402609],[9.5390768,42.3402686],[9.5390842,42.3402521],[9.5391102,42.3402576],[9.5391247,42.3402645],[9.5391414,42.3402883],[9.5391436,42.3403004],[9.539139,42.3403181],[9.5391085,42.3403185],[9.5390826,42.3403376],[9.5390571,42.3403452]]]},"properties":{"osm_id":586291354,"osm_type":"way","seamark_type":"building","display_class":"OTHER","min_zoom":12,"importance":1,"name":null,"ref":null,"common":{"type":"building"},"children":{"building":{"function":"harbour_master"}},"osm_tags":{"building":"yes","seamark:building:function":"harbour_master","seamark:type":"building","source":"cadastre-dgi-fr source : Direction Générale des Finances Publiques - Cadastre. Mise à jour : 2018"}}},{"type":"Feature","geometry":{"type":"Polygon","coordinates":[[[9.2974797,42.6803262],[9.2973964,42.680579],[9.2972694,42.6805605],[9.2971274,42.6809775],[9.2977856,42.6811733],[9.2978772,42.6810075],[9.2984077,42.6811613],[9.2983126,42.6813353],[9.2988012,42.681489],[9.2993948,42.6812032],[9.2992824,42.6810954],[9.2995001,42.6809441],[9.3000589,42.6805035],[9.3001675,42.6804812],[9.3004933,42.6802332],[9.3006549,42.6803462],[9.301136,42.680254],[9.30121,42.6801639],[9.3009956,42.6795508],[9.3012393,42.6793431],[9.3010922,42.6790569],[9.3005502,42.6792102],[9.3003287,42.6793895],[9.3002413,42.6793581],[9.3003469,42.6791145],[9.3012657,42.6788216],[9.3016835,42.6789311],[9.301799,42.6790223],[9.3018459,42.6791865],[9.3019534,42.679473],[9.3019765,42.679528],[9.3020506,42.6795191],[9.3020348,42.6794522],[9.3020483,42.6794162],[9.3020604,42.6794147],[9.3020544,42.6793897],[9.3021019,42.6793814],[9.3020963,42.6793463],[9.3020744,42.6793465],[9.3022145,42.6791144],[9.3022059,42.6790879],[9.3021518,42.6789974],[9.3017699,42.6787918],[9.3021195,42.6785048],[9.3022902,42.6782059],[9.3019406,42.6782478],[9.3017943,42.6784211],[9.3012007,42.6785885],[9.301049,42.6783478],[9.2988295,42.6790008],[9.2979099,42.6797942],[9.2979026,42.6799884],[9.2974797,42.6803262]]]},"properties":{"osm_id":1089025801,"osm_type":"way","seamark_type":"harbour","display_class":"OTHER","min_zoom":12,"importance":1,"name":null,"ref":null,"common":{"type":"harbour"},"children":{"harbour":{"category":"marina"}},"osm_tags":{"leisure":"marina","seamark:harbour:category":"marina","seamark:type":"harbour"}}},{"type":"Feature","geometry":{"type":"LineString","coordinates":[[8.75612,42.5703],[8.75778,42.57125],[8.75792,42.5715],[8.75832,42.5721],[8.75852,42.57283],[8.75882,42.57312],[8.75953,42.57607],[8.75932,42.5764],[8.75865,42.57673],[8.76003,42.5785],[8.76432,42.58672],[8.77468,42.60958],[8.78372,42.62922],[8.78433,42.63023],[8.80082,42.64577],[8.80677,42.65117],[8.83805,42.6767],[8.86598,42.68747],[8.8759,42.69067],[8.88195,42.6928],[8.88465,42.69372],[8.90935,42.70292],[8.92568,42.70927],[8.94557,42.71663],[8.9472,42.71733],[8.95412,42.71967],[8.9629,42.72298],[8.9861,42.73195],[8.98962,42.73247],[8.99403,42.73487],[9.00258,42.73787],[9.01152,42.74135],[9.02062,42.74438],[9.04633,42.75378],[9.05512,42.75677],[9.06782,42.76138],[9.08333,42.7672],[9.15618,42.79385],[9.16562,42.79735],[9.17437,42.80062],[9.18158,42.80275],[9.18347,42.80282],[9.1921,42.79937],[9.20112,42.79577],[9.21008,42.79253],[9.2258,42.78647],[9.26742,42.7705],[9.27187,42.76818],[9.27568,42.76067],[9.27787,42.75455],[9.27837,42.75318],[9.28375,42.7382],[9.28635,42.73092],[9.2891,42.72337],[9.29048,42.71955],[9.29177,42.71587],[9.29442,42.7086],[9.29608,42.7037],[9.29855,42.69707],[9.2931,42.69257],[9.30057,42.68552],[9.30217,42.68495],[9.3027,42.6848],[9.302,42.6835]]},"properties":{"osm_id":761201743,"osm_type":"way","seamark_type":"cable_submarine","display_class":"OTHER","min_zoom":12,"importance":1,"name":"CALVI-ST-FLORENT","ref":null,"common":{"type":"cable_submarine"},"children":{"cable_submarine":{"category":"fiber_optic","name":"CALVI-ST-FLORENT"}},"osm_tags":{"communication":"line","location":"underwater","name":"CALVI-ST-FLORENT","seamark:cable_submarine:category":"fiber_optic","seamark:cable_submarine:name":"CALVI-ST-FLORENT","seamark:type":"cable_submarine","source":"https://www.sigcables.com/index.php/cableliste/fiche_cable/50"}}},{"type":"Feature","geometry":{"type":"Point","coordinates":[9.5418299,42.3411806]},"properties":{"osm_id":1327347713,"osm_type":"node","seamark_type":"light_minor","display_class":"OTHER","min_zoom":12,"importance":1,"name":"Campoloro","ref":null,"common":{"name":"Campoloro","type":"light_minor"},"children":{"light":{"character":"Fl","colour":"red","height":"7","period":"4","range":"6","reference":"E 0863","sequence":"1+(3)"}},"osm_tags":{"seamark:light:character":"Fl","seamark:light:colour":"red","seamark:light:height":"7","seamark:light:period":"4","seamark:light:range":"6","seamark:light:reference":"E 0863","seamark:light:sequence":"1+(3)","seamark:name":"Campoloro","seamark:type":"light_minor","source":"US NGA Pub. 113. 2010-10-22."}}},{"type":"Feature","geometry":{"type":"Polygon","coordinates":[[[9.2998412,42.6813239],[9.2997919,42.6812765],[9.2998969,42.6812058],[9.299982,42.6812698],[9.3000034,42.681326],[9.2999144,42.6813712],[9.2998644,42.6813346],[9.2998482,42.6813463],[9.299834,42.6813304],[9.2998412,42.6813239]]]},"properties":{"osm_id":364910343,"osm_type":"way","seamark_type":"building","display_class":"OTHER","min_zoom":12,"importance":1,"name":"Capitainerie","ref":null,"common":{"type":"building"},"children":{"building":{"function":"harbour_master"}},"osm_tags":{"building":"yes","government":"transportation","name":"Capitainerie","office":"government","seamark:building:function":"harbour_master","seamark:type":"building","source":"cadastre-dgi-fr source : Direction Générale des Finances Publiques - Cadastre. Mise à jour : 2015"}}},{"type":"Feature","geometry":{"type":"Polygon","coordinates":[[[9.4525798,42.6962021],[9.4525439,42.6962119],[9.4525242,42.6961669],[9.4524811,42.6961768],[9.4524217,42.6960361],[9.4524903,42.6959317],[9.4525103,42.6959357],[9.4525446,42.6958503],[9.4525344,42.6957263],[9.4525253,42.6956475],[9.4525803,42.6956441],[9.4525894,42.6957228],[9.4526258,42.6960075],[9.4526369,42.6960139],[9.4526593,42.696182],[9.4526374,42.6961933],[9.4526422,42.6962089],[9.4525894,42.6962207],[9.4525798,42.6962021]]]},"properties":{"osm_id":122465040,"osm_type":"way","seamark_type":"building","display_class":"OTHER","min_zoom":12,"importance":1,"name":"Capitainerie du Vieux Port","ref":null,"common":{"type":"building"},"children":{"building":{"function":"harbour_master"}},"osm_tags":{"building":"yes","harbour":"harbour_master","name":"Capitainerie du Vieux Port","seamark:building:function":"harbour_master","seamark:type":"building","source":"cadastre-dgi-fr source : Direction Générale des Impôts - Cadastre. Mise à jour : 2011"}}},{"type":"Feature","geometry":{"type":"Point","coordinates":[9.4909895,42.7945417]},"properties":{"osm_id":1327347734,"osm_type":"node","seamark_type":"light_minor","display_class":"OTHER","min_zoom":12,"importance":1,"name":"Capo Sagro","ref":null,"common":{"name":"Capo Sagro","type":"light_minor"},"children":{"light":{"character":"Fl","colour":"white","group":"3","period":"12","range":"10","reference":"E 0855","sequence":"1+(1.5)+1+(1.5)+1+(6)"}},"osm_tags":{"seamark:light:character":"Fl","seamark:light:colour":"white","seamark:light:group":"3","seamark:light:period":"12","seamark:light:range":"10","seamark:light:reference":"E 0855","seamark:light:sequence":"1+(1.5)+1+(1.5)+1+(6)","seamark:name":"Capo Sagro","seamark:type":"light_minor","source":"US NGA Pub. 113. 2010-10-22."}}},{"type":"Feature","geometry":{"type":"Point","coordinates":[9.3490175,42.9671099]},"properties":{"osm_id":1327347737,"osm_type":"node","seamark_type":"light_minor","display_class":"OTHER","min_zoom":12,"importance":1,"name":"Centuri","ref":null,"common":{"name":"Centuri","type":"light_minor"},"children":{"light":{"character":"Fl","colour":"green","height":"7","period":"4","range":"6","reference":"E 0853"}},"osm_tags":{"seamark:light:character":"Fl","seamark:light:colour":"green","seamark:light:height":"7","seamark:light:period":"4","seamark:light:range":"6","seamark:light:reference":"E 0853","seamark:name":"Centuri","seamark:type":"light_minor","source":"US NGA Pub. 113. 2010-10-22."}}},{"type":"Feature","geometry":{"type":"Point","coordinates":[9.4789667,42.9920833]},"properties":{"osm_id":1758932405,"osm_type":"node","seamark_type":"buoy_cardinal","display_class":"OTHER","min_zoom":12,"importance":1,"name":"Finocchiarola","ref":null,"common":{"name":"Finocchiarola","type":"buoy_cardinal"},"children":{"buoy_cardinal":{"category":"east","colour":"black;yellow;black","colour_pattern":"horizontal","shape":"pillar"},"light":{"character":"VQ","colour":"white","group":"3","period":"5"},"topmark":{"colour":"black","shape":"2 cones base together"}},"osm_tags":{"seamark:buoy_cardinal:category":"east","seamark:buoy_cardinal:colour":"black;yellow;black","seamark:buoy_cardinal:colour_pattern":"horizontal","seamark:buoy_cardinal:shape":"pillar","seamark:light:character":"VQ","seamark:light:colour":"white","seamark:light:group":"3","seamark:light:period":"5","seamark:name":"Finocchiarola","seamark:topmark:colour":"black","seamark:topmark:shape":"2 cones base together","seamark:type":"buoy_cardinal","source":"British Admiralty"}}},{"type":"Feature","geometry":{"type":"LineString","coordinates":[[8.9103076,44.4105078],[8.9158193,44.4093472],[8.9162058,44.409195],[8.9166023,44.4088866],[8.9168969,44.4085667],[8.9171471,44.4080832],[8.9173437,44.4074209],[8.9175555,44.4070093],[8.9180148,44.4064539],[8.9196249,44.4051144],[8.9202517,44.4040458],[8.9205242,44.4030632],[8.9205958,44.4022576],[8.9207085,44.4018438],[8.9211095,44.4011048],[8.9230846,44.3988674],[8.9251241,44.3961096],[8.9259084,44.3956038],[8.9266788,44.3951638],[8.9397936,44.3907919],[8.9428839,44.3897535],[8.9436681,44.3894353],[8.9443983,44.3890049],[8.9449334,44.3884641],[8.9453426,44.3877973],[9.542849,43.0108608],[9.5466649,43.0036088],[9.583283,42.8151213],[9.8739597,41.1455718],[9.9096652,40.5618101],[9.897307,40.5002263],[9.8876939,40.4417225],[9.760882,40.0758485],[9.7018725,39.9503671],[9.7010892,39.9491392],[9.6994991,39.9475491],[9.6989408,39.9468919],[9.6986669,39.9462012],[9.6986492,39.9454643],[9.6989178,39.9447822],[9.6993672,39.9441809],[9.7027424,39.9430031],[9.7049819,39.9422804]]},"properties":{"osm_id":356257024,"osm_type":"way","seamark_type":"ferry_route","display_class":"OTHER","min_zoom":12,"importance":1,"name":"Genova - Arbatax","ref":null,"common":{"type":"ferry_route"},"children":{},"osm_tags":{"duration":"15:30","name":"Genova - Arbatax","route":"ferry","seamark:type":"ferry_route"}}},{"type":"Feature","geometry":{"type":"LineString","coordinates":[[8.9132577,44.412893],[8.9156318,44.4106328],[8.9168329,44.4080747],[8.9170319,44.407393],[8.9172593,44.4069471],[8.9177874,44.4062987],[8.9193574,44.4049964],[8.9199583,44.4039651],[8.9202154,44.4030211],[8.9202837,44.4022466],[8.9204019,44.4018145],[8.9207682,44.4011303],[8.9228024,44.3987683],[8.9248418,44.3960106],[8.9257433,44.395479],[8.9265806,44.3950153],[8.9396972,44.390646],[8.9427522,44.3895495],[8.9433859,44.3892725],[8.943973,44.3888672],[8.9444065,44.3883407],[8.9447436,44.3876605],[9.5422697,43.010751],[9.5460659,43.0035082],[9.5826477,42.8150722],[9.631083,42.1374608],[9.6920434,41.0200994],[9.6924761,41.0122371],[9.6921897,41.0057735],[9.6917088,41.0014659],[9.6908776,40.9971658],[9.6899035,40.9939996],[9.6885914,40.990538],[9.6832966,40.9819161],[9.6784507,40.973491],[9.672584,40.9649696],[9.6685596,40.9596803],[9.6652748,40.9561865],[9.6617413,40.9529492],[9.6576784,40.9499407],[9.653184,40.9474448],[9.6425627,40.9426618],[9.611492,40.9330982],[9.5847029,40.9258105],[9.5725679,40.9237925],[9.5664726,40.923137],[9.5603372,40.9226779],[9.5480066,40.9230523],[9.5378279,40.9239222],[9.5244799,40.9248402],[9.5224151,40.9249037]]},"properties":{"osm_id":165938572,"osm_type":"way","seamark_type":"ferry_route","display_class":"OTHER","min_zoom":12,"importance":1,"name":"Genova - Olbia","ref":null,"common":{"type":"ferry_route"},"children":{},"osm_tags":{"bicycle":"yes","duration":"10:00","foot":"yes","horse":"no","motor_vehicle":"yes","motorcar":"yes","name":"Genova - Olbia","name:es":"Génova - Olbia","route":"ferry","seamark:type":"ferry_route"}}},{"type":"Feature","geometry":{"type":"Point","coordinates":[9.4547236,42.9614258]},"properties":{"osm_id":1327347735,"osm_type":"node","seamark_type":"light_minor","display_class":"OTHER","min_zoom":12,"importance":1,"name":"Macinaggio","ref":null,"common":{"name":"Macinaggio","type":"light_minor"},"children":{"light":{"1:character":"Fl","1:colour":"red","1:group":"2","1:height":"8","1:period":"6","1:range":"8","1:sector_end":"218","1:sector_start":"120","1:sequence":"1+(1),1+(3)","2:character":"Fl","2:colour":"white","2:group":"2","2:height":"8","2:period":"6","2:range":"11","2:sector_end":"331","2:sector_start":"218","2:sequence":"1+(1),1+(3)","3:character":"Fl","3:colour":"red","3:group":"2","3:height":"8","3:period":"6","3:range":"8","3:sector_end":"0","3:sector_start":"331","3:sequence":"1+(1),1+(3)","4:character":"Fl","4:colour":"red","4:group":"2","4:height":"8","4:period":"6","4:range":"8","4:sector_end":"120","4:sector_start":"0","4:sequence":"1+(1),1+(3)","4:visibility":"unintensified","reference":"E 0854"}},"osm_tags":{"seamark:light:1:character":"Fl","seamark:light:1:colour":"red","seamark:light:1:group":"2","seamark:light:1:height":"8","seamark:light:1:period":"6","seamark:light:1:range":"8","seamark:light:1:sector_end":"218","seamark:light:1:sector_start":"120","seamark:light:1:sequence":"1+(1),1+(3)","seamark:light:2:character":"Fl","seamark:light:2:colour":"white","seamark:light:2:group":"2","seamark:light:2:height":"8","seamark:light:2:period":"6","seamark:light:2:range":"11","seamark:light:2:sector_end":"331","seamark:light:2:sector_start":"218","seamark:light:2:sequence":"1+(1),1+(3)","seamark:light:3:character":"Fl","seamark:light:3:colour":"red","seamark:light:3:group":"2","seamark:light:3:height":"8","seamark:light:3:period":"6","seamark:light:3:range":"8","seamark:light:3:sector_end":"0","seamark:light:3:sector_start":"331","seamark:light:3:sequence":"1+(1),1+(3)","seamark:light:4:character":"Fl","seamark:light:4:colour":"red","seamark:light:4:group":"2","seamark:light:4:height":"8","seamark:light:4:period":"6","seamark:light:4:range":"8","seamark:light:4:sector_end":"120","seamark:light:4:sector_start":"0","seamark:light:4:sequence":"1+(1),1+(3)","seamark:light:4:visibility":"unintensified","seamark:light:reference":"E 0854","seamark:name":"Macinaggio","seamark:type":"light_minor","source":"US NGA Pub. 113. 2010-10-22."}}},{"type":"Feature","geometry":{"type":"Polygon","coordinates":[[[9.4540129,42.9609432],[9.4522075,42.9609264],[9.452091,42.9608846],[9.4527931,42.9597885],[9.4531853,42.9599228],[9.4532605,42.9598479],[9.4537334,42.9600066],[9.4537605,42.9600157],[9.4537761,42.9599912],[9.4540454,42.9595677],[9.4540909,42.9594962],[9.4541861,42.9593465],[9.4548412,42.9592493],[9.4548028,42.959082],[9.4538719,42.9592165],[9.4535892,42.9591938],[9.4535742,42.959136],[9.453602,42.9591317],[9.4534485,42.958659],[9.4537582,42.9586043],[9.4537738,42.9586016],[9.4536644,42.9582481],[9.4540603,42.9581738],[9.454075,42.9581738],[9.4540376,42.9580254],[9.4541614,42.9579575],[9.454503,42.9578826],[9.4545169,42.95788],[9.4545338,42.9578769],[9.4547718,42.9578341],[9.4549681,42.9578397],[9.4550465,42.957842],[9.4555026,42.9578551],[9.4554726,42.958687],[9.4554135,42.9586861],[9.4554011,42.9588619],[9.4554642,42.9588653],[9.4554472,42.9595061],[9.4553352,42.9600876],[9.455227,42.960649],[9.4551993,42.9607752],[9.4548972,42.9607429],[9.4548431,42.9609735],[9.454131,42.9609451],[9.4540852,42.9609307],[9.4540408,42.9609298],[9.4540129,42.9609432]]]},"properties":{"osm_id":656478248,"osm_type":"way","seamark_type":"harbour","display_class":"OTHER","min_zoom":12,"importance":1,"name":"Macinaggio","ref":null,"common":{"type":"harbour"},"children":{"harbour":{"category":"marina"}},"osm_tags":{"leisure":"marina","name":"Macinaggio","seamark:harbour:category":"marina","seamark:type":"harbour"}}},{"type":"Feature","geometry":{"type":"Polygon","coordinates":[[[9.4898809,42.8099955],[9.4892928,42.8100374],[9.4893009,42.8100883],[9.4894128,42.810106],[9.4897601,42.8100883],[9.4899076,42.8100706],[9.4898809,42.8099955]]]},"properties":{"osm_id":862866039,"osm_type":"way","seamark_type":"harbour","display_class":"OTHER","min_zoom":12,"importance":1,"name":"Marine de Sisco","ref":null,"common":{"type":"harbour"},"children":{"harbour":{"category":"marina"}},"osm_tags":{"leisure":"marina","name":"Marine de Sisco","seamark:harbour:category":"marina","seamark:type":"harbour"}}},{"type":"Feature","geometry":{"type":"Polygon","coordinates":[[[9.2532165,42.7163038],[9.2530025,42.7163364],[9.2530049,42.7163567],[9.2530525,42.7163518],[9.2530746,42.7164453],[9.2530956,42.7164525],[9.2530896,42.7164772],[9.2531012,42.7164959],[9.2531307,42.716501],[9.2531732,42.7164957],[9.2532077,42.7164977],[9.2532297,42.7164766],[9.2532216,42.7164491],[9.2532527,42.7164236],[9.2532165,42.7163038]]]},"properties":{"osm_id":351927014,"osm_type":"way","seamark_type":"light_minor","display_class":"OTHER","min_zoom":12,"importance":1,"name":"Mortella","ref":null,"common":{"name":"Mortella","type":"light_minor"},"children":{},"osm_tags":{"building":"yes","name":"Ancien Sémaphore de Mortella","seamark:name":"Mortella","seamark:type":"light_minor"}}},{"type":"Feature","geometry":{"type":"Point","coordinates":[9.4542436,42.9595123]},"properties":{"osm_id":8506352675,"osm_type":"node","seamark_type":"rescue_station","display_class":"OTHER","min_zoom":12,"importance":1,"name":"Pasquale Paoli II","ref":"SNS 082","common":{"name":"Pasquale Paoli II","type":"rescue_station"},"children":{"radio_station":{"category":"ais","mmsi":"227001550"},"rescue_station":{"category":"lifeboat_on_mooring"}},"osm_tags":{"amenity":"lifeboat","emergency":"marine_rescue","lifeboat":"offshore","lifeboat:class":"SNSM CTT","name":"Pasquale Paoli II","operator":"Société Nationale de Sauvetage en Mer","operator:short":"SNSM","operator:website":"https://www.snsm.org/","operator:wikidata":"Q584914","operator:wikipedia":"fr:Société Nationale de Sauvetage en Mer","ref":"SNS 082","seamark:name":"Pasquale Paoli II","seamark:radio_station:category":"ais","seamark:radio_station:mmsi":"227001550","seamark:rescue_station:category":"lifeboat_on_mooring","seamark:type":"rescue_station","website":"https://station-macinaggio.snsm.org/bateaux-de-sauvetage"}}},{"type":"Feature","geometry":{"type":"Point","coordinates":[9.3227333,42.7166167]},"properties":{"osm_id":1327347742,"osm_type":"node","seamark_type":"light_minor","display_class":"OTHER","min_zoom":12,"importance":1,"name":"Pointe Vecchiaia","ref":null,"common":{"name":"Pointe Vecchiaia","type":"light_minor"},"children":{"light":{"1:character":"Fl","1:colour":"white","1:group":"3","1:height":"35","1:period":"12","1:range":"10","1:sector_end":"174","1:sector_start":"35","1:sequence":"1+(1.5),1+(1.5),1+(6)","2:character":"Fl","2:colour":"red","2:group":"3","2:height":"35","2:period":"12","2:range":"7","2:sector_end":"35","2:sector_start":"174","2:sequence":"1+(1.5),1+(1.5),1+(6)","reference":"E 0935"}},"osm_tags":{"seamark:light:1:character":"Fl","seamark:light:1:colour":"white","seamark:light:1:group":"3","seamark:light:1:height":"35","seamark:light:1:period":"12","seamark:light:1:range":"10","seamark:light:1:sector_end":"174","seamark:light:1:sector_start":"35","seamark:light:1:sequence":"1+(1.5),1+(1.5),1+(6)","seamark:light:2:character":"Fl","seamark:light:2:colour":"red","seamark:light:2:group":"3","seamark:light:2:height":"35","seamark:light:2:period":"12","seamark:light:2:range":"7","seamark:light:2:sector_end":"35","seamark:light:2:sector_start":"174","seamark:light:2:sequence":"1+(1.5),1+(1.5),1+(6)","seamark:light:reference":"E 0935","seamark:name":"Pointe Vecchiaia","seamark:type":"light_minor","source":"US NGA Pub. 113. 2010-10-22."}}},{"type":"Feature","geometry":{"type":"Polygon","coordinates":[[[9.3490502,42.9670656],[9.3492189,42.9664421],[9.349237,42.9663941],[9.3492774,42.9664044],[9.3493267,42.966406],[9.3493542,42.9664098],[9.3493657,42.9664028],[9.3493779,42.9663687],[9.3493939,42.9663235],[9.3494193,42.9663202],[9.3494462,42.9663078],[9.349471,42.9662991],[9.3494886,42.96628],[9.3494933,42.9662671],[9.3495053,42.9662529],[9.34952,42.9662303],[9.3495229,42.9662004],[9.3495593,42.9661405],[9.3495692,42.9661191],[9.3495815,42.9661193],[9.3495915,42.9661205],[9.3495791,42.9660635],[9.3496527,42.9660628],[9.3496638,42.9661415],[9.3496859,42.9661411],[9.349703,42.9661293],[9.3497373,42.9661281],[9.3497629,42.9661375],[9.3497819,42.9661535],[9.3498166,42.9661794],[9.3498682,42.9662124],[9.3499565,42.9662],[9.3499995,42.9662001],[9.3500161,42.9662398],[9.3500412,42.9662329],[9.3506881,42.9660827],[9.3506683,42.9660011],[9.3506441,42.9659166],[9.3506145,42.9658705],[9.3504393,42.9659089],[9.3503996,42.9659166],[9.3503666,42.9659068],[9.350204,42.9659138],[9.3500683,42.9659108],[9.3500611,42.9659213],[9.3499801,42.9659225],[9.34994,42.965915],[9.3499235,42.9659068],[9.3498997,42.9658948],[9.34987,42.9658704],[9.3498529,42.9658272],[9.3498405,42.965781],[9.3497055,42.9657935],[9.3496933,42.9658168],[9.3496454,42.965862],[9.3495939,42.9658515],[9.3496357,42.9657841],[9.3496213,42.9657543],[9.3495794,42.9656521],[9.3492045,42.9657284],[9.3492406,42.9658111],[9.3492224,42.9658356],[9.3491727,42.9658422],[9.3491961,42.9659653],[9.3492654,42.9659702],[9.3492711,42.9659996],[9.3491369,42.9659968],[9.3490826,42.9658159],[9.3489509,42.9658354],[9.3489875,42.9659903],[9.3489112,42.9661797],[9.3488704,42.9661767],[9.3488617,42.966202],[9.3488545,42.9662228],[9.3488888,42.9662325],[9.3487831,42.9664787],[9.3487814,42.9666196],[9.3488447,42.9667602],[9.3489078,42.966955],[9.348917,42.9670275],[9.3490502,42.9670656]]]},"properties":{"osm_id":656363765,"osm_type":"way","seamark_type":"harbour","display_class":"OTHER","min_zoom":12,"importance":1,"name":"Port de Centuri","ref":null,"common":{"type":"harbour"},"children":{"harbour":{"category":"marina"}},"osm_tags":{"leisure":"marina","name":"Port de Centuri","seamark:harbour:category":"marina","seamark:type":"harbour"}}},{"type":"Feature","geometry":{"type":"Point","coordinates":[9.299318,42.679935]},"properties":{"osm_id":3689256346,"osm_type":"node","seamark_type":"harbour","display_class":"OTHER","min_zoom":12,"importance":1,"name":"Port de Saint-Florent","ref":null,"common":{"type":"harbour"},"children":{"harbour":{"category":"marina"}},"osm_tags":{"leisure":"marina","name":"Port de Saint-Florent","seamark:harbour:category":"marina","seamark:type":"harbour"}}},{"type":"Feature","geometry":{"type":"Polygon","coordinates":[[[9.4562589,42.7091792],[9.4562275,42.7091801],[9.4561524,42.7091989],[9.456097,42.7092128],[9.4559143,42.7094481],[9.4548065,42.7090138],[9.455094,42.7086083],[9.4551033,42.7085952],[9.4546245,42.7083999],[9.4548583,42.7081216],[9.4542703,42.7078671],[9.4544377,42.7076391],[9.4545875,42.7074348],[9.4545844,42.7074166],[9.4543773,42.7073298],[9.4544964,42.7071774],[9.4546163,42.7070238],[9.454823,42.7069753],[9.4552303,42.7071463],[9.4552471,42.7071446],[9.4552074,42.7070284],[9.4552846,42.7070136],[9.455323,42.7071248],[9.4554432,42.7071017],[9.4554597,42.7071814],[9.4557843,42.707771],[9.4559196,42.707946],[9.4565412,42.708927],[9.4562589,42.7091792]]]},"properties":{"osm_id":656538661,"osm_type":"way","seamark_type":"harbour","display_class":"OTHER","min_zoom":12,"importance":1,"name":"Port de Toga","ref":null,"common":{"type":"harbour"},"children":{"harbour":{"category":"marina"}},"osm_tags":{"leisure":"marina","name":"Port de Toga","name:co":"Portu di Toga","seamark:harbour:category":"marina","seamark:type":"harbour"}}},{"type":"Feature","geometry":{"type":"Point","coordinates":[9.3009906,42.6736931]},"properties":{"osm_id":13444904517,"osm_type":"node","seamark_type":"harbour","display_class":"OTHER","min_zoom":12,"importance":1,"name":"Port de plaisance Mare È Stagnu","ref":null,"common":{"type":"harbour"},"children":{"harbour":{"category":"marina"}},"osm_tags":{"leisure":"marina","name":"Port de plaisance Mare È Stagnu","name:co":"Portu di turismu Mare È Stagnu","seamark:harbour:category":"marina","seamark:type":"harbour"}}},{"type":"Feature","geometry":{"type":"Point","coordinates":[9.29725,42.6803833]},"properties":{"osm_id":1327347739,"osm_type":"node","seamark_type":"light_minor","display_class":"OTHER","min_zoom":12,"importance":1,"name":"Saint Florent","ref":null,"common":{"name":"Saint Florent","type":"light_minor"},"children":{"light":{"1:character":"Fl","1:colour":"red","1:group":"2","1:height":"6","1:period":"6","1:range":"6","1:sector_end":"80","1:sector_start":"116","1:sequence":"1+(1),1+(3)","2:character":"Fl","2:colour":"white","2:group":"2","2:height":"6","2:period":"6","2:range":"9","2:sector_end":"116","2:sector_start":"80","2:sequence":"1+(1),1+(3)","reference":"E 0933"}},"osm_tags":{"layer":"1","seamark:light:1:character":"Fl","seamark:light:1:colour":"red","seamark:light:1:group":"2","seamark:light:1:height":"6","seamark:light:1:period":"6","seamark:light:1:range":"6","seamark:light:1:sector_end":"80","seamark:light:1:sector_start":"116","seamark:light:1:sequence":"1+(1),1+(3)","seamark:light:2:character":"Fl","seamark:light:2:colour":"white","seamark:light:2:group":"2","seamark:light:2:height":"6","seamark:light:2:period":"6","seamark:light:2:range":"9","seamark:light:2:sector_end":"116","seamark:light:2:sector_start":"80","seamark:light:2:sequence":"1+(1),1+(3)","seamark:light:reference":"E 0933","seamark:name":"Saint Florent","seamark:type":"light_minor","source":"US NGA Pub. 113. 2010-10-22."}}},{"type":"Feature","geometry":{"type":"Point","coordinates":[9.4565635,42.709995]},"properties":{"osm_id":1327347733,"osm_type":"node","seamark_type":"light_minor","display_class":"OTHER","min_zoom":12,"importance":1,"name":"Toga","ref":null,"common":{"name":"Toga","source":"British Admiralty","type":"light_minor"},"children":{"light":{"character":"Q","colour":"red","height":"10","range":"4","reference":"E 0862"}},"osm_tags":{"seamark:light:character":"Q","seamark:light:colour":"red","seamark:light:height":"10","seamark:light:range":"4","seamark:light:reference":"E 0862","seamark:name":"Toga","seamark:source":"British Admiralty","seamark:type":"light_minor","source":"US NGA Pub. 113. 2010-10-22."}}},{"type":"Feature","geometry":{"type":"Point","coordinates":[9.2941275,42.6824236]},"properties":{"osm_id":1327347740,"osm_type":"node","seamark_type":"light_minor","display_class":"OTHER","min_zoom":12,"importance":1,"name":"Tourelle de Tignosu","ref":null,"common":{"type":"light_minor"},"children":{"light":{"character":"Fl","colour":"red","height":"6","period":"4","range":"3","reference":"E 0934","sequence":"1+(3)"}},"osm_tags":{"man_made":"lighthouse","name":"Tourelle de Tignosu","seamark:light:character":"Fl","seamark:light:colour":"red","seamark:light:height":"6","seamark:light:period":"4","seamark:light:range":"3","seamark:light:reference":"E 0934","seamark:light:sequence":"1+(3)","seamark:type":"light_minor","source":"US NGA Pub. 113. 2010-10-22."}}},{"type":"Feature","geometry":{"type":"Polygon","coordinates":[[[9.4525344,42.6957263],[9.4525894,42.6957228],[9.4525803,42.6956441],[9.4525253,42.6956475],[9.4525344,42.6957263]]]},"properties":{"osm_id":1262895232,"osm_type":"way","seamark_type":"building","display_class":"OTHER","min_zoom":12,"importance":1,"name":"Vieux Port Bastia","ref":null,"common":{"name":"Vieux Port Bastia","type":"building"},"children":{"building":{"function":"harbour_master"}},"osm_tags":{"building:part":"yes","name":"Capitainerie","seamark:building:function":"harbour_master","seamark:name":"Vieux Port Bastia","seamark:type":"building"}}}],"type":"FeatureCollection"}