{"type":"FeatureCollection","features":[{"type":"Feature","geometry":{"type":"Point","coordinates":[33.3380425,42.0192454]},"properties":{"osm_id":1581240422,"osm_type":"node","seamark_type":"light_major","display_class":"LIGHTHOUSE","min_zoom":7,"importance":5,"name":"Kerempe Burnu","ref":null,"common":{"name":"Kerempe Burnu","type":"light_major"},"children":{"fog_signal":{"category":"siren","group":"3","period":"32"},"light":{"character":"Fl","colour":"white","height":"82","period":"20","range":"20","reference":"E 5816"}},"osm_tags":{"seamark:fog_signal:category":"siren","seamark:fog_signal:group":"3","seamark:fog_signal:period":"32","seamark:light:character":"Fl","seamark:light:colour":"white","seamark:light:height":"82","seamark:light:period":"20","seamark:light:range":"20","seamark:light:reference":"E 5816","seamark:name":"Kerempe Burnu","seamark:type":"light_major","source":"US NGA Pub. 113. 2011-10-20."}}}],"type":"FeatureCollection"}