{"type":"FeatureCollection","features":[{"type":"Feature","geometry":{"type":"Polygon","coordinates":[[[6.2062572,42.9835416],[6.2064322,42.9835402],[6.2064303,42.9834139],[6.2062553,42.9834153],[6.2062572,42.9835416]]]},"properties":{"osm_id":53206989,"osm_type":"way","seamark_type":"landmark","display_class":"LIGHTHOUSE","min_zoom":7,"importance":5,"name":"Cap-d'Arme","ref":null,"common":{"information":"White square tower, black top","name":"Cap-d'Arme","type":"landmark"},"children":{"landmark":{"category":"tower","function":"light_support"},"light":{"1:character":"Fl","1:colour":"white","1:group":"2","1:height":"80","1:period":"10","1:range":"29","1:sector_end":"204","1:sector_start":"142","1:sequence":"0.2+(2.3)+0.2+(7.3)","2:character":"Fl","2:colour":"white","2:group":"2","2:height":"80","2:period":"10","2:range":"29","2:sector_end":"252","2:sector_start":"243","2:sequence":"0.2+(2.3)+0.2+(7.3)","3:character":"Fl","3:colour":"white","3:group":"2","3:height":"80","3:period":"10","3:range":"29","3:sector_end":"119","3:sector_start":"266","3:sequence":"0.2+(2.3)+0.2+(7.3)"}},"osm_tags":{"building":"yes","ele":"62","height":"20.6","heritage":"2","heritage:operator":"mhs","historic":"yes","man_made":"lighthouse","mhs:inscription_date":"2012-09-13","name":"Phare de Porquerolles","name:oc":"Far de Porcairòlas","ref:FR:ANFR":"19546","ref:FR:RNB":"J3EKDZHB6BF9","ref:admiralty":"E0751","ref:aladin":"8300161","ref:arlhs":"FRA128","ref:inspire":"FR000002176100001","ref:mhs":"PA83000026","ref:nga":"113-6908","seamark:information":"White square tower, black top","seamark:landmark:category":"tower","seamark:landmark:function":"light_support","seamark:light:1:character":"Fl","seamark:light:1:colour":"white","seamark:light:1:group":"2","seamark:light:1:height":"80","seamark:light:1:period":"10","seamark:light:1:range":"29","seamark:light:1:sector_end":"204","seamark:light:1:sector_start":"142","seamark:light:1:sequence":"0.2+(2.3)+0.2+(7.3)","seamark:light:2:character":"Fl","seamark:light:2:colour":"white","seamark:light:2:group":"2","seamark:light:2:height":"80","seamark:light:2:period":"10","seamark:light:2:range":"29","seamark:light:2:sector_end":"252","seamark:light:2:sector_start":"243","seamark:light:2:sequence":"0.2+(2.3)+0.2+(7.3)","seamark:light:3:character":"Fl","seamark:light:3:colour":"white","seamark:light:3:group":"2","seamark:light:3:height":"80","seamark:light:3:period":"10","seamark:light:3:range":"29","seamark:light:3:sector_end":"119","seamark:light:3:sector_start":"266","seamark:light:3:sequence":"0.2+(2.3)+0.2+(7.3)","seamark:name":"Cap-d'Arme","seamark:type":"landmark","source":"ANFR 08/2019;US NGA Pub. 113. 2010-10-22.","source:heritage":"data.gouv.fr, Ministère de la Culture - 2016","source:name:oc":"ieo-bdtopoc","start_date":"C19","wikidata":"Q3378564","wikipedia":"fr:Phare du cap d'Arme"}}},{"type":"Feature","geometry":{"type":"Polygon","coordinates":[[[6.3176758,42.9906706],[6.3178807,42.9906837],[6.3180839,42.9907065],[6.3182848,42.9907388],[6.3184823,42.9907805],[6.3186758,42.9908315],[6.3188644,42.9908914],[6.3190473,42.9909601],[6.3192238,42.9910373],[6.3193931,42.9911227],[6.3195545,42.9912159],[6.3197074,42.9913165],[6.3198511,42.9914241],[6.3199851,42.9915382],[6.3201087,42.9916584],[6.3202214,42.9917842],[6.3203228,42.991915],[6.3204125,42.9920504],[6.3204901,42.9921897],[6.3205552,42.9923324],[6.3206076,42.9924778],[6.3206471,42.9926254],[6.3206735,42.9927746],[6.3206867,42.9929247],[6.3206867,42.9930751],[6.3206734,42.9932252],[6.3206469,42.9933743],[6.3206073,42.9935219],[6.3205548,42.9936673],[6.3204895,42.99381],[6.3204119,42.9939493],[6.3203221,42.9940846],[6.3202206,42.9942154],[6.3201078,42.9943411],[6.3199841,42.9944613],[6.3198501,42.9945754],[6.3197063,42.9946829],[6.3195534,42.9947834],[6.3193947,42.994875],[6.3192284,42.9949591],[6.3190552,42.9950352],[6.3188757,42.9951032],[6.3186907,42.9951628],[6.3185009,42.9952136],[6.3183071,42.9952555],[6.31811,42.9952884],[6.3179105,42.9953121],[6.3177093,42.9953265],[6.3175073,42.9953315],[6.3173053,42.9953272],[6.317104,42.9953135],[6.3169044,42.9952905],[6.3167071,42.9952583],[6.316513,42.9952171],[6.3163229,42.9951669],[6.3161375,42.995108],[6.3159576,42.9950406],[6.3157838,42.994965],[6.315617,42.9948816],[6.3154578,42.9947906],[6.315305,42.9946911],[6.3151612,42.9945847],[6.3150271,42.9944718],[6.3149031,42.9943529],[6.3147898,42.9942283],[6.3146877,42.9940987],[6.3145971,42.9939646],[6.3145185,42.9938265],[6.3144521,42.993685],[6.3143983,42.9935407],[6.3143572,42.9933942],[6.314329,42.993246],[6.3143139,42.9930969],[6.314312,42.9929473],[6.3143231,42.9927979],[6.3143473,42.9926494],[6.3143844,42.9925023],[6.3144344,42.9923572],[6.314497,42.9922148],[6.3145719,42.9920756],[6.3146589,42.9919402],[6.3147575,42.9918092],[6.3148675,42.9916831],[6.3149882,42.9915624],[6.3151193,42.9914476],[6.3152602,42.9913391],[6.3154103,42.9912375],[6.3155691,42.9911432],[6.3157357,42.9910565],[6.3159096,42.9909777],[6.31609,42.9909073],[6.3162763,42.9908455],[6.3164676,42.9907926],[6.3166631,42.9907487],[6.316862,42.9907141],[6.3170636,42.9906889],[6.317267,42.9906732],[6.3174713,42.9906671],[6.3176758,42.9906706]]]},"properties":{"osm_id":1089092146,"osm_type":"way","seamark_type":"restricted_area","display_class":"OTHER","min_zoom":12,"importance":1,"name":null,"ref":null,"common":{"type":"restricted_area"},"children":{"restricted_area":{"restriction":"no_anchoring;no_diving;no_dredging;no_fishing"}},"osm_tags":{"seamark:restricted_area:restriction":"no_anchoring;no_diving;no_dredging;no_fishing","seamark:type":"restricted_area"}}},{"type":"Feature","geometry":{"type":"Polygon","coordinates":[[[6.353396,42.9860562],[6.3536399,42.9860901],[6.353881,42.9861336],[6.3541184,42.9861867],[6.3543514,42.9862493],[6.3545795,42.986321],[6.3548019,42.9864018],[6.3550179,42.9864913],[6.3552269,42.9865893],[6.3554282,42.9866955],[6.3556214,42.9868096],[6.3558057,42.9869313],[6.3559806,42.9870601],[6.3561457,42.9871958],[6.3563004,42.9873378],[6.3564442,42.9874858],[6.3565768,42.9876394],[6.3566977,42.987798],[6.3568066,42.9879612],[6.3569032,42.9881285],[6.3569871,42.9882994],[6.3570581,42.9884734],[6.357116,42.98865],[6.3571606,42.9888286],[6.3571918,42.9890088],[6.3572095,42.9891899],[6.3572137,42.9893715],[6.3572043,42.989553],[6.3571814,42.9897338],[6.3571449,42.9899134],[6.3570952,42.9900913],[6.3570322,42.990267],[6.3569561,42.9904399],[6.3568673,42.9906094],[6.356766,42.9907752],[6.3566524,42.9909367],[6.3565269,42.9910934],[6.3563899,42.9912448],[6.3562418,42.9913905],[6.3560831,42.9915301],[6.3559141,42.9916632],[6.3557355,42.9917893],[6.3555477,42.9919081],[6.3553513,42.9920192],[6.3551533,42.9921192],[6.3549483,42.9922114],[6.354737,42.9922956],[6.3545198,42.9923714],[6.3542975,42.9924388],[6.3540706,42.9924974],[6.3538397,42.9925471],[6.3536056,42.9925879],[6.3533689,42.9926195],[6.3531302,42.9926419],[6.3528902,42.992655],[6.3526497,42.9926588],[6.3524091,42.9926533],[6.3521693,42.9926385],[6.351931,42.9926144],[6.3516947,42.9925811],[6.3514611,42.9925387],[6.351231,42.9924873],[6.3510048,42.9924271],[6.3507834,42.9923582],[6.3505673,42.9922808],[6.350357,42.9921951],[6.3501533,42.9921014],[6.3499566,42.992],[6.3497676,42.9918911],[6.3495822,42.991772],[6.3494059,42.9916456],[6.3492393,42.9915125],[6.3490828,42.9913729],[6.3489369,42.9912274],[6.348802,42.9910762],[6.3486785,42.9909199],[6.3485669,42.990759],[6.3484673,42.9905938],[6.3483802,42.9904249],[6.3483057,42.9902528],[6.3482441,42.990078],[6.3481955,42.9899011],[6.3481602,42.9897224],[6.3481382,42.9895426],[6.3481296,42.9893622],[6.3481344,42.9891817],[6.3481526,42.9890017],[6.3481841,42.9888227],[6.3482288,42.9886452],[6.3482867,42.9884697],[6.3483575,42.9882968],[6.3484411,42.9881269],[6.3485371,42.9879606],[6.3486454,42.9877984],[6.3487655,42.9876407],[6.3488971,42.9874881],[6.3490399,42.9873408],[6.3491935,42.9871995],[6.3493572,42.9870645],[6.3495308,42.9869362],[6.3497136,42.9868149],[6.3499052,42.9867011],[6.3501049,42.9865951],[6.3503122,42.9864972],[6.3505265,42.9864076],[6.3507471,42.9863267],[6.3509734,42.9862547],[6.3512047,42.9861918],[6.3514403,42.9861382],[6.3516796,42.986094],[6.3519218,42.9860593],[6.3521662,42.9860344],[6.3524121,42.9860192],[6.3526587,42.9860137],[6.3529054,42.9860181],[6.3531514,42.9860323],[6.353396,42.9860562]]]},"properties":{"osm_id":1089092147,"osm_type":"way","seamark_type":"restricted_area","display_class":"OTHER","min_zoom":12,"importance":1,"name":null,"ref":null,"common":{"type":"restricted_area"},"children":{"restricted_area":{"restriction":"no_anchoring;no_diving;no_dredging;no_fishing"}},"osm_tags":{"seamark:restricted_area:restriction":"no_anchoring;no_diving;no_dredging;no_fishing","seamark:type":"restricted_area"}}},{"type":"Feature","geometry":{"type":"Point","coordinates":[6.168007,42.9994654]},"properties":{"osm_id":8993159216,"osm_type":"node","seamark_type":"harbour","display_class":"OTHER","min_zoom":12,"importance":1,"name":"Port Fay","ref":null,"common":{"type":"harbour"},"children":{},"osm_tags":{"harbour":"yes","name":"Port Fay","seamark:type":"harbour"}}}],"type":"FeatureCollection"}