{"type":"FeatureCollection","features":[{"type":"Feature","geometry":{"type":"Point","coordinates":[51.8999451,42.8476294]},"properties":{"osm_id":13450245156,"osm_type":"node","seamark_type":"beacon_special_purpose","display_class":"BEACON","min_zoom":9,"importance":4,"name":"Rakushechnyy","ref":null,"common":{"name":"Rakushechnyy","type":"beacon_special_purpose"},"children":{"light":{"1:character":"Fl","1:colour":"white","1:group":"1","1:height":"15","1:period":"4.5","1:range":"7","1:sector_end":"360","1:sector_start":"0","1:sequence":"0.5+(4)"}},"osm_tags":{"man_made":"beacon","name":"Rakushechnyy","note":"Un-watched light. General warning mark. Elevation 15.00m. Tetrahedral truncated pyramid","seamark:light:1:character":"Fl","seamark:light:1:colour":"white","seamark:light:1:group":"1","seamark:light:1:height":"15","seamark:light:1:period":"4.5","seamark:light:1:range":"7","seamark:light:1:sector_end":"360","seamark:light:1:sector_start":"0","seamark:light:1:sequence":"0.5+(4)","seamark:name":"Rakushechnyy","seamark:type":"beacon_special_purpose"}}}],"type":"FeatureCollection"}