{"type":"FeatureCollection","features":[{"type":"Feature","geometry":{"type":"Polygon","coordinates":[[[-87.676071,42.0638944],[-87.6760688,42.0639058],[-87.6760618,42.0639162],[-87.6760507,42.0639245],[-87.6760367,42.0639298],[-87.6760212,42.0639316],[-87.6760057,42.0639297],[-87.6759918,42.0639244],[-87.6759808,42.063916],[-87.6759739,42.0639055],[-87.6759718,42.0638939],[-87.6759746,42.0638825],[-87.6759821,42.0638722],[-87.6759936,42.0638642],[-87.6760079,42.0638593],[-87.6760235,42.063858],[-87.6760389,42.0638603],[-87.6760525,42.0638661],[-87.676063,42.0638748],[-87.6760694,42.0638854],[-87.676071,42.0638944]]]},"properties":{"osm_id":182580214,"osm_type":"way","seamark_type":"landmark","display_class":"LIGHTHOUSE","min_zoom":7,"importance":5,"name":"GROSSEPOINT LIGHT","ref":null,"common":{"name":"GROSSEPOINT LIGHT","reference":"LLNR20190","type":"landmark"},"children":{"light":{"character":"Fl","colour":"white","height":"36","period":"15"}},"osm_tags":{"addr:city":"Evanston","addr:housenumber":"2601","addr:postcode":"60201","addr:state":"IL","addr:street":"Sheridan Road","building":"lighthouse","description":"The first illumination was provided by a three-wick kerosene lamp, which, on clear nights, could be seen for 17 miles. The entire reflector was rotated slowly by a gear mechanism lowered by a weight which descended to the ground floor of the lighthouse.","ele":"183","gnis:feature_id":"409530","heritage":"2","heritage:operator":"nrhp","heritage:website":"https://www.nps.gov/subjects/nationalregister/index.htm","historic":"maritime","man_made":"lighthouse","name":"Grosse Point Lighthouse","nrhp:criteria":"(A), (C)","nrhp:inscription_date":"1976-09-08","nrhp:nhl":"yes","protection_title":"Evanston, Illinois Parks Department","ref:nrhp":"76000707","seamark:light:character":"Fl","seamark:light:colour":"white","seamark:light:height":"36","seamark:light:period":"15","seamark:name":"GROSSEPOINT LIGHT","seamark:reference":"LLNR20190","seamark:type":"landmark","source_ref":"https://catalog.archives.gov/id/28892264","start_date":"1873","wikidata":"Q5610547","wikipedia":"en:Grosse Point Light"}}},{"type":"Feature","geometry":{"type":"Point","coordinates":[-87.7720289,42.7346038]},"properties":{"osm_id":582775150,"osm_type":"node","seamark_type":"light_major","display_class":"LIGHTHOUSE","min_zoom":7,"importance":5,"name":"Racine Breakwater Lighthouse","ref":null,"common":{"type":"light_major"},"children":{},"osm_tags":{"man_made":"lighthouse","name":"Racine Breakwater Lighthouse","seamark:type":"light_major"}}},{"type":"Feature","geometry":{"type":"Point","coordinates":[-87.8308333,42.9891667]},"properties":{"osm_id":1929476768,"osm_type":"node","seamark_type":"buoy_lateral","display_class":"OTHER","min_zoom":12,"importance":1,"name":null,"ref":null,"common":{"type":"buoy_lateral"},"children":{"buoy_lateral":{"category":"port","colour":"green","shape":"pillar","system":"iala-b"},"fog_signal":{"category":"bell"},"light":{"character":"Fl","colour":"green","period":"4"}},"osm_tags":{"man_made":"buoy","seamark:buoy_lateral:category":"port","seamark:buoy_lateral:colour":"green","seamark:buoy_lateral:shape":"pillar","seamark:buoy_lateral:system":"iala-b","seamark:fog_signal:category":"bell","seamark:light:character":"Fl","seamark:light:colour":"green","seamark:light:period":"4","seamark:type":"buoy_lateral"}}},{"type":"Feature","geometry":{"type":"Point","coordinates":[-87.758928,42.1024136]},"properties":{"osm_id":7990277449,"osm_type":"node","seamark_type":"buoy_special_purpose","display_class":"OTHER","min_zoom":12,"importance":1,"name":null,"ref":null,"common":{"type":"buoy_special_purpose"},"children":{"buoy_isolated_danger":{"shape":"spar"}},"osm_tags":{"colour":"white","hazard_type":"dam","man_made":"buoy","seamark:buoy_isolated_danger:shape":"spar","seamark:type":"buoy_special_purpose"}}},{"type":"Feature","geometry":{"type":"Point","coordinates":[-87.7591629,42.1022998]},"properties":{"osm_id":7990277450,"osm_type":"node","seamark_type":"buoy_special_purpose","display_class":"OTHER","min_zoom":12,"importance":1,"name":null,"ref":null,"common":{"type":"buoy_special_purpose"},"children":{"buoy_isolated_danger":{"shape":"spar"}},"osm_tags":{"colour":"white","hazard_type":"dam","man_made":"buoy","seamark:buoy_isolated_danger:shape":"spar","seamark:type":"buoy_special_purpose"}}},{"type":"Feature","geometry":{"type":"Point","coordinates":[-87.7593416,42.1021928]},"properties":{"osm_id":7990277451,"osm_type":"node","seamark_type":"buoy_special_purpose","display_class":"OTHER","min_zoom":12,"importance":1,"name":null,"ref":null,"common":{"type":"buoy_special_purpose"},"children":{"buoy_isolated_danger":{"shape":"spar"}},"osm_tags":{"colour":"white","hazard_type":"dam","man_made":"buoy","seamark:buoy_isolated_danger:shape":"spar","seamark:type":"buoy_special_purpose"}}},{"type":"Feature","geometry":{"type":"Point","coordinates":[-87.7595363,42.1021]},"properties":{"osm_id":7990277452,"osm_type":"node","seamark_type":"buoy_special_purpose","display_class":"OTHER","min_zoom":12,"importance":1,"name":null,"ref":null,"common":{"type":"buoy_special_purpose"},"children":{"buoy_isolated_danger":{"shape":"spar"}},"osm_tags":{"colour":"white","hazard_type":"dam","man_made":"buoy","seamark:buoy_isolated_danger:shape":"spar","seamark:type":"buoy_special_purpose"}}},{"type":"Feature","geometry":{"type":"Point","coordinates":[-87.7597139,42.1020301]},"properties":{"osm_id":7990277453,"osm_type":"node","seamark_type":"buoy_special_purpose","display_class":"OTHER","min_zoom":12,"importance":1,"name":null,"ref":null,"common":{"type":"buoy_special_purpose"},"children":{"buoy_isolated_danger":{"shape":"spar"}},"osm_tags":{"colour":"white","hazard_type":"dam","man_made":"buoy","seamark:buoy_isolated_danger:shape":"spar","seamark:type":"buoy_special_purpose"}}},{"type":"Feature","geometry":{"type":"Point","coordinates":[-87.635,42.7016667]},"properties":{"osm_id":10125720530,"osm_type":"node","seamark_type":"buoy_special_purpose","display_class":"OTHER","min_zoom":12,"importance":1,"name":null,"ref":null,"common":{"type":"buoy_special_purpose"},"children":{"buoy_special_purpose":{"colour":"yellow"},"light":{"character":"Fl","colour":"yellow","period":"2.5"}},"osm_tags":{"man_made":"buoy","seamark:buoy_special_purpose:colour":"yellow","seamark:light:character":"Fl","seamark:light:colour":"yellow","seamark:light:period":"2.5","seamark:type":"buoy_special_purpose"}}},{"type":"Feature","geometry":{"type":"Point","coordinates":[-87.8178018,42.5903735]},"properties":{"osm_id":12192630129,"osm_type":"node","seamark_type":"small_craft_facility","display_class":"OTHER","min_zoom":12,"importance":1,"name":null,"ref":null,"common":{"type":"small_craft_facility"},"children":{"small_craft_facility":{"category":"boat_hoist"}},"osm_tags":{"seamark:small_craft_facility:category":"boat_hoist","seamark:type":"small_craft_facility"}}},{"type":"Feature","geometry":{"type":"Point","coordinates":[-87.8215064,42.3560275]},"properties":{"osm_id":12616680782,"osm_type":"node","seamark_type":"buoy_lateral","display_class":"OTHER","min_zoom":12,"importance":1,"name":null,"ref":null,"common":{"type":"buoy_lateral"},"children":{"buoy_lateral":{"colour":"white","shape":"can"}},"osm_tags":{"man_made":"buoy","seamark:buoy_lateral:colour":"white","seamark:buoy_lateral:shape":"can","seamark:type":"buoy_lateral"}}},{"type":"Feature","geometry":{"type":"Polygon","coordinates":[[[-87.8064469,42.4947576],[-87.8062509,42.494756],[-87.8056048,42.4947506],[-87.8046819,42.494743],[-87.8045372,42.4947418],[-87.8045158,42.4941564],[-87.8038373,42.4941187],[-87.8038118,42.4929636],[-87.8038077,42.4927799],[-87.8065196,42.4927812],[-87.8064469,42.4947576]]]},"properties":{"osm_id":193720020,"osm_type":"way","seamark_type":"harbour","display_class":"OTHER","min_zoom":12,"importance":1,"name":null,"ref":null,"common":{"type":"harbour"},"children":{"harbour":{"category":"marina"}},"osm_tags":{"addr:city":"Pleasant Prairie","addr:state":"WI","fee":"yes","leisure":"marina","power_supply":"yes","seamark:harbour:category":"marina","seamark:type":"harbour"}}},{"type":"Feature","geometry":{"type":"Polygon","coordinates":[[[-87.832259,42.3088878],[-87.8307568,42.308633],[-87.8306045,42.3082697],[-87.8305341,42.3082878],[-87.8307343,42.3087749],[-87.8307691,42.3087666],[-87.8308034,42.3087583],[-87.8307699,42.3086832],[-87.8311425,42.308745],[-87.8315849,42.3088184],[-87.8317174,42.3088404],[-87.8317187,42.3088335],[-87.8321749,42.3089088],[-87.8322473,42.3089208],[-87.832259,42.3088878]]]},"properties":{"osm_id":196616545,"osm_type":"way","seamark_type":"harbour","display_class":"OTHER","min_zoom":12,"importance":1,"name":null,"ref":null,"common":{"type":"harbour"},"children":{"harbour":{"category":"marina"}},"osm_tags":{"alt_name":"Structure 717","area":"yes","floating":"no","heritage":"2","heritage:operator":"nrhp","heritage:website":"https://www.nps.gov/subjects/nationalregister/index.htm","historic":"naval","leisure":"marina","man_made":"pier","mooring":"private","nrhp:criteria":"(A), (C)","nrhp:inscription_date":"1986-09-15","protection_title":"U.S. Navy","ref:nrhp":"86002890","seamark:harbour:category":"marina","seamark:type":"harbour","source":"Bing","source_ref":"https://catalog.archives.gov/id/28893332","start_date":"1919","surface":"concrete"}}},{"type":"Feature","geometry":{"type":"LineString","coordinates":[[-87.8134204,42.3606767],[-87.8198288,42.3607216],[-87.8213214,42.3607409],[-87.8224774,42.3603396],[-87.8235523,42.359968],[-87.8242034,42.359748]]},"properties":{"osm_id":233062935,"osm_type":"way","seamark_type":"harbour","display_class":"OTHER","min_zoom":12,"importance":1,"name":null,"ref":null,"common":{"type":"harbour"},"children":{},"osm_tags":{"description":"Government Pier","man_made":"breakwater","seamark:type":"harbour"}}},{"type":"Feature","geometry":{"type":"Polygon","coordinates":[[[-87.785179,42.7322614],[-87.7851474,42.7321292],[-87.7856713,42.7320624],[-87.7857129,42.7322047],[-87.785179,42.7322614]]]},"properties":{"osm_id":350696945,"osm_type":"way","seamark_type":"harbour","display_class":"OTHER","min_zoom":12,"importance":1,"name":null,"ref":null,"common":{"type":"harbour"},"children":{"harbour":{"category":"marina"}},"osm_tags":{"building":"yes","leisure":"marina","seamark:harbour:category":"marina","seamark:type":"harbour"}}},{"type":"Feature","geometry":{"type":"Polygon","coordinates":[[[-87.7827562,42.7330512],[-87.7827881,42.7331819],[-87.7814782,42.7333422],[-87.7789529,42.7333583],[-87.7789618,42.7332595],[-87.7789642,42.7332146],[-87.7801298,42.7332082],[-87.7811963,42.7332163],[-87.7818079,42.7331758],[-87.7820854,42.7331491],[-87.7827562,42.7330512]]]},"properties":{"osm_id":482579530,"osm_type":"way","seamark_type":"harbour","display_class":"OTHER","min_zoom":12,"importance":1,"name":null,"ref":null,"common":{"type":"harbour"},"children":{"harbour":{"category":"marina"}},"osm_tags":{"leisure":"marina","seamark:harbour:category":"marina","seamark:type":"harbour"}}},{"type":"Feature","geometry":{"type":"Polygon","coordinates":[[[-87.7793912,42.7307452],[-87.7792435,42.7298492],[-87.7804085,42.7297237],[-87.7805667,42.7297536],[-87.7808067,42.7297336],[-87.7808268,42.7298196],[-87.7809191,42.7302151],[-87.7810061,42.7305881],[-87.7793912,42.7307452]]]},"properties":{"osm_id":482579531,"osm_type":"way","seamark_type":"harbour","display_class":"OTHER","min_zoom":12,"importance":1,"name":null,"ref":null,"common":{"type":"harbour"},"children":{"harbour":{"category":"marina"}},"osm_tags":{"leisure":"marina","seamark:harbour:category":"marina","seamark:type":"harbour"}}},{"type":"Feature","geometry":{"type":"Polygon","coordinates":[[[-87.7856238,42.7340995],[-87.7855614,42.7340367],[-87.7858088,42.7338978],[-87.7860272,42.7336893],[-87.7862746,42.7332563],[-87.7863255,42.7326523],[-87.7859689,42.7317596],[-87.7861885,42.7317644],[-87.7862931,42.7319805],[-87.7863257,42.7320829],[-87.7864239,42.7323752],[-87.7865495,42.7323654],[-87.7865507,42.7324414],[-87.7864623,42.7324449],[-87.7864635,42.7324731],[-87.7865188,42.7326034],[-87.786461,42.7333185],[-87.7864542,42.7333365],[-87.7863896,42.7334452],[-87.7865278,42.7334921],[-87.7865023,42.7335325],[-87.7863642,42.7334856],[-87.7862257,42.7337039],[-87.7861622,42.7337729],[-87.785964,42.7339624],[-87.7858672,42.7340078],[-87.7856238,42.7340995]]]},"properties":{"osm_id":482579532,"osm_type":"way","seamark_type":"harbour","display_class":"OTHER","min_zoom":12,"importance":1,"name":null,"ref":null,"common":{"type":"harbour"},"children":{"harbour":{"category":"marina"}},"osm_tags":{"leisure":"marina","seamark:harbour:category":"marina","seamark:type":"harbour"}}},{"type":"Feature","geometry":{"type":"Polygon","coordinates":[[[-87.7788422,42.7330532],[-87.77876,42.7330022],[-87.7795639,42.7323053],[-87.7796387,42.7323507],[-87.779697,42.732385],[-87.7790273,42.7329689],[-87.7789047,42.7330744],[-87.7788913,42.7330842],[-87.7788797,42.7330769],[-87.7788422,42.7330532]]]},"properties":{"osm_id":482580015,"osm_type":"way","seamark_type":"harbour","display_class":"OTHER","min_zoom":12,"importance":1,"name":null,"ref":null,"common":{"type":"harbour"},"children":{"harbour":{"category":"marina"}},"osm_tags":{"leisure":"marina","seamark:harbour:category":"marina","seamark:type":"harbour"}}},{"type":"Feature","geometry":{"type":"Polygon","coordinates":[[[-87.779575,42.7320735],[-87.7794221,42.7311259],[-87.7795079,42.7311213],[-87.7795775,42.7311157],[-87.7795788,42.7311299],[-87.7796537,42.7315941],[-87.7796677,42.7316839],[-87.7797299,42.7320602],[-87.7797093,42.7320611],[-87.7797116,42.7320768],[-87.7797045,42.7320775],[-87.7796663,42.7320813],[-87.779575,42.7320735]]]},"properties":{"osm_id":482580016,"osm_type":"way","seamark_type":"harbour","display_class":"OTHER","min_zoom":12,"importance":1,"name":null,"ref":null,"common":{"type":"harbour"},"children":{"harbour":{"category":"marina"}},"osm_tags":{"leisure":"marina","seamark:harbour:category":"marina","seamark:type":"harbour"}}},{"type":"Feature","geometry":{"type":"Polygon","coordinates":[[[-87.8430751,42.9051675],[-87.8427692,42.9049736],[-87.8426243,42.905005],[-87.8424366,42.9051033],[-87.842402,42.9051427],[-87.8423674,42.9051821],[-87.8422578,42.9052436],[-87.8421228,42.9053237],[-87.8420472,42.9053831],[-87.8419993,42.905449],[-87.841959,42.9055185],[-87.841914,42.9056317],[-87.8419118,42.9056675],[-87.8419296,42.9057682],[-87.8419525,42.905869],[-87.8420135,42.9060258],[-87.8420773,42.9061007],[-87.8421183,42.9061311],[-87.8421978,42.9061527],[-87.842411,42.9062035],[-87.8429386,42.906341],[-87.8429891,42.906341],[-87.8431018,42.906227],[-87.84326,42.9061331],[-87.8434239,42.9059319],[-87.843041,42.9058031],[-87.8430654,42.9057595],[-87.8434585,42.9058826],[-87.8434778,42.9058529],[-87.8435219,42.9058624],[-87.8436999,42.9055987],[-87.8430669,42.9053237],[-87.8429167,42.9052923],[-87.8429355,42.9052251],[-87.8430751,42.9051675]]]},"properties":{"osm_id":510294496,"osm_type":"way","seamark_type":"harbour","display_class":"OTHER","min_zoom":12,"importance":1,"name":null,"ref":null,"common":{"type":"harbour"},"children":{"harbour":{"category":"marina"}},"osm_tags":{"leisure":"marina","seamark:harbour:category":"marina","seamark:type":"harbour"}}},{"type":"Feature","geometry":{"type":"Polygon","coordinates":[[[-87.7856962,42.7334902],[-87.7858381,42.7335063],[-87.7859486,42.7331473],[-87.7860122,42.7326529],[-87.7859653,42.7324267],[-87.7857912,42.731979],[-87.785702,42.7320109],[-87.7857769,42.7321659],[-87.7857992,42.7322155],[-87.7858779,42.7324887],[-87.7859097,42.7325998],[-87.785903,42.7327437],[-87.7858615,42.7330162],[-87.78576,42.733388],[-87.7857419,42.7334283],[-87.7856962,42.7334902]]]},"properties":{"osm_id":539111450,"osm_type":"way","seamark_type":"harbour","display_class":"OTHER","min_zoom":12,"importance":1,"name":null,"ref":null,"common":{"type":"harbour"},"children":{"harbour":{"category":"marina"}},"osm_tags":{"leisure":"marina","seamark:harbour:category":"marina","seamark:type":"harbour"}}},{"type":"Feature","geometry":{"type":"Polygon","coordinates":[[[-87.786004,42.7314756],[-87.7858582,42.7315216],[-87.7857376,42.731342],[-87.7854497,42.7308477],[-87.7853325,42.7305181],[-87.7852488,42.7301541],[-87.7852689,42.7297901],[-87.7854084,42.7297932],[-87.7854029,42.7298374],[-87.7854046,42.7298979],[-87.7854206,42.7300343],[-87.7854434,42.7302676],[-87.7854452,42.730307],[-87.7854543,42.7303339],[-87.7854629,42.7303528],[-87.7854714,42.7304564],[-87.7854823,42.7305143],[-87.7854977,42.7305555],[-87.7855137,42.7305874],[-87.7854686,42.7305979],[-87.7854717,42.7306057],[-87.7856424,42.7305684],[-87.7856598,42.7306113],[-87.7854891,42.7306486],[-87.7854954,42.7306642],[-87.7855214,42.7306572],[-87.7855537,42.7307273],[-87.7855941,42.7308166],[-87.7856178,42.730812],[-87.7856635,42.7309055],[-87.7856467,42.7309111],[-87.7856761,42.7309599],[-87.7857212,42.7310382],[-87.7857663,42.731116],[-87.7858215,42.7312115],[-87.785866,42.7312876],[-87.785912,42.7313521],[-87.786004,42.7314756]]]},"properties":{"osm_id":539111451,"osm_type":"way","seamark_type":"harbour","display_class":"OTHER","min_zoom":12,"importance":1,"name":null,"ref":null,"common":{"type":"harbour"},"children":{"harbour":{"category":"marina"}},"osm_tags":{"leisure":"marina","seamark:harbour:category":"marina","seamark:type":"harbour"}}},{"type":"Feature","geometry":{"type":"Polygon","coordinates":[[[-87.7902162,42.7301186],[-87.7902647,42.730019],[-87.7903952,42.7300538],[-87.7906562,42.7300422],[-87.7912612,42.7298824],[-87.7927441,42.7294409],[-87.7927859,42.7295439],[-87.7919599,42.7297933],[-87.7906955,42.7301406],[-87.7904618,42.730164],[-87.7902493,42.7301445],[-87.7902162,42.7301186]]]},"properties":{"osm_id":539111452,"osm_type":"way","seamark_type":"harbour","display_class":"OTHER","min_zoom":12,"importance":1,"name":null,"ref":null,"common":{"type":"harbour"},"children":{"harbour":{"category":"marina"}},"osm_tags":{"leisure":"marina","seamark:harbour:category":"marina","seamark:type":"harbour"}}},{"type":"Feature","geometry":{"type":"LineString","coordinates":[[-87.7829607,42.0561173],[-87.7830047,42.0560767]]},"properties":{"osm_id":965091106,"osm_type":"way","seamark_type":"gate","display_class":"OTHER","min_zoom":12,"importance":1,"name":null,"ref":null,"common":{"type":"gate"},"children":{},"osm_tags":{"seamark:type":"gate","waterway":"lock_gate"}}},{"type":"Feature","geometry":{"type":"Polygon","coordinates":[[[-87.6758975,42.0662144],[-87.6757785,42.0662473],[-87.6756356,42.0663128],[-87.6753147,42.0662985],[-87.6753139,42.0662727],[-87.6756317,42.0662878],[-87.6757735,42.0662176],[-87.6758713,42.066169],[-87.6758975,42.0662144]]]},"properties":{"osm_id":975314784,"osm_type":"way","seamark_type":"obstruction","display_class":"OTHER","min_zoom":12,"importance":1,"name":null,"ref":null,"common":{"type":"obstruction"},"children":{},"osm_tags":{"natural":"reef","reef":"rock","seamark:type":"obstruction"}}},{"type":"Feature","geometry":{"type":"Polygon","coordinates":[[[-87.6761171,42.0668458],[-87.6760785,42.0668131],[-87.6761783,42.0667677],[-87.6762105,42.0668004],[-87.6761171,42.0668458]]]},"properties":{"osm_id":975314786,"osm_type":"way","seamark_type":"obstruction","display_class":"OTHER","min_zoom":12,"importance":1,"name":null,"ref":null,"common":{"type":"obstruction"},"children":{},"osm_tags":{"natural":"reef","reef":"rock","seamark:type":"obstruction"}}},{"type":"Feature","geometry":{"type":"Polygon","coordinates":[[[-87.6771621,42.0684339],[-87.6771374,42.0684036],[-87.6772705,42.0683423],[-87.6772919,42.0683678],[-87.6771621,42.0684339]]]},"properties":{"osm_id":975314790,"osm_type":"way","seamark_type":"obstruction","display_class":"OTHER","min_zoom":12,"importance":1,"name":null,"ref":null,"common":{"type":"obstruction"},"children":{},"osm_tags":{"natural":"reef","reef":"rock","seamark:type":"obstruction"}}},{"type":"Feature","geometry":{"type":"Polygon","coordinates":[[[-87.6776621,42.0689062],[-87.6776438,42.0688783],[-87.6778389,42.0688179],[-87.677855,42.0688418],[-87.6776621,42.0689062]]]},"properties":{"osm_id":975314791,"osm_type":"way","seamark_type":"obstruction","display_class":"OTHER","min_zoom":12,"importance":1,"name":null,"ref":null,"common":{"type":"obstruction"},"children":{},"osm_tags":{"natural":"reef","reef":"rock","seamark:type":"obstruction"}}},{"type":"Feature","geometry":{"type":"Polygon","coordinates":[[[-87.6785625,42.0703565],[-87.6785528,42.0703318],[-87.6788081,42.0702583],[-87.6788221,42.0702689],[-87.6785625,42.0703565]]]},"properties":{"osm_id":975314795,"osm_type":"way","seamark_type":"obstruction","display_class":"OTHER","min_zoom":12,"importance":1,"name":null,"ref":null,"common":{"type":"obstruction"},"children":{},"osm_tags":{"natural":"reef","reef":"rock","seamark:type":"obstruction"}}},{"type":"Feature","geometry":{"type":"Polygon","coordinates":[[[-87.6782932,42.0701112],[-87.678291,42.0700977],[-87.6782846,42.0700881],[-87.6781687,42.0701303],[-87.678173,42.0701423],[-87.6782932,42.0701112]]]},"properties":{"osm_id":975314796,"osm_type":"way","seamark_type":"obstruction","display_class":"OTHER","min_zoom":12,"importance":1,"name":null,"ref":null,"common":{"type":"obstruction"},"children":{},"osm_tags":{"natural":"reef","reef":"rock","seamark:type":"obstruction"}}},{"type":"Feature","geometry":{"type":"Polygon","coordinates":[[[-87.6781271,42.0695801],[-87.6781596,42.0695225],[-87.6781055,42.0694301],[-87.6780207,42.0693738],[-87.6779395,42.0694126],[-87.6780171,42.0695653],[-87.6781271,42.0695801]]]},"properties":{"osm_id":975315699,"osm_type":"way","seamark_type":"obstruction","display_class":"OTHER","min_zoom":12,"importance":1,"name":null,"ref":null,"common":{"type":"obstruction"},"children":{},"osm_tags":{"natural":"reef","reef":"rock","seamark:type":"obstruction"}}},{"type":"Feature","geometry":{"type":"Polygon","coordinates":[[[-87.8213629,42.3568592],[-87.8213623,42.3568295],[-87.8211936,42.3568316],[-87.8211942,42.3568613],[-87.8213629,42.3568592]]]},"properties":{"osm_id":1157210692,"osm_type":"way","seamark_type":"small_craft_facility","display_class":"OTHER","min_zoom":12,"importance":1,"name":null,"ref":null,"common":{"type":"small_craft_facility"},"children":{"small_craft_facility":{"category":"fuel_station"}},"osm_tags":{"brand":"ValvTect","building":"yes","fuel:diesel":"yes","fuel:octane_87":"yes","opening_hours":"Mo-Su 08:00-16:00","operator":"Waukegan Port Authority","payment:cash":"yes","payment:credit_cards":"yes","seamark:small_craft_facility:category":"fuel_station","seamark:type":"small_craft_facility","self_service":"no","waterway":"fuel"}}},{"type":"Feature","geometry":{"type":"Polygon","coordinates":[[[-87.8132235,42.5914797],[-87.813223,42.5914638],[-87.8132224,42.5914454],[-87.8134946,42.5914338],[-87.8135071,42.5914477],[-87.8135184,42.5914602],[-87.8132235,42.5914797]]]},"properties":{"osm_id":1315467857,"osm_type":"way","seamark_type":"obstruction","display_class":"OTHER","min_zoom":12,"importance":1,"name":null,"ref":null,"common":{"type":"obstruction"},"children":{"obstruction":{"category":"foul_area","water_level":"submerged"}},"osm_tags":{"area":"yes","natural":"reef","reef":"pilings","seamark:obstruction:category":"foul_area","seamark:obstruction:water_level":"submerged","seamark:type":"obstruction"}}},{"type":"Feature","geometry":{"type":"Polygon","coordinates":[[[-87.818076,42.5895926],[-87.8180741,42.58962],[-87.8180786,42.5896678],[-87.8181211,42.5897227],[-87.8182086,42.5898062],[-87.8183106,42.5898832],[-87.8186213,42.5901699],[-87.8187091,42.590302],[-87.8188153,42.5903674],[-87.8188572,42.5904116],[-87.818871,42.5904042],[-87.81883,42.590346],[-87.818801,42.5902528],[-87.8184768,42.5899582],[-87.8182768,42.5897718],[-87.8181299,42.5896195],[-87.818076,42.5895926]]]},"properties":{"osm_id":1317141492,"osm_type":"way","seamark_type":"obstruction","display_class":"OTHER","min_zoom":12,"importance":1,"name":null,"ref":null,"common":{"type":"obstruction"},"children":{"obstruction":{"category":"foul_area","water_level":"submerged"}},"osm_tags":{"area":"yes","natural":"reef","reef":"pilings","seamark:obstruction:category":"foul_area","seamark:obstruction:water_level":"submerged","seamark:type":"obstruction"}}},{"type":"Feature","geometry":{"type":"Polygon","coordinates":[[[-87.818871,42.5904042],[-87.8189215,42.5904053],[-87.8191108,42.5906236],[-87.8190689,42.5906411],[-87.8190416,42.5906357],[-87.8189745,42.5905485],[-87.8188572,42.5904116],[-87.818871,42.5904042]]]},"properties":{"osm_id":1317141493,"osm_type":"way","seamark_type":"obstruction","display_class":"OTHER","min_zoom":12,"importance":1,"name":null,"ref":null,"common":{"type":"obstruction"},"children":{"obstruction":{"category":"foul_area","water_level":"submerged"}},"osm_tags":{"area":"yes","natural":"reef","reef":"pilings","seamark:obstruction:category":"foul_area","seamark:obstruction:water_level":"submerged","seamark:type":"obstruction"}}},{"type":"Feature","geometry":{"type":"LineString","coordinates":[[-87.8171621,42.5951659],[-87.8172253,42.5948455]]},"properties":{"osm_id":1317152604,"osm_type":"way","seamark_type":"small_craft_facility","display_class":"OTHER","min_zoom":12,"importance":1,"name":null,"ref":null,"common":{"type":"small_craft_facility"},"children":{"small_craft_facility":{"category":"slipway"}},"osm_tags":{"highway":"service","leisure":"slipway","seamark:small_craft_facility:category":"slipway","seamark:type":"small_craft_facility","service":"slipway","surface":"concrete"}}},{"type":"Feature","geometry":{"type":"LineString","coordinates":[[-87.817022,42.5951067],[-87.8170817,42.5948269]]},"properties":{"osm_id":1317152605,"osm_type":"way","seamark_type":"small_craft_facility","display_class":"OTHER","min_zoom":12,"importance":1,"name":null,"ref":null,"common":{"type":"small_craft_facility"},"children":{"small_craft_facility":{"category":"slipway"}},"osm_tags":{"highway":"service","leisure":"slipway","seamark:small_craft_facility:category":"slipway","seamark:type":"small_craft_facility","service":"slipway","surface":"concrete"}}},{"type":"Feature","geometry":{"type":"LineString","coordinates":[[-87.8168506,42.5950686],[-87.816929,42.5947635]]},"properties":{"osm_id":1317152607,"osm_type":"way","seamark_type":"small_craft_facility","display_class":"OTHER","min_zoom":12,"importance":1,"name":null,"ref":null,"common":{"type":"small_craft_facility"},"children":{"small_craft_facility":{"category":"slipway"}},"osm_tags":{"highway":"service","leisure":"slipway","seamark:small_craft_facility:category":"slipway","seamark:type":"small_craft_facility","service":"slipway","surface":"concrete"}}},{"type":"Feature","geometry":{"type":"Polygon","coordinates":[[[-87.8318619,42.3268211],[-87.8314739,42.3268103],[-87.8314757,42.3267753],[-87.8318823,42.3267867],[-87.8318619,42.3268211]]]},"properties":{"osm_id":1325281032,"osm_type":"way","seamark_type":"obstruction","display_class":"OTHER","min_zoom":12,"importance":1,"name":null,"ref":null,"common":{"type":"obstruction"},"children":{"obstruction":{"category":"foul_area","water_level":"submerged"}},"osm_tags":{"area":"yes","natural":"reef","reef":"pilings","seamark:obstruction:category":"foul_area","seamark:obstruction:water_level":"submerged","seamark:type":"obstruction"}}},{"type":"Feature","geometry":{"type":"Polygon","coordinates":[[[-87.8267684,42.310343],[-87.8268218,42.3103027],[-87.826972,42.3101894],[-87.8265754,42.3099019],[-87.8263717,42.3100556],[-87.8267684,42.310343]]]},"properties":{"osm_id":1325809181,"osm_type":"way","seamark_type":"obstruction","display_class":"OTHER","min_zoom":12,"importance":1,"name":null,"ref":null,"common":{"type":"obstruction"},"children":{"obstruction":{"category":"foul_area","water_level":"submerged"}},"osm_tags":{"area":"yes","natural":"reef","reef":"pilings","seamark:obstruction:category":"foul_area","seamark:obstruction:water_level":"submerged","seamark:type":"obstruction"}}},{"type":"Feature","geometry":{"type":"Polygon","coordinates":[[[-87.8306666,42.3082538],[-87.8306677,42.3082556],[-87.8306695,42.3082569],[-87.8306718,42.3082578],[-87.8306743,42.3082581],[-87.8306769,42.3082578],[-87.8306791,42.3082569],[-87.8306809,42.3082556],[-87.8306821,42.3082537],[-87.8306824,42.3082517],[-87.8306817,42.3082497],[-87.8306801,42.308248],[-87.8306779,42.3082468],[-87.8306753,42.3082462],[-87.8306725,42.3082464],[-87.83067,42.3082472],[-87.8306681,42.3082484],[-87.8306668,42.3082501],[-87.8306663,42.308252],[-87.8306666,42.3082538]]]},"properties":{"osm_id":1326041044,"osm_type":"way","seamark_type":"mooring","display_class":"OTHER","min_zoom":12,"importance":1,"name":null,"ref":null,"common":{"type":"mooring"},"children":{"mooring":{"category":"dolphin"}},"osm_tags":{"area":"yes","floating":"no","man_made":"pier","seamark:mooring:category":"dolphin","seamark:type":"mooring"}}},{"type":"Feature","geometry":{"type":"Polygon","coordinates":[[[-87.8321692,42.3079401],[-87.8321703,42.3079418],[-87.8321721,42.3079432],[-87.8321744,42.3079441],[-87.8321769,42.3079444],[-87.8321795,42.3079441],[-87.8321818,42.3079432],[-87.8321836,42.3079419],[-87.8321847,42.30794],[-87.832185,42.307938],[-87.8321843,42.307936],[-87.8321827,42.3079343],[-87.8321805,42.3079331],[-87.8321779,42.3079325],[-87.8321751,42.3079327],[-87.8321726,42.3079334],[-87.8321707,42.3079347],[-87.8321694,42.3079364],[-87.8321689,42.3079382],[-87.8321692,42.3079401]]]},"properties":{"osm_id":1326041045,"osm_type":"way","seamark_type":"mooring","display_class":"OTHER","min_zoom":12,"importance":1,"name":null,"ref":null,"common":{"type":"mooring"},"children":{"mooring":{"category":"dolphin"}},"osm_tags":{"area":"yes","floating":"no","man_made":"pier","seamark:mooring:category":"dolphin","seamark:type":"mooring"}}},{"type":"Feature","geometry":{"type":"Polygon","coordinates":[[[-87.8321934,42.3078588],[-87.8321945,42.3078606],[-87.8321963,42.3078619],[-87.8321986,42.3078628],[-87.8322011,42.3078631],[-87.8322036,42.3078628],[-87.8322059,42.3078619],[-87.8322077,42.3078606],[-87.8322089,42.3078587],[-87.8322091,42.3078567],[-87.8322084,42.3078547],[-87.8322069,42.307853],[-87.8322047,42.3078518],[-87.832202,42.3078512],[-87.8321993,42.3078514],[-87.8321967,42.3078522],[-87.8321948,42.3078534],[-87.8321936,42.3078551],[-87.8321931,42.3078569],[-87.8321934,42.3078588]]]},"properties":{"osm_id":1326041046,"osm_type":"way","seamark_type":"mooring","display_class":"OTHER","min_zoom":12,"importance":1,"name":null,"ref":null,"common":{"type":"mooring"},"children":{"mooring":{"category":"dolphin"}},"osm_tags":{"area":"yes","floating":"no","man_made":"pier","seamark:mooring:category":"dolphin","seamark:type":"mooring"}}},{"type":"Feature","geometry":{"type":"Polygon","coordinates":[[[-87.8322135,42.3077985],[-87.8322146,42.3078002],[-87.8322164,42.3078016],[-87.8322187,42.3078025],[-87.8322212,42.3078028],[-87.8322237,42.3078025],[-87.832226,42.3078016],[-87.8322278,42.3078002],[-87.832229,42.3077984],[-87.8322292,42.3077963],[-87.8322285,42.3077944],[-87.832227,42.3077927],[-87.8322248,42.3077915],[-87.8322221,42.3077909],[-87.8322194,42.307791],[-87.8322168,42.3077918],[-87.8322149,42.3077931],[-87.8322137,42.3077947],[-87.8322132,42.3077966],[-87.8322135,42.3077985]]]},"properties":{"osm_id":1326041047,"osm_type":"way","seamark_type":"mooring","display_class":"OTHER","min_zoom":12,"importance":1,"name":null,"ref":null,"common":{"type":"mooring"},"children":{"mooring":{"category":"dolphin"}},"osm_tags":{"area":"yes","floating":"no","man_made":"pier","seamark:mooring:category":"dolphin","seamark:type":"mooring"}}},{"type":"Feature","geometry":{"type":"Polygon","coordinates":[[[-87.8323369,42.3078211],[-87.832338,42.3078228],[-87.8323398,42.3078242],[-87.832342,42.307825],[-87.8323446,42.3078254],[-87.8323471,42.307825],[-87.8323494,42.3078242],[-87.8323512,42.3078228],[-87.8323524,42.307821],[-87.8323526,42.3078189],[-87.8323519,42.307817],[-87.8323504,42.3078153],[-87.8323482,42.3078141],[-87.8323455,42.3078135],[-87.8323428,42.3078136],[-87.8323402,42.3078144],[-87.8323383,42.3078157],[-87.832337,42.3078173],[-87.8323365,42.3078192],[-87.8323369,42.3078211]]]},"properties":{"osm_id":1326041048,"osm_type":"way","seamark_type":"mooring","display_class":"OTHER","min_zoom":12,"importance":1,"name":null,"ref":null,"common":{"type":"mooring"},"children":{"mooring":{"category":"dolphin"}},"osm_tags":{"area":"yes","floating":"no","man_made":"pier","seamark:mooring:category":"dolphin","seamark:type":"mooring"}}},{"type":"Feature","geometry":{"type":"Polygon","coordinates":[[[-87.8323183,42.3078843],[-87.8323194,42.307886],[-87.8323212,42.3078874],[-87.8323235,42.3078883],[-87.832326,42.3078886],[-87.8323286,42.3078883],[-87.8323308,42.3078874],[-87.8323326,42.307886],[-87.8323338,42.3078842],[-87.832334,42.3078821],[-87.8323334,42.3078802],[-87.8323318,42.3078785],[-87.8323296,42.3078773],[-87.8323269,42.3078767],[-87.8323242,42.3078768],[-87.8323217,42.3078776],[-87.8323197,42.3078789],[-87.8323185,42.3078805],[-87.832318,42.3078824],[-87.8323183,42.3078843]]]},"properties":{"osm_id":1326041049,"osm_type":"way","seamark_type":"mooring","display_class":"OTHER","min_zoom":12,"importance":1,"name":null,"ref":null,"common":{"type":"mooring"},"children":{"mooring":{"category":"dolphin"}},"osm_tags":{"area":"yes","floating":"no","man_made":"pier","seamark:mooring:category":"dolphin","seamark:type":"mooring"}}},{"type":"Feature","geometry":{"type":"Polygon","coordinates":[[[-87.8322955,42.3079607],[-87.8322966,42.3079624],[-87.8322984,42.3079637],[-87.8323007,42.3079646],[-87.8323032,42.3079649],[-87.8323057,42.3079646],[-87.832308,42.3079638],[-87.8323098,42.3079624],[-87.832311,42.3079605],[-87.8323112,42.3079585],[-87.8323105,42.3079565],[-87.832309,42.3079548],[-87.8323068,42.3079536],[-87.8323041,42.3079531],[-87.8323014,42.3079532],[-87.8322988,42.307954],[-87.8322969,42.3079553],[-87.8322957,42.3079569],[-87.8322952,42.3079588],[-87.8322955,42.3079607]]]},"properties":{"osm_id":1326041050,"osm_type":"way","seamark_type":"mooring","display_class":"OTHER","min_zoom":12,"importance":1,"name":null,"ref":null,"common":{"type":"mooring"},"children":{"mooring":{"category":"dolphin"}},"osm_tags":{"area":"yes","floating":"no","man_made":"pier","seamark:mooring:category":"dolphin","seamark:type":"mooring"}}},{"type":"Feature","geometry":{"type":"Polygon","coordinates":[[[-87.8324227,42.3079835],[-87.8324238,42.3079853],[-87.8324256,42.3079866],[-87.8324279,42.3079875],[-87.8324304,42.3079878],[-87.832433,42.3079875],[-87.8324353,42.3079866],[-87.8324371,42.3079853],[-87.8324382,42.3079834],[-87.8324385,42.3079814],[-87.8324378,42.3079794],[-87.8324362,42.3079777],[-87.832434,42.3079765],[-87.8324314,42.307976],[-87.8324286,42.3079761],[-87.8324261,42.3079769],[-87.8324242,42.3079781],[-87.8324229,42.3079798],[-87.8324224,42.3079817],[-87.8324227,42.3079835]]]},"properties":{"osm_id":1326041051,"osm_type":"way","seamark_type":"mooring","display_class":"OTHER","min_zoom":12,"importance":1,"name":null,"ref":null,"common":{"type":"mooring"},"children":{"mooring":{"category":"dolphin"}},"osm_tags":{"area":"yes","floating":"no","man_made":"pier","seamark:mooring:category":"dolphin","seamark:type":"mooring"}}},{"type":"Feature","geometry":{"type":"Polygon","coordinates":[[[-87.832444,42.3079115],[-87.8324451,42.3079132],[-87.8324469,42.3079146],[-87.8324492,42.3079154],[-87.8324517,42.3079157],[-87.8324543,42.3079154],[-87.8324565,42.3079146],[-87.8324583,42.3079132],[-87.8324595,42.3079113],[-87.8324597,42.3079093],[-87.8324591,42.3079073],[-87.8324575,42.3079057],[-87.8324553,42.3079044],[-87.8324526,42.3079039],[-87.8324499,42.307904],[-87.8324474,42.3079048],[-87.8324454,42.3079061],[-87.8324442,42.3079077],[-87.8324437,42.3079096],[-87.832444,42.3079115]]]},"properties":{"osm_id":1326041052,"osm_type":"way","seamark_type":"mooring","display_class":"OTHER","min_zoom":12,"importance":1,"name":null,"ref":null,"common":{"type":"mooring"},"children":{"mooring":{"category":"dolphin"}},"osm_tags":{"area":"yes","floating":"no","man_made":"pier","seamark:mooring:category":"dolphin","seamark:type":"mooring"}}},{"type":"Feature","geometry":{"type":"Polygon","coordinates":[[[-87.8324664,42.3078417],[-87.8324675,42.3078434],[-87.8324693,42.3078448],[-87.8324716,42.3078456],[-87.8324741,42.3078459],[-87.8324767,42.3078456],[-87.832479,42.3078448],[-87.8324808,42.3078434],[-87.8324819,42.3078415],[-87.8324822,42.3078395],[-87.8324815,42.3078375],[-87.8324799,42.3078359],[-87.8324777,42.3078347],[-87.8324751,42.3078341],[-87.8324723,42.3078342],[-87.8324698,42.307835],[-87.8324679,42.3078363],[-87.8324666,42.3078379],[-87.8324661,42.3078398],[-87.8324664,42.3078417]]]},"properties":{"osm_id":1326041053,"osm_type":"way","seamark_type":"mooring","display_class":"OTHER","min_zoom":12,"importance":1,"name":null,"ref":null,"common":{"type":"mooring"},"children":{"mooring":{"category":"dolphin"}},"osm_tags":{"area":"yes","floating":"no","man_made":"pier","seamark:mooring:category":"dolphin","seamark:type":"mooring"}}},{"type":"Feature","geometry":{"type":"Polygon","coordinates":[[[-87.8325937,42.3078634],[-87.8325948,42.3078651],[-87.8325966,42.3078665],[-87.8325989,42.3078674],[-87.8326014,42.3078677],[-87.8326039,42.3078674],[-87.8326062,42.3078665],[-87.832608,42.3078651],[-87.8326092,42.3078633],[-87.8326094,42.3078613],[-87.8326087,42.3078593],[-87.8326072,42.3078576],[-87.832605,42.3078564],[-87.8326023,42.3078558],[-87.8325996,42.3078559],[-87.832597,42.3078567],[-87.8325951,42.307858],[-87.8325939,42.3078597],[-87.8325934,42.3078615],[-87.8325937,42.3078634]]]},"properties":{"osm_id":1326041054,"osm_type":"way","seamark_type":"mooring","display_class":"OTHER","min_zoom":12,"importance":1,"name":null,"ref":null,"common":{"type":"mooring"},"children":{"mooring":{"category":"dolphin"}},"osm_tags":{"area":"yes","floating":"no","man_made":"pier","seamark:mooring:category":"dolphin","seamark:type":"mooring"}}},{"type":"Feature","geometry":{"type":"Polygon","coordinates":[[[-87.8325674,42.3079352],[-87.8325685,42.3079369],[-87.8325703,42.3079383],[-87.8325726,42.3079392],[-87.8325751,42.3079395],[-87.8325776,42.3079392],[-87.8325799,42.3079383],[-87.8325817,42.3079369],[-87.8325829,42.3079351],[-87.8325831,42.3079331],[-87.8325824,42.3079311],[-87.8325809,42.3079294],[-87.8325787,42.3079282],[-87.832576,42.3079276],[-87.8325733,42.3079277],[-87.8325707,42.3079285],[-87.8325688,42.3079298],[-87.8325676,42.3079315],[-87.8325671,42.3079333],[-87.8325674,42.3079352]]]},"properties":{"osm_id":1326041055,"osm_type":"way","seamark_type":"mooring","display_class":"OTHER","min_zoom":12,"importance":1,"name":null,"ref":null,"common":{"type":"mooring"},"children":{"mooring":{"category":"dolphin"}},"osm_tags":{"area":"yes","floating":"no","man_made":"pier","seamark:mooring:category":"dolphin","seamark:type":"mooring"}}},{"type":"Feature","geometry":{"type":"Polygon","coordinates":[[[-87.8325488,42.308003],[-87.8325499,42.3080047],[-87.8325517,42.3080061],[-87.832554,42.308007],[-87.8325565,42.3080073],[-87.8325591,42.308007],[-87.8325614,42.3080061],[-87.8325631,42.3080047],[-87.8325643,42.3080029],[-87.8325646,42.3080008],[-87.8325639,42.3079989],[-87.8325623,42.3079972],[-87.8325601,42.307996],[-87.8325575,42.3079954],[-87.8325547,42.3079955],[-87.8325522,42.3079963],[-87.8325503,42.3079976],[-87.832549,42.3079992],[-87.8325485,42.3080011],[-87.8325488,42.308003]]]},"properties":{"osm_id":1326041056,"osm_type":"way","seamark_type":"mooring","display_class":"OTHER","min_zoom":12,"importance":1,"name":null,"ref":null,"common":{"type":"mooring"},"children":{"mooring":{"category":"dolphin"}},"osm_tags":{"area":"yes","floating":"no","man_made":"pier","seamark:mooring:category":"dolphin","seamark:type":"mooring"}}},{"type":"Feature","geometry":{"type":"Point","coordinates":[-87.7233333,42.7952778]},"properties":{"osm_id":10054767389,"osm_type":"node","seamark_type":"buoy_lateral","display_class":"OTHER","min_zoom":12,"importance":1,"name":"14","ref":null,"common":{"name":"14","type":"buoy_lateral"},"children":{"buoy_lateral":{"category":"starboard","colour":"red","system":"iala-b"},"light":{"character":"Fl","colour":"red","period":"4"}},"osm_tags":{"man_made":"buoy","seamark:buoy_lateral:category":"starboard","seamark:buoy_lateral:colour":"red","seamark:buoy_lateral:system":"iala-b","seamark:light:character":"Fl","seamark:light:colour":"red","seamark:light:period":"4","seamark:name":"14","seamark:type":"buoy_lateral"}}},{"type":"Feature","geometry":{"type":"Point","coordinates":[-87.8193693,42.5912104]},"properties":{"osm_id":12198522755,"osm_type":"node","seamark_type":"harbour","display_class":"OTHER","min_zoom":12,"importance":1,"name":"Boat House Dockside Pub and Eatery","ref":null,"common":{"type":"harbour"},"children":{"harbour":{"category":"marina"}},"osm_tags":{"addr:city":"Kenosha","addr:housenumber":"4917","addr:postcode":"53140","addr:state":"WI","addr:street":"7th Avenue","description":"Offering exceptional dining experience perfectly set against the stunning backdrop of Lake Michigan. Our unique location, providing boat slips for easy access to those spending their days on beautiful Lake Michigan.","leisure":"marina","name":"Boat House Dockside Pub and Eatery","seamark:harbour:category":"marina","seamark:type":"harbour","website":"https://www.boathousekenosha.com/"}}},{"type":"Feature","geometry":{"type":"Polygon","coordinates":[[[-87.7928614,42.7296587],[-87.7928509,42.7295711],[-87.7928408,42.7295242],[-87.7928259,42.7295318],[-87.7927859,42.7295439],[-87.7919599,42.7297933],[-87.7906955,42.7301406],[-87.7904618,42.730164],[-87.7904861,42.7302268],[-87.7905749,42.7302603],[-87.7907214,42.7303767],[-87.7909014,42.7304296],[-87.7911511,42.7304578],[-87.7914464,42.7304737],[-87.7916744,42.7304454],[-87.7921377,42.7304155],[-87.7924186,42.7303908],[-87.7925506,42.7303396],[-87.7925987,42.7303538],[-87.7926299,42.7303925],[-87.7926093,42.7304487],[-87.7927078,42.7304169],[-87.792811,42.7303887],[-87.7928446,42.7303429],[-87.7928395,42.7299935],[-87.792823,42.7298315],[-87.7928638,42.7297274],[-87.7928614,42.7296587]]]},"properties":{"osm_id":367694619,"osm_type":"way","seamark_type":"harbour","display_class":"OTHER","min_zoom":12,"importance":1,"name":"Fifth Street Yacht Club","ref":null,"common":{"type":"harbour"},"children":{"harbour":{"category":"marina"}},"osm_tags":{"addr:city":"Racine","addr:housenumber":"761","addr:state":"WI","addr:street":"Marquette Street","leisure":"marina","name":"Fifth Street Yacht Club","seamark:harbour:category":"marina","seamark:type":"harbour"}}},{"type":"Feature","geometry":{"type":"Point","coordinates":[-87.826424,42.3051255]},"properties":{"osm_id":12269037949,"osm_type":"node","seamark_type":"light_minor","display_class":"OTHER","min_zoom":12,"importance":1,"name":"Great Lakes LIGHT 1","ref":null,"common":{"information":"White cylindrical tower with green band","name":"Great Lakes LIGHT 1","reference":"LLNR 20290","type":"light_minor"},"children":{"light":{"character":"Fl","colour":"green","height":"10","period":"4","range":"05"}},"osm_tags":{"alt_name":"Beacon 2","heritage":"2","heritage:operator":"nrhp","heritage:website":"https://www.nps.gov/subjects/nationalregister/index.htm","historic":"lighthouse","man_made":"tower","name":"Light 1","nrhp:criteria":"(A), (C)","nrhp:inscription_date":"1986-09-15","operator":"U.S. Coast Guard","protection_title":"U.S. Navy","ref:nrhp":"86002890","seamark:information":"White cylindrical tower with green band","seamark:light:character":"Fl","seamark:light:colour":"green","seamark:light:height":"10","seamark:light:period":"4","seamark:light:range":"05","seamark:name":"Great Lakes LIGHT 1","seamark:reference":"LLNR 20290","seamark:type":"light_minor","source_ref":"https://catalog.archives.gov/id/28893332","start_date":"1923","tower:type":"navigation"}}},{"type":"Feature","geometry":{"type":"Point","coordinates":[-87.8247638,42.3059071]},"properties":{"osm_id":12269037948,"osm_type":"node","seamark_type":"light_minor","display_class":"OTHER","min_zoom":12,"importance":1,"name":"Great Lakes LIGHT 2","ref":null,"common":{"information":"White cylindrical tower with red band","name":"Great Lakes LIGHT 2","reference":"LLNR 20285","type":"light_minor"},"children":{"light":{"character":"Fl","colour":"red","height":"10","period":"4","range":"06"}},"osm_tags":{"alt_name":"Beacon 1","heritage":"2","heritage:operator":"nrhp","heritage:website":"https://www.nps.gov/subjects/nationalregister/index.htm","historic":"lighthouse","man_made":"tower","name":"Light 2","nrhp:criteria":"(A), (C)","nrhp:inscription_date":"1986-09-15","operator":"U.S. Coast Guard","protection_title":"U.S. Navy","ref:nrhp":"86002890","seamark:information":"White cylindrical tower with red band","seamark:light:character":"Fl","seamark:light:colour":"red","seamark:light:height":"10","seamark:light:period":"4","seamark:light:range":"06","seamark:name":"Great Lakes LIGHT 2","seamark:reference":"LLNR 20285","seamark:type":"light_minor","source_ref":"https://catalog.archives.gov/id/28893332","start_date":"1923","tower:type":"navigation"}}},{"type":"Feature","geometry":{"type":"Point","coordinates":[-87.8310606,42.3078024]},"properties":{"osm_id":12269004593,"osm_type":"node","seamark_type":"light_minor","display_class":"OTHER","min_zoom":12,"importance":1,"name":"Great Lakes LIGHT 3","ref":null,"common":{"information":"Green square on tower","name":"Great Lakes LIGHT 3","reference":"LLNR 20300","type":"light_minor"},"children":{"daymark":{"colour":"green","shape":"square"},"light":{"character":"Fl","colour":"green","height":"05","period":"2.5","range":"05"}},"osm_tags":{"alt_name":"Beacon 4","heritage":"2","heritage:operator":"nrhp","heritage:website":"https://www.nps.gov/subjects/nationalregister/index.htm","historic":"maritime","man_made":"tower","name":"Light 3","nrhp:criteria":"(A), (C)","nrhp:inscription_date":"1986-09-15","operator":"U.S. Coast Guard","protection_title":"U.S. Navy","ref:nrhp":"86002890","seamark:daymark:colour":"green","seamark:daymark:shape":"square","seamark:information":"Green square on tower","seamark:light:character":"Fl","seamark:light:colour":"green","seamark:light:height":"05","seamark:light:period":"2.5","seamark:light:range":"05","seamark:name":"Great Lakes LIGHT 3","seamark:reference":"LLNR 20300","seamark:type":"light_minor","source_ref":"https://catalog.archives.gov/id/28893332","start_date":"1923","tower:type":"navigation"}}},{"type":"Feature","geometry":{"type":"Point","coordinates":[-87.8305718,42.3082963]},"properties":{"osm_id":12269004592,"osm_type":"node","seamark_type":"light_minor","display_class":"OTHER","min_zoom":12,"importance":1,"name":"Great Lakes LIGHT 4","ref":null,"common":{"information":"Red triangle on tower","name":"Great Lakes LIGHT 4","reference":"LLNR 20295","type":"light_minor"},"children":{"daymark":{"colour":"red","shape":"traiangle"},"light":{"character":"Fl","colour":"red","height":"05","period":"2.5","range":"04"}},"osm_tags":{"alt_name":"Beacon 3","heritage":"2","heritage:operator":"nrhp","heritage:website":"https://www.nps.gov/subjects/nationalregister/index.htm","historic":"maritime","man_made":"tower","name":"Light 4","nrhp:criteria":"(A), (C)","nrhp:inscription_date":"1986-09-15","operator":"U.S. Coast Guard","protection_title":"U.S. Navy","ref:nrhp":"86002890","seamark:daymark:colour":"red","seamark:daymark:shape":"traiangle","seamark:information":"Red triangle on tower","seamark:light:character":"Fl","seamark:light:colour":"red","seamark:light:height":"05","seamark:light:period":"2.5","seamark:light:range":"04","seamark:name":"Great Lakes LIGHT 4","seamark:reference":"LLNR 20295","seamark:type":"light_minor","source_ref":"https://catalog.archives.gov/id/28893332","start_date":"1923","tower:type":"navigation"}}},{"type":"Feature","geometry":{"type":"Polygon","coordinates":[[[-87.832399,42.3105393],[-87.8325261,42.3105574],[-87.8326203,42.3105709],[-87.8326502,42.3105751],[-87.8327637,42.3105904],[-87.8328207,42.3105999],[-87.833065,42.3098033],[-87.8332475,42.3091033],[-87.8332989,42.3090284],[-87.8334108,42.3089746],[-87.8336872,42.3090077],[-87.8341327,42.3092014],[-87.8342304,42.3091146],[-87.8342223,42.3090977],[-87.83425,42.3090171],[-87.8343214,42.3087881],[-87.8343262,42.3087747],[-87.8343276,42.3087514],[-87.8343237,42.3087311],[-87.8343114,42.3087118],[-87.8342915,42.308694],[-87.8342636,42.3086778],[-87.8342337,42.3086706],[-87.8342004,42.3086646],[-87.8331442,42.3084875],[-87.8303858,42.3082075],[-87.8306488,42.3091765],[-87.8309226,42.3093996],[-87.8313589,42.3095438],[-87.8321358,42.3096826],[-87.8324839,42.3095738],[-87.8325364,42.3097162],[-87.832566,42.3098666],[-87.8324494,42.3103097],[-87.832399,42.3105393]]]},"properties":{"osm_id":1326041061,"osm_type":"way","seamark_type":"harbour","display_class":"OTHER","min_zoom":12,"importance":1,"name":"Great Lakes Marina","ref":null,"common":{"type":"harbour"},"children":{"harbour":{"category":"marina"}},"osm_tags":{"area":"yes","leisure":"marina","name":"Great Lakes Marina","operator":"Naval Station Great Lakes","seamark:harbour:category":"marina","seamark:type":"harbour","website":"https://www.navylifegl.com/programs/35074287-3cdf-4136-8b31-a303660e5505"}}},{"type":"Feature","geometry":{"type":"Point","coordinates":[-87.8059182,42.5890676]},"properties":{"osm_id":2024979966,"osm_type":"node","seamark_type":"light_minor","display_class":"OTHER","min_zoom":12,"importance":1,"name":"KENOSHA  BREAKWATER LIGHT","ref":null,"common":{"information":"White cylindrical tower with red band","name":"KENOSHA  BREAKWATER LIGHT","reference":"LLNR 20430","type":"light_minor"},"children":{"light":{"character":"Fl","colour":"red","height":"06","period":"04","range":"08"}},"osm_tags":{"man_made":"tower","name":"Kenosha Breakwater Light","operator":"U.S. Coast Guard","seamark:information":"White cylindrical tower with red band","seamark:light:character":"Fl","seamark:light:colour":"red","seamark:light:height":"06","seamark:light:period":"04","seamark:light:range":"08","seamark:name":"KENOSHA  BREAKWATER LIGHT","seamark:reference":"LLNR 20430","seamark:type":"light_minor","tower:construction":"freestanding","tower:type":"navigation"}}},{"type":"Feature","geometry":{"type":"Point","coordinates":[-87.8075316,42.588146]},"properties":{"osm_id":2024979968,"osm_type":"node","seamark_type":"light_minor","display_class":"OTHER","min_zoom":12,"importance":1,"name":"KENOSHA SOUTH PIER LIGHT","ref":null,"common":{"information":"White cylindrical tower with green band","name":"KENOSHA SOUTH PIER LIGHT","reference":"LLNR 20435","type":"light_minor"},"children":{"light":{"character":"Fl","colour":"green","height":"10","period":"04","range":"06"}},"osm_tags":{"man_made":"tower","name":"Kenosha South Pier Light","operator":"U.S. Coast Guard","seamark:information":"White cylindrical tower with green band","seamark:light:character":"Fl","seamark:light:colour":"green","seamark:light:height":"10","seamark:light:period":"04","seamark:light:range":"06","seamark:name":"KENOSHA SOUTH PIER LIGHT","seamark:reference":"LLNR 20435","seamark:type":"light_minor","tower:construction":"freestanding","tower:type":"navigation"}}},{"type":"Feature","geometry":{"type":"Polygon","coordinates":[[[-87.8099421,42.5829845],[-87.8092929,42.5829801],[-87.8092841,42.5830425],[-87.8092478,42.5840976],[-87.8092708,42.5850667],[-87.8098076,42.5850483],[-87.8106628,42.5850558],[-87.811271,42.585058],[-87.8113139,42.5850509],[-87.8113383,42.5850049],[-87.8113731,42.5848618],[-87.8114002,42.5847977],[-87.811449,42.5847402],[-87.8115033,42.5846992],[-87.8116051,42.5846683],[-87.8117043,42.5846486],[-87.8131857,42.58449],[-87.8132857,42.5844707],[-87.8133606,42.5844431],[-87.813427,42.5844045],[-87.8134761,42.5843677],[-87.8135216,42.5843173],[-87.8135561,42.5842542],[-87.8135716,42.5841975],[-87.8135753,42.5841438],[-87.8136271,42.5828752],[-87.8136619,42.5818593],[-87.8136521,42.5818437],[-87.8136234,42.5818373],[-87.8122963,42.5818052],[-87.8119978,42.5818021],[-87.8119165,42.5818245],[-87.8118406,42.5818457],[-87.8117617,42.5819413],[-87.8111423,42.5826665],[-87.8109828,42.5827949],[-87.8108478,42.5828664],[-87.810672,42.5829328],[-87.8104659,42.5829791],[-87.8102639,42.5830003],[-87.8100064,42.5830003],[-87.8099421,42.5829845]]]},"properties":{"osm_id":484298971,"osm_type":"way","seamark_type":"harbour","display_class":"OTHER","min_zoom":12,"importance":1,"name":"Kenosha Harbor","ref":null,"common":{"type":"harbour"},"children":{"harbour":{"category":"marina"}},"osm_tags":{"leisure":"marina","name":"Kenosha Harbor","seamark:harbour:category":"marina","seamark:type":"harbour"}}},{"type":"Feature","geometry":{"type":"Polygon","coordinates":[[[-87.8086576,42.5888396],[-87.8086574,42.5888457],[-87.8086544,42.5888513],[-87.808649,42.5888559],[-87.8086417,42.5888588],[-87.8086336,42.5888598],[-87.8086263,42.5888588],[-87.8086197,42.5888563],[-87.8086146,42.5888524],[-87.8086113,42.5888475],[-87.8086102,42.5888421],[-87.8086114,42.5888367],[-87.8086147,42.5888319],[-87.80862,42.588828],[-87.8086266,42.5888255],[-87.8086347,42.5888247],[-87.8086428,42.5888259],[-87.8086499,42.5888291],[-87.808655,42.5888338],[-87.8086576,42.5888396]]]},"properties":{"osm_id":676599470,"osm_type":"way","seamark_type":"landmark","display_class":"OTHER","min_zoom":12,"importance":1,"name":"Kenosha Light","ref":null,"common":{"name":"Kenosha Light","reference":"LLNR 20415","type":"landmark"},"children":{"fog_signal":{"category":"horn","generation":"automatic","group":"3","information":"Operates by keying microphone five times on VHF-FM Ch. 83A","period":"30.0"},"landmark":{"category":"tower","conspicuity":"conspicuous","function":"tower"},"light":{"character":"Iso","colour":"red","height":"15","period":"06","range":"08"}},"osm_tags":{"alt_name":"ADD Name","building":"yes","height":"50","heritage":"2","heritage:operator":"nrhp","heritage:website":"https://www.nps.gov/subjects/nationalregister/index.htm","historic":"lighthouse","man_made":"lighthouse","name":"Kenosha North Pierhead Light","nrhp:criteria":"(A), (C)","nrhp:inscription_date":"2008-06-24","operator":"U.S. Coast Guard","protection_title":"private","ref:nrhp":"08000545","seamark:fog_signal:category":"horn","seamark:fog_signal:generation":"automatic","seamark:fog_signal:group":"3","seamark:fog_signal:information":"Operates by keying microphone five times on VHF-FM Ch. 83A","seamark:fog_signal:period":"30.0","seamark:landmark:category":"tower","seamark:landmark:conspicuity":"conspicuous","seamark:landmark:function":"tower","seamark:light:character":"Iso","seamark:light:colour":"red","seamark:light:height":"15","seamark:light:period":"06","seamark:light:range":"08","seamark:name":"Kenosha Light","seamark:reference":"LLNR 20415","seamark:type":"landmark","source_ref":"https://catalog.archives.gov/id/75325055","start_date":"1906","website":"https://www.lighthousefriends.com/light.asp?ID=239","wikidata":"Q6391315","wikipedia":"en:Kenosha North Pier Light"}}},{"type":"Feature","geometry":{"type":"Polygon","coordinates":[[[-87.8155929,42.588852],[-87.8155814,42.5884343],[-87.816131,42.5884054],[-87.8167183,42.5893211],[-87.8169279,42.5896974],[-87.8169283,42.5897025],[-87.8162858,42.5897059],[-87.8162242,42.5897055],[-87.8162207,42.5894823],[-87.8162212,42.5893374],[-87.8162212,42.5892652],[-87.8162181,42.5892224],[-87.8162111,42.589182],[-87.8162002,42.5891447],[-87.8161749,42.5890917],[-87.8161509,42.5890554],[-87.8161265,42.5890191],[-87.8160602,42.5889809],[-87.8160095,42.5889426],[-87.8159399,42.5889072],[-87.8158082,42.5888673],[-87.8157072,42.5888541],[-87.8155929,42.588852]]]},"properties":{"osm_id":1318047128,"osm_type":"way","seamark_type":"harbour","display_class":"OTHER","min_zoom":12,"importance":1,"name":"Kenosha Yacht Club","ref":null,"common":{"type":"harbour"},"children":{"harbour":{"category":"marina"}},"osm_tags":{"leisure":"marina","name":"Kenosha Yacht Club","operator":"Kenosha Yacht Club","seamark:harbour:category":"marina","seamark:type":"harbour","website":"https://www.kenoshayachtclub.com/content.aspx?page_id=0&club_id=735990"}}},{"type":"Feature","geometry":{"type":"Polygon","coordinates":[[[-87.7986907,42.4881838],[-87.7988953,42.4886237],[-87.7992275,42.4889881],[-87.7997898,42.4893399],[-87.8003607,42.4895284],[-87.8013234,42.4896918],[-87.8020135,42.4897671],[-87.8020476,42.4895535],[-87.8021413,42.4895158],[-87.802235,42.4895598],[-87.802218,42.4897734],[-87.8036599,42.4899799],[-87.8037629,42.4899743],[-87.8039049,42.4896841],[-87.8039967,42.4894964],[-87.8041349,42.4894153],[-87.8040668,42.4892143],[-87.803973,42.4892269],[-87.8035726,42.4881777],[-87.8035279,42.4881155],[-87.8034526,42.488091],[-87.8033171,42.4881021],[-87.8011875,42.4885797],[-87.8011965,42.4889018],[-87.8011754,42.488964],[-87.8011152,42.4889929],[-87.8010308,42.4889817],[-87.8010037,42.4888662],[-87.8009706,42.4882843],[-87.8009314,42.4878689],[-87.800855,42.48764],[-87.8007838,42.4874269],[-87.8005489,42.4867783],[-87.800335,42.4863895],[-87.8001031,42.4857165],[-87.8001181,42.4856476],[-87.8001995,42.4856454],[-87.8002537,42.4856921],[-87.80057,42.4865406],[-87.8010519,42.4876201],[-87.8010795,42.4876139],[-87.8018667,42.4874373],[-87.8023291,42.4873336],[-87.8025454,42.4872853],[-87.8031613,42.4871569],[-87.8037143,42.48704],[-87.8042797,42.4869195],[-87.8046937,42.4868316],[-87.8047881,42.4867716],[-87.8048021,42.4866961],[-87.8044497,42.485792],[-87.8041635,42.4851078],[-87.8041424,42.4849235],[-87.8042177,42.4847969],[-87.8043744,42.4847191],[-87.8049889,42.4845747],[-87.8052599,42.4845125],[-87.8054889,42.4844348],[-87.8056756,42.4842815],[-87.8057931,42.4841304],[-87.8058142,42.4839172],[-87.8056304,42.4834618],[-87.8053292,42.482671],[-87.8051515,42.48226],[-87.8049889,42.4820867],[-87.804787,42.4820045],[-87.804525,42.4819534],[-87.8043292,42.4819646],[-87.803988,42.4820357],[-87.8037539,42.4820845],[-87.8035153,42.4821361],[-87.8030101,42.4822455],[-87.8025146,42.4823527],[-87.8024707,42.4823622],[-87.8019624,42.4824782],[-87.8014127,42.4826038],[-87.8012537,42.4826399],[-87.8009525,42.4826999],[-87.8007985,42.4827269],[-87.8006362,42.4827554],[-87.8001582,42.4828572],[-87.7996452,42.4829664],[-87.7992536,42.4830619],[-87.7992235,42.483113],[-87.7993169,42.4833796],[-87.7997657,42.4845103],[-87.7999555,42.4849923],[-87.7999284,42.4850567],[-87.7998531,42.4850523],[-87.799106,42.4832063],[-87.7989825,42.483173],[-87.7988892,42.483253],[-87.7988831,42.4839749],[-87.7988801,42.4849568],[-87.7992295,42.4859009],[-87.7996362,42.4868982],[-87.8000187,42.4877978],[-87.8000278,42.4879045],[-87.7999886,42.4879467],[-87.7999073,42.4879555],[-87.7998234,42.4879279],[-87.7991181,42.4880866],[-87.7986907,42.4881838]]]},"properties":{"osm_id":242428258,"osm_type":"way","seamark_type":"harbour","display_class":"OTHER","min_zoom":12,"importance":1,"name":"North Point Marina","ref":null,"common":{"type":"harbour"},"children":{"harbour":{"category":"marina"}},"osm_tags":{"addr:city":"Winthrop Harbor","addr:housenumber":"701","addr:postcode":"60096","addr:state":"IL","addr:street":"North Point Drive","fee":"yes","leisure":"marina","name":"North Point Marina","natural":"water","operator":"Suntex","power_supply":"yes","sanitary_dump_station":"yes","seamark:harbour:category":"marina","seamark:type":"harbour","water":"harbour"}}},{"type":"Feature","geometry":{"type":"Polygon","coordinates":[[[-87.8056234,42.4824303],[-87.8056521,42.4825038],[-87.8055526,42.482525],[-87.8055422,42.4824983],[-87.8054594,42.4825159],[-87.8054202,42.4824154],[-87.8053789,42.4824242],[-87.805338,42.4823196],[-87.8054284,42.4823004],[-87.8054406,42.4823316],[-87.8054772,42.4823238],[-87.805462,42.4822849],[-87.8055773,42.4822605],[-87.8056104,42.4823452],[-87.805556,42.4823567],[-87.8055876,42.4824379],[-87.8056234,42.4824303]]]},"properties":{"osm_id":376128028,"osm_type":"way","seamark_type":"harbour","display_class":"OTHER","min_zoom":12,"importance":1,"name":"North Point Marina","ref":null,"common":{"type":"harbour"},"children":{"harbour":{"category":"marina"}},"osm_tags":{"addr:city":"Winthrop Harbor","addr:housenumber":"701","addr:postcode":"60096","addr:state":"IL","addr:street":"North Point Drive","building:levels":"3","fee":"yes","leisure":"marina","name":"North Point Marina","power_supply":"yes","sanitary_dump_station":"yes","seamark:harbour:category":"marina","seamark:type":"harbour"}}},{"type":"Feature","geometry":{"type":"Polygon","coordinates":[[[-87.7750807,42.7336707],[-87.7746414,42.7337144],[-87.7746229,42.73369],[-87.7745781,42.7336921],[-87.7740912,42.7337386],[-87.7740281,42.7337193],[-87.7738384,42.7337219],[-87.7736573,42.7337152],[-87.7735454,42.7336956],[-87.773364,42.7336514],[-87.7732432,42.7335916],[-87.7731135,42.7335206],[-87.7730028,42.733437],[-87.7729207,42.7333473],[-87.7728362,42.7332428],[-87.7727815,42.7331546],[-87.7727436,42.7330547],[-87.7727248,42.7329406],[-87.7727335,42.7328272],[-87.7727711,42.7326698],[-87.7728703,42.7325005],[-87.7729991,42.732358],[-87.7732439,42.7321937],[-87.7735326,42.7320948],[-87.774597,42.7319636],[-87.7746622,42.7319592],[-87.7746807,42.7319449],[-87.7745604,42.7313315],[-87.774507,42.7311492],[-87.7744997,42.7310749],[-87.7744778,42.7309902],[-87.7744654,42.7308955],[-87.7744593,42.7308427],[-87.7744598,42.730792],[-87.7744866,42.7307286],[-87.7745249,42.7306799],[-87.7745748,42.7306451],[-87.7746525,42.7306058],[-87.7748201,42.730577],[-87.7762342,42.7304144],[-87.778856,42.7301023],[-87.7792577,42.7321518],[-87.7788914,42.7321829],[-87.7789708,42.7326177],[-87.7785066,42.7326775],[-87.7785684,42.7329501],[-87.7777025,42.7330345],[-87.7777034,42.7333267],[-87.7751126,42.7336285],[-87.7750807,42.7336707]]]},"properties":{"osm_id":482579529,"osm_type":"way","seamark_type":"harbour","display_class":"OTHER","min_zoom":12,"importance":1,"name":"Reef Point Marina","ref":null,"common":{"type":"harbour"},"children":{"harbour":{"category":"marina"}},"osm_tags":{"addr:city":"Racine","addr:housenumber":"2","addr:postcode":"53403","addr:state":"WI","addr:street":"Christopher Columbus Causeway","leisure":"marina","name":"Reef Point Marina","operator":"Racine County","seamark:harbour:category":"marina","seamark:type":"harbour","website":"https://reefpointmarina.org/"}}},{"type":"Feature","geometry":{"type":"Polygon","coordinates":[[[-87.7821166,42.7336499],[-87.7808448,42.7336912],[-87.7788084,42.7337403],[-87.7776345,42.7338584],[-87.7776825,42.7341494],[-87.7780625,42.7341207],[-87.778079,42.7342317],[-87.7785468,42.7344212],[-87.7786396,42.7345518],[-87.7786715,42.7345599],[-87.7788059,42.7345567],[-87.7793318,42.7345586],[-87.7807089,42.734557],[-87.7808469,42.7345596],[-87.7811107,42.7345646],[-87.7817102,42.734566],[-87.7818928,42.734566],[-87.7821759,42.7345585],[-87.7822575,42.7345564],[-87.7822054,42.7342741],[-87.7821687,42.7338411],[-87.7821655,42.7338032],[-87.7821628,42.7337756],[-87.7821519,42.7336914],[-87.7821166,42.7336499]]]},"properties":{"osm_id":929191599,"osm_type":"way","seamark_type":"harbour","display_class":"OTHER","min_zoom":12,"importance":1,"name":"River's End Marina - Operated By Racine Riverside Marine","ref":null,"common":{"type":"harbour"},"children":{"harbour":{"category":"marina"}},"osm_tags":{"addr:city":"Racine","addr:housenumber":"1001","addr:postcode":"53402","addr:state":"WI","addr:street":"Michigan Boulevard","area":"yes","facebook":"https://www.facebook.com/Pugh-Marina-371820279497060/?ref=page_internal","leisure":"marina","name":"River's End Marina - Operated By Racine Riverside Marine","seamark:harbour:category":"marina","seamark:type":"harbour","website":"https://riversendracine.com/"}}},{"type":"Feature","geometry":{"type":"Polygon","coordinates":[[[-87.8181791,42.5910751],[-87.8181776,42.5910679],[-87.8181572,42.5909721],[-87.8181548,42.590961],[-87.8178276,42.5909754],[-87.8173361,42.5909748],[-87.8173551,42.5905826],[-87.8168001,42.5905876],[-87.8167977,42.5904391],[-87.8168985,42.5904381],[-87.81724,42.590435],[-87.8172701,42.5904041],[-87.817289,42.5903984],[-87.8172744,42.5903393],[-87.8172361,42.5902602],[-87.817816,42.5900237],[-87.8179974,42.5900842],[-87.8185196,42.5904584],[-87.8185968,42.5905528],[-87.8186579,42.5907499],[-87.8186336,42.5908479],[-87.8186284,42.5908724],[-87.8185715,42.591039],[-87.818653,42.5913382],[-87.8176382,42.593302],[-87.8172072,42.5945151],[-87.8173258,42.5948548],[-87.8172999,42.5949439],[-87.8174012,42.594973],[-87.8174132,42.5949765],[-87.8174254,42.5949796],[-87.817552,42.5950116],[-87.8176806,42.5950442],[-87.8176949,42.5950473],[-87.8177935,42.5950656],[-87.8177858,42.5950882],[-87.8177986,42.5950906],[-87.8177696,42.5951757],[-87.8177862,42.5951787],[-87.8177682,42.5952314],[-87.8177265,42.5952237],[-87.8177289,42.5952168],[-87.8176154,42.5951958],[-87.817508,42.5952342],[-87.8174041,42.5952332],[-87.8173891,42.5952403],[-87.816611,42.5950669],[-87.8165818,42.5949465],[-87.8166225,42.594682],[-87.8167826,42.5941484],[-87.8168018,42.5940985],[-87.8168166,42.5940312],[-87.816653,42.5938851],[-87.817062,42.5926849],[-87.817183,42.5925433],[-87.8172283,42.5924369],[-87.817237,42.5923953],[-87.8176078,42.5912758],[-87.8178424,42.591192],[-87.818043,42.5911227],[-87.8181283,42.5910829],[-87.8181791,42.5910751]]]},"properties":{"osm_id":1318047129,"osm_type":"way","seamark_type":"harbour","display_class":"OTHER","min_zoom":12,"importance":1,"name":"Simmons Island Marina","ref":null,"common":{"type":"harbour"},"children":{"harbour":{"category":"marina"}},"osm_tags":{"leisure":"marina","name":"Simmons Island Marina","operator":"Great Lakes Yacht Sales","seamark:harbour:category":"marina","seamark:type":"harbour","website":"https://www.glysinc.com/about/simmons-island-marina/index"}}},{"type":"Feature","geometry":{"type":"Polygon","coordinates":[[[-87.7843707,42.7342259],[-87.7844184,42.7341329],[-87.7824694,42.7336533],[-87.7821308,42.7336461],[-87.7821628,42.7337756],[-87.7824049,42.7337574],[-87.7843707,42.7342259]]]},"properties":{"osm_id":1421645959,"osm_type":"way","seamark_type":"harbour","display_class":"OTHER","min_zoom":12,"importance":1,"name":"Slips of Chartroom","ref":null,"common":{"type":"harbour"},"children":{"harbour":{"category":"marina"}},"osm_tags":{"leisure":"marina","name":"Slips of Chartroom","operator":"Chartroom Restaurant","power_supply":"yes","seamark:harbour:category":"marina","seamark:type":"harbour","website":"https://riversendrestaurants.com/boat-slips-at-chartroom/"}}},{"type":"Feature","geometry":{"type":"Polygon","coordinates":[[[-87.8826343,42.9968696],[-87.8826549,42.9968672],[-87.8829037,42.9968259],[-87.8831784,42.9970853],[-87.8832191,42.9971255],[-87.8832845,42.9971901],[-87.8833609,42.9972654],[-87.8834747,42.9973746],[-87.883545,42.9974421],[-87.8835683,42.9974721],[-87.883555,42.9975539],[-87.8835488,42.9975924],[-87.8834696,42.9981519],[-87.8837917,42.9985819],[-87.882273,42.9992229],[-87.8815115,42.9982942],[-87.8812918,42.9978337],[-87.8799822,42.99683],[-87.8807856,42.9963878],[-87.8815303,42.9969111],[-87.882024,42.9966678],[-87.8826343,42.9968696]]]},"properties":{"osm_id":830785657,"osm_type":"way","seamark_type":"harbour","display_class":"OTHER","min_zoom":12,"importance":1,"name":"South Shore Yacht Club","ref":null,"common":{"type":"harbour"},"children":{"harbour":{"category":"marina"}},"osm_tags":{"amenity":"boat_storage","capacity":"120","club":"yachting","fee":"yes","leisure":"marina","name":"South Shore Yacht Club","power_supply":"yes","seamark:harbour:category":"marina","seamark:type":"harbour","website":"https://www.ssyc.org/"}}},{"type":"Feature","geometry":{"type":"Polygon","coordinates":[[[-87.8163022,42.5904067],[-87.8167652,42.5904019],[-87.8168113,42.5904253],[-87.816898,42.5904256],[-87.8168985,42.5904381],[-87.81724,42.590435],[-87.8172701,42.5904041],[-87.817289,42.5903984],[-87.8172744,42.5903393],[-87.8172361,42.5902602],[-87.8171174,42.5900153],[-87.8170743,42.5898903],[-87.8170646,42.5898623],[-87.8170514,42.5898627],[-87.8169982,42.5898642],[-87.8169901,42.5897354],[-87.8169446,42.5897365],[-87.8169308,42.5897368],[-87.8169283,42.5897025],[-87.8162858,42.5897059],[-87.8163022,42.5904067]]]},"properties":{"osm_id":837184798,"osm_type":"way","seamark_type":"coastguard_station","display_class":"OTHER","min_zoom":12,"importance":1,"name":"U.S. Coast Guard - Station Kenosha","ref":null,"common":{"type":"coastguard_station"},"children":{},"osm_tags":{"addr:city":"Kenosha","addr:housenumber":"5036","addr:postcode":"53140","addr:state":"WI","addr:street":"4th Avenue","description":"U.S. Coast Guard Boat Station, primary duties, include search and rescue, enforcement of laws and treaties, marine environmental protection and recreational boating safety.","gnis:feature_id":"2512537","landuse":"military","military":"base","military_service":"coast_guard","name":"U.S. Coast Guard - Station Kenosha","operator":"United States Coast Guard","operator:wikidata":"Q11224","seamark:type":"coastguard_station","website":"https://www.atlanticarea.uscg.mil/Our-Organization/District-9/Ninth-District-Units/Sector-Lake-Michigan/Units/Kenosha/","wikidata":"Q6601836","wikipedia":"en:List of United States Coast Guard stations"}}},{"type":"Feature","geometry":{"type":"Polygon","coordinates":[[[-87.6839557,42.0769265],[-87.6841336,42.0770627],[-87.6843475,42.0772264],[-87.6843248,42.0772417],[-87.6843176,42.0772471],[-87.6842815,42.0772742],[-87.6842596,42.0772907],[-87.684145,42.0773768],[-87.6840061,42.0774661],[-87.6838835,42.077525],[-87.6836652,42.0776004],[-87.6836109,42.0776192],[-87.6835695,42.0776333],[-87.6832905,42.0774197],[-87.683555,42.0772286],[-87.6835331,42.0772107],[-87.6835163,42.077198],[-87.6835833,42.0771451],[-87.6836008,42.0771321],[-87.6837074,42.0772155],[-87.6837487,42.0771825],[-87.6837239,42.0771649],[-87.6837546,42.0771376],[-87.6836788,42.0770777],[-87.6836947,42.0770662],[-87.6837661,42.0770138],[-87.6837985,42.0770378],[-87.6839557,42.0769265]]]},"properties":{"osm_id":837160788,"osm_type":"way","seamark_type":"coastguard_station","display_class":"OTHER","min_zoom":12,"importance":1,"name":"U.S. Coast Guard - Station Wilmette Harbor","ref":null,"common":{"type":"coastguard_station"},"children":{},"osm_tags":{"addr:city":"Wilmette","addr:housenumber":"10","addr:postcode":"60091","addr:state":"IL","addr:street":"Harbor Drive","description":"U.S. Coast Guard Station Wilmette Harbor's missions include Search and Rescue, Maritime Law Enforcement, Boating Safety, and security for special marine events. It's area of responsibility covers Lake Michigan from Great lakes, IL to downtown Chicago, IL.","landuse":"military","military":"base","military_service":"coast_guard","name":"U.S. Coast Guard - Station Wilmette Harbor","operator":"United States Coast Guard","operator:wikidata":"Q11224","seamark:type":"coastguard_station","website":"https://www.atlanticarea.uscg.mil/Our-Organization/District-9/Ninth-District-Units/Sector-Lake-Michigan/Units/Wilmette-Harbor/"}}},{"type":"Feature","geometry":{"type":"Polygon","coordinates":[[[-87.7846428,42.7350875],[-87.7846423,42.735199],[-87.7845296,42.7351985],[-87.7842114,42.7351976],[-87.7842103,42.7350907],[-87.7843337,42.7350901],[-87.7843335,42.7350618],[-87.7843802,42.7350616],[-87.7843804,42.7350908],[-87.7843894,42.7350907],[-87.7846428,42.7350875]]]},"properties":{"osm_id":437046505,"osm_type":"way","seamark_type":"small_craft_facility","display_class":"OTHER","min_zoom":12,"importance":1,"name":"W.H. Pugh Co.","ref":null,"common":{"type":"small_craft_facility"},"children":{"small_craft_facility":{"category":"fuel_station"}},"osm_tags":{"addr:city":"Racine","addr:housenumber":"1117","addr:postcode":"53402","addr:state":"WI","addr:street":"North Main Street","building":"yes","name":"W.H. Pugh Co.","seamark:small_craft_facility:category":"fuel_station","seamark:type":"small_craft_facility","waterway":"fuel"}}},{"type":"Feature","geometry":{"type":"Polygon","coordinates":[[[-87.8241895,42.35697],[-87.8228731,42.3568904],[-87.8221015,42.3568542],[-87.8218213,42.3568007],[-87.8206219,42.356798],[-87.819901,42.3569124],[-87.8198288,42.3607216],[-87.8213214,42.3607409],[-87.8224774,42.3603396],[-87.8235523,42.359968],[-87.8242034,42.359748],[-87.8242047,42.3595611],[-87.8242053,42.3594732],[-87.8242055,42.3594467],[-87.8241585,42.3593833],[-87.8241743,42.3590108],[-87.8241784,42.3583879],[-87.8241291,42.3583276],[-87.8241397,42.3579733],[-87.8241946,42.3579197],[-87.8241895,42.35697]]]},"properties":{"osm_id":360353309,"osm_type":"way","seamark_type":"harbour","display_class":"OTHER","min_zoom":12,"importance":1,"name":"Waukegan Harbor, South Harbor","ref":null,"common":{"type":"harbour"},"children":{"harbour":{"category":"marina"}},"osm_tags":{"fee":"yes","leisure":"marina","name":"Waukegan Harbor, South Harbor","operator":"Waukegan Port District","payment:american_express":"yes","payment:cash":"yes","payment:cheque":"yes","payment:contactless":"yes","payment:credit_cards":"yes","payment:discover_card":"yes","payment:mastercard":"yes","payment:visa":"yes","power_supply":"yes","sanitary_dump_station":"yes","seamark:harbour:category":"marina","seamark:type":"harbour","vhf":"16"}}},{"type":"Feature","geometry":{"type":"Point","coordinates":[-87.822604,42.4820349]},"properties":{"osm_id":482809921,"osm_type":"node","seamark_type":"small_craft_facility","display_class":"OTHER","min_zoom":12,"importance":1,"name":"West Marine","ref":null,"common":{"type":"small_craft_facility"},"children":{"small_craft_facility":{"category":"chandler"}},"osm_tags":{"addr:city":"Winthrop Harbor","addr:postcode":"60096","addr:state":"IL","addr:street":"Sheridan Road","brand":"West Marine","brand:wikidata":"Q7985852","name":"West Marine","seamark:small_craft_facility:category":"chandler","seamark:type":"small_craft_facility","shop":"boat"}}}],"type":"FeatureCollection"}