{"type":"FeatureCollection","features":[{"type":"Feature","geometry":{"type":"Polygon","coordinates":[[[-86.4934843,42.1161476],[-86.4934977,42.1161152],[-86.4935123,42.1160798],[-86.4934248,42.1160599],[-86.4934121,42.1160905],[-86.4933967,42.1161276],[-86.4934843,42.1161476]]]},"properties":{"osm_id":1082679813,"osm_type":"way","seamark_type":"landmark","display_class":"LIGHTHOUSE","min_zoom":7,"importance":5,"name":"St. Joseph North Pierhead Inner Light","ref":null,"common":{"information":"Octagonal Tower","name":"St. Joseph North Pierhead Inner Light","reference":"LLNR 19520","type":"landmark"},"children":{"landmark":{"category":"tower","conspicuity":"conspicuous","function":"tower"},"light":{"character":"Iso","colour":"white","height":"16","period":"02","range":"07"}},"osm_tags":{"building":"yes","height":"16","heritage":"2","heritage:operator":"nrhp","heritage:website":"https://www.nps.gov/subjects/nationalregister/index.htm","historic":"lighthouse","man_made":"lighthouse","name":"St. Joseph North Pier Lighthouse","nrhp:criteria":"(A), (C)","nrhp:inscription_date":"2005-11-09","operator":"U.S. Coast Guard","ref:nrhp":"05001211","seamark:information":"Octagonal Tower","seamark:landmark:category":"tower","seamark:landmark:conspicuity":"conspicuous","seamark:landmark:function":"tower","seamark:light:character":"Iso","seamark:light:colour":"white","seamark:light:height":"16","seamark:light:period":"02","seamark:light:range":"07","seamark:name":"St. Joseph North Pierhead Inner Light","seamark:reference":"LLNR 19520","seamark:type":"landmark","source_ref":"https://catalog.archives.gov/id/75324955","start_date":"1907"}}},{"type":"Feature","geometry":{"type":"Point","coordinates":[-86.2158431,42.7725449]},"properties":{"osm_id":6502003192,"osm_type":"node","seamark_type":"beacon_lateral","display_class":"BEACON","min_zoom":9,"importance":4,"name":null,"ref":null,"common":{"type":"beacon_lateral"},"children":{"beacon_lateral":{"colour":"red"}},"osm_tags":{"seamark:beacon_lateral:colour":"red","seamark:type":"beacon_lateral"}}},{"type":"Feature","geometry":{"type":"Point","coordinates":[-86.2158484,42.7734692]},"properties":{"osm_id":6502003193,"osm_type":"node","seamark_type":"beacon_lateral","display_class":"BEACON","min_zoom":9,"importance":4,"name":null,"ref":null,"common":{"type":"beacon_lateral"},"children":{"beacon_lateral":{"colour":"green"}},"osm_tags":{"seamark:beacon_lateral:colour":"green","seamark:type":"beacon_lateral"}}},{"type":"Feature","geometry":{"type":"Point","coordinates":[-86.2198418,42.9011837]},"properties":{"osm_id":6553250069,"osm_type":"node","seamark_type":"beacon_lateral","display_class":"BEACON","min_zoom":9,"importance":4,"name":null,"ref":null,"common":{"type":"beacon_lateral"},"children":{"beacon_lateral":{"colour":"green"}},"osm_tags":{"seamark:beacon_lateral:colour":"green","seamark:type":"beacon_lateral"}}},{"type":"Feature","geometry":{"type":"Point","coordinates":[-86.2196939,42.9002834]},"properties":{"osm_id":6553250070,"osm_type":"node","seamark_type":"beacon_lateral","display_class":"BEACON","min_zoom":9,"importance":4,"name":null,"ref":null,"common":{"type":"beacon_lateral"},"children":{"beacon_lateral":{"colour":"red"}},"osm_tags":{"seamark:beacon_lateral:colour":"red","seamark:type":"beacon_lateral"}}},{"type":"Feature","geometry":{"type":"Point","coordinates":[-86.1545706,42.7790958]},"properties":{"osm_id":6553333819,"osm_type":"node","seamark_type":"beacon_lateral","display_class":"BEACON","min_zoom":9,"importance":4,"name":null,"ref":null,"common":{"type":"beacon_lateral"},"children":{"beacon_lateral":{"colour":"green"}},"osm_tags":{"seamark:beacon_lateral:colour":"green","seamark:type":"beacon_lateral"}}},{"type":"Feature","geometry":{"type":"Point","coordinates":[-86.1729479,42.778947]},"properties":{"osm_id":6553333820,"osm_type":"node","seamark_type":"beacon_lateral","display_class":"BEACON","min_zoom":9,"importance":4,"name":null,"ref":null,"common":{"type":"beacon_lateral"},"children":{"beacon_lateral":{"colour":"red"}},"osm_tags":{"seamark:beacon_lateral:colour":"red","seamark:type":"beacon_lateral"}}},{"type":"Feature","geometry":{"type":"Point","coordinates":[-86.178107,42.7793052]},"properties":{"osm_id":6553333821,"osm_type":"node","seamark_type":"beacon_lateral","display_class":"BEACON","min_zoom":9,"importance":4,"name":null,"ref":null,"common":{"type":"beacon_lateral"},"children":{"beacon_lateral":{"colour":"green"}},"osm_tags":{"seamark:beacon_lateral:colour":"green","seamark:type":"beacon_lateral"}}},{"type":"Feature","geometry":{"type":"Point","coordinates":[-86.1838888,42.7898786]},"properties":{"osm_id":8238942755,"osm_type":"node","seamark_type":"small_craft_facility","display_class":"OTHER","min_zoom":12,"importance":1,"name":null,"ref":null,"common":{"type":"small_craft_facility"},"children":{"small_craft_facility":{"category":"fuel_station"}},"osm_tags":{"addr:city":"Holland","addr:housenumber":"1866","addr:postcode":"49424","addr:state":"MI","addr:street":"Ottawa Beach Road","operator":"Yacht Basin Marina","seamark:small_craft_facility:category":"fuel_station","seamark:type":"small_craft_facility","waterway":"fuel"}}},{"type":"Feature","geometry":{"type":"Point","coordinates":[-86.4720677,42.1029499]},"properties":{"osm_id":8382526486,"osm_type":"node","seamark_type":"small_craft_facility","display_class":"OTHER","min_zoom":12,"importance":1,"name":null,"ref":null,"common":{"type":"small_craft_facility"},"children":{"small_craft_facility":{"category":"fuel_station"}},"osm_tags":{"addr:city":"Saint Joseph","addr:housenumber":"250","addr:postcode":"49085","addr:state":"MI","addr:street":"Anchors Way","operator":"Pier 33","seamark:small_craft_facility:category":"fuel_station","seamark:type":"small_craft_facility","waterway":"fuel"}}},{"type":"Feature","geometry":{"type":"Point","coordinates":[-86.4673738,42.1054683]},"properties":{"osm_id":8382526488,"osm_type":"node","seamark_type":"small_craft_facility","display_class":"OTHER","min_zoom":12,"importance":1,"name":null,"ref":null,"common":{"type":"small_craft_facility"},"children":{"small_craft_facility":{"category":"fuel_station"}},"osm_tags":{"addr:city":"Saint Joseph","addr:housenumber":"285","addr:postcode":"49085","addr:state":"MI","addr:street":"Anchors Court","operator":"Brian's Marina","seamark:small_craft_facility:category":"fuel_station","seamark:type":"small_craft_facility","waterway":"fuel"}}},{"type":"Feature","geometry":{"type":"Point","coordinates":[-86.4666349,42.1003947]},"properties":{"osm_id":8382540834,"osm_type":"node","seamark_type":"small_craft_facility","display_class":"OTHER","min_zoom":12,"importance":1,"name":null,"ref":null,"common":{"type":"small_craft_facility"},"children":{"small_craft_facility":{"category":"fuel_station"}},"osm_tags":{"addr:city":"Benton Harbor","addr:housenumber":"1000","addr:postcode":"49022","addr:state":"MI","addr:street":"Riverview Drive","operator":"Pier 1000 Marina","seamark:small_craft_facility:category":"fuel_station","seamark:type":"small_craft_facility","waterway":"fuel"}}},{"type":"Feature","geometry":{"type":"Point","coordinates":[-86.2754276,42.4055697]},"properties":{"osm_id":9888117495,"osm_type":"node","seamark_type":"small_craft_facility","display_class":"OTHER","min_zoom":12,"importance":1,"name":null,"ref":null,"common":{"type":"small_craft_facility"},"children":{"small_craft_facility":{"category":"boat_hoist"}},"osm_tags":{"seamark:small_craft_facility:category":"boat_hoist","seamark:type":"small_craft_facility"}}},{"type":"Feature","geometry":{"type":"Point","coordinates":[-86.4825977,42.1146658]},"properties":{"osm_id":9924546931,"osm_type":"node","seamark_type":"small_craft_facility","display_class":"OTHER","min_zoom":12,"importance":1,"name":null,"ref":null,"common":{"type":"small_craft_facility"},"children":{"small_craft_facility":{"category":"boat_hoist"}},"osm_tags":{"seamark:small_craft_facility:category":"boat_hoist","seamark:type":"small_craft_facility","source_ref":"https://sjcity.com/images/departments/public_services/marina/West_Basin_Marina_Slips.png"}}},{"type":"Feature","geometry":{"type":"Point","coordinates":[-86.4835636,42.1139174]},"properties":{"osm_id":9924546940,"osm_type":"node","seamark_type":"small_craft_facility","display_class":"OTHER","min_zoom":12,"importance":1,"name":null,"ref":null,"common":{"type":"small_craft_facility"},"children":{"small_craft_facility":{"category":"boat_hoist"}},"osm_tags":{"man_made":"crane","operator":"West Basin Marina","seamark:small_craft_facility:category":"boat_hoist","seamark:type":"small_craft_facility","source_ref":"https://sjcity.com/images/departments/public_services/marina/West_Basin_Marina_Slips.png"}}},{"type":"Feature","geometry":{"type":"Point","coordinates":[-86.1994711,42.7695267]},"properties":{"osm_id":12961428832,"osm_type":"node","seamark_type":"small_craft_facility","display_class":"OTHER","min_zoom":12,"importance":1,"name":null,"ref":null,"common":{"type":"small_craft_facility"},"children":{"small_craft_facility":{"category":"boat_hoist"}},"osm_tags":{"operator":"Eldean Shipyard","seamark:small_craft_facility:category":"boat_hoist","seamark:type":"small_craft_facility"}}},{"type":"Feature","geometry":{"type":"Polygon","coordinates":[[[-86.2787846,42.4038431],[-86.2789672,42.4037342],[-86.2791863,42.4036218],[-86.2793019,42.4035798],[-86.2793741,42.4036661],[-86.2795241,42.4036254],[-86.2800922,42.4035062],[-86.2801752,42.403363],[-86.280192,42.4033681],[-86.2803056,42.4031689],[-86.2803277,42.4031763],[-86.2804603,42.4029248],[-86.2805192,42.4027639],[-86.2805084,42.4026926],[-86.2805077,42.4026691],[-86.280465,42.4026732],[-86.2802739,42.4027186],[-86.2790758,42.4033472],[-86.2785512,42.4036149],[-86.2787095,42.4037703],[-86.2787413,42.4038036],[-86.2787508,42.4038115],[-86.2787846,42.4038431]]]},"properties":{"osm_id":1078494741,"osm_type":"way","seamark_type":"harbour","display_class":"OTHER","min_zoom":12,"importance":1,"name":null,"ref":null,"common":{"type":"harbour"},"children":{"harbour":{"category":"marina"}},"osm_tags":{"addr:city":"South Haven","addr:postcode":"49090","addr:state":"MI","leisure":"marina","seamark:harbour:category":"marina","seamark:type":"harbour","website":"https://www.southhavenmi.gov/parks_and_recreation/marinas.php"}}},{"type":"Feature","geometry":{"type":"Polygon","coordinates":[[[-86.4830646,42.114569],[-86.4830455,42.1145345],[-86.483109,42.1145151],[-86.4831282,42.1145496],[-86.4830646,42.114569]]]},"properties":{"osm_id":1082923608,"osm_type":"way","seamark_type":"small_craft_facility","display_class":"OTHER","min_zoom":12,"importance":1,"name":null,"ref":null,"common":{"type":"small_craft_facility"},"children":{"small_craft_facility":{"category":"fuel_station"}},"osm_tags":{"seamark:small_craft_facility:category":"fuel_station","seamark:type":"small_craft_facility","source_ref":"https://sjcity.com/images/departments/public_services/marina/West_Basin_Marina_Slips.png","waterway":"fuel"}}},{"type":"Feature","geometry":{"type":"Polygon","coordinates":[[[-86.4834783,42.1154033],[-86.4834526,42.1154837],[-86.4834438,42.1155076],[-86.483304,42.115509],[-86.4831934,42.1155241],[-86.4830713,42.1155595],[-86.4829819,42.115589],[-86.4828758,42.1155903],[-86.4827236,42.1156849],[-86.4824006,42.1154768],[-86.4822168,42.1155776],[-86.4820909,42.1154699],[-86.4817266,42.1154449],[-86.4817264,42.115337],[-86.4818043,42.1152116],[-86.4821024,42.1149452],[-86.4822582,42.114804],[-86.4823608,42.1146406],[-86.482421,42.1145389],[-86.4824519,42.1144037],[-86.4826422,42.1143978],[-86.4826855,42.1145336],[-86.4825484,42.1145986],[-86.4824962,42.1146439],[-86.4825731,42.1147881],[-86.4825653,42.1148313],[-86.4825483,42.1148296],[-86.4825307,42.1149268],[-86.4825449,42.1149282],[-86.4825372,42.1149709],[-86.4826124,42.1149784],[-86.4825634,42.1151611],[-86.4826342,42.1151926],[-86.4827023,42.1152425],[-86.4828775,42.115293],[-86.4831571,42.115335],[-86.4834783,42.1154033]]]},"properties":{"osm_id":1082928674,"osm_type":"way","seamark_type":"small_craft_facility","display_class":"OTHER","min_zoom":12,"importance":1,"name":null,"ref":null,"common":{"type":"small_craft_facility"},"children":{"small_craft_facility":{"category":"boatyard"}},"osm_tags":{"amenity":"parking","seamark:small_craft_facility:category":"boatyard","seamark:type":"small_craft_facility"}}},{"type":"Feature","geometry":{"type":"LineString","coordinates":[[-86.0930318,42.798616],[-86.093049,42.7986781]]},"properties":{"osm_id":1508985016,"osm_type":"way","seamark_type":"gate","display_class":"OTHER","min_zoom":12,"importance":1,"name":null,"ref":null,"common":{"type":"gate"},"children":{"gate":{"category":"sluice"}},"osm_tags":{"seamark:gate:category":"sluice","seamark:type":"gate","waterway":"sluice_gate"}}},{"type":"Feature","geometry":{"type":"Point","coordinates":[-86.4707038,42.1103057]},"properties":{"osm_id":8382526485,"osm_type":"node","seamark_type":"harbour","display_class":"OTHER","min_zoom":12,"importance":1,"name":"Anchor's Way Marina","ref":null,"common":{"type":"harbour"},"children":{"harbour":{"category":"marina"}},"osm_tags":{"addr:city":"Saint Joseph","addr:housenumber":"143","addr:postcode":"49085","addr:state":"MI","addr:street":"Anchors Way","leisure":"marina","name":"Anchor's Way Marina","phone":"+1 269 982 0812","seamark:harbour:category":"marina","seamark:type":"harbour","website":"https://anchorsway.com/"}}},{"type":"Feature","geometry":{"type":"Polygon","coordinates":[[[-86.1882696,42.7936698],[-86.1872286,42.7918547],[-86.1864779,42.7922527],[-86.1862633,42.7920126],[-86.1854962,42.7921819],[-86.1855202,42.7920225],[-86.1833809,42.7923594],[-86.1831573,42.7923905],[-86.1821864,42.7921622],[-86.1817197,42.7926503],[-86.1826638,42.7926267],[-86.1839083,42.7925519],[-86.1854694,42.7924259],[-86.1861989,42.7922763],[-86.1864403,42.7930794],[-86.1872075,42.7930794],[-86.1875293,42.7933904],[-86.1879263,42.7937801],[-86.1882696,42.7936698]]]},"properties":{"osm_id":699705035,"osm_type":"way","seamark_type":"harbour","display_class":"OTHER","min_zoom":12,"importance":1,"name":"Anchorage Marina & Yacht Club","ref":null,"common":{"type":"harbour"},"children":{"harbour":{"category":"marina"}},"osm_tags":{"addr:city":"Holland","addr:housenumber":"1800","addr:postcode":"49424","addr:state":"MI","addr:street":"Ottawa Beach Road","leisure":"marina","name":"Anchorage Marina & Yacht Club","phone":"+1-616-399-1802","power_supply":"yes","seamark:harbour:category":"marina","seamark:type":"harbour","website":"https://.anchoragemarine.com"}}},{"type":"Feature","geometry":{"type":"Point","coordinates":[-86.469022,42.1060573]},"properties":{"osm_id":8382526489,"osm_type":"node","seamark_type":"harbour","display_class":"OTHER","min_zoom":12,"importance":1,"name":"Brian's Marina","ref":null,"common":{"type":"harbour"},"children":{"harbour":{"category":"marina"}},"osm_tags":{"addr:city":"Saint Joseph","addr:housenumber":"285","addr:postcode":"49085","addr:state":"MI","addr:street":"Anchors Court","alt_name":"Brian's Marine Service","leisure":"marina","name":"Brian's Marina","phone":"+1 269 983 2628","seamark:harbour:category":"marina","seamark:type":"harbour","website":"https://www.briansmarina.com/"}}},{"type":"Feature","geometry":{"type":"Polygon","coordinates":[[[-86.2025289,42.6539521],[-86.2020252,42.6541356],[-86.2020448,42.6535651],[-86.202541,42.6534862],[-86.2025289,42.6539521]]]},"properties":{"osm_id":1489100205,"osm_type":"way","seamark_type":"harbour","display_class":"OTHER","min_zoom":12,"importance":1,"name":"Coghlin Park Marina","ref":null,"common":{"type":"harbour"},"children":{"harbour":{"category":"marina"}},"osm_tags":{"leisure":"marina","name":"Coghlin Park Marina","seamark:harbour:category":"marina","seamark:type":"harbour"}}},{"type":"Feature","geometry":{"type":"Polygon","coordinates":[[[-86.2060654,42.6564926],[-86.20645,42.6565277],[-86.2065143,42.6560919],[-86.2064215,42.6557902],[-86.2063191,42.6555325],[-86.2058914,42.655652],[-86.2059692,42.6557036],[-86.2060214,42.6557654],[-86.2061072,42.65608],[-86.2061155,42.6561521],[-86.2060654,42.6564926]]]},"properties":{"osm_id":1489100204,"osm_type":"way","seamark_type":"harbour","display_class":"OTHER","min_zoom":12,"importance":1,"name":"Coral Gables Marina","ref":null,"common":{"type":"harbour"},"children":{"harbour":{"category":"marina"}},"osm_tags":{"addr:city":"Saugatuck","addr:housenumber":"220","addr:postcode":"49453","addr:state":"MI","addr:street":"Water Street","leisure":"marina","name":"Coral Gables Marina","phone":"+12698572603","seamark:harbour:category":"marina","seamark:type":"harbour","website":"https://coralgablessaugatuck.com/"}}},{"type":"Feature","geometry":{"type":"Polygon","coordinates":[[[-86.1598712,42.6336968],[-86.1594643,42.6335421],[-86.1580376,42.6334871],[-86.1570756,42.633774],[-86.1573371,42.6340162],[-86.1590199,42.6348413],[-86.1593301,42.6348979],[-86.1596972,42.6350328],[-86.1600352,42.635162],[-86.1601907,42.635147],[-86.1605156,42.6352443],[-86.160565,42.634956],[-86.1605859,42.6345869],[-86.1598712,42.6336968]]]},"properties":{"osm_id":1466291441,"osm_type":"way","seamark_type":"harbour","display_class":"OTHER","min_zoom":12,"importance":1,"name":"Deep Harbor Marina","ref":null,"common":{"type":"harbour"},"children":{"harbour":{"category":"marina"}},"osm_tags":{"leisure":"marina","name":"Deep Harbor Marina","seamark:harbour:category":"marina","seamark:type":"harbour"}}},{"type":"Feature","geometry":{"type":"Polygon","coordinates":[[[-86.1995162,42.6474069],[-86.1994856,42.6476014],[-86.198763,42.6475379],[-86.1984786,42.6473297],[-86.198657,42.6472234],[-86.1986634,42.6472827],[-86.1987674,42.6473639],[-86.1989178,42.6473861],[-86.1991673,42.6473696],[-86.1995162,42.6474069]]]},"properties":{"osm_id":1489100206,"osm_type":"way","seamark_type":"harbour","display_class":"OTHER","min_zoom":12,"importance":1,"name":"Douglas Marina","ref":null,"common":{"type":"harbour"},"children":{"harbour":{"category":"marina"}},"osm_tags":{"addr:city":"Douglas","addr:housenumber":"201","addr:state":"MI","addr:street":"Washington Street","leisure":"marina","name":"Douglas Marina","seamark:harbour:category":"marina","seamark:type":"harbour","website":"https://www.douglasmi.gov/"}}},{"type":"Feature","geometry":{"type":"Polygon","coordinates":[[[-86.1988931,42.6449482],[-86.197778,42.6449846],[-86.197755,42.644602],[-86.1988701,42.6445658],[-86.1988931,42.6449482]]]},"properties":{"osm_id":1508944864,"osm_type":"way","seamark_type":"harbour","display_class":"OTHER","min_zoom":12,"importance":1,"name":"Douglas Marina Key","ref":null,"common":{"type":"harbour"},"children":{"harbour":{"category":"marina"}},"osm_tags":{"check_date":"2026-05-02","leisure":"marina","name":"Douglas Marina Key","seamark:harbour:category":"marina","seamark:type":"harbour"}}},{"type":"Feature","geometry":{"type":"Polygon","coordinates":[[[-86.2041116,42.7686316],[-86.2041517,42.7685619],[-86.2040933,42.7683956],[-86.2040774,42.768332],[-86.204042,42.7682228],[-86.2039889,42.768115],[-86.203934,42.7680462],[-86.2038173,42.767963],[-86.2036845,42.767889],[-86.2034881,42.767777],[-86.2033784,42.7677212],[-86.2032546,42.7676775],[-86.2031554,42.7676553],[-86.203048,42.7676415],[-86.2027397,42.7676313],[-86.2017567,42.7676784],[-86.2016189,42.7676955],[-86.20148,42.7677264],[-86.2013586,42.7677658],[-86.2011905,42.767831],[-86.1994217,42.768664],[-86.1981543,42.7693475],[-86.1985454,42.7697442],[-86.1986021,42.7697127],[-86.1986618,42.7696802],[-86.1988001,42.7696036],[-86.1988081,42.7695992],[-86.1988855,42.7696781],[-86.1989689,42.7696347],[-86.1993072,42.769629],[-86.1993575,42.7696523],[-86.2000944,42.7703923],[-86.2003968,42.7706993],[-86.2015262,42.7701342],[-86.2026235,42.7693171],[-86.2036378,42.7691951],[-86.2041116,42.7686316]]]},"properties":{"osm_id":1410585452,"osm_type":"way","seamark_type":"harbour","display_class":"OTHER","min_zoom":12,"importance":1,"name":"Eldean Shipyard","ref":null,"common":{"type":"harbour"},"children":{"harbour":{"category":"marina"}},"osm_tags":{"addr:city":"Macatawa","addr:housenumber":"2223","addr:postcode":"49434","addr:state":"MI","addr:street":"South Shore Drive","leisure":"marina","name":"Eldean Shipyard","phone":"+1 616 335 5843","seamark:harbour:category":"marina","seamark:type":"harbour","website":"http://www.eldean.com/"}}},{"type":"Feature","geometry":{"type":"Polygon","coordinates":[[[-86.2767516,42.4055985],[-86.2768072,42.4055344],[-86.2767496,42.405505],[-86.2767005,42.405475],[-86.2766519,42.4054408],[-86.2766152,42.405412],[-86.2766101,42.405408],[-86.2762687,42.4048576],[-86.2762291,42.4047963],[-86.2757963,42.4049501],[-86.2751746,42.4051443],[-86.2749948,42.4055782],[-86.2751632,42.4056365],[-86.2751768,42.4056721],[-86.2751865,42.4056921],[-86.2752005,42.4057207],[-86.2752089,42.4057342],[-86.2752315,42.4057709],[-86.2752966,42.4058758],[-86.275368,42.405992],[-86.2755396,42.4058971],[-86.2758514,42.4058049],[-86.2763826,42.4056454],[-86.2764748,42.4056109],[-86.2765892,42.4055842],[-86.276638,42.4055748],[-86.2767516,42.4055985]]]},"properties":{"osm_id":1078593412,"osm_type":"way","seamark_type":"harbour","display_class":"OTHER","min_zoom":12,"importance":1,"name":"Gull Lake Marine","ref":null,"common":{"type":"harbour"},"children":{"harbour":{"category":"marina"}},"osm_tags":{"addr:city":"South Haven","addr:housenumber":"234","addr:postcode":"49090","addr:state":"MI","addr:street":"Black River Street","leisure":"marina","name":"Gull Lake Marine","phone":"+1 269-637-3655","seamark:harbour:category":"marina","seamark:type":"harbour","website":"https://www.gulllakemarinesouthhaven.com/"}}},{"type":"Feature","geometry":{"type":"Polygon","coordinates":[[[-86.197193,42.7706988],[-86.1971675,42.7706853],[-86.1971431,42.7706361],[-86.1971065,42.7704443],[-86.197079,42.7696229],[-86.1972711,42.7696057],[-86.1974581,42.7695758],[-86.1977925,42.7694945],[-86.1981178,42.7693625],[-86.1981543,42.7693475],[-86.1985454,42.7697442],[-86.1986021,42.7697127],[-86.1986618,42.7696802],[-86.1988001,42.7696036],[-86.1988081,42.7695992],[-86.1988855,42.7696781],[-86.1989689,42.7696347],[-86.1993072,42.769629],[-86.1993575,42.7696523],[-86.2000944,42.7703923],[-86.1979977,42.771468],[-86.197193,42.7706988]]]},"properties":{"osm_id":1410585451,"osm_type":"way","seamark_type":"harbour","display_class":"OTHER","min_zoom":12,"importance":1,"name":"Macatawa Bay Yacht Club","ref":null,"common":{"type":"harbour"},"children":{"harbour":{"category":"marina"}},"osm_tags":{"addr:city":"Macatawa","addr:housenumber":"2157","addr:postcode":"49434","addr:state":"MI","addr:street":"South Shore Drive","facebook":"https://www.facebook.com/mbycholland","leisure":"marina","name":"Macatawa Bay Yacht Club","phone":"+1-616-335-5815","seamark:harbour:category":"marina","seamark:type":"harbour","website":"https://www.mbyc.com"}}},{"type":"Feature","geometry":{"type":"Polygon","coordinates":[[[-86.2733038,42.4058977],[-86.2732931,42.4059143],[-86.2733206,42.4059239],[-86.2733068,42.4059453],[-86.2734922,42.4060101],[-86.2734976,42.4060016],[-86.2736254,42.4060968],[-86.2736318,42.4061381],[-86.2736219,42.4061554],[-86.2737305,42.4061869],[-86.2736954,42.4062488],[-86.2738927,42.4063044],[-86.2739174,42.4062566],[-86.2739343,42.406224],[-86.2740283,42.4062514],[-86.2742062,42.4063025],[-86.2742119,42.4062927],[-86.2743004,42.4063177],[-86.2743659,42.4063362],[-86.2745153,42.4063783],[-86.274646,42.4064152],[-86.27471,42.4064333],[-86.2749328,42.406283],[-86.2752031,42.4060972],[-86.275368,42.405992],[-86.2752966,42.4058758],[-86.2752315,42.4057709],[-86.2752089,42.4057342],[-86.2752005,42.4057207],[-86.2751865,42.4056921],[-86.2751768,42.4056721],[-86.2751632,42.4056365],[-86.2749948,42.4055782],[-86.2738135,42.4058061],[-86.2733038,42.4058977]]]},"properties":{"osm_id":1078667003,"osm_type":"way","seamark_type":"harbour","display_class":"OTHER","min_zoom":12,"importance":1,"name":"Maritime Marina","ref":null,"common":{"type":"harbour"},"children":{"harbour":{"category":"marina"}},"osm_tags":{"addr:city":"South Haven","addr:housenumber":"260","addr:postcode":"49090","addr:state":"MI","addr:street":"Dyckman Avenue","image":"https://southhavencitymi.documents-on-demand.com/?l=f1cd875a2553ea11a2e8000c29a59557&d=9bc5159e2953ea11a2e8000c29a59557","leisure":"marina","name":"Maritime Marina","operator":"City of South Haven","seamark:harbour:category":"marina","seamark:type":"harbour","website":"https://www.southhavenmi.gov/parks_and_recreation/marinas.php"}}},{"type":"Feature","geometry":{"type":"Polygon","coordinates":[[[-86.2787846,42.4038431],[-86.2787508,42.4038115],[-86.2787413,42.4038036],[-86.2787095,42.4037703],[-86.2785512,42.4036149],[-86.2762291,42.4047963],[-86.2762687,42.4048576],[-86.2766101,42.405408],[-86.2766152,42.405412],[-86.2766519,42.4054408],[-86.2767005,42.405475],[-86.2767496,42.405505],[-86.2768072,42.4055344],[-86.2767516,42.4055985],[-86.2768009,42.4057096],[-86.2767984,42.4057207],[-86.2768131,42.4057213],[-86.2768559,42.4057252],[-86.2771928,42.4057605],[-86.277426,42.4057578],[-86.277432,42.4057564],[-86.277542,42.4057302],[-86.2776113,42.4057061],[-86.2777315,42.4056538],[-86.2777985,42.4056181],[-86.2778886,42.4055617],[-86.2779499,42.4054694],[-86.2779619,42.4054357],[-86.2780665,42.4052793],[-86.2781363,42.4051396],[-86.27816,42.4050718],[-86.2781747,42.4049986],[-86.2781694,42.4048589],[-86.2781613,42.4047381],[-86.2781712,42.4046403],[-86.2781962,42.4045401],[-86.2783638,42.4043499],[-86.2783759,42.4042341],[-86.278399,42.4042063],[-86.2784798,42.4041091],[-86.2787846,42.4038431]]]},"properties":{"osm_id":1078494739,"osm_type":"way","seamark_type":"harbour","display_class":"OTHER","min_zoom":12,"importance":1,"name":"Northside Municipal Marina","ref":null,"common":{"type":"harbour"},"children":{"harbour":{"category":"marina"}},"osm_tags":{"addr:city":"South Haven","addr:housenumber":"52","addr:postcode":"49090","addr:state":"MI","addr:street":"Black River Street","leisure":"marina","name":"Northside Municipal Marina","operator":"City of South Haven","seamark:harbour:category":"marina","seamark:type":"harbour","website":"https://www.southhavenmi.gov/parks_and_recreation/marinas.php"}}},{"type":"Feature","geometry":{"type":"Point","coordinates":[-86.4662433,42.1007181]},"properties":{"osm_id":8382540835,"osm_type":"node","seamark_type":"harbour","display_class":"OTHER","min_zoom":12,"importance":1,"name":"Pier 1000 Marina","ref":null,"common":{"type":"harbour"},"children":{"harbour":{"category":"marina"}},"osm_tags":{"addr:city":"Benton Harbor","addr:housenumber":"1000","addr:postcode":"49022","addr:state":"MI","addr:street":"Riverview Drive","leisure":"marina","name":"Pier 1000 Marina","phone":"+1 269 927 4471","seamark:harbour:category":"marina","seamark:type":"harbour","website":"https://www.pier1000.com/"}}},{"type":"Feature","geometry":{"type":"Point","coordinates":[-86.4718974,42.103934]},"properties":{"osm_id":8382526487,"osm_type":"node","seamark_type":"harbour","display_class":"OTHER","min_zoom":12,"importance":1,"name":"Pier 33","ref":null,"common":{"type":"harbour"},"children":{"harbour":{"category":"marina"}},"osm_tags":{"addr:city":"Saint Joseph","addr:housenumber":"250","addr:postcode":"49085","addr:state":"MI","addr:street":"Anchors Way","leisure":"marina","name":"Pier 33","phone":"+1 269 983 3333","seamark:harbour:category":"marina","seamark:type":"harbour","website":"http://www.pier33.com/"}}},{"type":"Feature","geometry":{"type":"Polygon","coordinates":[[[-86.2016698,42.6637737],[-86.203496,42.6626207],[-86.2031274,42.6622302],[-86.2025936,42.6620091],[-86.2018512,42.6626009],[-86.2013523,42.662236],[-86.2008534,42.6626561],[-86.2005652,42.6629157],[-86.2016698,42.6637737]]]},"properties":{"osm_id":1453390260,"osm_type":"way","seamark_type":"harbour","display_class":"OTHER","min_zoom":12,"importance":1,"name":"Safe Harbor Saugatuck Yacht Service","ref":null,"common":{"type":"harbour"},"children":{"harbour":{"category":"marina"}},"osm_tags":{"capacity":"54","leisure":"marina","name":"Safe Harbor Saugatuck Yacht Service","operator":"Safe Harbor Tower Marine","seamark:harbour:category":"marina","seamark:type":"harbour"}}},{"type":"Feature","geometry":{"type":"Polygon","coordinates":[[[-86.208106,42.6506218],[-86.2056569,42.6495394],[-86.2028117,42.6493097],[-86.202684,42.6469249],[-86.2039227,42.6467478],[-86.2062798,42.6474299],[-86.2065063,42.6469197],[-86.206566,42.6469402],[-86.2069397,42.6470688],[-86.207459,42.646437],[-86.207638,42.6464992],[-86.2084543,42.6470931],[-86.2088779,42.6476642],[-86.2092661,42.6477908],[-86.2094655,42.6477908],[-86.209448,42.6482492],[-86.2094379,42.6486911],[-86.2096854,42.6491685],[-86.208106,42.6506218]]]},"properties":{"osm_id":1453390264,"osm_type":"way","seamark_type":"harbour","display_class":"OTHER","min_zoom":12,"importance":1,"name":"Safe Harbor Tower Marine","ref":null,"common":{"type":"harbour"},"children":{"harbour":{"category":"marina"}},"osm_tags":{"check_date":"2026-05-02","leisure":"marina","name":"Safe Harbor Tower Marine","seamark:harbour:category":"marina","seamark:type":"harbour"}}},{"type":"Feature","geometry":{"type":"Point","coordinates":[-86.216129,42.677477]},"properties":{"osm_id":8728454795,"osm_type":"node","seamark_type":"light_minor","display_class":"OTHER","min_zoom":12,"importance":1,"name":"Saugatuck North Pierhead Light","ref":null,"common":{"name":"Saugatuck North Pierhead Light","reference":"LLNR 19450","type":"light_minor"},"children":{"light":{"character":"Fl","colour":"green","group":"2","height":"09","period":"04","range":"5"}},"osm_tags":{"ele":"177","gnis:feature_id":"1618374","height":"9","man_made":"tower","name":"Saugatuck North Pierhead Light","seamark:light:character":"Fl","seamark:light:colour":"green","seamark:light:group":"2","seamark:light:height":"09","seamark:light:period":"04","seamark:light:range":"5","seamark:name":"Saugatuck North Pierhead Light","seamark:reference":"LLNR 19450","seamark:type":"light_minor","tower:construction":"freestanding","tower:type":"navigation"}}},{"type":"Feature","geometry":{"type":"Point","coordinates":[-86.2162976,42.6768664]},"properties":{"osm_id":8728454796,"osm_type":"node","seamark_type":"light_minor","display_class":"OTHER","min_zoom":12,"importance":1,"name":"Saugatuck South Pierhead Light","ref":null,"common":{"name":"Saugatuck South Pierhead Light","reference":"LLNR 19445","type":"light_minor"},"children":{"fog_signal":{"category":"horn","period":"15"},"light":{"character":"Fl","colour":"red","group":"2","height":"09","period":"04","range":"7"}},"osm_tags":{"ele":"177","gnis:feature_id":"1618377","height":"9","man_made":"tower","name":"Saugatuck South Pierhead Light","seamark:fog_signal:category":"horn","seamark:fog_signal:period":"15","seamark:light:character":"Fl","seamark:light:colour":"red","seamark:light:group":"2","seamark:light:height":"09","seamark:light:period":"04","seamark:light:range":"7","seamark:name":"Saugatuck South Pierhead Light","seamark:reference":"LLNR 19445","seamark:type":"light_minor","tower:construction":"freestanding","tower:type":"navigation"}}},{"type":"Feature","geometry":{"type":"Polygon","coordinates":[[[-86.2029191,42.6543311],[-86.2040119,42.6543167],[-86.2040079,42.653821],[-86.2040817,42.6537147],[-86.2043094,42.6533027],[-86.2043833,42.6525882],[-86.2036082,42.6525409],[-86.203458,42.6533279],[-86.202541,42.6534862],[-86.2025289,42.6539521],[-86.2029549,42.6537894],[-86.2029604,42.6538433],[-86.2029771,42.6540068],[-86.2029893,42.6541272],[-86.2029179,42.6542322],[-86.2029191,42.6543311]]]},"properties":{"osm_id":1454146046,"osm_type":"way","seamark_type":"harbour","display_class":"OTHER","min_zoom":12,"importance":1,"name":"Sergeant Marina","ref":null,"common":{"type":"harbour"},"children":{"harbour":{"category":"marina"}},"osm_tags":{"addr:city":"Saugatuck","addr:housenumber":"31","addr:postcode":"49453","addr:state":"MI","addr:street":"Butler Street","leisure":"marina","name":"Sergeant Marina","phone":"+1 269 857 2873","seamark:harbour:category":"marina","seamark:type":"harbour","website":"https://www.sergeantmarina.com/"}}},{"type":"Feature","geometry":{"type":"Point","coordinates":[-86.2015096,42.6633159]},"properties":{"osm_id":4873085643,"osm_type":"node","seamark_type":"harbour","display_class":"OTHER","min_zoom":12,"importance":1,"name":"Shore Harbor Marina","ref":null,"common":{"type":"harbour"},"children":{"harbour":{"category":"marina"}},"osm_tags":{"addr:city":"Saugatuck","addr:housenumber":"876","addr:postcode":"49453","addr:state":"MI","addr:street":"Holland Street","leisure":"marina","name":"Shore Harbor Marina","operator":"Shore Harbor Marina, LLC","seamark:harbour:category":"marina","seamark:type":"harbour"}}},{"type":"Feature","geometry":{"type":"Polygon","coordinates":[[[-86.2058914,42.655652],[-86.2063191,42.6555325],[-86.2058541,42.6546836],[-86.2045266,42.65342],[-86.2043094,42.6533027],[-86.2040817,42.6537147],[-86.2048366,42.6543605],[-86.2052125,42.6548069],[-86.2050348,42.6549136],[-86.2050242,42.6549716],[-86.2050735,42.6550388],[-86.2053457,42.655582],[-86.2056822,42.6555743],[-86.2058914,42.655652]]]},"properties":{"osm_id":1453391791,"osm_type":"way","seamark_type":"harbour","display_class":"OTHER","min_zoom":12,"importance":1,"name":"Singapore Yacht Club","ref":null,"common":{"type":"harbour"},"children":{"harbour":{"category":"marina"}},"osm_tags":{"capacity":"50","check_date":"2026-05-01","leisure":"marina","name":"Singapore Yacht Club","seamark:harbour:category":"marina","seamark:type":"harbour"}}},{"type":"Feature","geometry":{"type":"Point","coordinates":[-86.2881739,42.4019351]},"properties":{"osm_id":6553252615,"osm_type":"node","seamark_type":"light_minor","display_class":"OTHER","min_zoom":12,"importance":1,"name":"South Haven - NORTH PIER LIGHT","ref":null,"common":{"information":"On pole","name":"South Haven - NORTH PIER LIGHT","reference":"LLNR 19510","type":"light_minor"},"children":{"light":{"character":"Fl","colour":"green","height":"09","period":"04","range":"06"}},"osm_tags":{"man_made":"tower","name":"North Pier Light","operator":"U.S. Coast Guard","seamark:information":"On pole","seamark:light:character":"Fl","seamark:light:colour":"green","seamark:light:height":"09","seamark:light:period":"04","seamark:light:range":"06","seamark:name":"South Haven - NORTH PIER LIGHT","seamark:reference":"LLNR 19510","seamark:type":"light_minor","tower:type":"navigation"}}},{"type":"Feature","geometry":{"type":"Polygon","coordinates":[[[-86.2879211,42.401386],[-86.2879263,42.4013917],[-86.2879337,42.4013959],[-86.2879425,42.4013982],[-86.2879518,42.4013984],[-86.2879607,42.4013964],[-86.2879683,42.4013925],[-86.2879739,42.4013869],[-86.287977,42.4013798],[-86.2879765,42.4013723],[-86.2879727,42.4013653],[-86.2879658,42.4013597],[-86.2879568,42.4013562],[-86.2879467,42.4013552],[-86.2879368,42.4013568],[-86.2879281,42.4013608],[-86.2879223,42.4013661],[-86.287919,42.4013725],[-86.2879186,42.4013794],[-86.2879211,42.401386]]]},"properties":{"osm_id":1077439378,"osm_type":"way","seamark_type":"landmark","display_class":"OTHER","min_zoom":12,"importance":1,"name":"South Haven South Pierhead Light","ref":null,"common":{"information":"Red conical tower","name":"South Haven South Pierhead Light","reference":"LLNR 19505","type":"landmark"},"children":{"fog_signal":{"category":"horn","generation":"automatic","group":"2","information":"Operates by keying microphone five times on VHF-FM Ch. 83A","period":"30.0"},"landmark":{"category":"tower","conspicuity":"conspicuous","function":"tower"},"light":{"character":"Fl","colour":"red","height":"11","range":"13"}},"osm_tags":{"building":"yes","height":"11","man_made":"lighthouse","name":"South Haven South Pierhead Light","operator":"U.S. Coast Guard","seamark:fog_signal:category":"horn","seamark:fog_signal:generation":"automatic","seamark:fog_signal:group":"2","seamark:fog_signal:information":"Operates by keying microphone five times on VHF-FM Ch. 83A","seamark:fog_signal:period":"30.0","seamark:information":"Red conical tower","seamark:landmark:category":"tower","seamark:landmark:conspicuity":"conspicuous","seamark:landmark:function":"tower","seamark:light:character":"Fl","seamark:light:colour":"red","seamark:light:height":"11","seamark:light:range":"13","seamark:name":"South Haven South Pierhead Light","seamark:reference":"LLNR 19505","seamark:type":"landmark","wikidata":"Q7567441","wikipedia":"en:South Haven Light"}}},{"type":"Feature","geometry":{"type":"Point","coordinates":[-86.2758411,42.4043263]},"properties":{"osm_id":8380019072,"osm_type":"node","seamark_type":"harbour","display_class":"OTHER","min_zoom":12,"importance":1,"name":"South Haven Yacht Club","ref":null,"common":{"type":"harbour"},"children":{"harbour":{"category":"marina"}},"osm_tags":{"addr:city":"South Haven","addr:housenumber":"401","addr:postcode":"49090","addr:state":"MI","addr:street":"Williams Street","leisure":"marina","name":"South Haven Yacht Club","phone":"+1 269 637 2305","seamark:harbour:category":"marina","seamark:type":"harbour","start_date":"1939","website":"https://southhavenyacht.club/"}}},{"type":"Feature","geometry":{"type":"Polygon","coordinates":[[[-86.2767406,42.4039989],[-86.2781297,42.4033305],[-86.278407,42.4031982],[-86.278331,42.4031113],[-86.2783039,42.4030838],[-86.2784145,42.4030298],[-86.2782238,42.4028601],[-86.2778995,42.4029772],[-86.2778398,42.4029935],[-86.276492,42.4033558],[-86.2764774,42.4033731],[-86.2764635,42.4033919],[-86.276447,42.4034267],[-86.2766751,42.4039522],[-86.2767218,42.4039399],[-86.2767406,42.4039989]]]},"properties":{"osm_id":1077546431,"osm_type":"way","seamark_type":"harbour","display_class":"OTHER","min_zoom":12,"importance":1,"name":"Southside Municipal Marina","ref":null,"common":{"type":"harbour"},"children":{"harbour":{"category":"marina"}},"osm_tags":{"addr:city":"South Haven","addr:housenumber":"345","addr:postcode":"49090","addr:state":"MI","addr:street":"Water Street","leisure":"marina","name":"Southside Municipal Marina","operator":"City of South Haven","seamark:harbour:category":"marina","seamark:type":"harbour","website":"https://www.southhavenmi.gov/parks_and_recreation/marinas.php"}}},{"type":"Feature","geometry":{"type":"Polygon","coordinates":[[[-86.4945427,42.1163669],[-86.4945452,42.1163719],[-86.4945498,42.116376],[-86.4945559,42.1163789],[-86.4945629,42.1163801],[-86.4945701,42.1163796],[-86.4945767,42.1163774],[-86.494582,42.1163737],[-86.4945854,42.1163689],[-86.4945865,42.1163635],[-86.4945852,42.1163581],[-86.4945815,42.1163534],[-86.494576,42.1163498],[-86.4945692,42.1163477],[-86.4945618,42.1163475],[-86.4945548,42.116349],[-86.4945489,42.1163521],[-86.4945446,42.1163564],[-86.4945425,42.1163615],[-86.4945427,42.1163669]]]},"properties":{"osm_id":1082679814,"osm_type":"way","seamark_type":"landmark","display_class":"OTHER","min_zoom":12,"importance":1,"name":"St. Joseph North Pierhead Light","ref":null,"common":{"information":"White cylindrical tower","name":"St. Joseph North Pierhead Light","reference":"LLNR 19515","type":"landmark"},"children":{"beacon_lateral":{"colour":"green"},"landmark":{"category":"tower","conspicuity":"conspicuous","function":"tower"},"light":{"character":"Fl","colour":"white","height":"09","period":"2.5","range":"12"}},"osm_tags":{"building":"yes","height":"09","heritage":"2","heritage:operator":"nrhp","heritage:website":"https://www.nps.gov/subjects/nationalregister/index.htm","historic":"lighthouse","man_made":"lighthouse","name":"North Pierhead Light","nrhp:criteria":"(A), (C)","nrhp:inscription_date":"2005-11-09","operator":"U.S. Coast Guard","protection_title":"U.S. Coast Guard","ref:nrhp":"05001211","seamark:beacon_lateral:colour":"green","seamark:information":"White cylindrical tower","seamark:landmark:category":"tower","seamark:landmark:conspicuity":"conspicuous","seamark:landmark:function":"tower","seamark:light:character":"Fl","seamark:light:colour":"white","seamark:light:height":"09","seamark:light:period":"2.5","seamark:light:range":"12","seamark:name":"St. Joseph North Pierhead Light","seamark:reference":"LLNR 19515","seamark:type":"landmark","source_ref":"https://catalog.archives.gov/id/75324955","start_date":"1906"}}},{"type":"Feature","geometry":{"type":"Polygon","coordinates":[[[-86.4849104,42.1143378],[-86.4849896,42.1143139],[-86.4853455,42.1139562],[-86.4848146,42.1136714],[-86.4847697,42.1136473],[-86.4846873,42.1136089],[-86.484505,42.1136507],[-86.4839234,42.1137795],[-86.4838634,42.1137918],[-86.4837611,42.1138105],[-86.4836528,42.1138324],[-86.4836518,42.113846],[-86.4836083,42.1138553],[-86.4836231,42.1138897],[-86.4837259,42.1141267],[-86.4838067,42.1143129],[-86.484555,42.1143376],[-86.4849104,42.1143378]]]},"properties":{"osm_id":1083073414,"osm_type":"way","seamark_type":"harbour","display_class":"OTHER","min_zoom":12,"importance":1,"name":"St. Joseph River Yacht Club","ref":null,"common":{"type":"harbour"},"children":{"harbour":{"category":"marina"}},"osm_tags":{"description":"Built as a U.S. Lighthouse Service depot for the Ninth Lighthouse District in 1893. During WWI it was transferred to the Michigan Naval Militia, then the Michigan Army National Guard in the 1950s until 1993.","facebook":"https://www.facebook.com/StJosephRiverYachtClub/","heritage":"2","heritage:operator":"nrhp","heritage:website":"https://www.nps.gov/subjects/nationalregister/index.htm","historic":"maritime","leisure":"marina","name":"St. Joseph River Yacht Club","nrhp:criteria":"(A), (C)","nrhp:inscription_date":"1993-12-02","old_name:1893-1918":"Ninth District Lighthouse Depot","old_name:1918-1956":"St. Joseph Naval Armory","old_name:1956-1993":"St. Joseph National Guard Armoy","operator":"St Joseph River Yacht Club","ref:nrhp":"93001348","seamark:harbour:category":"marina","seamark:type":"harbour","source_ref":"https://catalog.archives.gov/id/25338967","start_date":"1893"}}},{"type":"Feature","geometry":{"type":"Point","coordinates":[-86.4942753,42.1152707]},"properties":{"osm_id":11676726862,"osm_type":"node","seamark_type":"light_minor","display_class":"OTHER","min_zoom":12,"importance":1,"name":"St. Joseph SOUTH PIERHEAD LIGHT","ref":null,"common":{"name":"St. Joseph SOUTH PIERHEAD LIGHT","reference":"LLNR 19525","type":"light_minor"},"children":{"light":{"character":"Iso","colour":"red","height":"8","period":"06","range":"05"}},"osm_tags":{"name":"South Pierhead Light","operator":"U.S. Coast Guard","seamark:light:character":"Iso","seamark:light:colour":"red","seamark:light:height":"8","seamark:light:period":"06","seamark:light:range":"05","seamark:name":"St. Joseph SOUTH PIERHEAD LIGHT","seamark:reference":"LLNR 19525","seamark:type":"light_minor","tower:type":"navigation"}}},{"type":"Feature","geometry":{"type":"Polygon","coordinates":[[[-86.4853455,42.1139562],[-86.4853716,42.1139288],[-86.4854527,42.1138462],[-86.4856103,42.113682],[-86.4857193,42.1135642],[-86.4856106,42.1135133],[-86.4854307,42.113429],[-86.4854166,42.1134224],[-86.4853822,42.1134649],[-86.4853516,42.1135026],[-86.485305,42.1135561],[-86.4852006,42.1135313],[-86.4851926,42.1135393],[-86.4851041,42.1136276],[-86.4850887,42.113643],[-86.485079,42.1136527],[-86.4849678,42.1135913],[-86.4848879,42.1135474],[-86.4848776,42.1135409],[-86.4848232,42.1135947],[-86.4848026,42.1136154],[-86.4847769,42.1136411],[-86.4847697,42.1136473],[-86.4848146,42.1136714],[-86.4850927,42.1138206],[-86.4852319,42.1138953],[-86.4853455,42.1139562]]]},"properties":{"osm_id":836666298,"osm_type":"way","seamark_type":"coastguard_station","display_class":"OTHER","min_zoom":12,"importance":1,"name":"U.S. Coast Guard - Station St. Joseph","ref":null,"common":{"type":"coastguard_station"},"children":{},"osm_tags":{"addr:city":"Saint Joseph","addr:housenumber":"127","addr:postcode":"49085","addr:state":"MI","addr:street":"North Pier Street","description":"A multi-mission unit that performs Search and Rescue, Maritime law Enforcement, Homeland Security, and Ice Rescue. Our area of responsibility covers 45 miles of Lake Michigan shoreline from Douglas to Harbert.","landuse":"military","military_service":"coast_guard","name":"U.S. Coast Guard - Station St. Joseph","seamark:type":"coastguard_station","website":"https://www.atlanticarea.uscg.mil/Our-Organization/District-9/Ninth-District-Units/Sector-Lake-Michigan/Units/St-Joseph/"}}},{"type":"Feature","geometry":{"type":"Polygon","coordinates":[[[-86.483543,42.113869],[-86.4834672,42.1138701],[-86.4833595,42.1138799],[-86.4829153,42.1139387],[-86.4826312,42.1139944],[-86.4825232,42.1140019],[-86.4824884,42.1141879],[-86.4824723,42.1142984],[-86.4824519,42.1144037],[-86.482421,42.1145389],[-86.4823608,42.1146406],[-86.4822582,42.114804],[-86.4821024,42.1149452],[-86.4818043,42.1152116],[-86.4817264,42.115337],[-86.4817266,42.1154449],[-86.4820909,42.1154699],[-86.4822168,42.1155776],[-86.4824006,42.1154768],[-86.4827236,42.1156849],[-86.4828758,42.1155903],[-86.4829819,42.115589],[-86.4830713,42.1155595],[-86.4831934,42.1155241],[-86.483304,42.115509],[-86.4834438,42.1155076],[-86.4834949,42.1155081],[-86.4835586,42.1155449],[-86.4837031,42.1155581],[-86.4838335,42.1155929],[-86.483957,42.1156022],[-86.4840525,42.115631],[-86.4841331,42.1156428],[-86.484218,42.1156297],[-86.4845776,42.1154931],[-86.4846673,42.1154049],[-86.4851611,42.1149008],[-86.4854527,42.1146032],[-86.4851332,42.114426],[-86.4849104,42.1143378],[-86.484555,42.1143376],[-86.4838067,42.1143129],[-86.4836231,42.1138897],[-86.4836083,42.1138553],[-86.483543,42.113869]]]},"properties":{"osm_id":1082928677,"osm_type":"way","seamark_type":"harbour","display_class":"OTHER","min_zoom":12,"importance":1,"name":"West Basin Marina","ref":null,"common":{"type":"harbour"},"children":{"harbour":{"category":"marina"}},"osm_tags":{"leisure":"marina","name":"West Basin Marina","operator":"St. Joseph Parks and Recration","seamark:harbour:category":"marina","seamark:type":"harbour","website":"https://sjcity.com/live-here/marina"}}}],"type":"FeatureCollection"}