{"type":"FeatureCollection","features":[{"type":"Feature","geometry":{"type":"Point","coordinates":[-72.0149921,42.7147269]},"properties":{"osm_id":1645743199,"osm_type":"node","seamark_type":"harbour","display_class":"OTHER","min_zoom":12,"importance":1,"name":null,"ref":null,"common":{"type":"harbour"},"children":{"harbour":{"category":"marina"}},"osm_tags":{"leisure":"marina","seamark:harbour:category":"marina","seamark:type":"harbour"}}},{"type":"Feature","geometry":{"type":"Point","coordinates":[-72.9046873,42.8700157]},"properties":{"osm_id":9005485057,"osm_type":"node","seamark_type":"harbour","display_class":"OTHER","min_zoom":12,"importance":1,"name":null,"ref":null,"common":{"type":"harbour"},"children":{"harbour":{"category":"marina"}},"osm_tags":{"addr:city":"Wilmington","addr:housenumber":"5","addr:postcode":"05363","addr:state":"VT","addr:street":"Oxbow Loop","leisure":"marina","ref:vcgi:esiteid":"294102","seamark:harbour:category":"marina","seamark:type":"harbour","source":"esri/USA_NAD_Addresses"}}},{"type":"Feature","geometry":{"type":"LineString","coordinates":[[-72.7665031,42.0083275],[-72.7631369,42.0156617]]},"properties":{"osm_id":839202237,"osm_type":"way","seamark_type":"seaplane_landing_area","display_class":"OTHER","min_zoom":12,"importance":1,"name":null,"ref":"3W/21W","common":{"type":"seaplane_landing_area"},"children":{},"osm_tags":{"length":"1219","ref":"3W/21W","seamark:type":"seaplane_landing_area","surface":"water","width":"183"}}},{"type":"Feature","geometry":{"type":"LineString","coordinates":[[-72.3053777,42.2628469],[-72.3073204,42.2582432]]},"properties":{"osm_id":839202239,"osm_type":"way","seamark_type":"seaplane_landing_area","display_class":"OTHER","min_zoom":12,"importance":1,"name":null,"ref":"1W/19W","common":{"type":"seaplane_landing_area"},"children":{},"osm_tags":{"length":"1219","ref":"1W/19W","seamark:type":"seaplane_landing_area","surface":"water","width":"244"}}},{"type":"Feature","geometry":{"type":"Point","coordinates":[-72.7306796,42.0773872]},"properties":{"osm_id":601734219,"osm_type":"node","seamark_type":"gate","display_class":"OTHER","min_zoom":12,"importance":1,"name":"Lock 8","ref":null,"common":{"type":"gate"},"children":{},"osm_tags":{"name":"Lock 8","seamark:type":"gate","waterway":"lock_gate"}}},{"type":"Feature","geometry":{"type":"Point","coordinates":[-72.7681139,42.0195215]},"properties":{"osm_id":11110281964,"osm_type":"node","seamark_type":"harbour","display_class":"OTHER","min_zoom":12,"importance":1,"name":"Saunders Boat Livery","ref":null,"common":{"type":"harbour"},"children":{"harbour":{"category":"marina"}},"osm_tags":{"leisure":"marina","name":"Saunders Boat Livery","seamark:harbour:category":"marina","seamark:type":"harbour"}}},{"type":"Feature","geometry":{"type":"Point","coordinates":[-72.4319967,42.915439]},"properties":{"osm_id":7973787185,"osm_type":"node","seamark_type":"harbour","display_class":"OTHER","min_zoom":12,"importance":1,"name":"Spofford Yacht Club","ref":null,"common":{"type":"harbour"},"children":{"harbour":{"category":"marina"}},"osm_tags":{"leisure":"marina","name":"Spofford Yacht Club","seamark:harbour:category":"marina","seamark:type":"harbour"}}}],"type":"FeatureCollection"}