{"type":"FeatureCollection","features":[{"type":"Feature","geometry":{"type":"Point","coordinates":[-130.5069444,42.6619444]},"properties":{"osm_id":12099856511,"osm_type":"node","seamark_type":"buoy_special_purpose","display_class":"OTHER","min_zoom":12,"importance":1,"name":"NOAA Environmental Lighted Buoy 46002","ref":null,"common":{"name":"NOAA Environmental Lighted Buoy 46002","type":"buoy_special_purpose"},"children":{"buoy_special_purpose":{"category":"odas","colour":"yellow","shape":"boat"},"light":{"character":"Fl","colour":"yellow","group":"4","period":"20","sequence":"0.5+(0.5)+0.5+(0.5)+0.5+(0.5)+0.5+(16.0)"}},"osm_tags":{"man_made":"buoy","operator":"National Oceanic and Atmospheric Administration","seamark:buoy_special_purpose:category":"odas","seamark:buoy_special_purpose:colour":"yellow","seamark:buoy_special_purpose:shape":"boat","seamark:light:character":"Fl","seamark:light:colour":"yellow","seamark:light:group":"4","seamark:light:period":"20","seamark:light:sequence":"0.5+(0.5)+0.5+(0.5)+0.5+(0.5)+0.5+(16.0)","seamark:name":"NOAA Environmental Lighted Buoy 46002","seamark:type":"buoy_special_purpose"}}}],"type":"FeatureCollection"}