{"type":"FeatureCollection","features":[{"type":"Feature","geometry":{"type":"LineString","coordinates":[[-4.3068036,42.6597643],[-4.3067523,42.6597167]]},"properties":{"osm_id":1307672272,"osm_type":"way","seamark_type":"gate","display_class":"OTHER","min_zoom":12,"importance":1,"name":null,"ref":null,"common":{"type":"gate"},"children":{},"osm_tags":{"seamark:type":"gate","waterway":"lock_gate"}}},{"type":"Feature","geometry":{"type":"Point","coordinates":[-4.6987856,42.900608]},"properties":{"osm_id":264343617,"osm_type":"node","seamark_type":"gate","display_class":"OTHER","min_zoom":12,"importance":1,"name":"Esclusa","ref":null,"common":{"type":"gate"},"children":{},"osm_tags":{"name":"Esclusa","seamark:type":"gate","waterway":"lock_gate"}}},{"type":"Feature","geometry":{"type":"Point","coordinates":[-4.6988094,42.9005685]},"properties":{"osm_id":12195481898,"osm_type":"node","seamark_type":"gate","display_class":"OTHER","min_zoom":12,"importance":1,"name":"Esclusa","ref":null,"common":{"type":"gate"},"children":{},"osm_tags":{"name":"Esclusa","seamark:type":"gate","waterway":"lock_gate"}}},{"type":"Feature","geometry":{"type":"Point","coordinates":[-4.3581473,42.2696983]},"properties":{"osm_id":276292241,"osm_type":"node","seamark_type":"gate","display_class":"OTHER","min_zoom":12,"importance":1,"name":"Esclusa 16","ref":null,"common":{"type":"gate"},"children":{},"osm_tags":{"name":"Esclusa 16","note":"Ovalada, simple","seamark:type":"gate","waterway":"lock_gate"}}},{"type":"Feature","geometry":{"type":"Point","coordinates":[-4.3991768,42.2637252]},"properties":{"osm_id":2286648618,"osm_type":"node","seamark_type":"gate","display_class":"OTHER","min_zoom":12,"importance":1,"name":"Esclusa 17","ref":null,"common":{"type":"gate"},"children":{},"osm_tags":{"name":"Esclusa 17","note":"Ovalada, agrupación cuádruple","seamark:type":"gate","waterway":"lock_gate"}}},{"type":"Feature","geometry":{"type":"Point","coordinates":[-4.3993669,42.2635708]},"properties":{"osm_id":2286648619,"osm_type":"node","seamark_type":"gate","display_class":"OTHER","min_zoom":12,"importance":1,"name":"Esclusa 18","ref":null,"common":{"type":"gate"},"children":{},"osm_tags":{"name":"Esclusa 18","note":"Ovalada, agrupación cuádruple","seamark:type":"gate","waterway":"lock_gate"}}},{"type":"Feature","geometry":{"type":"Point","coordinates":[-4.3995613,42.2634231]},"properties":{"osm_id":2286648620,"osm_type":"node","seamark_type":"gate","display_class":"OTHER","min_zoom":12,"importance":1,"name":"Esclusa 19","ref":null,"common":{"type":"gate"},"children":{},"osm_tags":{"name":"Esclusa 19","note":"Ovalada, agrupación cuádruple","seamark:type":"gate","waterway":"lock_gate"}}},{"type":"Feature","geometry":{"type":"Point","coordinates":[-4.3997574,42.2632621]},"properties":{"osm_id":2286648622,"osm_type":"node","seamark_type":"gate","display_class":"OTHER","min_zoom":12,"importance":1,"name":"Esclusa 20","ref":null,"common":{"type":"gate"},"children":{},"osm_tags":{"name":"Esclusa 20","note":"Ovalada, agrupación cuádruple","seamark:type":"gate","waterway":"lock_gate"}}},{"type":"Feature","geometry":{"type":"Point","coordinates":[-4.4159424,42.25111]},"properties":{"osm_id":888518663,"osm_type":"node","seamark_type":"gate","display_class":"OTHER","min_zoom":12,"importance":1,"name":"Esclusa 21","ref":null,"common":{"type":"gate"},"children":{},"osm_tags":{"name":"Esclusa 21","note":"Ovalada, simple","seamark:type":"gate","waterway":"lock_gate"}}},{"type":"Feature","geometry":{"type":"Point","coordinates":[-4.5785273,42.0513762]},"properties":{"osm_id":1744443765,"osm_type":"node","seamark_type":"gate","display_class":"OTHER","min_zoom":12,"importance":1,"name":"Esclusa 28","ref":null,"common":{"type":"gate"},"children":{},"osm_tags":{"name":"Esclusa 28","note":"Ovalada, agrupación doble","seamark:type":"gate","waterway":"lock_gate"}}},{"type":"Feature","geometry":{"type":"Point","coordinates":[-4.578643,42.0512202]},"properties":{"osm_id":264325687,"osm_type":"node","seamark_type":"gate","display_class":"OTHER","min_zoom":12,"importance":1,"name":"Esclusa 29","ref":null,"common":{"type":"gate"},"children":{},"osm_tags":{"name":"Esclusa 29","note":"Ovalada, agrupación doble","seamark:type":"gate","waterway":"lock_gate"}}},{"type":"Feature","geometry":{"type":"Point","coordinates":[-4.5817441,42.0298463]},"properties":{"osm_id":2286698561,"osm_type":"node","seamark_type":"gate","display_class":"OTHER","min_zoom":12,"importance":1,"name":"Esclusa 30","ref":null,"common":{"type":"gate"},"children":{},"osm_tags":{"name":"Esclusa 30","note":"Ovalada, simple","ref:bic":"RI-53-0000397","seamark:type":"gate","waterway":"lock_gate","wikimedia_commons":"File:Canal_de_Castilla_Esclusa_30_01_by-dpc.jpg"}}},{"type":"Feature","geometry":{"type":"Point","coordinates":[-4.3118905,42.5863868]},"properties":{"osm_id":2286648626,"osm_type":"node","seamark_type":"gate","display_class":"OTHER","min_zoom":12,"importance":1,"name":"Esclusa 6","ref":null,"common":{"type":"gate"},"children":{},"osm_tags":{"name":"Esclusa 6","note":"Ovalada, simple","seamark:type":"gate","waterway":"lock_gate"}}},{"type":"Feature","geometry":{"type":"Point","coordinates":[-4.2839816,42.5292311]},"properties":{"osm_id":607564963,"osm_type":"node","seamark_type":"gate","display_class":"OTHER","min_zoom":12,"importance":1,"name":"Esclusa 9","ref":null,"common":{"type":"gate"},"children":{},"osm_tags":{"name":"Esclusa 9","note":"Ovalada, simple","seamark:type":"gate","waterway":"lock_gate"}}},{"type":"Feature","geometry":{"type":"Point","coordinates":[-4.5392424,42.1532186]},"properties":{"osm_id":3869794851,"osm_type":"node","seamark_type":"gate","display_class":"OTHER","min_zoom":12,"importance":1,"name":"Esclusa de retención 3","ref":null,"common":{"type":"gate"},"children":{},"osm_tags":{"name":"Esclusa de retención 3","seamark:type":"gate","waterway":"lock_gate"}}}],"type":"FeatureCollection"}