{"type":"FeatureCollection","features":[{"type":"Feature","geometry":{"type":"Point","coordinates":[26.1099529,43.9774988]},"properties":{"osm_id":5196559321,"osm_type":"node","seamark_type":"buoy_lateral","display_class":"OTHER","min_zoom":12,"importance":1,"name":null,"ref":null,"common":{"type":"buoy_lateral"},"children":{"buoy_lateral":{"category":"starboard","colour":"green","shape":"conical","system":"iala-a"}},"osm_tags":{"seamark:buoy_lateral:category":"starboard","seamark:buoy_lateral:colour":"green","seamark:buoy_lateral:shape":"conical","seamark:buoy_lateral:system":"iala-a","seamark:type":"buoy_lateral"}}},{"type":"Feature","geometry":{"type":"Point","coordinates":[26.1375045,43.9845396]},"properties":{"osm_id":5196559324,"osm_type":"node","seamark_type":"buoy_lateral","display_class":"OTHER","min_zoom":12,"importance":1,"name":null,"ref":null,"common":{"type":"buoy_lateral"},"children":{"buoy_lateral":{"category":"starboard","colour":"green","shape":"conical","system":"iala-a"}},"osm_tags":{"seamark:buoy_lateral:category":"starboard","seamark:buoy_lateral:colour":"green","seamark:buoy_lateral:shape":"conical","seamark:buoy_lateral:system":"iala-a","seamark:type":"buoy_lateral"}}},{"type":"Feature","geometry":{"type":"Point","coordinates":[26.1829948,43.9898505]},"properties":{"osm_id":5196559326,"osm_type":"node","seamark_type":"buoy_lateral","display_class":"OTHER","min_zoom":12,"importance":1,"name":null,"ref":null,"common":{"type":"buoy_lateral"},"children":{"buoy_lateral":{"category":"port","colour":"red","shape":"can","system":"iala-a"}},"osm_tags":{"seamark:buoy_lateral:category":"port","seamark:buoy_lateral:colour":"red","seamark:buoy_lateral:shape":"can","seamark:buoy_lateral:system":"iala-a","seamark:type":"buoy_lateral"}}},{"type":"Feature","geometry":{"type":"Point","coordinates":[26.1371612,43.9822546]},"properties":{"osm_id":5196559521,"osm_type":"node","seamark_type":"buoy_lateral","display_class":"OTHER","min_zoom":12,"importance":1,"name":null,"ref":null,"common":{"type":"buoy_lateral"},"children":{"buoy_lateral":{"category":"port","colour":"red","shape":"can","system":"iala-a"}},"osm_tags":{"seamark:buoy_lateral:category":"port","seamark:buoy_lateral:colour":"red","seamark:buoy_lateral:shape":"can","seamark:buoy_lateral:system":"iala-a","seamark:type":"buoy_lateral"}}},{"type":"Feature","geometry":{"type":"Point","coordinates":[26.0075568,43.8849649]},"properties":{"osm_id":5199447439,"osm_type":"node","seamark_type":"buoy_lateral","display_class":"OTHER","min_zoom":12,"importance":1,"name":null,"ref":null,"common":{"type":"buoy_lateral"},"children":{"buoy_lateral":{"category":"port","colour":"red","shape":"can","system":"iala-a"}},"osm_tags":{"seamark:buoy_lateral:category":"port","seamark:buoy_lateral:colour":"red","seamark:buoy_lateral:shape":"can","seamark:buoy_lateral:system":"iala-a","seamark:type":"buoy_lateral"}}},{"type":"Feature","geometry":{"type":"Point","coordinates":[26.0054111,43.88713]},"properties":{"osm_id":5199447440,"osm_type":"node","seamark_type":"buoy_lateral","display_class":"OTHER","min_zoom":12,"importance":1,"name":null,"ref":null,"common":{"type":"buoy_lateral"},"children":{"buoy_lateral":{"category":"starboard","colour":"green","shape":"conical","system":"iala-a"}},"osm_tags":{"seamark:buoy_lateral:category":"starboard","seamark:buoy_lateral:colour":"green","seamark:buoy_lateral:shape":"conical","seamark:buoy_lateral:system":"iala-a","seamark:type":"buoy_lateral"}}},{"type":"Feature","geometry":{"type":"Point","coordinates":[26.077938,43.9469174]},"properties":{"osm_id":5199447444,"osm_type":"node","seamark_type":"notice","display_class":"OTHER","min_zoom":12,"importance":1,"name":null,"ref":null,"common":{"type":"notice"},"children":{"notice":{"category":"turning_area","function":"information","impact":"left_bank","orientation":"0"}},"osm_tags":{"seamark:notice:category":"turning_area","seamark:notice:function":"information","seamark:notice:impact":"left_bank","seamark:notice:orientation":"0","seamark:type":"notice"}}},{"type":"Feature","geometry":{"type":"Point","coordinates":[26.1089229,43.9699631]},"properties":{"osm_id":5199447447,"osm_type":"node","seamark_type":"buoy_lateral","display_class":"OTHER","min_zoom":12,"importance":1,"name":null,"ref":null,"common":{"type":"buoy_lateral"},"children":{"buoy_lateral":{"category":"port","colour":"red","shape":"can","system":"iala-a"}},"osm_tags":{"seamark:buoy_lateral:category":"port","seamark:buoy_lateral:colour":"red","seamark:buoy_lateral:shape":"can","seamark:buoy_lateral:system":"iala-a","seamark:type":"buoy_lateral"}}},{"type":"Feature","geometry":{"type":"Point","coordinates":[26.008501,43.8885527]},"properties":{"osm_id":5199457633,"osm_type":"node","seamark_type":"buoy_lateral","display_class":"OTHER","min_zoom":12,"importance":1,"name":null,"ref":null,"common":{"type":"buoy_lateral"},"children":{"buoy_lateral":{"category":"port","colour":"red","shape":"can","system":"iala-a"}},"osm_tags":{"seamark:buoy_lateral:category":"port","seamark:buoy_lateral:colour":"red","seamark:buoy_lateral:shape":"can","seamark:buoy_lateral:system":"iala-a","seamark:type":"buoy_lateral"}}},{"type":"Feature","geometry":{"type":"Point","coordinates":[26.0192298,43.894367]},"properties":{"osm_id":5199457636,"osm_type":"node","seamark_type":"buoy_lateral","display_class":"OTHER","min_zoom":12,"importance":1,"name":null,"ref":null,"common":{"type":"buoy_lateral"},"children":{"buoy_lateral":{"category":"starboard","colour":"green","shape":"conical","system":"iala-a"}},"osm_tags":{"seamark:buoy_lateral:category":"starboard","seamark:buoy_lateral:colour":"green","seamark:buoy_lateral:shape":"conical","seamark:buoy_lateral:system":"iala-a","seamark:type":"buoy_lateral"}}},{"type":"Feature","geometry":{"type":"Point","coordinates":[26.0762214,43.9436421]},"properties":{"osm_id":5199457639,"osm_type":"node","seamark_type":"notice","display_class":"OTHER","min_zoom":12,"importance":1,"name":null,"ref":null,"common":{"type":"notice"},"children":{"notice":{"addition":"left_triangle","category":"anchoring_permitted","function":"information","impact":"left_bank","orientation":"0"}},"osm_tags":{"seamark:notice:addition":"left_triangle","seamark:notice:category":"anchoring_permitted","seamark:notice:function":"information","seamark:notice:impact":"left_bank","seamark:notice:orientation":"0","seamark:type":"notice"}}},{"type":"Feature","geometry":{"type":"Point","coordinates":[26.0071277,43.8899754]},"properties":{"osm_id":5199473223,"osm_type":"node","seamark_type":"buoy_lateral","display_class":"OTHER","min_zoom":12,"importance":1,"name":null,"ref":null,"common":{"type":"buoy_lateral"},"children":{"buoy_lateral":{"category":"starboard","colour":"green","shape":"conical","system":"iala-a"}},"osm_tags":{"seamark:buoy_lateral:category":"starboard","seamark:buoy_lateral:colour":"green","seamark:buoy_lateral:shape":"conical","seamark:buoy_lateral:system":"iala-a","seamark:type":"buoy_lateral"}}},{"type":"Feature","geometry":{"type":"Point","coordinates":[26.0344218,43.8976451]},"properties":{"osm_id":5199473224,"osm_type":"node","seamark_type":"buoy_lateral","display_class":"OTHER","min_zoom":12,"importance":1,"name":null,"ref":null,"common":{"type":"buoy_lateral"},"children":{"buoy_lateral":{"category":"starboard","colour":"green","shape":"conical","system":"iala-a"}},"osm_tags":{"seamark:buoy_lateral:category":"starboard","seamark:buoy_lateral:colour":"green","seamark:buoy_lateral:shape":"conical","seamark:buoy_lateral:system":"iala-a","seamark:type":"buoy_lateral"}}},{"type":"Feature","geometry":{"type":"Point","coordinates":[26.0681533,43.9150218]},"properties":{"osm_id":5199473225,"osm_type":"node","seamark_type":"buoy_lateral","display_class":"OTHER","min_zoom":12,"importance":1,"name":null,"ref":null,"common":{"type":"buoy_lateral"},"children":{"buoy_lateral":{"category":"port","colour":"red","shape":"can","system":"iala-a"}},"osm_tags":{"seamark:buoy_lateral:category":"port","seamark:buoy_lateral:colour":"red","seamark:buoy_lateral:shape":"can","seamark:buoy_lateral:system":"iala-a","seamark:type":"buoy_lateral"}}},{"type":"Feature","geometry":{"type":"Point","coordinates":[26.04146,43.8965318]},"properties":{"osm_id":5199473522,"osm_type":"node","seamark_type":"buoy_lateral","display_class":"OTHER","min_zoom":12,"importance":1,"name":null,"ref":null,"common":{"type":"buoy_lateral"},"children":{"buoy_lateral":{"category":"port","colour":"red","shape":"can","system":"iala-a"}},"osm_tags":{"seamark:buoy_lateral:category":"port","seamark:buoy_lateral:colour":"red","seamark:buoy_lateral:shape":"can","seamark:buoy_lateral:system":"iala-a","seamark:type":"buoy_lateral"}}},{"type":"Feature","geometry":{"type":"Point","coordinates":[26.2288742,43.9993193]},"properties":{"osm_id":12289380507,"osm_type":"node","seamark_type":"distance_mark","display_class":"OTHER","min_zoom":12,"importance":1,"name":null,"ref":null,"common":{"type":"distance_mark"},"children":{"distance_mark":{"category":"not_installed","distance":"465","units":"kilometres"}},"osm_tags":{"seamark:distance_mark:category":"not_installed","seamark:distance_mark:distance":"465","seamark:distance_mark:units":"kilometres","seamark:type":"distance_mark"}}},{"type":"Feature","geometry":{"type":"Point","coordinates":[26.218703,43.9964092]},"properties":{"osm_id":12289380508,"osm_type":"node","seamark_type":"distance_mark","display_class":"OTHER","min_zoom":12,"importance":1,"name":null,"ref":null,"common":{"type":"distance_mark"},"children":{"distance_mark":{"category":"not_installed","distance":"466","units":"kilometres"}},"osm_tags":{"seamark:distance_mark:category":"not_installed","seamark:distance_mark:distance":"466","seamark:distance_mark:units":"kilometres","seamark:type":"distance_mark"}}},{"type":"Feature","geometry":{"type":"Point","coordinates":[26.2091468,43.9932455]},"properties":{"osm_id":12289380509,"osm_type":"node","seamark_type":"distance_mark","display_class":"OTHER","min_zoom":12,"importance":1,"name":null,"ref":null,"common":{"type":"distance_mark"},"children":{"distance_mark":{"category":"not_installed","distance":"467","units":"kilometres"}},"osm_tags":{"seamark:distance_mark:category":"not_installed","seamark:distance_mark:distance":"467","seamark:distance_mark:units":"kilometres","seamark:type":"distance_mark"}}},{"type":"Feature","geometry":{"type":"Point","coordinates":[26.1988679,43.9898183]},"properties":{"osm_id":12289380510,"osm_type":"node","seamark_type":"distance_mark","display_class":"OTHER","min_zoom":12,"importance":1,"name":null,"ref":null,"common":{"type":"distance_mark"},"children":{"distance_mark":{"category":"not_installed","distance":"468","units":"kilometres"}},"osm_tags":{"seamark:distance_mark:category":"not_installed","seamark:distance_mark:distance":"468","seamark:distance_mark:units":"kilometres","seamark:type":"distance_mark"}}},{"type":"Feature","geometry":{"type":"Point","coordinates":[26.1895315,43.9869058]},"properties":{"osm_id":12289380511,"osm_type":"node","seamark_type":"distance_mark","display_class":"OTHER","min_zoom":12,"importance":1,"name":null,"ref":null,"common":{"type":"distance_mark"},"children":{"distance_mark":{"category":"not_installed","distance":"469","units":"kilometres"}},"osm_tags":{"seamark:distance_mark:category":"not_installed","seamark:distance_mark:distance":"469","seamark:distance_mark:units":"kilometres","seamark:type":"distance_mark"}}},{"type":"Feature","geometry":{"type":"Point","coordinates":[26.1754683,43.9876297]},"properties":{"osm_id":12289380512,"osm_type":"node","seamark_type":"distance_mark","display_class":"OTHER","min_zoom":12,"importance":1,"name":null,"ref":null,"common":{"type":"distance_mark"},"children":{"distance_mark":{"category":"not_installed","distance":"470","units":"kilometres"}},"osm_tags":{"seamark:distance_mark:category":"not_installed","seamark:distance_mark:distance":"470","seamark:distance_mark:units":"kilometres","seamark:type":"distance_mark"}}},{"type":"Feature","geometry":{"type":"Point","coordinates":[26.1620112,43.9874018]},"properties":{"osm_id":12289380513,"osm_type":"node","seamark_type":"distance_mark","display_class":"OTHER","min_zoom":12,"importance":1,"name":null,"ref":null,"common":{"type":"distance_mark"},"children":{"distance_mark":{"category":"not_installed","distance":"471","units":"kilometres"}},"osm_tags":{"seamark:distance_mark:category":"not_installed","seamark:distance_mark:distance":"471","seamark:distance_mark:units":"kilometres","seamark:type":"distance_mark"}}},{"type":"Feature","geometry":{"type":"Point","coordinates":[26.1502361,43.9855199]},"properties":{"osm_id":12289380514,"osm_type":"node","seamark_type":"distance_mark","display_class":"OTHER","min_zoom":12,"importance":1,"name":null,"ref":null,"common":{"type":"distance_mark"},"children":{"distance_mark":{"category":"not_installed","distance":"472","units":"kilometres"}},"osm_tags":{"seamark:distance_mark:category":"not_installed","seamark:distance_mark:distance":"472","seamark:distance_mark:units":"kilometres","seamark:type":"distance_mark"}}},{"type":"Feature","geometry":{"type":"Point","coordinates":[26.1392402,43.9825987]},"properties":{"osm_id":12289380515,"osm_type":"node","seamark_type":"distance_mark","display_class":"OTHER","min_zoom":12,"importance":1,"name":null,"ref":null,"common":{"type":"distance_mark"},"children":{"distance_mark":{"category":"not_installed","distance":"473","units":"kilometres"}},"osm_tags":{"seamark:distance_mark:category":"not_installed","seamark:distance_mark:distance":"473","seamark:distance_mark:units":"kilometres","seamark:type":"distance_mark"}}},{"type":"Feature","geometry":{"type":"Point","coordinates":[26.1282008,43.9787369]},"properties":{"osm_id":12289380516,"osm_type":"node","seamark_type":"distance_mark","display_class":"OTHER","min_zoom":12,"importance":1,"name":null,"ref":null,"common":{"type":"distance_mark"},"children":{"distance_mark":{"category":"not_installed","distance":"474","units":"kilometres"}},"osm_tags":{"seamark:distance_mark:category":"not_installed","seamark:distance_mark:distance":"474","seamark:distance_mark:units":"kilometres","seamark:type":"distance_mark"}}},{"type":"Feature","geometry":{"type":"Point","coordinates":[26.1173327,43.9746506]},"properties":{"osm_id":12289380517,"osm_type":"node","seamark_type":"distance_mark","display_class":"OTHER","min_zoom":12,"importance":1,"name":null,"ref":null,"common":{"type":"distance_mark"},"children":{"distance_mark":{"category":"not_installed","distance":"475","units":"kilometres"}},"osm_tags":{"seamark:distance_mark:category":"not_installed","seamark:distance_mark:distance":"475","seamark:distance_mark:units":"kilometres","seamark:type":"distance_mark"}}},{"type":"Feature","geometry":{"type":"Point","coordinates":[26.1078691,43.9697763]},"properties":{"osm_id":12289380518,"osm_type":"node","seamark_type":"distance_mark","display_class":"OTHER","min_zoom":12,"importance":1,"name":null,"ref":null,"common":{"type":"distance_mark"},"children":{"distance_mark":{"category":"not_installed","distance":"476","units":"kilometres"}},"osm_tags":{"seamark:distance_mark:category":"not_installed","seamark:distance_mark:distance":"476","seamark:distance_mark:units":"kilometres","seamark:type":"distance_mark"}}},{"type":"Feature","geometry":{"type":"Point","coordinates":[26.1002827,43.9631804]},"properties":{"osm_id":12289380519,"osm_type":"node","seamark_type":"distance_mark","display_class":"OTHER","min_zoom":12,"importance":1,"name":null,"ref":null,"common":{"type":"distance_mark"},"children":{"distance_mark":{"category":"not_installed","distance":"477","units":"kilometres"}},"osm_tags":{"seamark:distance_mark:category":"not_installed","seamark:distance_mark:distance":"477","seamark:distance_mark:units":"kilometres","seamark:type":"distance_mark"}}},{"type":"Feature","geometry":{"type":"Point","coordinates":[26.0933042,43.9557149]},"properties":{"osm_id":12289380520,"osm_type":"node","seamark_type":"distance_mark","display_class":"OTHER","min_zoom":12,"importance":1,"name":null,"ref":null,"common":{"type":"distance_mark"},"children":{"distance_mark":{"category":"not_installed","distance":"478","units":"kilometres"}},"osm_tags":{"seamark:distance_mark:category":"not_installed","seamark:distance_mark:distance":"478","seamark:distance_mark:units":"kilometres","seamark:type":"distance_mark"}}},{"type":"Feature","geometry":{"type":"Point","coordinates":[26.0855416,43.9493297]},"properties":{"osm_id":12289380521,"osm_type":"node","seamark_type":"distance_mark","display_class":"OTHER","min_zoom":12,"importance":1,"name":null,"ref":null,"common":{"type":"distance_mark"},"children":{"distance_mark":{"category":"not_installed","distance":"479","units":"kilometres"}},"osm_tags":{"seamark:distance_mark:category":"not_installed","seamark:distance_mark:distance":"479","seamark:distance_mark:units":"kilometres","seamark:type":"distance_mark"}}},{"type":"Feature","geometry":{"type":"Point","coordinates":[26.0823308,43.94045]},"properties":{"osm_id":12289380522,"osm_type":"node","seamark_type":"distance_mark","display_class":"OTHER","min_zoom":12,"importance":1,"name":null,"ref":null,"common":{"type":"distance_mark"},"children":{"distance_mark":{"category":"not_installed","distance":"480","units":"kilometres"}},"osm_tags":{"seamark:distance_mark:category":"not_installed","seamark:distance_mark:distance":"480","seamark:distance_mark:units":"kilometres","seamark:type":"distance_mark"}}},{"type":"Feature","geometry":{"type":"Point","coordinates":[26.0762544,43.932995]},"properties":{"osm_id":12289380523,"osm_type":"node","seamark_type":"distance_mark","display_class":"OTHER","min_zoom":12,"importance":1,"name":null,"ref":null,"common":{"type":"distance_mark"},"children":{"distance_mark":{"category":"not_installed","distance":"481","units":"kilometres"}},"osm_tags":{"seamark:distance_mark:category":"not_installed","seamark:distance_mark:distance":"481","seamark:distance_mark:units":"kilometres","seamark:type":"distance_mark"}}},{"type":"Feature","geometry":{"type":"Point","coordinates":[26.0707577,43.9243119]},"properties":{"osm_id":12289380524,"osm_type":"node","seamark_type":"distance_mark","display_class":"OTHER","min_zoom":12,"importance":1,"name":null,"ref":null,"common":{"type":"distance_mark"},"children":{"distance_mark":{"category":"not_installed","distance":"482","units":"kilometres"}},"osm_tags":{"seamark:distance_mark:category":"not_installed","seamark:distance_mark:distance":"482","seamark:distance_mark:units":"kilometres","seamark:type":"distance_mark"}}},{"type":"Feature","geometry":{"type":"Point","coordinates":[26.0667487,43.9167982]},"properties":{"osm_id":12289380525,"osm_type":"node","seamark_type":"distance_mark","display_class":"OTHER","min_zoom":12,"importance":1,"name":null,"ref":null,"common":{"type":"distance_mark"},"children":{"distance_mark":{"category":"not_installed","distance":"483","units":"kilometres"}},"osm_tags":{"seamark:distance_mark:category":"not_installed","seamark:distance_mark:distance":"483","seamark:distance_mark:units":"kilometres","seamark:type":"distance_mark"}}},{"type":"Feature","geometry":{"type":"Point","coordinates":[26.061524,43.9109753]},"properties":{"osm_id":12289380526,"osm_type":"node","seamark_type":"distance_mark","display_class":"OTHER","min_zoom":12,"importance":1,"name":null,"ref":null,"common":{"type":"distance_mark"},"children":{"distance_mark":{"category":"not_installed","distance":"484","units":"kilometres"}},"osm_tags":{"seamark:distance_mark:category":"not_installed","seamark:distance_mark:distance":"484","seamark:distance_mark:units":"kilometres","seamark:type":"distance_mark"}}},{"type":"Feature","geometry":{"type":"Point","coordinates":[26.0518095,43.9042536]},"properties":{"osm_id":12289380527,"osm_type":"node","seamark_type":"distance_mark","display_class":"OTHER","min_zoom":12,"importance":1,"name":null,"ref":null,"common":{"type":"distance_mark"},"children":{"distance_mark":{"category":"not_installed","distance":"485","units":"kilometres"}},"osm_tags":{"seamark:distance_mark:category":"not_installed","seamark:distance_mark:distance":"485","seamark:distance_mark:units":"kilometres","seamark:type":"distance_mark"}}},{"type":"Feature","geometry":{"type":"Point","coordinates":[26.0382236,43.8981978]},"properties":{"osm_id":12289380528,"osm_type":"node","seamark_type":"distance_mark","display_class":"OTHER","min_zoom":12,"importance":1,"name":null,"ref":null,"common":{"type":"distance_mark"},"children":{"distance_mark":{"category":"not_installed","distance":"486","units":"kilometres"}},"osm_tags":{"seamark:distance_mark:category":"not_installed","seamark:distance_mark:distance":"486","seamark:distance_mark:units":"kilometres","seamark:type":"distance_mark"}}},{"type":"Feature","geometry":{"type":"Point","coordinates":[26.025487,43.893369]},"properties":{"osm_id":12289380529,"osm_type":"node","seamark_type":"distance_mark","display_class":"OTHER","min_zoom":12,"importance":1,"name":null,"ref":null,"common":{"type":"distance_mark"},"children":{"distance_mark":{"category":"not_installed","distance":"487","units":"kilometres"}},"osm_tags":{"seamark:distance_mark:category":"not_installed","seamark:distance_mark:distance":"487","seamark:distance_mark:units":"kilometres","seamark:type":"distance_mark"}}},{"type":"Feature","geometry":{"type":"Point","coordinates":[26.0133811,43.8898013]},"properties":{"osm_id":12289380530,"osm_type":"node","seamark_type":"distance_mark","display_class":"OTHER","min_zoom":12,"importance":1,"name":null,"ref":null,"common":{"type":"distance_mark"},"children":{"distance_mark":{"category":"not_installed","distance":"488","units":"kilometres"}},"osm_tags":{"seamark:distance_mark:category":"not_installed","seamark:distance_mark:distance":"488","seamark:distance_mark:units":"kilometres","seamark:type":"distance_mark"}}},{"type":"Feature","geometry":{"type":"Point","coordinates":[26.00307,43.887294]},"properties":{"osm_id":12289380531,"osm_type":"node","seamark_type":"distance_mark","display_class":"OTHER","min_zoom":12,"importance":1,"name":null,"ref":null,"common":{"type":"distance_mark"},"children":{"distance_mark":{"category":"not_installed","distance":"489","units":"kilometres"}},"osm_tags":{"seamark:distance_mark:category":"not_installed","seamark:distance_mark:distance":"489","seamark:distance_mark:units":"kilometres","seamark:type":"distance_mark"}}}],"type":"FeatureCollection"}