{"type":"FeatureCollection","features":[{"type":"Feature","geometry":{"type":"Point","coordinates":[28.6663834,43.99067]},"properties":{"osm_id":1578780551,"osm_type":"node","seamark_type":"light_major","display_class":"LIGHTHOUSE","min_zoom":7,"importance":5,"name":"Capul Tuzla","ref":null,"common":{"name":"Capul Tuzla","type":"light_major"},"children":{"fog_signal":{"category":"horn","group":"1","period":"30"},"light":{"1:character":"Fl","1:colour":"white","1:group":"2","1:height":"62","1:period":"9.7","1:range":"20","1:sector_end":"14","1:sector_start":"191","1:sequence":"0.2+(2.3),0.2+(7)","reference":"E 5022"}},"osm_tags":{"seamark:fog_signal:category":"horn","seamark:fog_signal:group":"1","seamark:fog_signal:period":"30","seamark:light:1:character":"Fl","seamark:light:1:colour":"white","seamark:light:1:group":"2","seamark:light:1:height":"62","seamark:light:1:period":"9.7","seamark:light:1:range":"20","seamark:light:1:sector_end":"14","seamark:light:1:sector_start":"191","seamark:light:1:sequence":"0.2+(2.3),0.2+(7)","seamark:light:reference":"E 5022","seamark:name":"Capul Tuzla","seamark:type":"light_major","source":"US NGA Pub. 113. 2011-10-20."}}},{"type":"Feature","geometry":{"type":"Point","coordinates":[28.5586707,43.8108875]},"properties":{"osm_id":1578780849,"osm_type":"node","seamark_type":"light_major","display_class":"LIGHTHOUSE","min_zoom":7,"importance":5,"name":"Mangalia","ref":null,"common":{"name":"Mangalia","type":"light_major"},"children":{"light":{"character":"Fl","colour":"white","group":"2","height":"72","period":"5.5","range":"22","reference":"E 5018","sequence":"0.1+(1.3)+0.1+(4)"}},"osm_tags":{"man_made":"lighthouse","name":"Farul Mangalia","seamark:light:character":"Fl","seamark:light:colour":"white","seamark:light:group":"2","seamark:light:height":"72","seamark:light:period":"5.5","seamark:light:range":"22","seamark:light:reference":"E 5018","seamark:light:sequence":"0.1+(1.3)+0.1+(4)","seamark:name":"Mangalia","seamark:type":"light_major","source":"US NGA Pub. 113. 2011-10-20."}}},{"type":"Feature","geometry":{"type":"Point","coordinates":[28.4655278,43.3620543]},"properties":{"osm_id":1018898690,"osm_type":"node","seamark_type":"light_major","display_class":"LIGHTHOUSE","min_zoom":7,"importance":5,"name":"Nos Kaliakra","ref":null,"common":{"name":"Nos Kaliakra","type":"light_major"},"children":{"light":{"character":"Fl","colour":"white","height":"68","period":"5","range":"21","reference":"E 5012","sequence":"0.5+(4.5)"}},"osm_tags":{"man_made":"lighthouse","name":"Фар Нос Калиакра","name:en":"Lighthouse Cape Kaliakra","name:ro":"Farul Cap Caliacra","seamark:light:character":"Fl","seamark:light:colour":"white","seamark:light:height":"68","seamark:light:period":"5","seamark:light:range":"21","seamark:light:reference":"E 5012","seamark:light:sequence":"0.5+(4.5)","seamark:name":"Nos Kaliakra","seamark:type":"light_major","wikidata":"Q23585806"}}},{"type":"Feature","geometry":{"type":"Point","coordinates":[28.6069834,43.5401767]},"properties":{"osm_id":9031362149,"osm_type":"node","seamark_type":"light_major","display_class":"LIGHTHOUSE","min_zoom":7,"importance":5,"name":"Nos Shabla","ref":null,"common":{"name":"Nos Shabla","type":"light_major"},"children":{"light":{"character":"Fl","colour":"white","group":"3","height":"36","period":"20","range":"17","reference":"N 5016","sequence":"0.5+(0.5)+0.5+(2.5)+1+(15)"}},"osm_tags":{"height":"32","man_made":"lighthouse","name":"Фар Шабла","name:de":"Leuchtturm Schabla","name:en":"Lighthouse Nos Shabla","panoramax":"720dc76a-e78b-4352-aee6-5ff83c5a8780","seamark:light:character":"Fl","seamark:light:colour":"white","seamark:light:group":"3","seamark:light:height":"36","seamark:light:period":"20","seamark:light:range":"17","seamark:light:reference":"N 5016","seamark:light:sequence":"0.5+(0.5)+0.5+(2.5)+1+(15)","seamark:name":"Nos Shabla","seamark:type":"light_major","start_date":"1756","wikidata":"Q21014964","wikipedia":"de:Leuchtturm Schabla"}}},{"type":"Feature","geometry":{"type":"Point","coordinates":[28.6068635,43.8101955]},"properties":{"osm_id":13959101031,"osm_type":"node","seamark_type":"beacon_special_purpose","display_class":"BEACON","min_zoom":9,"importance":4,"name":null,"ref":null,"common":{"type":"beacon_special_purpose"},"children":{"beacon_special_purpose":{"category":"odas","colour":"yellow"},"light":{"character":"Fl","colour":"yellow","height":"8","period":"3","range":"6","reference":"N 5021"},"topmark":{"colour":"yellow","shape":"x-shape"}},"osm_tags":{"seamark:beacon_special_purpose:category":"odas","seamark:beacon_special_purpose:colour":"yellow","seamark:light:character":"Fl","seamark:light:colour":"yellow","seamark:light:height":"8","seamark:light:period":"3","seamark:light:range":"6","seamark:light:reference":"N 5021","seamark:topmark:colour":"yellow","seamark:topmark:shape":"x-shape","seamark:type":"beacon_special_purpose"}}},{"type":"Feature","geometry":{"type":"Point","coordinates":[28.5868545,43.8052035]},"properties":{"osm_id":1578780692,"osm_type":"node","seamark_type":"light_minor","display_class":"OTHER","min_zoom":12,"importance":1,"name":null,"ref":null,"common":{"type":"light_minor"},"children":{"fog_signal":{"category":"horn","group":"M","period":"17"},"light":{"character":"Fl","colour":"white","height":"23","period":"4","range":"10","reference":"E 5019","sequence":"1.5+(2.5)"}},"osm_tags":{"man_made":"tower","seamark:fog_signal:category":"horn","seamark:fog_signal:group":"M","seamark:fog_signal:period":"17","seamark:light:character":"Fl","seamark:light:colour":"white","seamark:light:height":"23","seamark:light:period":"4","seamark:light:range":"10","seamark:light:reference":"E 5019","seamark:light:sequence":"1.5+(2.5)","seamark:type":"light_minor","source":"US NGA Pub. 113. 2011-10-20."}}},{"type":"Feature","geometry":{"type":"Point","coordinates":[28.6023227,43.5404466]},"properties":{"osm_id":2681690818,"osm_type":"node","seamark_type":"radio_station","display_class":"OTHER","min_zoom":12,"importance":1,"name":null,"ref":null,"common":{"type":"radio_station"},"children":{},"osm_tags":{"seamark:type":"radio_station"}}},{"type":"Feature","geometry":{"type":"Point","coordinates":[28.6039814,43.5445341]},"properties":{"osm_id":2681691415,"osm_type":"node","seamark_type":"radio_station","display_class":"OTHER","min_zoom":12,"importance":1,"name":null,"ref":null,"common":{"type":"radio_station"},"children":{},"osm_tags":{"seamark:type":"radio_station"}}},{"type":"Feature","geometry":{"type":"Point","coordinates":[28.5986649,43.5138441]},"properties":{"osm_id":9464306823,"osm_type":"node","seamark_type":"wreck","display_class":"OTHER","min_zoom":12,"importance":1,"name":null,"ref":null,"common":{"type":"wreck"},"children":{},"osm_tags":{"historic":"wreck","seamark:type":"wreck"}}},{"type":"Feature","geometry":{"type":"LineString","coordinates":[[28.0227823,43.147241],[28.0257292,43.1481426],[28.0278946,43.1492323],[28.0305329,43.1505073],[28.033104,43.1519049],[28.0357759,43.1535722],[28.0378932,43.1550923],[28.0403803,43.1571027],[28.0425144,43.1589537],[28.044531,43.1610253],[28.0462786,43.1631091],[28.0478918,43.1652786],[28.0493538,43.1676318],[28.0505133,43.169887],[28.0515888,43.172191],[28.0523114,43.1744215],[28.0528323,43.1764067],[28.053034,43.177767]]},"properties":{"osm_id":153641172,"osm_type":"way","seamark_type":"separation_boundary","display_class":"OTHER","min_zoom":12,"importance":1,"name":null,"ref":null,"common":{"type":"separation_boundary"},"children":{},"osm_tags":{"seamark:type":"separation_boundary"}}},{"type":"Feature","geometry":{"type":"LineString","coordinates":[[28.0620574,43.2237674],[28.0320116,43.214762]]},"properties":{"osm_id":153641179,"osm_type":"way","seamark_type":"separation_boundary","display_class":"OTHER","min_zoom":12,"importance":1,"name":null,"ref":null,"common":{"type":"separation_boundary"},"children":{},"osm_tags":{"seamark:type":"separation_boundary"}}},{"type":"Feature","geometry":{"type":"LineString","coordinates":[[28.0508998,43.1951411],[28.0499252,43.197334],[28.0489673,43.1989633],[28.0474045,43.2013642]]},"properties":{"osm_id":153641189,"osm_type":"way","seamark_type":"separation_boundary","display_class":"OTHER","min_zoom":12,"importance":1,"name":null,"ref":null,"common":{"type":"separation_boundary"},"children":{},"osm_tags":{"seamark:type":"separation_boundary"}}},{"type":"Feature","geometry":{"type":"LineString","coordinates":[[28.0320116,43.214762],[28.0292548,43.2162168],[28.0264506,43.2174638],[28.0232423,43.2187454],[28.0196538,43.219975],[28.0164693,43.2208409],[28.0132848,43.2215509],[28.0107992,43.2222257]]},"properties":{"osm_id":153641191,"osm_type":"way","seamark_type":"separation_boundary","display_class":"OTHER","min_zoom":12,"importance":1,"name":null,"ref":null,"common":{"type":"separation_boundary"},"children":{},"osm_tags":{"seamark:type":"separation_boundary"}}},{"type":"Feature","geometry":{"type":"Polygon","coordinates":[[[28.6477391,43.9613355],[28.6476395,43.96124],[28.6496525,43.9584872],[28.6498232,43.9585672],[28.6477391,43.9613355]]]},"properties":{"osm_id":1410596185,"osm_type":"way","seamark_type":"shoreline_construction","display_class":"OTHER","min_zoom":12,"importance":1,"name":null,"ref":null,"common":{"type":"shoreline_construction"},"children":{},"osm_tags":{"area":"yes","man_made":"breakwater","material":"concrete","seamark:type":"shoreline_construction"}}},{"type":"Feature","geometry":{"type":"Polygon","coordinates":[[[28.6385858,43.9408052],[28.6423919,43.9407836],[28.642456,43.9407509],[28.6424992,43.9406789],[28.6424457,43.9406169],[28.6386121,43.9406315],[28.6385858,43.9408052]]]},"properties":{"osm_id":1410859416,"osm_type":"way","seamark_type":"shoreline_construction","display_class":"OTHER","min_zoom":12,"importance":1,"name":null,"ref":null,"common":{"type":"shoreline_construction"},"children":{},"osm_tags":{"area":"yes","man_made":"breakwater","material":"concrete","seamark:type":"shoreline_construction"}}},{"type":"Feature","geometry":{"type":"Polygon","coordinates":[[[28.6404692,43.9549149],[28.6427358,43.9543435],[28.6427665,43.9542953],[28.6427524,43.9542506],[28.6426921,43.9542227],[28.6404093,43.9548039],[28.6404692,43.9549149]]]},"properties":{"osm_id":1410867704,"osm_type":"way","seamark_type":"shoreline_construction","display_class":"OTHER","min_zoom":12,"importance":1,"name":null,"ref":null,"common":{"type":"shoreline_construction"},"children":{},"osm_tags":{"area":"yes","man_made":"breakwater","material":"concrete","seamark:type":"shoreline_construction"}}},{"type":"Feature","geometry":{"type":"Point","coordinates":[28.1777761,43.4063901]},"properties":{"osm_id":1578788998,"osm_type":"node","seamark_type":"light_minor","display_class":"OTHER","min_zoom":12,"importance":1,"name":"Balcik","ref":null,"common":{"name":"Balcik","type":"light_minor"},"children":{"light":{"character":"F","colour":"white","height":"202","range":"5","reference":"E 5009.5"}},"osm_tags":{"man_made":"tower","name":"Балчишки светещ знак","seamark:light:character":"F","seamark:light:colour":"white","seamark:light:height":"202","seamark:light:range":"5","seamark:light:reference":"E 5009.5","seamark:name":"Balcik","seamark:type":"light_minor","source":"US NGA Pub. 113. 2011-10-20, corrected","tower:type":"lighting"}}},{"type":"Feature","geometry":{"type":"Point","coordinates":[28.1638882,43.4005042]},"properties":{"osm_id":1578788729,"osm_type":"node","seamark_type":"light_minor","display_class":"OTHER","min_zoom":12,"importance":1,"name":"Bukhta Balchik","ref":null,"common":{"name":"Bukhta Balchik","type":"light_minor"},"children":{"light":{"character":"LFl","colour":"red","height":"10","period":"5.5","range":"8","reference":"E 5010","sequence":"2.5+(3)"}},"osm_tags":{"man_made":"lighthouse","name":"Балчишка навигационна светлина - вълнолома","seamark:light:character":"LFl","seamark:light:colour":"red","seamark:light:height":"10","seamark:light:period":"5.5","seamark:light:range":"8","seamark:light:reference":"E 5010","seamark:light:sequence":"2.5+(3)","seamark:name":"Bukhta Balchik","seamark:type":"light_minor","source":"US NGA Pub. 113. 2011-10-20."}}},{"type":"Feature","geometry":{"type":"Polygon","coordinates":[[[28.6501112,43.9611464],[28.6501473,43.9610049],[28.650923,43.960344],[28.6510861,43.9602451],[28.6511994,43.9602075],[28.6512566,43.9602486],[28.6512184,43.9603514],[28.6510831,43.9604777],[28.6502848,43.9610977],[28.6501112,43.9611464]]]},"properties":{"osm_id":31137490,"osm_type":"way","seamark_type":"wreck","display_class":"OTHER","min_zoom":12,"importance":1,"name":"Epava Evangelia","ref":null,"common":{"type":"wreck"},"children":{"wreck":{"category":"hull_showing"}},"osm_tags":{"access":"private","building":"yes","description":"MV E Evangelia is a shipwrecked refrigerated cargo ship. She was built in Northern Ireland in 1942 as the Empire ship Empire Strength, was operated by Blue Star Line from 1942 to 1961, was bought by Greek shipowners in 1965 and wrecked in 1968. ","historic":"wreck","is_in:city":"Costinești","name":"Epava Evangelia","seamark:type":"wreck","seamark:wreck:category":"hull_showing","source":"bing","tourism":"attraction","wikidata":"Q3061337","wikipedia":"en:MV E Evangelia","wreck:date_sunk":"15 October 1968","wreck:visible_at_high_tide":"yes","wreck:visible_at_low_tide":"yes"}}},{"type":"Feature","geometry":{"type":"Point","coordinates":[28.0535623,43.3000777]},"properties":{"osm_id":1603244178,"osm_type":"node","seamark_type":"light_minor","display_class":"OTHER","min_zoom":12,"importance":1,"name":"Euxinograd. Zlatni Piasatzi","ref":null,"common":{"name":"Euxinograd. Zlatni Piasatzi","type":"light_minor"},"children":{"light":{"character":"Fl","colour":"white","height":"12","period":"5","range":"5","reference":"E 5008.9"}},"osm_tags":{"height":"10","man_made":"lighthouse","name":"Навигационна светлина Златни пясъци","seamark:light:character":"Fl","seamark:light:colour":"white","seamark:light:height":"12","seamark:light:period":"5","seamark:light:range":"5","seamark:light:reference":"E 5008.9","seamark:name":"Euxinograd. Zlatni Piasatzi","seamark:type":"light_minor"}}},{"type":"Feature","geometry":{"type":"Point","coordinates":[28.6077765,43.7965148]},"properties":{"osm_id":1578780645,"osm_type":"node","seamark_type":"light_minor","display_class":"OTHER","min_zoom":12,"importance":1,"name":"Green","ref":null,"common":{"type":"light_minor"},"children":{"light":{"character":"Fl","colour":"green","height":"15","period":"3","range":"5","reference":"E 5019.5","sequence":"1+(2)"}},"osm_tags":{"man_made":"beacon","name":"Green","seamark:light:character":"Fl","seamark:light:colour":"green","seamark:light:height":"15","seamark:light:period":"3","seamark:light:range":"5","seamark:light:reference":"E 5019.5","seamark:light:sequence":"1+(2)","seamark:type":"light_minor","source":"US NGA Pub. 113. 2011-10-20."}}},{"type":"Feature","geometry":{"type":"Point","coordinates":[28.356226,43.4110598]},"properties":{"osm_id":1578788536,"osm_type":"node","seamark_type":"light_minor","display_class":"OTHER","min_zoom":12,"importance":1,"name":"Kavarna","ref":null,"common":{"name":"Kavarna","type":"light_minor"},"children":{"light":{"character":"Fl","colour":"white","height":"12","period":"5","range":"5","reference":"E 5011"}},"osm_tags":{"man_made":"lighthouse","name":"Каварненска навигационна светлина","name:de":"Leuchtturm Kawarna","seamark:light:character":"Fl","seamark:light:colour":"white","seamark:light:height":"12","seamark:light:period":"5","seamark:light:range":"5","seamark:light:reference":"E 5011","seamark:name":"Kavarna","seamark:type":"light_minor","source":"US NGA Pub. 113. 2011-10-20 (corrected)"}}},{"type":"Feature","geometry":{"type":"Point","coordinates":[28.0301052,43.2476175]},"properties":{"osm_id":1578789137,"osm_type":"node","seamark_type":"light_minor","display_class":"OTHER","min_zoom":12,"importance":1,"name":"Nos Kavaklar","ref":null,"common":{"name":"Nos Kavaklar","type":"light_minor"},"children":{"light":{"character":"Fl","colour":"white","period":"7","reference":"E 5008.7"}},"osm_tags":{"seamark:light:character":"Fl","seamark:light:colour":"white","seamark:light:period":"7","seamark:light:reference":"E 5008.7","seamark:name":"Nos Kavaklar","seamark:type":"light_minor","source":"US NGA Pub. 113. 2011-10-20."}}},{"type":"Feature","geometry":{"type":"Point","coordinates":[28.6027307,43.7945794]},"properties":{"osm_id":1578780587,"osm_type":"node","seamark_type":"light_minor","display_class":"OTHER","min_zoom":12,"importance":1,"name":"Red","ref":null,"common":{"type":"light_minor"},"children":{"light":{"character":"Fl","colour":"red","height":"15","period":"3","range":"5","reference":"E 5020","sequence":"1+(2)"}},"osm_tags":{"man_made":"beacon","name":"Red","seamark:light:character":"Fl","seamark:light:colour":"red","seamark:light:height":"15","seamark:light:period":"3","seamark:light:range":"5","seamark:light:reference":"E 5020","seamark:light:sequence":"1+(2)","seamark:type":"light_minor","source":"US NGA Pub. 113. 2011-10-20."}}},{"type":"Feature","geometry":{"type":"Point","coordinates":[28.5783477,43.6362154]},"properties":{"osm_id":1603134078,"osm_type":"node","seamark_type":"light_minor","display_class":"OTHER","min_zoom":12,"importance":1,"name":"Крапецки навигационен знак","ref":null,"common":{"type":"light_minor"},"children":{"light":{"status":"not in use"}},"osm_tags":{"man_made":"lighthouse","name":"Крапецки навигационен знак","seamark:light:status":"not in use","seamark:type":"light_minor"}}},{"type":"Feature","geometry":{"type":"Point","coordinates":[28.5708024,43.6986107]},"properties":{"osm_id":8744931527,"osm_type":"node","seamark_type":"harbour","display_class":"OTHER","min_zoom":12,"importance":1,"name":"Пристанище Дуранкулак","ref":null,"common":{"type":"harbour"},"children":{"harbour":{"category":"marina"}},"osm_tags":{"leisure":"marina","name":"Пристанище Дуранкулак","seamark:harbour:category":"marina","seamark:type":"harbour"}}},{"type":"Feature","geometry":{"type":"Point","coordinates":[28.5849645,43.4945145]},"properties":{"osm_id":9019694564,"osm_type":"node","seamark_type":"harbour","display_class":"OTHER","min_zoom":12,"importance":1,"name":"Тюленово","ref":null,"common":{"type":"harbour"},"children":{"harbour":{"category":"fishing"}},"osm_tags":{"harbour":"yes","harbour:category":"fishing","name":"Тюленово","seamark:harbour:category":"fishing","seamark:type":"harbour"}}},{"type":"Feature","geometry":{"type":"Point","coordinates":[28.060559,43.320427]},"properties":{"osm_id":1018914830,"osm_type":"node","seamark_type":"landmark","display_class":"OTHER","min_zoom":12,"importance":1,"name":"Фар Екрене","ref":null,"common":{"type":"landmark"},"children":{"landmark":{"category":"tower","height":"14.6"},"light":{"height":"94.3","status":"not in use"}},"osm_tags":{"man_made":"lighthouse","name":"Фар Екрене","name:bg":"Фар Екрене","name:en":"Lighthouse Ekrene","seamark:landmark:category":"tower","seamark:landmark:height":"14.6","seamark:light:height":"94.3","seamark:light:status":"not in use","seamark:type":"landmark"}}}],"type":"FeatureCollection"}