{"type":"FeatureCollection","features":[{"type":"Feature","geometry":{"type":"Polygon","coordinates":[[[-69.8023607,43.8165417],[-69.8023671,43.816546],[-69.8023753,43.8165484],[-69.8023841,43.8165488],[-69.8023925,43.8165469],[-69.8023991,43.8165435],[-69.8024047,43.8165372],[-69.8024112,43.8165364],[-69.8024319,43.8165341],[-69.8024282,43.8165169],[-69.802401,43.81652],[-69.8023924,43.8165138],[-69.8023846,43.8165121],[-69.8023765,43.8165122],[-69.8023689,43.8165141],[-69.802362,43.8165181],[-69.8023573,43.8165235],[-69.8023554,43.8165297],[-69.8023566,43.816536],[-69.8023607,43.8165417]]]},"properties":{"osm_id":1054422489,"osm_type":"way","seamark_type":"light_minor","display_class":"LIGHTHOUSE","min_zoom":7,"importance":5,"name":"SQUIRREL POINT LIGHT","ref":null,"common":{"name":"SQUIRREL POINT LIGHT","reference":"LLNR 6100","type":"light_minor"},"children":{"light":{"1:character":"Iso","1:colour":"red","1:period":"06","1:range":"07","1:sector_end":"320","1:sector_start":"325","2:character":"Iso","2:colour":"white","2:period":"06","2:range":"09","2:sector_end":"321","2:sector_start":"324","character":"Iso","colour":"red","height":"7.6","period":"06","range":"07"}},"osm_tags":{"building":"yes","heritage":"2","heritage:operator":"nrhp","heritage:website":"https://www.nps.gov/subjects/nationalregister/index.htm","historic":"maritime","man_made":"lighthouse","name":"Squirrel Point Lighthouse","nrhp:criteria":"(A), (C)","nrhp:inscription_date":"1988-01-21","operator":"U.S. Coast Guard","protection_title":"U.S. Coast Guard","ref:nrhp":"87002281","seamark:light:1:character":"Iso","seamark:light:1:colour":"red","seamark:light:1:period":"06","seamark:light:1:range":"07","seamark:light:1:sector_end":"320","seamark:light:1:sector_start":"325","seamark:light:2:character":"Iso","seamark:light:2:colour":"white","seamark:light:2:period":"06","seamark:light:2:range":"09","seamark:light:2:sector_end":"321","seamark:light:2:sector_start":"324","seamark:light:character":"Iso","seamark:light:colour":"red","seamark:light:height":"7.6","seamark:light:period":"06","seamark:light:range":"07","seamark:name":"SQUIRREL POINT LIGHT","seamark:reference":"LLNR 6100","seamark:type":"light_minor","source_ref":"https://catalog.archives.gov/id/88685070","start_date":"1898","wikidata":"Q7582336","wikipedia":"en:Squirrel Point Light"}}},{"type":"Feature","geometry":{"type":"Point","coordinates":[-69.5560211,43.8477394]},"properties":{"osm_id":8326306225,"osm_type":"node","seamark_type":"harbour","display_class":"OTHER","min_zoom":12,"importance":1,"name":null,"ref":null,"common":{"type":"harbour"},"children":{"harbour":{"category":"marina"}},"osm_tags":{"leisure":"marina","seamark:harbour:category":"marina","seamark:type":"harbour"}}},{"type":"Feature","geometry":{"type":"Point","coordinates":[-69.781383,43.7644181]},"properties":{"osm_id":8406154571,"osm_type":"node","seamark_type":"wreck","display_class":"OTHER","min_zoom":12,"importance":1,"name":null,"ref":null,"common":{"type":"wreck"},"children":{},"osm_tags":{"historic":"wreck","seamark:type":"wreck"}}},{"type":"Feature","geometry":{"type":"Point","coordinates":[-69.9166256,43.8304538]},"properties":{"osm_id":13376538057,"osm_type":"node","seamark_type":"harbour","display_class":"OTHER","min_zoom":12,"importance":1,"name":null,"ref":null,"common":{"type":"harbour"},"children":{"harbour":{"category":"marina"}},"osm_tags":{"leisure":"marina","seamark:harbour:category":"marina","seamark:type":"harbour"}}},{"type":"Feature","geometry":{"type":"Polygon","coordinates":[[[-69.7846725,43.7550309],[-69.7847562,43.7549962],[-69.7848454,43.755098],[-69.784778,43.755199],[-69.7846825,43.755278],[-69.7845299,43.7553258],[-69.7843697,43.7553492],[-69.7841389,43.7553605],[-69.7840946,43.7552823],[-69.7840656,43.7552311],[-69.7840429,43.7552233],[-69.7840309,43.7551939],[-69.7840635,43.755192],[-69.78417,43.7552417],[-69.7842549,43.755201],[-69.7843189,43.7552583],[-69.7844616,43.7552726],[-69.7845437,43.7552262],[-69.7845428,43.7551398],[-69.7846725,43.7550309]]]},"properties":{"osm_id":1035487323,"osm_type":"way","seamark_type":"obstruction","display_class":"OTHER","min_zoom":12,"importance":1,"name":null,"ref":null,"common":{"type":"obstruction"},"children":{"obstruction":{"category":"reef"},"rock":{"water_level":"submerged"}},"osm_tags":{"area":"yes","natural":"reef","reef":"rock","seamark:obstruction:category":"reef","seamark:rock:water_level":"submerged","seamark:type":"obstruction"}}},{"type":"Feature","geometry":{"type":"Polygon","coordinates":[[[-69.7839995,43.7553978],[-69.7838675,43.7554405],[-69.7837073,43.7554238],[-69.7830711,43.755258],[-69.7829725,43.755199],[-69.782897,43.7550232],[-69.7829109,43.7548908],[-69.7829116,43.7546646],[-69.7830377,43.7545036],[-69.7831883,43.7546215],[-69.7833191,43.7545325],[-69.7834223,43.7544134],[-69.783795,43.7543788],[-69.7837566,43.7544784],[-69.7837582,43.7545938],[-69.7836375,43.754603],[-69.783389,43.7548559],[-69.7833439,43.7549257],[-69.7833218,43.7549901],[-69.7833171,43.7550586],[-69.7833405,43.7551183],[-69.7833934,43.7551981],[-69.783507,43.7552593],[-69.7839995,43.7553978]]]},"properties":{"osm_id":1035487324,"osm_type":"way","seamark_type":"obstruction","display_class":"OTHER","min_zoom":12,"importance":1,"name":null,"ref":null,"common":{"type":"obstruction"},"children":{"obstruction":{"category":"reef"},"rock":{"water_level":"submerged"}},"osm_tags":{"area":"yes","natural":"reef","reef":"rock","seamark:obstruction:category":"reef","seamark:rock:water_level":"submerged","seamark:type":"obstruction"}}},{"type":"Feature","geometry":{"type":"Polygon","coordinates":[[[-69.7846146,43.7528182],[-69.7845398,43.7529245],[-69.784799,43.7530645],[-69.7853081,43.7538302],[-69.7853734,43.7538235],[-69.7848994,43.7530695],[-69.7848084,43.7529346],[-69.7846146,43.7528182]]]},"properties":{"osm_id":1035487326,"osm_type":"way","seamark_type":"obstruction","display_class":"OTHER","min_zoom":12,"importance":1,"name":null,"ref":null,"common":{"type":"obstruction"},"children":{"obstruction":{"category":"foul_area"}},"osm_tags":{"area":"yes","natural":"reef","reef":"pilings","seamark:obstruction:category":"foul_area","seamark:type":"obstruction"}}},{"type":"Feature","geometry":{"type":"Polygon","coordinates":[[[-69.7883971,43.754252],[-69.7883154,43.7548625],[-69.788222,43.7555895],[-69.7880422,43.7557665],[-69.7880982,43.7558289],[-69.7883901,43.7556569],[-69.7883808,43.7556029],[-69.7883341,43.7555642],[-69.7884181,43.7548153],[-69.7884998,43.7542554],[-69.7883971,43.754252]]]},"properties":{"osm_id":1035487327,"osm_type":"way","seamark_type":"obstruction","display_class":"OTHER","min_zoom":12,"importance":1,"name":null,"ref":null,"common":{"type":"obstruction"},"children":{"obstruction":{"category":"foul_area"}},"osm_tags":{"area":"yes","natural":"reef","reef":"pilings","seamark:obstruction:category":"foul_area","seamark:type":"obstruction"}}},{"type":"Feature","geometry":{"type":"Polygon","coordinates":[[[-69.7814281,43.7506287],[-69.7812859,43.7507021],[-69.7816111,43.751009],[-69.7815664,43.7510413],[-69.7816213,43.7510751],[-69.7816851,43.7510362],[-69.7817635,43.7509884],[-69.781729,43.7509356],[-69.781603,43.7508945],[-69.7814444,43.7507535],[-69.7815054,43.7507006],[-69.7814281,43.7506287]]]},"properties":{"osm_id":1035487328,"osm_type":"way","seamark_type":"obstruction","display_class":"OTHER","min_zoom":12,"importance":1,"name":null,"ref":null,"common":{"type":"obstruction"},"children":{"obstruction":{"category":"foul_area"}},"osm_tags":{"area":"yes","natural":"reef","reef":"pilings","seamark:obstruction:category":"foul_area","seamark:type":"obstruction"}}},{"type":"Feature","geometry":{"type":"Polygon","coordinates":[[[-69.7898565,43.7534181],[-69.7897993,43.7537825],[-69.7895197,43.7537518],[-69.789318,43.753964],[-69.7892614,43.753849],[-69.7885924,43.7538669],[-69.7884998,43.7542554],[-69.7883971,43.754252],[-69.7883907,43.7540714],[-69.7883093,43.7538209],[-69.7881642,43.7535678],[-69.7877749,43.7533045],[-69.7876262,43.7529363],[-69.7878699,43.7525688],[-69.7878747,43.7528885],[-69.78794,43.7531897],[-69.7879804,43.7532736],[-69.7879955,43.7532999],[-69.7880155,43.7533429],[-69.7880738,43.7533981],[-69.7881852,43.753372],[-69.7881945,43.7533235],[-69.7883159,43.7533787],[-69.7884395,43.7534711],[-69.7884979,43.7536214],[-69.7887585,43.7536422],[-69.7890581,43.7535848],[-69.7895009,43.7535779],[-69.7898565,43.7534181]]]},"properties":{"osm_id":1035487329,"osm_type":"way","seamark_type":"obstruction","display_class":"OTHER","min_zoom":12,"importance":1,"name":null,"ref":null,"common":{"type":"obstruction"},"children":{"obstruction":{"category":"reef"},"rock":{"water_level":"submerged"}},"osm_tags":{"area":"yes","natural":"reef","reef":"rock","seamark:obstruction:category":"reef","seamark:rock:water_level":"submerged","seamark:type":"obstruction"}}},{"type":"Feature","geometry":{"type":"Polygon","coordinates":[[[-69.7920297,43.7520967],[-69.7923015,43.7523228],[-69.791983,43.7524659],[-69.7918556,43.7524941],[-69.7918237,43.7526551],[-69.7915901,43.752696],[-69.7913282,43.7528264],[-69.7913344,43.7523632],[-69.79171,43.7523316],[-69.7919762,43.7522477],[-69.7920297,43.7520967]]]},"properties":{"osm_id":1035487330,"osm_type":"way","seamark_type":"obstruction","display_class":"OTHER","min_zoom":12,"importance":1,"name":null,"ref":null,"common":{"type":"obstruction"},"children":{"obstruction":{"category":"reef"},"rock":{"water_level":"submerged"}},"osm_tags":{"area":"yes","natural":"reef","reef":"rock","seamark:obstruction:category":"reef","seamark:rock:water_level":"submerged","seamark:type":"obstruction"}}},{"type":"Feature","geometry":{"type":"Polygon","coordinates":[[[-69.7837738,43.7539106],[-69.7837475,43.7538315],[-69.7837131,43.7536679],[-69.7837857,43.7536788],[-69.7837931,43.7536799],[-69.7838488,43.7538035],[-69.7837738,43.7539106]]]},"properties":{"osm_id":1035487331,"osm_type":"way","seamark_type":"obstruction","display_class":"OTHER","min_zoom":12,"importance":1,"name":null,"ref":null,"common":{"type":"obstruction"},"children":{"obstruction":{"category":"reef"},"rock":{"water_level":"submerged"}},"osm_tags":{"area":"yes","natural":"reef","reef":"rock","seamark:obstruction:category":"reef","seamark:rock:water_level":"submerged","seamark:type":"obstruction"}}},{"type":"Feature","geometry":{"type":"Polygon","coordinates":[[[-69.7836382,43.7537071],[-69.7837131,43.7536679],[-69.7836714,43.7537395],[-69.7835529,43.7537663],[-69.7834909,43.7538315],[-69.7833228,43.7539005],[-69.7832662,43.7538609],[-69.783291,43.753705],[-69.7833777,43.7535337],[-69.783521,43.7535324],[-69.7835739,43.7535715],[-69.7835597,43.7536643],[-69.7836382,43.7537071]]]},"properties":{"osm_id":1035487332,"osm_type":"way","seamark_type":"obstruction","display_class":"OTHER","min_zoom":12,"importance":1,"name":null,"ref":null,"common":{"type":"obstruction"},"children":{"obstruction":{"category":"reef"},"rock":{"water_level":"submerged"}},"osm_tags":{"area":"yes","natural":"reef","reef":"rock","seamark:obstruction:category":"reef","seamark:rock:water_level":"submerged","seamark:type":"obstruction"}}},{"type":"Feature","geometry":{"type":"Polygon","coordinates":[[[-69.8106332,43.925374],[-69.8106439,43.9253001],[-69.810709,43.9250328],[-69.8107789,43.9249551],[-69.8106996,43.9249944],[-69.8106097,43.925076],[-69.8105034,43.9251542],[-69.8104929,43.9251701],[-69.8104849,43.9252398],[-69.8104698,43.9253147],[-69.8105682,43.9253247],[-69.8105599,43.9253664],[-69.8106332,43.925374]]]},"properties":{"osm_id":1051024606,"osm_type":"way","seamark_type":"obstruction","display_class":"OTHER","min_zoom":12,"importance":1,"name":null,"ref":null,"common":{"type":"obstruction"},"children":{"obstruction":{"category":"foul_area","water_level":"submerged"}},"osm_tags":{"area":"yes","natural":"reef","reef":"debris","seamark:obstruction:category":"foul_area","seamark:obstruction:water_level":"submerged","seamark:type":"obstruction"}}},{"type":"Feature","geometry":{"type":"Polygon","coordinates":[[[-69.8110127,43.9284796],[-69.8112709,43.9285045],[-69.8112852,43.9284752],[-69.811214,43.9283347],[-69.8109466,43.9282604],[-69.8109737,43.9283829],[-69.8110127,43.9284796]]]},"properties":{"osm_id":1051024624,"osm_type":"way","seamark_type":"small_craft_facility","display_class":"OTHER","min_zoom":12,"importance":1,"name":null,"ref":null,"common":{"type":"small_craft_facility"},"children":{"small_craft_facility":{"category":"boat_trailers_park"}},"osm_tags":{"amenity":"parking","seamark:small_craft_facility:category":"boat_trailers_park","seamark:type":"small_craft_facility"}}},{"type":"Feature","geometry":{"type":"Polygon","coordinates":[[[-69.8115489,43.92858],[-69.8113217,43.9284093],[-69.8113116,43.9280755],[-69.8115203,43.9281929],[-69.8115783,43.9283193],[-69.8117358,43.9283334],[-69.8117209,43.9285941],[-69.8115489,43.92858]]]},"properties":{"osm_id":1051024625,"osm_type":"way","seamark_type":"small_craft_facility","display_class":"OTHER","min_zoom":12,"importance":1,"name":null,"ref":null,"common":{"type":"small_craft_facility"},"children":{"small_craft_facility":{"category":"boat_trailers_park"}},"osm_tags":{"amenity":"parking","seamark:small_craft_facility:category":"boat_trailers_park","seamark:type":"small_craft_facility"}}},{"type":"Feature","geometry":{"type":"Polygon","coordinates":[[[-69.810905,43.928178],[-69.8109375,43.9281508],[-69.8110144,43.9280765],[-69.811104,43.9280115],[-69.8112333,43.9279616],[-69.8109477,43.9279321],[-69.8106936,43.9281224],[-69.8107516,43.9281643],[-69.810905,43.928178]]]},"properties":{"osm_id":1051024626,"osm_type":"way","seamark_type":"small_craft_facility","display_class":"OTHER","min_zoom":12,"importance":1,"name":null,"ref":null,"common":{"type":"small_craft_facility"},"children":{"small_craft_facility":{"category":"boat_trailers_park"}},"osm_tags":{"amenity":"parking","seamark:small_craft_facility:category":"boat_trailers_park","seamark:type":"small_craft_facility"}}},{"type":"Feature","geometry":{"type":"Polygon","coordinates":[[[-69.6340068,43.8518893],[-69.6343961,43.8521203],[-69.6344422,43.852193],[-69.6344227,43.8522224],[-69.6343749,43.8522262],[-69.6343307,43.8522173],[-69.6339608,43.8520284],[-69.6338865,43.8519901],[-69.6338423,43.8519289],[-69.6338299,43.8518766],[-69.6338281,43.8518485],[-69.6338953,43.8518472],[-69.6339591,43.8518625],[-69.6340068,43.8518893]]]},"properties":{"osm_id":1193622286,"osm_type":"way","seamark_type":"wreck","display_class":"OTHER","min_zoom":12,"importance":1,"name":null,"ref":null,"common":{"type":"wreck"},"children":{},"osm_tags":{"historic":"wreck","seamark:type":"wreck"}}},{"type":"Feature","geometry":{"type":"Polygon","coordinates":[[[-69.6346297,43.8520603],[-69.6346545,43.8521024],[-69.6346899,43.8521445],[-69.6347448,43.8521905],[-69.6350244,43.8523041],[-69.6351571,43.8523474],[-69.6352491,43.8523602],[-69.635288,43.8523564],[-69.6352668,43.8523181],[-69.6352172,43.8522594],[-69.635081,43.8521994],[-69.6348792,43.852119],[-69.6347695,43.8520871],[-69.6346899,43.8520667],[-69.6346297,43.8520603]]]},"properties":{"osm_id":1193622287,"osm_type":"way","seamark_type":"wreck","display_class":"OTHER","min_zoom":12,"importance":1,"name":null,"ref":null,"common":{"type":"wreck"},"children":{},"osm_tags":{"historic":"wreck","seamark:type":"wreck"}}},{"type":"Feature","geometry":{"type":"Polygon","coordinates":[[[-69.6268761,43.8508333],[-69.6264441,43.8505137],[-69.6262621,43.8506338],[-69.626091,43.8507815],[-69.6259454,43.850961],[-69.6264517,43.8512138],[-69.6267073,43.8512418],[-69.6269516,43.8510179],[-69.62678,43.8509273],[-69.6268761,43.8508333]]]},"properties":{"osm_id":1136532324,"osm_type":"way","seamark_type":"harbour","display_class":"OTHER","min_zoom":12,"importance":1,"name":"Boothbay Harbor Marina","ref":null,"common":{"type":"harbour"},"children":{"harbour":{"category":"marina"}},"osm_tags":{"leisure":"marina","name":"Boothbay Harbor Marina","seamark:harbour:category":"marina","seamark:type":"harbour"}}},{"type":"Feature","geometry":{"type":"Polygon","coordinates":[[[-69.6268065,43.8448522],[-69.6256437,43.8454765],[-69.6251162,43.8449806],[-69.6252229,43.844928],[-69.6248746,43.8445752],[-69.6248443,43.8445427],[-69.6250388,43.8443926],[-69.6252422,43.8442227],[-69.6252468,43.8442063],[-69.6253188,43.844123],[-69.6253762,43.8440941],[-69.6254494,43.8440953],[-69.625753,43.8441469],[-69.6259743,43.844206],[-69.6259882,43.8442162],[-69.6260591,43.8442502],[-69.6261541,43.8443419],[-69.626258,43.8444495],[-69.6263221,43.8444539],[-69.6268065,43.8448522]]]},"properties":{"osm_id":1107987576,"osm_type":"way","seamark_type":"harbour","display_class":"OTHER","min_zoom":12,"importance":1,"name":"Brown's Wharf Marina","ref":null,"common":{"type":"harbour"},"children":{"harbour":{"category":"marina"}},"osm_tags":{"leisure":"marina","name":"Brown's Wharf Marina","seamark:harbour:category":"marina","seamark:type":"harbour"}}},{"type":"Feature","geometry":{"type":"Polygon","coordinates":[[[-69.6270915,43.8446],[-69.6270669,43.8445793],[-69.6270118,43.8446134],[-69.6270364,43.8446341],[-69.6270915,43.8446]]]},"properties":{"osm_id":1107539354,"osm_type":"way","seamark_type":"small_craft_facility","display_class":"OTHER","min_zoom":12,"importance":1,"name":"Carousel Fuel Dock","ref":null,"common":{"type":"small_craft_facility"},"children":{"small_craft_facility":{"category":"fuel_station"}},"osm_tags":{"addr:city":"Boothbay Harbor","addr:housenumber":"125","addr:postcode":"04538","addr:state":"ME","addr:street":"Atlantic Avenue","building":"yes","fuel:diesel":"yes","fuel:octane_89":"yes","name":"Carousel Fuel Dock","operator":"Carousel Marina","seamark:small_craft_facility:category":"fuel_station","seamark:type":"small_craft_facility","waterway":"fuel"}}},{"type":"Feature","geometry":{"type":"Polygon","coordinates":[[[-69.626449,43.8437824],[-69.6265027,43.8437569],[-69.6265498,43.8438233],[-69.6266574,43.8439548],[-69.6269248,43.8439491],[-69.6275466,43.8442858],[-69.6272749,43.8445554],[-69.6268065,43.8448522],[-69.6263221,43.8444539],[-69.626258,43.8444495],[-69.6261541,43.8443419],[-69.6260591,43.8442502],[-69.6259882,43.8442162],[-69.6259069,43.844106],[-69.6261585,43.8439515],[-69.626449,43.8437824]]]},"properties":{"osm_id":1107539355,"osm_type":"way","seamark_type":"harbour","display_class":"OTHER","min_zoom":12,"importance":1,"name":"Carousel Marina","ref":null,"common":{"type":"harbour"},"children":{"harbour":{"category":"marina"}},"osm_tags":{"leisure":"marina","name":"Carousel Marina","seamark:harbour:category":"marina","seamark:type":"harbour"}}},{"type":"Feature","geometry":{"type":"Polygon","coordinates":[[[-69.5528544,43.844144],[-69.5533177,43.8442282],[-69.5540681,43.8442218],[-69.5542246,43.8444005],[-69.5548423,43.8447908],[-69.5548061,43.8448423],[-69.5547133,43.8449422],[-69.5546276,43.8449886],[-69.5542566,43.8452809],[-69.553178,43.8453645],[-69.5527895,43.8452135],[-69.5525795,43.8451472],[-69.5527809,43.8448865],[-69.5528313,43.8447313],[-69.5528725,43.844223],[-69.5528544,43.844144]]]},"properties":{"osm_id":1393095443,"osm_type":"way","seamark_type":"harbour","display_class":"OTHER","min_zoom":12,"importance":1,"name":"Christmas Cove Yacht Club","ref":null,"common":{"type":"harbour"},"children":{"harbour":{"category":"marina"}},"osm_tags":{"leisure":"marina","name":"Christmas Cove Yacht Club","operator":"Christmas Cove Improvement Association","seamark:harbour:category":"marina","seamark:type":"harbour"}}},{"type":"Feature","geometry":{"type":"Polygon","coordinates":[[[-69.4143223,43.9848035],[-69.4144009,43.984788],[-69.4145037,43.9847212],[-69.414889,43.9843956],[-69.4150186,43.9842183],[-69.4147466,43.984325],[-69.4143788,43.9846514],[-69.4143193,43.984719],[-69.4143068,43.9847621],[-69.4143223,43.9848035]]]},"properties":{"osm_id":1304379293,"osm_type":"way","seamark_type":"wreck","display_class":"OTHER","min_zoom":12,"importance":1,"name":"Cora F. Cressey","ref":null,"common":{"type":"wreck"},"children":{"wreck":{"category":"hull_showing"}},"osm_tags":{"access":"yes","description":"1900s wooden hulled cargo schooner, sunk as breakwater","historic":"wreck","man_made":"breakwater","name":"Cora F. Cressey","seamark:type":"wreck","seamark:wreck:category":"hull_showing","wikidata":"Q5169397","wikipedia":"en:Cora F. Cressey","wreck:date_sunk":"after 1938","wreck:visible_at_high_tide":"yes","wreck:visible_at_low_tide":"yes"}}},{"type":"Feature","geometry":{"type":"Point","coordinates":[-69.3218633,43.7561135]},"properties":{"osm_id":5001767636,"osm_type":"node","seamark_type":"wreck","display_class":"OTHER","min_zoom":12,"importance":1,"name":"D. T. Sheridan","ref":null,"common":{"type":"wreck"},"children":{"wreck":{"category":"hull_showing","water_level":"dry"}},"osm_tags":{"access":"yes","historic":"wreck","name":"D. T. Sheridan","seamark:type":"wreck","seamark:wreck:category":"hull_showing","seamark:wreck:water_level":"dry","wreck:date_sunk":"1948-11-05","wreck:visible_at_high_tide":"yes","wreck:visible_at_low_tide":"yes"}}},{"type":"Feature","geometry":{"type":"Point","coordinates":[-69.7956311,43.8828709]},"properties":{"osm_id":7137499819,"osm_type":"node","seamark_type":"light_minor","display_class":"OTHER","min_zoom":12,"importance":1,"name":"DOUBLE POINT FRONT RANGE LIGHT","ref":null,"common":{"name":"DOUBLE POINT FRONT RANGE LIGHT","reference":"LLNR 6135","type":"light_minor"},"children":{"light":{"category":"front","character":"Q","colour":"white","height":"5.4"}},"osm_tags":{"heritage":"2","heritage:operator":"nrhp","heritage:website":"https://www.nps.gov/subjects/nationalregister/index.htm","historic":"lighthouse","man_made":"lighthouse","name":"Doubling Point Front Range Light","nrhp:criteria":"(A), (C)","nrhp:inscription_date":"1988-01-21","operator":"U.S. Coast Guard","protection_title":"U.S. Coast Guard","ref:nrhp":"87002263","seamark:light:category":"front","seamark:light:character":"Q","seamark:light:colour":"white","seamark:light:height":"5.4","seamark:name":"DOUBLE POINT FRONT RANGE LIGHT","seamark:reference":"LLNR 6135","seamark:type":"light_minor","source_ref":"https://catalog.archives.gov/id/88685066","start_date":"1898","wikidata":"Q5300172","wikipedia":"en:Doubling Point Range Lights"}}},{"type":"Feature","geometry":{"type":"Point","coordinates":[-69.8067589,43.8825175]},"properties":{"osm_id":6527750652,"osm_type":"node","seamark_type":"light_minor","display_class":"OTHER","min_zoom":12,"importance":1,"name":"DOUBLING POINT LIGHT","ref":null,"common":{"name":"DOUBLING POINT LIGHT","reference":"LLNR 6145","type":"light_minor"},"children":{"light":{"character":"Fl","colour":"white","height":"07","period":"04","range":"09"}},"osm_tags":{"alt_name":"Doubling Point Lighthouse","man_made":"lighthouse","name":"Doubling Point Light","operator":"U.S. Coast Guard","seamark:light:character":"Fl","seamark:light:colour":"white","seamark:light:height":"07","seamark:light:period":"04","seamark:light:range":"09","seamark:name":"DOUBLING POINT LIGHT","seamark:reference":"LLNR 6145","seamark:type":"light_minor","source":"Mapbox","wikidata":"Q5300171","wikipedia":"en:Doubling Point Light"}}},{"type":"Feature","geometry":{"type":"Polygon","coordinates":[[[-69.6155321,43.7548973],[-69.6156456,43.7547741],[-69.615669,43.7547854],[-69.6156648,43.7547904],[-69.6156699,43.7548058],[-69.6156883,43.754812],[-69.6157035,43.7548092],[-69.6157136,43.7547975],[-69.6157121,43.754784],[-69.6157188,43.7547872],[-69.6157522,43.7547505],[-69.6157842,43.7547657],[-69.615796,43.7547527],[-69.6157996,43.7547487],[-69.6158461,43.7547709],[-69.6158305,43.754788],[-69.6158542,43.7547993],[-69.6158475,43.7548065],[-69.6158778,43.754821],[-69.6158577,43.7548429],[-69.6158331,43.7548311],[-69.6157529,43.7549182],[-69.6156776,43.7548838],[-69.6156195,43.7549431],[-69.6155321,43.7548973]]]},"properties":{"osm_id":799007836,"osm_type":"way","seamark_type":"rescue_station","display_class":"OTHER","min_zoom":12,"importance":1,"name":"Damariscove Lifesaving Station","ref":null,"common":{"type":"rescue_station"},"children":{},"osm_tags":{"addr:city":"Boothbay","addr:postcode":"04544","addr:state":"ME","building":"yes","description":"Built 1897. Entered into the National Register of Historic Places June 25, 1987.","ele":"0","emergency":"water_rescue","gnis:feature_id":"1909765","heritage":"2","heritage:operator":"nrhp","heritage:website":"https://www.nps.gov/subjects/nationalregister/index.htm","historic":"maritime","name":"Damariscove Lifesaving Station","nrhp:criteria":"C","nrhp:inscription_date":"1987-06-25","ownership":"private","ref:nrhp":"87000924","seamark:type":"rescue_station","source_ref":"https://catalog.archives.gov/id/88686616","wikidata":"Q5212005","wikipedia":"en:Damariscove Lifesaving Station"}}},{"type":"Feature","geometry":{"type":"Polygon","coordinates":[[[-69.6351868,43.8500544],[-69.6351994,43.8497195],[-69.6353199,43.8495765],[-69.6361432,43.8500019],[-69.6361708,43.8502192],[-69.6360528,43.8518754],[-69.6357541,43.851861],[-69.6355508,43.8517632],[-69.6353751,43.851756],[-69.6353895,43.8514362],[-69.6356127,43.851319],[-69.6356162,43.851101],[-69.6356176,43.8510952],[-69.635631,43.85104],[-69.6356424,43.851009],[-69.6356477,43.8509946],[-69.6355483,43.8507423],[-69.6351868,43.8500544]]]},"properties":{"osm_id":1234513850,"osm_type":"way","seamark_type":"harbour","display_class":"OTHER","min_zoom":12,"importance":1,"name":"Hodgdon Marina","ref":null,"common":{"type":"harbour"},"children":{"harbour":{"category":"marina"}},"osm_tags":{"leisure":"marina","name":"Hodgdon Marina","operator":"Hodgdon Yacht Services","seamark:harbour:category":"marina","seamark:type":"harbour"}}},{"type":"Feature","geometry":{"type":"Polygon","coordinates":[[[-69.635904,43.8514677],[-69.6359356,43.8514685],[-69.6359336,43.8515079],[-69.6359019,43.8515071],[-69.635904,43.8514677]]]},"properties":{"osm_id":1374203646,"osm_type":"way","seamark_type":"small_craft_facility","display_class":"OTHER","min_zoom":12,"importance":1,"name":"Hodgdon Marina Fuel Dock","ref":null,"common":{"type":"small_craft_facility"},"children":{"small_craft_facility":{"category":"fuel_station"}},"osm_tags":{"addr:city":"Boothbay Harbor","addr:housenumber":"85","addr:postcode":"04538","addr:state":"ME","addr:street":"McFarland Point Drive","building":"yes","name":"Hodgdon Marina Fuel Dock","operator":"Hodgdon Yacht Services","seamark:small_craft_facility:category":"fuel_station","seamark:type":"small_craft_facility","waterway":"fuel"}}},{"type":"Feature","geometry":{"type":"Polygon","coordinates":[[[-69.3158194,43.7647883],[-69.3158363,43.7647883],[-69.3158515,43.7647936],[-69.315862,43.7648032],[-69.3158654,43.7648151],[-69.3158608,43.7648276],[-69.3158533,43.7648345],[-69.3158385,43.7648405],[-69.3158217,43.7648412],[-69.3158061,43.7648364],[-69.315795,43.7648272],[-69.3157907,43.7648154],[-69.315794,43.7648034],[-69.3158043,43.7647937],[-69.3158194,43.7647883]]]},"properties":{"osm_id":798889834,"osm_type":"way","seamark_type":"landmark","display_class":"OTHER","min_zoom":12,"importance":1,"name":"Monhegan Island Light","ref":null,"common":{"name":"Monhegan Island Light","status":"permanent","type":"landmark"},"children":{"landmark":{"category":"tower","conspicuity":"conspicuous","function":"light_support","height":"14.3","ref":"US000542572804438"},"light":{"character":"Fl","colour":"white","exhibition":"night","group":"1","height":"54.2","information":"Within 3 miles of island the light is obscured between west and southwest.","period":"15.0","range":"20.0","ref":"US004511953502005","sequence":"1.5+(13.5)"}},"osm_tags":{"building":"tower","building:colour":"white","building:material":"stone","fixme":"NOAA/USCG surveyed position is 43-45-53.318N, 069-18-56.991W, aproximately 2 feet SSW of center of mapped building. Map (and presumably imagery) of island is slightly offset. Please use surveyed position for calibration.","height":"14.3","heritage":"2","heritage:operator":"nrhp","heritage:website":"https://npgallery.nps.gov/AssetDetail/NRIS/80000239","historic":"heritage","man_made":"lighthouse","name":"Monhegan Island Light","nrhp:criteria":"(A)","nrhp:inscription_date":"1980-05-07","ref:nrhp":"80000239","seamark:landmark:category":"tower","seamark:landmark:conspicuity":"conspicuous","seamark:landmark:function":"light_support","seamark:landmark:height":"14.3","seamark:landmark:ref":"US000542572804438","seamark:light:character":"Fl","seamark:light:colour":"white","seamark:light:exhibition":"night","seamark:light:group":"1","seamark:light:height":"54.2","seamark:light:information":"Within 3 miles of island the light is obscured between west and southwest.","seamark:light:period":"15.0","seamark:light:range":"20.0","seamark:light:ref":"US004511953502005","seamark:light:sequence":"1.5+(13.5)","seamark:name":"Monhegan Island Light","seamark:status":"permanent","seamark:type":"landmark","source":"NOAA Electronic Navigation Chart US5ME19M","start_date":"1824","wikidata":"Q6899831","wikimedia_commons":"Category:Monhegan Island Light","wikipedia":"en:Monhegan Island Light"}}},{"type":"Feature","geometry":{"type":"Point","coordinates":[-69.1283333,43.2008333]},"properties":{"osm_id":7034624770,"osm_type":"node","seamark_type":"buoy_special_purpose","display_class":"OTHER","min_zoom":12,"importance":1,"name":"NOAA Data Lighted Buoy 44005 (ODAS)","ref":null,"common":{"information":"Boat shaped buoy","name":"NOAA Data Lighted Buoy 44005 (ODAS)","status":"private","type":"buoy_special_purpose"},"children":{"buoy_special_purpose":{"category":"odas","colour":"yellow","shape":"super-buoy"},"light":{"character":"Fl","colour":"yellow","exhibition":"night","group":"4","period":"20","sequence":"01.0+(01.5)+01.0+(01.5)+01.0+(01.5)+01.0+(11.5)"}},"osm_tags":{"man_made":"buoy","seamark:buoy_special_purpose:category":"odas","seamark:buoy_special_purpose:colour":"yellow","seamark:buoy_special_purpose:shape":"super-buoy","seamark:information":"Boat shaped buoy","seamark:light:character":"Fl","seamark:light:colour":"yellow","seamark:light:exhibition":"night","seamark:light:group":"4","seamark:light:period":"20","seamark:light:sequence":"01.0+(01.5)+01.0+(01.5)+01.0+(01.5)+01.0+(11.5)","seamark:name":"NOAA Data Lighted Buoy 44005 (ODAS)","seamark:status":"private","seamark:type":"buoy_special_purpose","website":"https://www.ndbc.noaa.gov/station_page.php?station=44005"}}},{"type":"Feature","geometry":{"type":"Point","coordinates":[-69.8113729,43.9290761]},"properties":{"osm_id":9658477574,"osm_type":"node","seamark_type":"small_craft_facility","display_class":"OTHER","min_zoom":12,"importance":1,"name":"North End Boat Launch","ref":null,"common":{"type":"small_craft_facility"},"children":{"small_craft_facility":{"category":"slipway"}},"osm_tags":{"access":"yes","addr:city":"Bath","addr:housenumber":"15","addr:postcode":"04530","addr:state":"ME","addr:street":"Town Landing Road","leisure":"slipway","name":"North End Boat Launch","seamark:small_craft_facility:category":"slipway","seamark:type":"small_craft_facility","source":"https://www.maine.gov/dacf/parks/water_activities/boating/public_boat_launches/boat_sites.shtml","tidal":"yes"}}},{"type":"Feature","geometry":{"type":"Polygon","coordinates":[[[-69.5840686,43.8654469],[-69.5845008,43.8654261],[-69.5845742,43.8654205],[-69.5848325,43.8654073],[-69.5848425,43.8654065],[-69.5848432,43.8654141],[-69.5848515,43.8654913],[-69.5848311,43.8654924],[-69.584719,43.865499],[-69.5845324,43.8655091],[-69.5845405,43.8655871],[-69.584542,43.8656221],[-69.584985,43.8656229],[-69.5849075,43.8658801],[-69.5846244,43.8670683],[-69.5844933,43.8670567],[-69.5844655,43.866971],[-69.583944,43.8668971],[-69.5838179,43.8670085],[-69.5837196,43.8670672],[-69.5836287,43.8669411],[-69.5836566,43.8668971],[-69.5836888,43.8667593],[-69.5836047,43.8666509],[-69.5827921,43.8666601],[-69.582681,43.8654985],[-69.5840625,43.8654015],[-69.5840686,43.8654469]]]},"properties":{"osm_id":1246898044,"osm_type":"way","seamark_type":"harbour","display_class":"OTHER","min_zoom":12,"importance":1,"name":"Ocean Point Marina","ref":null,"common":{"type":"harbour"},"children":{"harbour":{"category":"marina"}},"osm_tags":{"leisure":"marina","name":"Ocean Point Marina","seamark:harbour:category":"marina","seamark:type":"harbour"}}},{"type":"Feature","geometry":{"type":"Point","coordinates":[-69.3157518,43.8409367]},"properties":{"osm_id":4343393849,"osm_type":"node","seamark_type":"buoy_lateral","display_class":"OTHER","min_zoom":12,"importance":1,"name":"Old Man Ledge","ref":null,"common":{"type":"buoy_lateral"},"children":{"buoy_lateral":{"category":"starboard","colour":"red","shape":"pillar","system":"iala-b"},"fog_signal":{"category":"whistle"},"light":{"character":"Fl","colour":"red","period":"4"}},"osm_tags":{"man_made":"buoy","name":"Old Man Ledge","seamark:buoy_lateral:category":"starboard","seamark:buoy_lateral:colour":"red","seamark:buoy_lateral:shape":"pillar","seamark:buoy_lateral:system":"iala-b","seamark:fog_signal:category":"whistle","seamark:light:character":"Fl","seamark:light:colour":"red","seamark:light:period":"4","seamark:type":"buoy_lateral"}}},{"type":"Feature","geometry":{"type":"Point","coordinates":[-69.2565212,43.8888384]},"properties":{"osm_id":13016418560,"osm_type":"node","seamark_type":"wreck","display_class":"OTHER","min_zoom":12,"importance":1,"name":"SS Polias","ref":null,"common":{"type":"wreck"},"children":{"wreck":{"category":"dangerous"}},"osm_tags":{"access":"yes","historic":"wreck","name":"SS Polias","seamark:type":"wreck","seamark:wreck:category":"dangerous","wreck:date_sunk":"1920-02-06","wreck:visible_at_high_tide":"no","wreck:visible_at_low_tide":"yes"}}},{"type":"Feature","geometry":{"type":"Polygon","coordinates":[[[-69.9172523,43.8319886],[-69.9161322,43.8318648],[-69.9157741,43.8317897],[-69.9157916,43.8296718],[-69.9175024,43.8297721],[-69.9172523,43.8319886]]]},"properties":{"osm_id":1458556512,"osm_type":"way","seamark_type":"harbour","display_class":"OTHER","min_zoom":12,"importance":1,"name":"Safe Harbor Great Island","ref":null,"common":{"type":"harbour"},"children":{"harbour":{"category":"marina"}},"osm_tags":{"addr:city":"Harpswell","addr:housenumber":"419","addr:postcode":"04079","addr:state":"ME","addr:street":"Harpswell Islands Road","capacity":"0","leisure":"marina","name":"Safe Harbor Great Island","operator":"Safe Harbor","payment:cash":"yes","payment:credit_cards":"yes","payment:debit_cards":"yes","phone":"+1-207-729-1639","power_supply":"yes","sanitary_dump_station":"yes","seamark:harbour:category":"marina","seamark:type":"harbour","website":"https://shmarinas.com/locations/safe-harbor-great-island/"}}},{"type":"Feature","geometry":{"type":"Polygon","coordinates":[[[-69.7580779,43.7075267],[-69.7580451,43.7075562],[-69.7580477,43.7075629],[-69.7580549,43.7075698],[-69.7580678,43.7075753],[-69.7580797,43.7075765],[-69.7580906,43.7075749],[-69.7581009,43.7075704],[-69.7581085,43.7075637],[-69.7581121,43.707557],[-69.7581127,43.7075484],[-69.7581091,43.7075401],[-69.7581019,43.7075332],[-69.7580916,43.7075284],[-69.7580799,43.7075265],[-69.7580779,43.7075267]]]},"properties":{"osm_id":1217645105,"osm_type":"way","seamark_type":"landmark","display_class":"OTHER","min_zoom":12,"importance":1,"name":"Seguin Light","ref":null,"common":{"name":"Seguin Light","status":"permanent","type":"landmark"},"children":{"fog_signal":{"category":"horn","group":"2","information":"MRASS","period":"20.0","reference":"US000338360704263","sequence":"2.0+(2.0)+2.0+(14.0)"},"landmark":{"category":"tower","conspicuity":"conspicuous","function":"light_support","reference":"US000338368004263"},"light":{"1:character":"F","1:colour":"white","1:exhibition":"night","1:height":"54.8","1:range":"14.0","1:reference":"US000338361904263","1:sector_end":"160","1:sector_start":"340"}},"osm_tags":{"building:material":"brick","building:part":"tower","fixme":"NOAA/USCG surveyed position (of actual tower) is 43-42-26.936N, 069-45-28.911W, aproximately 28 feet SSW of center of mapped outline. Map (and presumably imagery) of island is slightly offset. Please use surveyed position for calibration.","height":"16","man_made":"lighthouse","name":"Seguin Light","seamark:fog_signal:category":"horn","seamark:fog_signal:group":"2","seamark:fog_signal:information":"MRASS","seamark:fog_signal:period":"20.0","seamark:fog_signal:reference":"US000338360704263","seamark:fog_signal:sequence":"2.0+(2.0)+2.0+(14.0)","seamark:landmark:category":"tower","seamark:landmark:conspicuity":"conspicuous","seamark:landmark:function":"light_support","seamark:landmark:reference":"US000338368004263","seamark:light:1:character":"F","seamark:light:1:colour":"white","seamark:light:1:exhibition":"night","seamark:light:1:height":"54.8","seamark:light:1:range":"14.0","seamark:light:1:reference":"US000338361904263","seamark:light:1:sector_end":"160","seamark:light:1:sector_start":"340","seamark:name":"Seguin Light","seamark:status":"permanent","seamark:type":"landmark","source":"NOAA Electronic Navigation Chart US5ME1HO"}}},{"type":"Feature","geometry":{"type":"Polygon","coordinates":[[[-69.678256,43.8295593],[-69.6782284,43.8295582],[-69.6782324,43.8295066],[-69.67826,43.8295077],[-69.678256,43.8295593]]]},"properties":{"osm_id":1118980288,"osm_type":"way","seamark_type":"small_craft_facility","display_class":"OTHER","min_zoom":12,"importance":1,"name":"Southport Boatyard Fuel Dock","ref":null,"common":{"type":"small_craft_facility"},"children":{"small_craft_facility":{"category":"fuel_station"}},"osm_tags":{"addr:city":"Southport","addr:housenumber":"100","addr:postcode":"04576","addr:state":"ME","addr:street":"Ebenecook Road","building":"yes","name":"Southport Boatyard Fuel Dock","operator":"Hodgdon Yacht Services","seamark:small_craft_facility:category":"fuel_station","seamark:type":"small_craft_facility","waterway":"fuel"}}},{"type":"Feature","geometry":{"type":"Polygon","coordinates":[[[-69.6294265,43.8496688],[-69.6294478,43.849642],[-69.6294762,43.8495793],[-69.62954,43.8494128],[-69.6295885,43.8493521],[-69.6291565,43.849118],[-69.6288066,43.8488902],[-69.6282354,43.8493807],[-69.6283084,43.8494159],[-69.6284576,43.849458],[-69.6291178,43.8496102],[-69.6293907,43.8496587],[-69.6294265,43.8496688]]]},"properties":{"osm_id":1169763747,"osm_type":"way","seamark_type":"harbour","display_class":"OTHER","min_zoom":12,"importance":1,"name":"Tugboat Marina","ref":null,"common":{"type":"harbour"},"children":{"harbour":{"category":"marina"}},"osm_tags":{"leisure":"marina","name":"Tugboat Marina","seamark:harbour:category":"marina","seamark:type":"harbour"}}},{"type":"Feature","geometry":{"type":"Polygon","coordinates":[[[-69.892296,43.7919315],[-69.8921807,43.7919326],[-69.892182,43.7919984],[-69.8922973,43.7919973],[-69.892296,43.7919315]]]},"properties":{"osm_id":1201152802,"osm_type":"way","seamark_type":"small_craft_facility","display_class":"OTHER","min_zoom":12,"importance":1,"name":"Watson's Gas","ref":null,"common":{"type":"small_craft_facility"},"children":{"small_craft_facility":{"category":"fuel_station"}},"osm_tags":{"building":"yes","name":"Watson's Gas","seamark:small_craft_facility:category":"fuel_station","seamark:type":"small_craft_facility","source":"microsoft/BuildingFootprints","waterway":"fuel"}}},{"type":"Feature","geometry":{"type":"Point","coordinates":[-69.35475,43.7151111]},"properties":{"osm_id":11282532211,"osm_type":"node","seamark_type":"buoy_special_purpose","display_class":"OTHER","min_zoom":12,"importance":1,"name":"Y \"E\"","ref":null,"common":{"name":"Y \"E\"","status":"private","type":"buoy_special_purpose"},"children":{"buoy_special_purpose":{"category":"warning","colour":"yellow","ref":"US019614271804516","shape":"pillar"},"light":{"character":"Fl","colour":"yellow","exhibition":"night","group":"1","period":"4.0","ref":"US019614237904516","sequence":"0.4+(3.6)"}},"osm_tags":{"man_made":"buoy","name":"University of Maine Research Lighted Buoy E","seamark:buoy_special_purpose:category":"warning","seamark:buoy_special_purpose:colour":"yellow","seamark:buoy_special_purpose:ref":"US019614271804516","seamark:buoy_special_purpose:shape":"pillar","seamark:light:character":"Fl","seamark:light:colour":"yellow","seamark:light:exhibition":"night","seamark:light:group":"1","seamark:light:period":"4.0","seamark:light:ref":"US019614237904516","seamark:light:sequence":"0.4+(3.6)","seamark:name":"Y \"E\"","seamark:status":"private","seamark:type":"buoy_special_purpose","source":"NOAA Electronic Navigation Chart US4ME04M","source:position":"USCG List of Lights, vol. 1 (2023, corr. through week 42)"}}}],"type":"FeatureCollection"}