{"type":"FeatureCollection","features":[{"type":"Feature","geometry":{"type":"Point","coordinates":[-68.8548212,43.7835498]},"properties":{"osm_id":9689446167,"osm_type":"node","seamark_type":"fog_signal","display_class":"OTHER","min_zoom":12,"importance":1,"name":null,"ref":null,"common":{"reference":"LLNR 10","type":"fog_signal"},"children":{"fog_signal":{"category":"horn","period":"15"}},"osm_tags":{"emergency":"siren","image":"https://marinas.com/view/lighthouse/ypa54_Matinicus_Island_LIghthouse_ME_United_States#&gid=1&pid=1","operator":"U.S. Coast Guard","seamark:fog_signal:category":"horn","seamark:fog_signal:period":"15","seamark:reference":"LLNR 10","seamark:type":"fog_signal"}}},{"type":"Feature","geometry":{"type":"Polygon","coordinates":[[[-68.8553486,43.7840388],[-68.8553406,43.7840424],[-68.8553314,43.7840439],[-68.855322,43.7840433],[-68.8553134,43.7840406],[-68.8553064,43.784036],[-68.8553017,43.7840301],[-68.8552998,43.7840235],[-68.855301,43.7840167],[-68.8553051,43.7840104],[-68.8553086,43.7840076],[-68.8553101,43.7840064],[-68.8553165,43.7840034],[-68.8553255,43.7840015],[-68.855335,43.7840017],[-68.8553438,43.784004],[-68.8553512,43.7840082],[-68.8553563,43.7840139],[-68.8553588,43.7840205],[-68.8553582,43.7840273],[-68.8553547,43.7840336],[-68.8553486,43.7840388]]]},"properties":{"osm_id":1054363327,"osm_type":"way","seamark_type":"landmark","display_class":"OTHER","min_zoom":12,"importance":1,"name":null,"ref":null,"common":{"type":"landmark"},"children":{"landmark":{"category":"tower"}},"osm_tags":{"building":"yes","heritage":"2","heritage:operator":"nrhp","heritage:website":"https://www.nps.gov/subjects/nationalregister/index.htm","historic":"lighthouse","image":"https://marinas.com/view/lighthouse/ypa54_Matinicus_Island_LIghthouse_ME_United_States#&gid=1&pid=1","man_made":"tower","nrhp:criteria":"(A), (C)","nrhp:inscription_date":"1988-03-14","protection_title":"U.S. Fish and Wildlife Service","ref:nrhp":"88000149","seamark:landmark:category":"tower","seamark:type":"landmark","source_ref":"https://catalog.archives.gov/id/88684974","start_date":"1857"}}},{"type":"Feature","geometry":{"type":"Polygon","coordinates":[[[-68.6157795,43.328051],[-68.7657795,43.328051],[-68.9157795,43.328051],[-68.9157795,43.5114003],[-68.7657795,43.5114003],[-68.6157795,43.5114003],[-68.6157795,43.328051]]]},"properties":{"osm_id":1435783207,"osm_type":"way","seamark_type":"protected_area","display_class":"OTHER","min_zoom":12,"importance":1,"name":"Jeffreys Bank Habitat Management Area","ref":null,"common":{"type":"protected_area"},"children":{},"osm_tags":{"boundary":"protected_area","fishing":"restriction","leisure":"nature_reserve","maritime":"yes","name":"Jeffreys Bank Habitat Management Area","operator":"National Oceanic and Atmospheric Administration","operator:short":"NOAA","protection_title":"Habitat Management Area","seamark:type":"protected_area","source":"NEFMC Omnibus Essential Fish Habitat Amendment 2 - https://www.fisheries.noaa.gov/new-england-mid-atlantic/commercial-fishing/northeast-multispecies-closed-area-regulations-gulf"}}},{"type":"Feature","geometry":{"type":"Point","coordinates":[-68.8550358,43.7834828]},"properties":{"osm_id":11282250693,"osm_type":"node","seamark_type":"landmark","display_class":"OTHER","min_zoom":12,"importance":1,"name":"Matinicus Rock Light","ref":null,"common":{"name":"Matinicus Rock Light","status":"permanent","type":"landmark"},"children":{"fog_signal":{"category":"horn","group":"1","information":"MRASS","period":"15.0","ref":"US011440671804464","sequence":"2.0+(13.0)"},"landmark":{"category":"tower","colour":"grey","conspicuity":"conspicuous","construction":"masonry","function":"light_support","height":"27.4","information":"Cylindrical, granite","ref":"US000070137700001"},"light":{"character":"Fl","colour":"white","exhibition":"night","group":"1","height":"27.4","period":"10.0","range":"20.0","ref":"US011440674004464","sequence":"1.0+(9.0)"}},"osm_tags":{"architect":"Alexander Parris, US Army Corps of Engineers","building":"tower","building:architecture":"other","building:material":"stone","fixme":"NOAA/USCG surveyed position of Matinicus Rock Light is ~60 feet SSW of mapped location of island. Imagery (and OSM) is apparently offset from actual location. Please use light as calibration point when fixing.","height":"27.4","heritage":"2","heritage:operator":"nrhp","heritage:website":"https://npgallery.nps.gov/AssetDetail/NRIS/88000149","historic":"heritage","image":"https://marinas.com/view/lighthouse/ypa54_Matinicus_Island_LIghthouse_ME_United_States#&gid=1&pid=1","man_made":"lighthouse","name":"Matinicus Rock Light Station","note":"Tags moved onto node located at surveyed position given by NOAA/USCG list of lights.","nrhp:criteria":"(A),(C)","nrhp:inscription_date":"1988-03-14","operator":"U.S. Coast Guard","ref:nrhp":"88000149","seamark:fog_signal:category":"horn","seamark:fog_signal:group":"1","seamark:fog_signal:information":"MRASS","seamark:fog_signal:period":"15.0","seamark:fog_signal:ref":"US011440671804464","seamark:fog_signal:sequence":"2.0+(13.0)","seamark:landmark:category":"tower","seamark:landmark:colour":"grey","seamark:landmark:conspicuity":"conspicuous","seamark:landmark:construction":"masonry","seamark:landmark:function":"light_support","seamark:landmark:height":"27.4","seamark:landmark:information":"Cylindrical, granite","seamark:landmark:ref":"US000070137700001","seamark:light:character":"Fl","seamark:light:colour":"white","seamark:light:exhibition":"night","seamark:light:group":"1","seamark:light:height":"27.4","seamark:light:period":"10.0","seamark:light:range":"20.0","seamark:light:ref":"US011440674004464","seamark:light:sequence":"1.0+(9.0)","seamark:name":"Matinicus Rock Light","seamark:status":"permanent","seamark:type":"landmark","source":"NOAA Electronic Navigation Chart US5ME21M","source:position":"USCG List of Lights, vol. 1 (2023, corr. through week 42)","start_date":"1857","wikidata":"Q6787581","wikimedia_commons":"Category:Matinicus Rock Light","wikipedia":"en:Matinicus Rock Light"}}},{"type":"Feature","geometry":{"type":"Point","coordinates":[-68.1283392,43.9686239]},"properties":{"osm_id":11282207864,"osm_type":"node","seamark_type":"landmark","display_class":"OTHER","min_zoom":12,"importance":1,"name":"Mount Desert Light","ref":null,"common":{"name":"Mount Desert Light","status":"permanent","type":"landmark"},"children":{"fog_signal":{"category":"horn","group":"2","information":"MRASS","period":"30","ref":"US003162173300050","sequence":"2.0+(2.0)+2.0+(24.0)"},"landmark":{"category":"tower","conspicuity":"conspicuous","construction":"masonry","function":"light_support","height":"22.8","information":"Conical","ref":"US003162173200050"},"light":{"character":"Fl","colour":"white","exhibition":"night","height":"22.8","period":"15.0","range":"14.0","ref":"US003162173400050","sequence":"1.5+(13.5)"}},"osm_tags":{"architect":"Alexander Parris, US Army Corps of Engineers","building":"tower","building:architecture":"other","building:material":"stone","fixme":"NOAA/USCG surveyed position of Mount Desert Rock Light is ~100 feet south of mapped location of island. Imagery (and OSM) is apparently offset from actual location. Please use light as calibration point when fixing.","height":"22.8","heritage":"2","heritage:operator":"nrhp","heritage:website":"https://npgallery.nps.gov/AssetDetail/c0a52af0-936e-4fb5-871c-6de8b9027d08/","historic":"heritage","man_made":"lighthouse","name":"Mount Desert Rock Light","note":"Tags moved onto node located at surveyed position given by NOAA/USCG list of lights.","nrhp:criteria":"(A),(C)","nrhp:inscription_date":"1988-03-14","ref:nrhp":"88000155","seamark:fog_signal:category":"horn","seamark:fog_signal:group":"2","seamark:fog_signal:information":"MRASS","seamark:fog_signal:period":"30","seamark:fog_signal:ref":"US003162173300050","seamark:fog_signal:sequence":"2.0+(2.0)+2.0+(24.0)","seamark:landmark:category":"tower","seamark:landmark:conspicuity":"conspicuous","seamark:landmark:construction":"masonry","seamark:landmark:function":"light_support","seamark:landmark:height":"22.8","seamark:landmark:information":"Conical","seamark:landmark:ref":"US003162173200050","seamark:light:character":"Fl","seamark:light:colour":"white","seamark:light:exhibition":"night","seamark:light:height":"22.8","seamark:light:period":"15.0","seamark:light:range":"14.0","seamark:light:ref":"US003162173400050","seamark:light:sequence":"1.5+(13.5)","seamark:name":"Mount Desert Light","seamark:status":"permanent","seamark:type":"landmark","source":"NOAA Electronic Navigation Chart US5ME31M","source:position":"USCG List of Lights, vol. 1 (2023, corr. through week 42)","start_date":"1847","wikidata":"Q15256757","wikipedia":"en:Mount Desert Light"}}},{"type":"Feature","geometry":{"type":"Polygon","coordinates":[[[-68.1891347,43.9346186],[-68.1981469,43.9485241],[-68.2180596,43.9485241],[-68.237114,43.8668987],[-68.201666,43.8752519],[-68.1891347,43.9346186]]]},"properties":{"osm_id":1421906515,"osm_type":"way","seamark_type":"protected_area","display_class":"OTHER","min_zoom":12,"importance":1,"name":"Mount Desert Rock Coral Protection Area","ref":null,"common":{"type":"protected_area"},"children":{},"osm_tags":{"boundary":"protected_area","fishing":"restriction","leisure":"nature_reserve","maritime":"yes","name":"Mount Desert Rock Coral Protection Area","note:fishing":"no fishing with bottom tending mobile gear allowed","operator":"National Oceanic and Atmospheric Administration","operator:short":"NOAA","protect_class":"4","protected_area":"wildlife","protection_title":"Coral Protection Area","seamark:type":"protected_area","website":"https://www.fisheries.noaa.gov/resource/map/omnibus-deep-sea-coral-amendment"}}}],"type":"FeatureCollection"}