{"type":"FeatureCollection","features":[{"type":"Feature","geometry":{"type":"Point","coordinates":[1.1321758,44.5058592]},"properties":{"osm_id":278703837,"osm_type":"node","seamark_type":"gate","display_class":"OTHER","min_zoom":12,"importance":1,"name":null,"ref":null,"common":{"type":"gate"},"children":{},"osm_tags":{"seamark:type":"gate","source":"cadastre-dgi-fr source : Direction Générale des Impôts - Cadastre. Mise à jour : 2009","waterway":"lock_gate"}}},{"type":"Feature","geometry":{"type":"Point","coordinates":[1.1645164,44.115231]},"properties":{"osm_id":1310622171,"osm_type":"node","seamark_type":"gate","display_class":"OTHER","min_zoom":12,"importance":1,"name":null,"ref":null,"common":{"type":"gate"},"children":{},"osm_tags":{"seamark:type":"gate","waterway":"lock_gate"}}},{"type":"Feature","geometry":{"type":"Point","coordinates":[1.6741485,44.4666085]},"properties":{"osm_id":1790100667,"osm_type":"node","seamark_type":"gate","display_class":"OTHER","min_zoom":12,"importance":1,"name":null,"ref":null,"common":{"type":"gate"},"children":{},"osm_tags":{"material":"metal","seamark:type":"gate","waterway":"lock_gate"}}},{"type":"Feature","geometry":{"type":"Point","coordinates":[1.6745167,44.4667567]},"properties":{"osm_id":1790100686,"osm_type":"node","seamark_type":"gate","display_class":"OTHER","min_zoom":12,"importance":1,"name":null,"ref":null,"common":{"type":"gate"},"children":{},"osm_tags":{"check_date":"2023-11-12","material":"metal","seamark:type":"gate","waterway":"lock_gate"}}},{"type":"Feature","geometry":{"type":"Point","coordinates":[1.3953088,44.4939674]},"properties":{"osm_id":1874895018,"osm_type":"node","seamark_type":"gate","display_class":"OTHER","min_zoom":12,"importance":1,"name":null,"ref":null,"common":{"type":"gate"},"children":{},"osm_tags":{"seamark:type":"gate","waterway":"lock_gate"}}},{"type":"Feature","geometry":{"type":"Point","coordinates":[1.1324198,44.5056171]},"properties":{"osm_id":2467448478,"osm_type":"node","seamark_type":"gate","display_class":"OTHER","min_zoom":12,"importance":1,"name":null,"ref":null,"common":{"type":"gate"},"children":{},"osm_tags":{"seamark:type":"gate","waterway":"lock_gate"}}},{"type":"Feature","geometry":{"type":"Point","coordinates":[1.1124457,44.5082369]},"properties":{"osm_id":2467448480,"osm_type":"node","seamark_type":"gate","display_class":"OTHER","min_zoom":12,"importance":1,"name":null,"ref":null,"common":{"type":"gate"},"children":{},"osm_tags":{"seamark:type":"gate","waterway":"lock_gate"}}},{"type":"Feature","geometry":{"type":"Point","coordinates":[1.4246643,44.4640394]},"properties":{"osm_id":2480529388,"osm_type":"node","seamark_type":"gate","display_class":"OTHER","min_zoom":12,"importance":1,"name":null,"ref":null,"common":{"type":"gate"},"children":{},"osm_tags":{"seamark:type":"gate","waterway":"lock_gate"}}},{"type":"Feature","geometry":{"type":"Point","coordinates":[1.3957244,44.4940705]},"properties":{"osm_id":2480529395,"osm_type":"node","seamark_type":"gate","display_class":"OTHER","min_zoom":12,"importance":1,"name":null,"ref":null,"common":{"type":"gate"},"children":{},"osm_tags":{"seamark:type":"gate","waterway":"lock_gate"}}},{"type":"Feature","geometry":{"type":"Point","coordinates":[1.1794409,44.4814729]},"properties":{"osm_id":9831184204,"osm_type":"node","seamark_type":"buoy_lateral","display_class":"OTHER","min_zoom":12,"importance":1,"name":null,"ref":null,"common":{"type":"buoy_lateral"},"children":{"buoy_lateral":{"category":"waterway_right","colour":"red"}},"osm_tags":{"seamark:buoy_lateral:category":"waterway_right","seamark:buoy_lateral:colour":"red","seamark:type":"buoy_lateral"}}},{"type":"Feature","geometry":{"type":"Point","coordinates":[1.1742205,44.5009285]},"properties":{"osm_id":9831184205,"osm_type":"node","seamark_type":"buoy_lateral","display_class":"OTHER","min_zoom":12,"importance":1,"name":null,"ref":null,"common":{"type":"buoy_lateral"},"children":{"buoy_lateral":{"colour":"red"}},"osm_tags":{"seamark:buoy_lateral:colour":"red","seamark:type":"buoy_lateral"}}},{"type":"Feature","geometry":{"type":"Point","coordinates":[1.1746454,44.5005989]},"properties":{"osm_id":9831184206,"osm_type":"node","seamark_type":"buoy_lateral","display_class":"OTHER","min_zoom":12,"importance":1,"name":null,"ref":null,"common":{"type":"buoy_lateral"},"children":{"buoy_lateral":{"colour":"red"}},"osm_tags":{"seamark:buoy_lateral:colour":"red","seamark:type":"buoy_lateral"}}},{"type":"Feature","geometry":{"type":"Point","coordinates":[1.1710772,44.5040022]},"properties":{"osm_id":9831184207,"osm_type":"node","seamark_type":"buoy_lateral","display_class":"OTHER","min_zoom":12,"importance":1,"name":null,"ref":null,"common":{"type":"buoy_lateral"},"children":{"buoy_lateral":{"colour":"red"}},"osm_tags":{"seamark:buoy_lateral:colour":"red","seamark:type":"buoy_lateral"}}},{"type":"Feature","geometry":{"type":"Point","coordinates":[1.1704637,44.5044312]},"properties":{"osm_id":9831184208,"osm_type":"node","seamark_type":"buoy_lateral","display_class":"OTHER","min_zoom":12,"importance":1,"name":null,"ref":null,"common":{"type":"buoy_lateral"},"children":{"buoy_lateral":{"colour":"red"}},"osm_tags":{"seamark:buoy_lateral:colour":"red","seamark:type":"buoy_lateral"}}},{"type":"Feature","geometry":{"type":"Point","coordinates":[1.1698976,44.5046828]},"properties":{"osm_id":9831184209,"osm_type":"node","seamark_type":"buoy_lateral","display_class":"OTHER","min_zoom":12,"importance":1,"name":null,"ref":null,"common":{"type":"buoy_lateral"},"children":{"buoy_lateral":{"colour":"red"}},"osm_tags":{"seamark:buoy_lateral:colour":"red","seamark:type":"buoy_lateral"}}},{"type":"Feature","geometry":{"type":"Point","coordinates":[1.0267782,44.4756754]},"properties":{"osm_id":9931573692,"osm_type":"node","seamark_type":"gate","display_class":"OTHER","min_zoom":12,"importance":1,"name":null,"ref":null,"common":{"type":"gate"},"children":{},"osm_tags":{"seamark:type":"gate","source":"Cadastre; Ortho HR 2019","waterway":"lock_gate"}}},{"type":"Feature","geometry":{"type":"Point","coordinates":[1.0262779,44.4756348]},"properties":{"osm_id":9931573695,"osm_type":"node","seamark_type":"gate","display_class":"OTHER","min_zoom":12,"importance":1,"name":null,"ref":null,"common":{"type":"gate"},"children":{},"osm_tags":{"seamark:type":"gate","source":"Cadastre; Ortho HR 2019","waterway":"lock_gate"}}},{"type":"Feature","geometry":{"type":"Point","coordinates":[1.1750382,44.5004177]},"properties":{"osm_id":9974772560,"osm_type":"node","seamark_type":"buoy_lateral","display_class":"OTHER","min_zoom":12,"importance":1,"name":null,"ref":null,"common":{"type":"buoy_lateral"},"children":{"buoy_lateral":{"colour":"red"}},"osm_tags":{"seamark:buoy_lateral:colour":"red","seamark:type":"buoy_lateral"}}},{"type":"Feature","geometry":{"type":"Point","coordinates":[1.1143562,44.5096256]},"properties":{"osm_id":9983676497,"osm_type":"node","seamark_type":"buoy_lateral","display_class":"OTHER","min_zoom":12,"importance":1,"name":null,"ref":null,"common":{"type":"buoy_lateral"},"children":{"buoy_lateral":{"category":"waterway_left","colour":"red"}},"osm_tags":{"seamark:buoy_lateral:category":"waterway_left","seamark:buoy_lateral:colour":"red","seamark:type":"buoy_lateral"}}},{"type":"Feature","geometry":{"type":"Point","coordinates":[1.1138322,44.5091913]},"properties":{"osm_id":9983676498,"osm_type":"node","seamark_type":"buoy_lateral","display_class":"OTHER","min_zoom":12,"importance":1,"name":null,"ref":null,"common":{"type":"buoy_lateral"},"children":{"buoy_lateral":{"category":"waterway_left","colour":"red"}},"osm_tags":{"seamark:buoy_lateral:category":"waterway_left","seamark:buoy_lateral:colour":"red","seamark:type":"buoy_lateral"}}},{"type":"Feature","geometry":{"type":"Point","coordinates":[1.1183053,44.510265]},"properties":{"osm_id":9983676499,"osm_type":"node","seamark_type":"buoy_lateral","display_class":"OTHER","min_zoom":12,"importance":1,"name":null,"ref":null,"common":{"type":"buoy_lateral"},"children":{"buoy_lateral":{"category":"waterway_left","colour":"red"}},"osm_tags":{"seamark:buoy_lateral:category":"waterway_left","seamark:buoy_lateral:colour":"red","seamark:type":"buoy_lateral"}}},{"type":"Feature","geometry":{"type":"Point","coordinates":[1.1196456,44.5102574]},"properties":{"osm_id":9983676500,"osm_type":"node","seamark_type":"buoy_lateral","display_class":"OTHER","min_zoom":12,"importance":1,"name":null,"ref":null,"common":{"type":"buoy_lateral"},"children":{"buoy_lateral":{"category":"waterway_left","colour":"red"}},"osm_tags":{"seamark:buoy_lateral:category":"waterway_left","seamark:buoy_lateral:colour":"red","seamark:type":"buoy_lateral"}}},{"type":"Feature","geometry":{"type":"Point","coordinates":[1.1202753,44.5101951]},"properties":{"osm_id":9983676501,"osm_type":"node","seamark_type":"buoy_lateral","display_class":"OTHER","min_zoom":12,"importance":1,"name":null,"ref":null,"common":{"type":"buoy_lateral"},"children":{"buoy_lateral":{"category":"waterway_left","colour":"red"}},"osm_tags":{"seamark:buoy_lateral:category":"waterway_left","seamark:buoy_lateral:colour":"red","seamark:type":"buoy_lateral"}}},{"type":"Feature","geometry":{"type":"Point","coordinates":[1.1219445,44.5101729]},"properties":{"osm_id":9983676502,"osm_type":"node","seamark_type":"buoy_lateral","display_class":"OTHER","min_zoom":12,"importance":1,"name":null,"ref":null,"common":{"type":"buoy_lateral"},"children":{"buoy_lateral":{"category":"waterway_left","colour":"red"}},"osm_tags":{"seamark:buoy_lateral:category":"waterway_left","seamark:buoy_lateral:colour":"red","seamark:type":"buoy_lateral"}}},{"type":"Feature","geometry":{"type":"Point","coordinates":[1.1264844,44.5093544]},"properties":{"osm_id":9983676503,"osm_type":"node","seamark_type":"buoy_lateral","display_class":"OTHER","min_zoom":12,"importance":1,"name":null,"ref":null,"common":{"type":"buoy_lateral"},"children":{"buoy_lateral":{"category":"waterway_left","colour":"red"}},"osm_tags":{"seamark:buoy_lateral:category":"waterway_left","seamark:buoy_lateral:colour":"red","seamark:type":"buoy_lateral"}}},{"type":"Feature","geometry":{"type":"Point","coordinates":[1.1277485,44.5087729]},"properties":{"osm_id":9983676504,"osm_type":"node","seamark_type":"buoy_lateral","display_class":"OTHER","min_zoom":12,"importance":1,"name":null,"ref":null,"common":{"type":"buoy_lateral"},"children":{"buoy_lateral":{"category":"waterway_left","colour":"red"}},"osm_tags":{"seamark:buoy_lateral:category":"waterway_left","seamark:buoy_lateral:colour":"red","seamark:type":"buoy_lateral"}}},{"type":"Feature","geometry":{"type":"Point","coordinates":[1.1288325,44.5082988]},"properties":{"osm_id":9983676505,"osm_type":"node","seamark_type":"buoy_lateral","display_class":"OTHER","min_zoom":12,"importance":1,"name":null,"ref":null,"common":{"type":"buoy_lateral"},"children":{"buoy_lateral":{"category":"waterway_left","colour":"red"}},"osm_tags":{"seamark:buoy_lateral:category":"waterway_left","seamark:buoy_lateral:colour":"red","seamark:type":"buoy_lateral"}}},{"type":"Feature","geometry":{"type":"Point","coordinates":[1.1315062,44.5069402]},"properties":{"osm_id":9983676506,"osm_type":"node","seamark_type":"buoy_lateral","display_class":"OTHER","min_zoom":12,"importance":1,"name":null,"ref":null,"common":{"type":"buoy_lateral"},"children":{"buoy_lateral":{"category":"waterway_left","colour":"red"}},"osm_tags":{"seamark:buoy_lateral:category":"waterway_left","seamark:buoy_lateral:colour":"red","seamark:type":"buoy_lateral"}}},{"type":"Feature","geometry":{"type":"Point","coordinates":[1.1331356,44.5052159]},"properties":{"osm_id":9983676507,"osm_type":"node","seamark_type":"buoy_lateral","display_class":"OTHER","min_zoom":12,"importance":1,"name":null,"ref":null,"common":{"type":"buoy_lateral"},"children":{"buoy_lateral":{"category":"waterway_left","colour":"red"}},"osm_tags":{"seamark:buoy_lateral:category":"waterway_left","seamark:buoy_lateral:colour":"red","seamark:type":"buoy_lateral"}}},{"type":"Feature","geometry":{"type":"Point","coordinates":[1.1335679,44.5050361]},"properties":{"osm_id":9983676508,"osm_type":"node","seamark_type":"buoy_lateral","display_class":"OTHER","min_zoom":12,"importance":1,"name":null,"ref":null,"common":{"type":"buoy_lateral"},"children":{"buoy_lateral":{"category":"waterway_left","colour":"red"}},"osm_tags":{"seamark:buoy_lateral:category":"waterway_left","seamark:buoy_lateral:colour":"red","seamark:type":"buoy_lateral"}}},{"type":"Feature","geometry":{"type":"Point","coordinates":[1.1341803,44.5047745]},"properties":{"osm_id":9983676509,"osm_type":"node","seamark_type":"buoy_lateral","display_class":"OTHER","min_zoom":12,"importance":1,"name":null,"ref":null,"common":{"type":"buoy_lateral"},"children":{"buoy_lateral":{"category":"waterway_left","colour":"red"}},"osm_tags":{"seamark:buoy_lateral:category":"waterway_left","seamark:buoy_lateral:colour":"red","seamark:type":"buoy_lateral"}}},{"type":"Feature","geometry":{"type":"Point","coordinates":[1.1367793,44.4988077]},"properties":{"osm_id":9983676510,"osm_type":"node","seamark_type":"buoy_lateral","display_class":"OTHER","min_zoom":12,"importance":1,"name":null,"ref":null,"common":{"type":"buoy_lateral"},"children":{"buoy_lateral":{"category":"waterway_right","colour":"green"}},"osm_tags":{"seamark:buoy_lateral:category":"waterway_right","seamark:buoy_lateral:colour":"green","seamark:type":"buoy_lateral"}}},{"type":"Feature","geometry":{"type":"Point","coordinates":[1.13398,44.4844403]},"properties":{"osm_id":9983676512,"osm_type":"node","seamark_type":"buoy_lateral","display_class":"OTHER","min_zoom":12,"importance":1,"name":null,"ref":null,"common":{"type":"buoy_lateral"},"children":{"buoy_lateral":{"category":"channel_right","colour":"green"}},"osm_tags":{"seamark:buoy_lateral:category":"channel_right","seamark:buoy_lateral:colour":"green","seamark:type":"buoy_lateral"}}},{"type":"Feature","geometry":{"type":"Point","coordinates":[1.1374953,44.4774575]},"properties":{"osm_id":9983676516,"osm_type":"node","seamark_type":"buoy_lateral","display_class":"OTHER","min_zoom":12,"importance":1,"name":null,"ref":null,"common":{"type":"buoy_lateral"},"children":{"buoy_lateral":{"category":"waterway_right","colour":"green"}},"osm_tags":{"seamark:buoy_lateral:category":"waterway_right","seamark:buoy_lateral:colour":"green","seamark:type":"buoy_lateral"}}},{"type":"Feature","geometry":{"type":"Point","coordinates":[1.1386222,44.4766538]},"properties":{"osm_id":9983685917,"osm_type":"node","seamark_type":"buoy_lateral","display_class":"OTHER","min_zoom":12,"importance":1,"name":null,"ref":null,"common":{"type":"buoy_lateral"},"children":{"buoy_lateral":{"category":"waterway_left","colour":"red"}},"osm_tags":{"seamark:buoy_lateral:category":"waterway_left","seamark:buoy_lateral:colour":"red","seamark:type":"buoy_lateral"}}},{"type":"Feature","geometry":{"type":"Point","coordinates":[1.1397607,44.4762463]},"properties":{"osm_id":9983685918,"osm_type":"node","seamark_type":"buoy_lateral","display_class":"OTHER","min_zoom":12,"importance":1,"name":null,"ref":null,"common":{"type":"buoy_lateral"},"children":{"buoy_lateral":{"category":"danger_left","colour":"red"}},"osm_tags":{"seamark:buoy_lateral:category":"danger_left","seamark:buoy_lateral:colour":"red","seamark:type":"buoy_lateral"}}},{"type":"Feature","geometry":{"type":"Point","coordinates":[1.1409046,44.4761384]},"properties":{"osm_id":9983685919,"osm_type":"node","seamark_type":"buoy_lateral","display_class":"OTHER","min_zoom":12,"importance":1,"name":null,"ref":null,"common":{"type":"buoy_lateral"},"children":{"buoy_lateral":{"category":"danger_left","colour":"red"}},"osm_tags":{"seamark:buoy_lateral:category":"danger_left","seamark:buoy_lateral:colour":"red","seamark:type":"buoy_lateral"}}},{"type":"Feature","geometry":{"type":"Point","coordinates":[1.1413282,44.4761059]},"properties":{"osm_id":9983685920,"osm_type":"node","seamark_type":"buoy_lateral","display_class":"OTHER","min_zoom":12,"importance":1,"name":null,"ref":null,"common":{"type":"buoy_lateral"},"children":{"buoy_lateral":{"category":"danger_left","colour":"red"}},"osm_tags":{"seamark:buoy_lateral:category":"danger_left","seamark:buoy_lateral:colour":"red","seamark:type":"buoy_lateral"}}},{"type":"Feature","geometry":{"type":"Point","coordinates":[1.1430738,44.476471]},"properties":{"osm_id":9983685924,"osm_type":"node","seamark_type":"buoy_lateral","display_class":"OTHER","min_zoom":12,"importance":1,"name":null,"ref":null,"common":{"type":"buoy_lateral"},"children":{"buoy_lateral":{"category":"danger_left","colour":"red"}},"osm_tags":{"seamark:buoy_lateral:category":"danger_left","seamark:buoy_lateral:colour":"red","seamark:type":"buoy_lateral"}}},{"type":"Feature","geometry":{"type":"Point","coordinates":[1.1455586,44.4778464]},"properties":{"osm_id":9983685925,"osm_type":"node","seamark_type":"buoy_lateral","display_class":"OTHER","min_zoom":12,"importance":1,"name":null,"ref":null,"common":{"type":"buoy_lateral"},"children":{"buoy_lateral":{"category":"danger_left","colour":"red"}},"osm_tags":{"seamark:buoy_lateral:category":"danger_left","seamark:buoy_lateral:colour":"red","seamark:type":"buoy_lateral"}}},{"type":"Feature","geometry":{"type":"Point","coordinates":[1.144538,44.4770959]},"properties":{"osm_id":9983685926,"osm_type":"node","seamark_type":"buoy_lateral","display_class":"OTHER","min_zoom":12,"importance":1,"name":null,"ref":null,"common":{"type":"buoy_lateral"},"children":{"buoy_lateral":{"category":"danger_left","colour":"red"}},"osm_tags":{"seamark:buoy_lateral:category":"danger_left","seamark:buoy_lateral:colour":"red","seamark:type":"buoy_lateral"}}},{"type":"Feature","geometry":{"type":"Point","coordinates":[1.1459424,44.4782359]},"properties":{"osm_id":9983685927,"osm_type":"node","seamark_type":"buoy_lateral","display_class":"OTHER","min_zoom":12,"importance":1,"name":null,"ref":null,"common":{"type":"buoy_lateral"},"children":{"buoy_lateral":{"category":"waterway_right","colour":"green"}},"osm_tags":{"seamark:buoy_lateral:category":"waterway_right","seamark:buoy_lateral:colour":"green","seamark:type":"buoy_lateral"}}},{"type":"Feature","geometry":{"type":"Point","coordinates":[1.1468834,44.4799682]},"properties":{"osm_id":9983685930,"osm_type":"node","seamark_type":"buoy_lateral","display_class":"OTHER","min_zoom":12,"importance":1,"name":null,"ref":null,"common":{"type":"buoy_lateral"},"children":{"buoy_lateral":{"category":"waterway_left","colour":"red"}},"osm_tags":{"seamark:buoy_lateral:category":"waterway_left","seamark:buoy_lateral:colour":"red","seamark:type":"buoy_lateral"}}},{"type":"Feature","geometry":{"type":"Point","coordinates":[1.14855,44.4954438]},"properties":{"osm_id":9983685934,"osm_type":"node","seamark_type":"buoy_lateral","display_class":"OTHER","min_zoom":12,"importance":1,"name":null,"ref":null,"common":{"type":"buoy_lateral"},"children":{"buoy_lateral":{"category":"waterway_left","colour":"red"}},"osm_tags":{"seamark:buoy_lateral:category":"waterway_left","seamark:buoy_lateral:colour":"red","seamark:type":"buoy_lateral"}}},{"type":"Feature","geometry":{"type":"Point","coordinates":[1.1484966,44.4959742]},"properties":{"osm_id":9983685935,"osm_type":"node","seamark_type":"buoy_lateral","display_class":"OTHER","min_zoom":12,"importance":1,"name":null,"ref":null,"common":{"type":"buoy_lateral"},"children":{"buoy_lateral":{"category":"waterway_left","colour":"red"}},"osm_tags":{"seamark:buoy_lateral:category":"waterway_left","seamark:buoy_lateral:colour":"red","seamark:type":"buoy_lateral"}}},{"type":"Feature","geometry":{"type":"Point","coordinates":[1.1484127,44.4964284]},"properties":{"osm_id":9983685936,"osm_type":"node","seamark_type":"buoy_lateral","display_class":"OTHER","min_zoom":12,"importance":1,"name":null,"ref":null,"common":{"type":"buoy_lateral"},"children":{"buoy_lateral":{"category":"waterway_left","colour":"red"}},"osm_tags":{"seamark:buoy_lateral:category":"waterway_left","seamark:buoy_lateral:colour":"red","seamark:type":"buoy_lateral"}}},{"type":"Feature","geometry":{"type":"Point","coordinates":[1.1480153,44.4975446]},"properties":{"osm_id":9983685937,"osm_type":"node","seamark_type":"buoy_lateral","display_class":"OTHER","min_zoom":12,"importance":1,"name":null,"ref":null,"common":{"type":"buoy_lateral"},"children":{"buoy_lateral":{"category":"waterway_left","colour":"red"}},"osm_tags":{"seamark:buoy_lateral:category":"waterway_left","seamark:buoy_lateral:colour":"red","seamark:type":"buoy_lateral"}}},{"type":"Feature","geometry":{"type":"Point","coordinates":[1.1483671,44.4975142]},"properties":{"osm_id":9983685938,"osm_type":"node","seamark_type":"buoy_lateral","display_class":"OTHER","min_zoom":12,"importance":1,"name":null,"ref":null,"common":{"type":"buoy_lateral"},"children":{"buoy_lateral":{"category":"waterway_right","colour":"green"}},"osm_tags":{"seamark:buoy_lateral:category":"waterway_right","seamark:buoy_lateral:colour":"green","seamark:type":"buoy_lateral"}}},{"type":"Feature","geometry":{"type":"Point","coordinates":[1.1477466,44.4983789]},"properties":{"osm_id":9983685939,"osm_type":"node","seamark_type":"buoy_lateral","display_class":"OTHER","min_zoom":12,"importance":1,"name":null,"ref":null,"common":{"type":"buoy_lateral"},"children":{"buoy_lateral":{"category":"waterway_left","colour":"red"}},"osm_tags":{"seamark:buoy_lateral:category":"waterway_left","seamark:buoy_lateral:colour":"red","seamark:type":"buoy_lateral"}}},{"type":"Feature","geometry":{"type":"Point","coordinates":[1.1480316,44.4984554]},"properties":{"osm_id":9983685940,"osm_type":"node","seamark_type":"buoy_lateral","display_class":"OTHER","min_zoom":12,"importance":1,"name":null,"ref":null,"common":{"type":"buoy_lateral"},"children":{"buoy_lateral":{"category":"waterway_right","colour":"green"}},"osm_tags":{"seamark:buoy_lateral:category":"waterway_right","seamark:buoy_lateral:colour":"green","seamark:type":"buoy_lateral"}}},{"type":"Feature","geometry":{"type":"Point","coordinates":[1.1474166,44.4992195]},"properties":{"osm_id":9983685941,"osm_type":"node","seamark_type":"buoy_lateral","display_class":"OTHER","min_zoom":12,"importance":1,"name":null,"ref":null,"common":{"type":"buoy_lateral"},"children":{"buoy_lateral":{"category":"waterway_left","colour":"red"}},"osm_tags":{"seamark:buoy_lateral:category":"waterway_left","seamark:buoy_lateral:colour":"red","seamark:type":"buoy_lateral"}}},{"type":"Feature","geometry":{"type":"Point","coordinates":[1.1471252,44.5000998]},"properties":{"osm_id":9983685942,"osm_type":"node","seamark_type":"buoy_lateral","display_class":"OTHER","min_zoom":12,"importance":1,"name":null,"ref":null,"common":{"type":"buoy_lateral"},"children":{"buoy_lateral":{"category":"waterway_left","colour":"red"}},"osm_tags":{"seamark:buoy_lateral:category":"waterway_left","seamark:buoy_lateral:colour":"red","seamark:type":"buoy_lateral"}}},{"type":"Feature","geometry":{"type":"Point","coordinates":[1.1474637,44.5001166]},"properties":{"osm_id":9983685943,"osm_type":"node","seamark_type":"buoy_lateral","display_class":"OTHER","min_zoom":12,"importance":1,"name":null,"ref":null,"common":{"type":"buoy_lateral"},"children":{"buoy_lateral":{"category":"waterway_right","colour":"green"}},"osm_tags":{"seamark:buoy_lateral:category":"waterway_right","seamark:buoy_lateral:colour":"green","seamark:type":"buoy_lateral"}}},{"type":"Feature","geometry":{"type":"Point","coordinates":[1.1471381,44.5008914]},"properties":{"osm_id":9983685944,"osm_type":"node","seamark_type":"buoy_lateral","display_class":"OTHER","min_zoom":12,"importance":1,"name":null,"ref":null,"common":{"type":"buoy_lateral"},"children":{"buoy_lateral":{"category":"waterway_left","colour":"red"}},"osm_tags":{"seamark:buoy_lateral:category":"waterway_left","seamark:buoy_lateral:colour":"red","seamark:type":"buoy_lateral"}}},{"type":"Feature","geometry":{"type":"Point","coordinates":[1.1472088,44.5012964]},"properties":{"osm_id":9983685945,"osm_type":"node","seamark_type":"buoy_lateral","display_class":"OTHER","min_zoom":12,"importance":1,"name":null,"ref":null,"common":{"type":"buoy_lateral"},"children":{"buoy_lateral":{"category":"waterway_left","colour":"red"}},"osm_tags":{"seamark:buoy_lateral:category":"waterway_left","seamark:buoy_lateral:colour":"red","seamark:type":"buoy_lateral"}}},{"type":"Feature","geometry":{"type":"Point","coordinates":[1.1474337,44.5008762]},"properties":{"osm_id":9983685946,"osm_type":"node","seamark_type":"buoy_lateral","display_class":"OTHER","min_zoom":12,"importance":1,"name":null,"ref":null,"common":{"type":"buoy_lateral"},"children":{"buoy_lateral":{"category":"waterway_right","colour":"green"}},"osm_tags":{"seamark:buoy_lateral:category":"waterway_right","seamark:buoy_lateral:colour":"green","seamark:type":"buoy_lateral"}}},{"type":"Feature","geometry":{"type":"Point","coordinates":[1.1475958,44.5022557]},"properties":{"osm_id":9983685947,"osm_type":"node","seamark_type":"buoy_lateral","display_class":"OTHER","min_zoom":12,"importance":1,"name":null,"ref":null,"common":{"type":"buoy_lateral"},"children":{"buoy_lateral":{"category":"waterway_left","colour":"red"}},"osm_tags":{"seamark:buoy_lateral:category":"waterway_left","seamark:buoy_lateral:colour":"red","seamark:type":"buoy_lateral"}}},{"type":"Feature","geometry":{"type":"Point","coordinates":[1.9095048,44.4875442]},"properties":{"osm_id":12072390886,"osm_type":"node","seamark_type":"gate","display_class":"OTHER","min_zoom":12,"importance":1,"name":null,"ref":null,"common":{"type":"gate"},"children":{},"osm_tags":{"material":"steel","seamark:type":"gate","source":"BDOrtho IGN","waterway":"lock_gate"}}},{"type":"Feature","geometry":{"type":"Point","coordinates":[1.9098388,44.4873184]},"properties":{"osm_id":12072390887,"osm_type":"node","seamark_type":"gate","display_class":"OTHER","min_zoom":12,"importance":1,"name":null,"ref":null,"common":{"type":"gate"},"children":{},"osm_tags":{"material":"steel","seamark:type":"gate","source":"BDOrtho IGN","waterway":"lock_gate"}}},{"type":"Feature","geometry":{"type":"Point","coordinates":[1.8826226,44.8649032]},"properties":{"osm_id":12719964272,"osm_type":"node","seamark_type":"gate","display_class":"OTHER","min_zoom":12,"importance":1,"name":null,"ref":null,"common":{"type":"gate"},"children":{},"osm_tags":{"seamark:type":"gate","waterway":"lock_gate"}}},{"type":"Feature","geometry":{"type":"Point","coordinates":[1.8935676,44.8585823]},"properties":{"osm_id":12734578975,"osm_type":"node","seamark_type":"gate","display_class":"OTHER","min_zoom":12,"importance":1,"name":null,"ref":null,"common":{"type":"gate"},"children":{},"osm_tags":{"seamark:type":"gate","waterway":"lock_gate"}}},{"type":"Feature","geometry":{"type":"Point","coordinates":[1.3622752,44.4763731]},"properties":{"osm_id":13673962141,"osm_type":"node","seamark_type":"buoy_lateral","display_class":"OTHER","min_zoom":12,"importance":1,"name":null,"ref":null,"common":{"type":"buoy_lateral"},"children":{"buoy_lateral":{"category":"channel_left","colour":"green","shape":"conical","system":"cevni"}},"osm_tags":{"fluvigo:id":"SIGN-20260324-102402","fluvigo:type":"notice","seamark:buoy_lateral:category":"channel_left","seamark:buoy_lateral:colour":"green","seamark:buoy_lateral:shape":"conical","seamark:buoy_lateral:system":"cevni","seamark:type":"buoy_lateral","source":"survey","survey:operator":"Fluvigo","survey:source":"agent"}}},{"type":"Feature","geometry":{"type":"Point","coordinates":[1.3620512,44.4761501]},"properties":{"osm_id":13673962142,"osm_type":"node","seamark_type":"buoy_lateral","display_class":"OTHER","min_zoom":12,"importance":1,"name":null,"ref":null,"common":{"type":"buoy_lateral"},"children":{"buoy_lateral":{"category":"channel_left","colour":"green","shape":"conical","system":"cevni"}},"osm_tags":{"fluvigo:id":"SIGN-20260324-102345","fluvigo:type":"notice","seamark:buoy_lateral:category":"channel_left","seamark:buoy_lateral:colour":"green","seamark:buoy_lateral:shape":"conical","seamark:buoy_lateral:system":"cevni","seamark:type":"buoy_lateral","source":"survey","survey:operator":"Fluvigo","survey:source":"agent"}}},{"type":"Feature","geometry":{"type":"Point","coordinates":[1.3617522,44.4759377]},"properties":{"osm_id":13673962143,"osm_type":"node","seamark_type":"buoy_lateral","display_class":"OTHER","min_zoom":12,"importance":1,"name":null,"ref":null,"common":{"type":"buoy_lateral"},"children":{"buoy_lateral":{"category":"channel_left","colour":"green","shape":"conical","system":"cevni"}},"osm_tags":{"fluvigo:id":"SIGN-20260324-102320","fluvigo:type":"notice","seamark:buoy_lateral:category":"channel_left","seamark:buoy_lateral:colour":"green","seamark:buoy_lateral:shape":"conical","seamark:buoy_lateral:system":"cevni","seamark:type":"buoy_lateral","source":"survey","survey:operator":"Fluvigo","survey:source":"agent"}}},{"type":"Feature","geometry":{"type":"Point","coordinates":[1.3614491,44.4757979]},"properties":{"osm_id":13673962144,"osm_type":"node","seamark_type":"buoy_lateral","display_class":"OTHER","min_zoom":12,"importance":1,"name":null,"ref":null,"common":{"type":"buoy_lateral"},"children":{"buoy_lateral":{"category":"channel_left","colour":"green","shape":"conical","system":"cevni"}},"osm_tags":{"fluvigo:id":"SIGN-20260324-102310","fluvigo:type":"notice","seamark:buoy_lateral:category":"channel_left","seamark:buoy_lateral:colour":"green","seamark:buoy_lateral:shape":"conical","seamark:buoy_lateral:system":"cevni","seamark:type":"buoy_lateral","source":"survey","survey:operator":"Fluvigo","survey:source":"agent"}}},{"type":"Feature","geometry":{"type":"Point","coordinates":[1.3610695,44.4757109]},"properties":{"osm_id":13673962145,"osm_type":"node","seamark_type":"buoy_lateral","display_class":"OTHER","min_zoom":12,"importance":1,"name":null,"ref":null,"common":{"type":"buoy_lateral"},"children":{"buoy_lateral":{"category":"channel_left","colour":"green","shape":"conical","system":"cevni"}},"osm_tags":{"fluvigo:id":"SIGN-20260324-102230","fluvigo:type":"notice","seamark:buoy_lateral:category":"channel_left","seamark:buoy_lateral:colour":"green","seamark:buoy_lateral:shape":"conical","seamark:buoy_lateral:system":"cevni","seamark:type":"buoy_lateral","source":"survey","survey:operator":"Fluvigo","survey:source":"agent"}}},{"type":"Feature","geometry":{"type":"Point","coordinates":[1.360808,44.4756362]},"properties":{"osm_id":13673962146,"osm_type":"node","seamark_type":"buoy_lateral","display_class":"OTHER","min_zoom":12,"importance":1,"name":null,"ref":null,"common":{"type":"buoy_lateral"},"children":{"buoy_lateral":{"category":"channel_left","colour":"green","shape":"conical","system":"cevni"}},"osm_tags":{"fluvigo:id":"SIGN-20260324-102213","fluvigo:type":"notice","seamark:buoy_lateral:category":"channel_left","seamark:buoy_lateral:colour":"green","seamark:buoy_lateral:shape":"conical","seamark:buoy_lateral:system":"cevni","seamark:type":"buoy_lateral","source":"survey","survey:operator":"Fluvigo","survey:source":"agent"}}},{"type":"Feature","geometry":{"type":"Point","coordinates":[1.3626319,44.4764381]},"properties":{"osm_id":13673962147,"osm_type":"node","seamark_type":"buoy_lateral","display_class":"OTHER","min_zoom":12,"importance":1,"name":null,"ref":null,"common":{"type":"buoy_lateral"},"children":{"buoy_lateral":{"category":"channel_right","colour":"red","shape":"can","system":"cevni"}},"osm_tags":{"fluvigo:id":"SIGN-20260324-102112","fluvigo:type":"notice","seamark:buoy_lateral:category":"channel_right","seamark:buoy_lateral:colour":"red","seamark:buoy_lateral:shape":"can","seamark:buoy_lateral:system":"cevni","seamark:type":"buoy_lateral","source":"survey","survey:operator":"Fluvigo","survey:source":"agent"}}},{"type":"Feature","geometry":{"type":"Point","coordinates":[1.3623771,44.4761779]},"properties":{"osm_id":13673962148,"osm_type":"node","seamark_type":"buoy_lateral","display_class":"OTHER","min_zoom":12,"importance":1,"name":null,"ref":null,"common":{"type":"buoy_lateral"},"children":{"buoy_lateral":{"category":"channel_right","colour":"red","shape":"can","system":"cevni"}},"osm_tags":{"fluvigo:id":"SIGN-20260324-102050","fluvigo:type":"notice","seamark:buoy_lateral:category":"channel_right","seamark:buoy_lateral:colour":"red","seamark:buoy_lateral:shape":"can","seamark:buoy_lateral:system":"cevni","seamark:type":"buoy_lateral","source":"survey","survey:operator":"Fluvigo","survey:source":"agent"}}},{"type":"Feature","geometry":{"type":"Point","coordinates":[1.362074,44.4758774]},"properties":{"osm_id":13673962149,"osm_type":"node","seamark_type":"buoy_lateral","display_class":"OTHER","min_zoom":12,"importance":1,"name":null,"ref":null,"common":{"type":"buoy_lateral"},"children":{"buoy_lateral":{"category":"channel_right","colour":"red","shape":"can","system":"cevni"}},"osm_tags":{"fluvigo:id":"SIGN-20260324-102030","fluvigo:type":"notice","seamark:buoy_lateral:category":"channel_right","seamark:buoy_lateral:colour":"red","seamark:buoy_lateral:shape":"can","seamark:buoy_lateral:system":"cevni","seamark:type":"buoy_lateral","source":"survey","survey:operator":"Fluvigo","survey:source":"agent"}}},{"type":"Feature","geometry":{"type":"Point","coordinates":[1.3615081,44.4755463]},"properties":{"osm_id":13673962150,"osm_type":"node","seamark_type":"buoy_lateral","display_class":"OTHER","min_zoom":12,"importance":1,"name":null,"ref":null,"common":{"type":"buoy_lateral"},"children":{"buoy_lateral":{"category":"channel_right","colour":"red","shape":"can","system":"cevni"}},"osm_tags":{"fluvigo:id":"SIGN-20260324-102015","fluvigo:type":"notice","seamark:buoy_lateral:category":"channel_right","seamark:buoy_lateral:colour":"red","seamark:buoy_lateral:shape":"can","seamark:buoy_lateral:system":"cevni","seamark:type":"buoy_lateral","source":"survey","survey:operator":"Fluvigo","survey:source":"agent"}}},{"type":"Feature","geometry":{"type":"Point","coordinates":[1.3610977,44.4739214]},"properties":{"osm_id":13673962151,"osm_type":"node","seamark_type":"buoy_lateral","display_class":"OTHER","min_zoom":12,"importance":1,"name":null,"ref":null,"common":{"type":"buoy_lateral"},"children":{"buoy_lateral":{"category":"channel_right","colour":"red","shape":"can","system":"cevni"}},"osm_tags":{"fluvigo:id":"SIGN-20260324-101905","fluvigo:type":"notice","seamark:buoy_lateral:category":"channel_right","seamark:buoy_lateral:colour":"red","seamark:buoy_lateral:shape":"can","seamark:buoy_lateral:system":"cevni","seamark:type":"buoy_lateral","source":"survey","survey:operator":"Fluvigo","survey:source":"agent"}}},{"type":"Feature","geometry":{"type":"Point","coordinates":[1.3606444,44.4741912]},"properties":{"osm_id":13673962152,"osm_type":"node","seamark_type":"buoy_lateral","display_class":"OTHER","min_zoom":12,"importance":1,"name":null,"ref":null,"common":{"type":"buoy_lateral"},"children":{"buoy_lateral":{"category":"channel_right","colour":"red","shape":"can","system":"cevni"}},"osm_tags":{"fluvigo:id":"SIGN-20260324-101802","fluvigo:type":"notice","seamark:buoy_lateral:category":"channel_right","seamark:buoy_lateral:colour":"red","seamark:buoy_lateral:shape":"can","seamark:buoy_lateral:system":"cevni","seamark:type":"buoy_lateral","source":"survey","survey:operator":"Fluvigo","survey:source":"agent"}}},{"type":"Feature","geometry":{"type":"LineString","coordinates":[[1.5515707,44.4823413],[1.551611,44.4823502],[1.5516395,44.4823266]]},"properties":{"osm_id":964321429,"osm_type":"way","seamark_type":"gate","display_class":"OTHER","min_zoom":12,"importance":1,"name":null,"ref":null,"common":{"type":"gate"},"children":{},"osm_tags":{"seamark:type":"gate","waterway":"lock_gate"}}},{"type":"Feature","geometry":{"type":"LineString","coordinates":[[1.5514447,44.4820296],[1.5514812,44.4820339],[1.5515109,44.4820159]]},"properties":{"osm_id":964321430,"osm_type":"way","seamark_type":"gate","display_class":"OTHER","min_zoom":12,"importance":1,"name":null,"ref":null,"common":{"type":"gate"},"children":{},"osm_tags":{"seamark:type":"gate","waterway":"lock_gate"}}},{"type":"Feature","geometry":{"type":"LineString","coordinates":[[1.4967488,44.4567032],[1.4967719,44.4566777],[1.4967643,44.4566466]]},"properties":{"osm_id":964328404,"osm_type":"way","seamark_type":"gate","display_class":"OTHER","min_zoom":12,"importance":1,"name":null,"ref":null,"common":{"type":"gate"},"children":{},"osm_tags":{"seamark:type":"gate","waterway":"lock_gate"}}},{"type":"Feature","geometry":{"type":"LineString","coordinates":[[1.497186,44.4567739],[1.497207,44.4567506],[1.4971949,44.4567197]]},"properties":{"osm_id":964328405,"osm_type":"way","seamark_type":"gate","display_class":"OTHER","min_zoom":12,"importance":1,"name":null,"ref":null,"common":{"type":"gate"},"children":{},"osm_tags":{"seamark:type":"gate","waterway":"lock_gate"}}},{"type":"Feature","geometry":{"type":"LineString","coordinates":[[1.4474134,44.4454819],[1.4474384,44.4454966],[1.4474689,44.445497]]},"properties":{"osm_id":964340400,"osm_type":"way","seamark_type":"gate","display_class":"OTHER","min_zoom":12,"importance":1,"name":null,"ref":null,"common":{"type":"gate"},"children":{},"osm_tags":{"seamark:type":"gate","waterway":"lock_gate"}}},{"type":"Feature","geometry":{"type":"LineString","coordinates":[[1.4472619,44.4458297],[1.4472998,44.4458262],[1.4473222,44.4458456]]},"properties":{"osm_id":964340401,"osm_type":"way","seamark_type":"gate","display_class":"OTHER","min_zoom":12,"importance":1,"name":null,"ref":null,"common":{"type":"gate"},"children":{},"osm_tags":{"seamark:type":"gate","waterway":"lock_gate"}}},{"type":"Feature","geometry":{"type":"LineString","coordinates":[[1.430876,44.4451238],[1.4309089,44.4451441],[1.4309448,44.4451427]]},"properties":{"osm_id":964488650,"osm_type":"way","seamark_type":"gate","display_class":"OTHER","min_zoom":12,"importance":1,"name":null,"ref":null,"common":{"type":"gate"},"children":{},"osm_tags":{"seamark:type":"gate","waterway":"lock_gate"}}},{"type":"Feature","geometry":{"type":"LineString","coordinates":[[1.4310312,44.4447973],[1.4310701,44.4447933],[1.4310995,44.4448159]]},"properties":{"osm_id":964488651,"osm_type":"way","seamark_type":"gate","display_class":"OTHER","min_zoom":12,"importance":1,"name":null,"ref":null,"common":{"type":"gate"},"children":{},"osm_tags":{"seamark:type":"gate","waterway":"lock_gate"}}},{"type":"Feature","geometry":{"type":"LineString","coordinates":[[1.4249846,44.4640188],[1.4250023,44.4639979],[1.4248318,44.4639205]]},"properties":{"osm_id":1052743173,"osm_type":"way","seamark_type":"gate","display_class":"OTHER","min_zoom":12,"importance":1,"name":null,"ref":null,"common":{"type":"gate"},"children":{},"osm_tags":{"seamark:type":"gate","waterway":"lock_gate"}}},{"type":"Feature","geometry":{"type":"LineString","coordinates":[[1.1789134,44.4815482],[1.1789482,44.4815484],[1.1789718,44.4815484]]},"properties":{"osm_id":1071295492,"osm_type":"way","seamark_type":"gate","display_class":"OTHER","min_zoom":12,"importance":1,"name":null,"ref":null,"common":{"type":"gate"},"children":{},"osm_tags":{"seamark:type":"gate","waterway":"lock_gate"}}},{"type":"Feature","geometry":{"type":"LineString","coordinates":[[1.1789197,44.4812364],[1.1789547,44.4812379],[1.1789831,44.4812363]]},"properties":{"osm_id":1071295493,"osm_type":"way","seamark_type":"gate","display_class":"OTHER","min_zoom":12,"importance":1,"name":null,"ref":null,"common":{"type":"gate"},"children":{},"osm_tags":{"seamark:type":"gate","waterway":"lock_gate"}}},{"type":"Feature","geometry":{"type":"Polygon","coordinates":[[[1.3624817,44.4765204],[1.3620579,44.4760841],[1.3617951,44.4758927],[1.3614678,44.4757587],[1.3610977,44.4756707],[1.3607114,44.4755712],[1.3606055,44.4755654],[1.3604761,44.4754118],[1.360403,44.4753075],[1.360458,44.4752874],[1.3604935,44.4753338],[1.3612291,44.4755329],[1.3615134,44.4755884],[1.3620418,44.4758869],[1.3623771,44.47622],[1.3626507,44.4764917],[1.3624817,44.4765204]]]},"properties":{"osm_id":1492137549,"osm_type":"way","seamark_type":"fairway","display_class":"OTHER","min_zoom":12,"importance":1,"name":null,"ref":null,"common":{"type":"fairway"},"children":{},"osm_tags":{"fluvigo:id":"SIGN-20260324-103130","fluvigo:type":"notice","seamark:type":"fairway","source":"survey","survey:operator":"Fluvigo","survey:source":"agent"}}},{"type":"Feature","geometry":{"type":"Point","coordinates":[1.4472998,44.4458262]},"properties":{"osm_id":511191443,"osm_type":"node","seamark_type":"gate","display_class":"OTHER","min_zoom":12,"importance":1,"name":"Coty","ref":null,"common":{"type":"gate"},"children":{},"osm_tags":{"name":"Coty","seamark:type":"gate","source":"cadastre-dgi-fr source : Direction Générale des Impôts - Cadastre ; mise à jour : 2009","waterway":"lock_gate"}}},{"type":"Feature","geometry":{"type":"Point","coordinates":[1.4474384,44.4454966]},"properties":{"osm_id":511191516,"osm_type":"node","seamark_type":"gate","display_class":"OTHER","min_zoom":12,"importance":1,"name":"Coty","ref":null,"common":{"type":"gate"},"children":{},"osm_tags":{"name":"Coty","seamark:type":"gate","source":"cadastre-dgi-fr source : Direction Générale des Impôts - Cadastre ; mise à jour : 2009","waterway":"lock_gate"}}},{"type":"Feature","geometry":{"type":"Polygon","coordinates":[[[1.3415586,44.0067445],[1.3385849,44.0077114],[1.3386828,44.0077377],[1.3390931,44.008053],[1.3391583,44.0080329],[1.3391784,44.0078125],[1.3401641,44.0074975],[1.3404339,44.0074078],[1.34165,44.0070037],[1.3416565,44.0069469],[1.3415586,44.0067445]]]},"properties":{"osm_id":154476659,"osm_type":"way","seamark_type":"harbour","display_class":"OTHER","min_zoom":12,"importance":1,"name":"Halte Nautique de Montauban","ref":null,"common":{"type":"harbour"},"children":{"harbour":{"category":"marina"}},"osm_tags":{"leisure":"marina","name":"Halte Nautique de Montauban","seamark:harbour:category":"marina","seamark:type":"harbour"}}},{"type":"Feature","geometry":{"type":"Polygon","coordinates":[[[1.1127887,44.0395886],[1.1127328,44.0395529],[1.1126961,44.0395338],[1.1126695,44.0395267],[1.1126352,44.0395278],[1.112601,44.0395373],[1.1125756,44.0395544],[1.1125438,44.0395771],[1.1106301,44.0411032],[1.1107965,44.0412125],[1.1108131,44.0413065],[1.1128547,44.0397003],[1.1128928,44.0397145],[1.1130081,44.0396894],[1.1146765,44.0383397],[1.1146361,44.0383184],[1.1141148,44.0387225],[1.1130233,44.0395908],[1.1129751,44.0396131],[1.1129193,44.0396231],[1.1128691,44.0396222],[1.1128371,44.0396167],[1.1127887,44.0395886]]]},"properties":{"osm_id":168851354,"osm_type":"way","seamark_type":"harbour","display_class":"OTHER","min_zoom":12,"importance":1,"name":"Halte nautique de Castelsarrasin","ref":null,"common":{"type":"harbour"},"children":{"harbour":{"category":"marina"}},"osm_tags":{"alt_name":"Port Jacques-Yves Cousteau","harbour:doctor":"yes","harbour:electricity":"yes","harbour:mechanics_workshop":"yes","harbour:pharmacy":"yes","harbour:slipway":"yes","harbour:telephone":"yes","harbour:toilets":"yes","harbour:visitor_berth":"40","harbour:water_tap":"yes","harbour_master":"yes","leisure":"marina","name":"Halte nautique de Castelsarrasin","operator":"vnf","phone":"+33 5 63 32 01 39","seamark:harbour:category":"marina","seamark:type":"harbour","wikipedia":"fr:Port Jacques-Yves Cousteau"}}},{"type":"Feature","geometry":{"type":"Point","coordinates":[1.3656283,44.1819941]},"properties":{"osm_id":14062288178,"osm_type":"node","seamark_type":"harbour","display_class":"OTHER","min_zoom":12,"importance":1,"name":"Modélisme naval","ref":null,"common":{"type":"harbour"},"children":{"harbour":{"category":"marina"}},"osm_tags":{"leisure":"marina","name":"Modélisme naval","seamark:harbour:category":"marina","seamark:type":"harbour"}}},{"type":"Feature","geometry":{"type":"Point","coordinates":[1.1113226,44.0405259]},"properties":{"osm_id":4140544634,"osm_type":"node","seamark_type":"harbour","display_class":"OTHER","min_zoom":12,"importance":1,"name":"Port Jacques-Yves Cousteau","ref":"5","common":{"type":"harbour"},"children":{"harbour":{"category":"marina"}},"osm_tags":{"leisure":"marina","name":"Port Jacques-Yves Cousteau","ref":"5","seamark:harbour:category":"marina","seamark:type":"harbour"}}},{"type":"Feature","geometry":{"type":"Point","coordinates":[1.5763204,44.4773587]},"properties":{"osm_id":1790101252,"osm_type":"node","seamark_type":"gate","display_class":"OTHER","min_zoom":12,"importance":1,"name":"Saint-Géry","ref":null,"common":{"type":"gate"},"children":{},"osm_tags":{"name":"Saint-Géry","seamark:type":"gate","waterway":"lock_gate"}}},{"type":"Feature","geometry":{"type":"Point","coordinates":[1.5758826,44.4774818]},"properties":{"osm_id":1790101268,"osm_type":"node","seamark_type":"gate","display_class":"OTHER","min_zoom":12,"importance":1,"name":"Saint-Géry","ref":null,"common":{"type":"gate"},"children":{},"osm_tags":{"name":"Saint-Géry","seamark:type":"gate","waterway":"lock_gate"}}},{"type":"Feature","geometry":{"type":"Point","coordinates":[1.4310701,44.4447933]},"properties":{"osm_id":1790100100,"osm_type":"node","seamark_type":"gate","display_class":"OTHER","min_zoom":12,"importance":1,"name":"Valentré","ref":null,"common":{"type":"gate"},"children":{},"osm_tags":{"name":"Valentré","seamark:type":"gate","waterway":"lock_gate"}}},{"type":"Feature","geometry":{"type":"Point","coordinates":[1.4309089,44.4451441]},"properties":{"osm_id":1790100121,"osm_type":"node","seamark_type":"gate","display_class":"OTHER","min_zoom":12,"importance":1,"name":"Valentré","ref":null,"common":{"type":"gate"},"children":{},"osm_tags":{"name":"Valentré","seamark:type":"gate","waterway":"lock_gate"}}},{"type":"Feature","geometry":{"type":"Point","coordinates":[1.5514812,44.4820339]},"properties":{"osm_id":1746783912,"osm_type":"node","seamark_type":"gate","display_class":"OTHER","min_zoom":12,"importance":1,"name":"Vers","ref":null,"common":{"type":"gate"},"children":{},"osm_tags":{"name":"Vers","seamark:type":"gate","waterway":"lock_gate"}}},{"type":"Feature","geometry":{"type":"Point","coordinates":[1.551611,44.4823502]},"properties":{"osm_id":1746783921,"osm_type":"node","seamark_type":"gate","display_class":"OTHER","min_zoom":12,"importance":1,"name":"Vers","ref":null,"common":{"type":"gate"},"children":{},"osm_tags":{"name":"Vers","seamark:type":"gate","waterway":"lock_gate"}}}],"type":"FeatureCollection"}