{"type":"FeatureCollection","features":[{"type":"Feature","geometry":{"type":"Point","coordinates":[146.5681196,44.4511422]},"properties":{"osm_id":1211610883,"osm_type":"node","seamark_type":"light_major","display_class":"LIGHTHOUSE","min_zoom":7,"importance":5,"name":"Mys Lovtsova","ref":null,"common":{"name":"Mys Lovtsova","type":"light_major"},"children":{"light":{"1:character":"Iso","1:colour":"white","1:height":"71","1:period":"6","1:range":"21","1:sector_end":"13","1:sector_start":"105","reference":"M 8058"}},"osm_tags":{"man_made":"lighthouse","seamark:light:1:character":"Iso","seamark:light:1:colour":"white","seamark:light:1:height":"71","seamark:light:1:period":"6","seamark:light:1:range":"21","seamark:light:1:sector_end":"13","seamark:light:1:sector_start":"105","seamark:light:reference":"M 8058","seamark:name":"Mys Lovtsova","seamark:type":"light_major","source":"US NGA Pub. 112. 2009-11-12."}}}],"type":"FeatureCollection"}