{"type":"FeatureCollection","features":[{"type":"Feature","geometry":{"type":"Polygon","coordinates":[[[48.0278825,44.4677163],[48.0265054,44.4662652],[48.0246488,44.465118],[48.0224395,44.4643528],[48.0200278,44.4640216],[48.0175783,44.4641473],[48.0152579,44.4647211],[48.0132246,44.4657041],[48.011617,44.467029],[48.0105448,44.4686056],[48.0100808,44.4703266],[48.0102569,44.4720747],[48.0110609,44.4737305],[48.0124382,44.4751814],[48.0142948,44.4763284],[48.0165041,44.4770936],[48.0189157,44.4774245],[48.0213652,44.4772989],[48.0236857,44.4767252],[48.025719,44.4757425],[48.0273265,44.4744177],[48.0283989,44.4728412],[48.0288627,44.4711203],[48.0286867,44.4693723],[48.0278825,44.4677163]]]},"properties":{"osm_id":1469713743,"osm_type":"way","seamark_type":"separation_zone","display_class":"TSS","min_zoom":6,"importance":5,"name":"TSS 4 Approaches to port Astrakhan","ref":null,"common":{"name":"TSS 4 Approaches to port Astrakhan","type":"separation_zone"},"children":{},"osm_tags":{"seamark:name":"TSS 4 Approaches to port Astrakhan","seamark:type":"separation_zone"}}},{"type":"Feature","geometry":{"type":"Polygon","coordinates":[[[48.0362596,44.464713],[48.0378677,44.4680252],[48.0382198,44.4715211],[48.037292,44.4749629],[48.0351475,44.4781159],[48.0319325,44.4807651],[48.0278658,44.4827303],[48.0232248,44.4838777],[48.0183258,44.4841289],[48.0135027,44.4834669],[48.009084,44.481937],[48.0053708,44.4796429],[48.0026163,44.4767414],[48.0010082,44.4734299],[48.000656,44.4699338],[48.0015839,44.4664919],[48.0037284,44.4633383],[48.0069436,44.4606882],[48.0110101,44.4587222],[48.015651,44.4575744],[48.0205501,44.4573231],[48.0253734,44.4579853],[48.029792,44.4595159],[48.0335051,44.4618107],[48.0362596,44.464713]]]},"properties":{"osm_id":1469713742,"osm_type":"way","seamark_type":"separation_lane","display_class":"OTHER","min_zoom":12,"importance":1,"name":null,"ref":null,"common":{"type":"separation_lane"},"children":{},"osm_tags":{"seamark:type":"separation_lane"}}},{"type":"Feature","geometry":{"type":"Point","coordinates":[48.0200386,44.4700206]},"properties":{"osm_id":13474407686,"osm_type":"node","seamark_type":"buoy_special_purpose","display_class":"OTHER","min_zoom":12,"importance":1,"name":"52","ref":null,"common":{"name":"52","type":"buoy_special_purpose"},"children":{"buoy_special_purpose":{"category":"tss","colour":"yellow","shape":"pillar"},"fog_signal":{"category":"whistle"},"light":{"character":"Fl","colour":"white","group":"1","period":"5","range":"4"}},"osm_tags":{"note":"Colour of light-Yellow. Range of visibility 4.00M. PERSTA -0415, PEREND - 1120. Whistle. Occas. PERSTA -0415, PEREND - 1120. TSS mark. Pillar buoy. Radar reflector. PERSTA -0415, PEREND - 1120","seamark:buoy_special_purpose:category":"tss","seamark:buoy_special_purpose:colour":"yellow","seamark:buoy_special_purpose:shape":"pillar","seamark:fog_signal:category":"whistle","seamark:light:character":"Fl","seamark:light:colour":"white","seamark:light:group":"1","seamark:light:period":"5","seamark:light:range":"4","seamark:name":"52","seamark:type":"buoy_special_purpose"}}},{"type":"Feature","geometry":{"type":"Point","coordinates":[48.1843346,44.3380325]},"properties":{"osm_id":13474408564,"osm_type":"node","seamark_type":"buoy_cardinal","display_class":"OTHER","min_zoom":12,"importance":1,"name":"53 of Bol'shaya Zhemchuzhnaya Bank","ref":null,"common":{"name":"53 of Bol'shaya Zhemchuzhnaya Bank","radar_reflector":"yes","type":"buoy_cardinal"},"children":{"buoy_cardinal":{"category":"west","colour":"yellow;black;yellow","colour_pattern":"horizontal","shape":"pillar"},"fog_signal":{"category":"whistle"},"light":{"character":"Q","colour":"white","group":"9","period":"15","range":"5"}},"osm_tags":{"note":"Range of visibility 5.00M. PERSTA -0415, PEREND - 1120. Whistle. Occas. PERSTA -0415, PEREND - 1120. Pillar buoy. Radar reflector. PERSTA -0415, PEREND - 1120.","seamark:buoy_cardinal:category":"west","seamark:buoy_cardinal:colour":"yellow;black;yellow","seamark:buoy_cardinal:colour_pattern":"horizontal","seamark:buoy_cardinal:shape":"pillar","seamark:fog_signal:category":"whistle","seamark:light:character":"Q","seamark:light:colour":"white","seamark:light:group":"9","seamark:light:period":"15","seamark:light:range":"5","seamark:name":"53 of Bol'shaya Zhemchuzhnaya Bank","seamark:radar_reflector":"yes","seamark:type":"buoy_cardinal"}}}],"type":"FeatureCollection"}