{"type":"FeatureCollection","features":[{"type":"Feature","geometry":{"type":"Polygon","coordinates":[[[144.2432785,44.1122131],[144.2432735,44.1122025],[144.2432639,44.1121938],[144.2432507,44.112188],[144.2432355,44.1121857],[144.2432201,44.1121873],[144.2432065,44.1121925],[144.2431961,44.1122008],[144.2431905,44.1122101],[144.2431892,44.1122203],[144.2431924,44.1122302],[144.2431998,44.1122389],[144.2432105,44.1122455],[144.2432236,44.1122494],[144.2432378,44.1122502],[144.2432515,44.1122477],[144.2432635,44.1122424],[144.2432726,44.1122346],[144.2432782,44.1122242],[144.2432785,44.1122131]]]},"properties":{"osm_id":405993345,"osm_type":"way","seamark_type":"light_major","display_class":"LIGHTHOUSE","min_zoom":7,"importance":5,"name":"能取岬灯台","ref":null,"common":{"type":"light_major"},"children":{},"osm_tags":{"building":"yes","man_made":"lighthouse","name":"能取岬灯台","name:en":"light station of Cape Notoro","name:ja":"能取岬灯台","name:ja-Hira":"のとろみさきとうだい","name:ja-Latn":"Notoro Misaki Tōdai","operator":"海上保安庁","seamark:type":"light_major","wikidata":"Q55532727","wikipedia":"ja:能取岬灯台"}}}],"type":"FeatureCollection"}