{"type":"FeatureCollection","features":[{"type":"Feature","geometry":{"type":"LineString","coordinates":[[-4.34793,47.8322],[-4.34822,47.83223],[-4.34858,47.83227],[-4.3584,47.83285],[-4.36243,47.83305],[-4.3647,47.83328],[-4.36953,47.83362],[-4.37987,47.83328],[-4.4312,47.82362],[-4.44237,47.81878],[-4.51153,47.79393],[-4.55837,47.77227],[-4.5782,47.76727],[-4.6282,47.72643],[-4.67153,47.70227],[-4.67653,47.69893],[-4.6982,47.69227],[-4.7982,47.65727],[-4.8132,47.65227],[-4.86987,47.59893],[-4.90487,47.5656],[-4.94987,47.5556],[-5.00367,47.53933],[-5.00617,47.54067],[-5.025,47.53833],[-5.01817,47.53517],[-5.04653,47.52727],[-5.05153,47.52393],[-5.12487,47.46558],[-5.14987,47.44558],[-5.21487,47.42892],[-5.29487,47.41225],[-5.30987,47.39558],[-5.3232,47.38225],[-5.33653,47.36725],[-5.38487,47.32392],[-5.40987,47.31558],[-5.51653,47.29558],[-5.5382,47.29225],[-5.5682,47.23558],[-5.58667,47.1895],[-5.583,47.18883],[-5.59122,47.18192],[-5.59833,47.16868],[-5.62232,47.12697],[-5.62562,47.12105],[-5.63133,47.1105],[-5.63167,47.1085],[-5.63333,47.109],[-5.63683,47.1],[-5.67153,47.0439],[-5.69237,47.0364],[-5.75487,47.01973],[-5.79987,47.0089],[-5.84153,46.9989],[-5.89237,46.96057],[-5.9332,46.93057],[-5.9832,46.91223],[-6.08653,46.8789],[-6.15153,46.85723],[-6.18153,46.83723],[-6.24653,46.7689],[-6.32487,46.70555],[-6.40153,46.63888],[-6.48153,46.57222],[-6.50153,46.55722],[-6.5182,46.54222],[-6.59487,46.47888],[-6.67153,46.41222],[-6.74987,46.34722],[-6.7582,46.34222],[-6.83153,46.28553],[-6.92153,46.22887],[-7.0132,46.17553],[-7.10653,46.1222],[-7.20153,46.07053],[-7.29153,46.01387],[-7.37987,45.9572],[-7.4432,45.91552],[-7.4682,45.90218],[-7.55487,45.84718],[-7.63487,45.78552],[-7.7132,45.72552],[-7.79653,45.66552],[-7.87987,45.60383],[-7.8982,45.58883],[-7.91653,45.57552],[-8.00153,45.51552],[-8.08487,45.45552],[-8.1732,45.39717],[-8.26153,45.33883],[-8.34487,45.27883],[-8.43487,45.2255],[-8.52818,45.17217],[-8.62318,45.11717],[-8.69653,45.05382],[-8.79318,45.00215],[-8.87487,44.94215],[-8.95818,44.88048],[-9.04318,44.81882],[-9.12818,44.76213],[-9.22818,44.71213],[-9.32153,44.65213],[-9.33487,44.63547],[-9.34818,44.6188],[-9.40487,44.5488],[-9.44318,44.4988],[-9.47152,44.4788],[-9.54818,44.4138],[-9.62818,44.35047],[-9.78987,44.28878],[-9.78985,44.22547],[-9.87985,44.16378],[-9.96652,44.10545],[-10.05818,44.04545],[-10.14318,43.98545],[-10.22818,43.92545],[-10.31985,43.86878],[-10.33152,43.85212],[-10.36985,43.79212],[-10.39152,43.70877],[-10.39068,43.69627],[-10.40152,43.6521],[-10.43985,43.5671],[-10.44485,43.5521],[-10.44818,43.53377],[-10.47818,43.4521],[-10.49483,43.37043],[-10.51317,43.2871],[-10.52983,43.20377],[-10.55483,43.11877],[-10.5815,43.03377],[-10.60483,42.95542],[-10.60817,42.95208],[-10.69817,42.90208],[-10.79317,42.85542],[-10.88817,42.80542],[-10.98483,42.75708],[-10.98817,42.75042],[-11.0165,42.67542],[-11.05483,42.59708],[-11.09317,42.51873],[-11.12483,42.45707],[-11.12648,42.43542],[-11.15317,42.3554],[-11.15817,42.33373],[-11.16148,42.31873],[-11.17648,42.2304],[-11.18982,42.1454],[-11.19815,42.06207],[-11.21815,41.97873],[-11.22982,41.91707],[-11.22982,41.90207],[-11.21815,41.81707],[-11.20482,41.73207],[-11.18813,41.64538],[-11.18482,41.56207],[-11.19647,41.47707],[-11.21813,41.39372],[-11.23313,41.31372],[-11.22313,41.23205],[-11.21813,41.15038],[-11.2148,41.06538],[-11.20647,40.98538],[-11.20478,40.96872],[-11.20313,40.94872],[-11.20313,40.86705],[-11.20647,40.78372],[-11.20812,40.73372],[-11.20647,40.69872],[-11.21145,40.61372],[-11.22145,40.52703],[-11.22478,40.44203],[-11.23312,40.35703],[-11.23478,40.2737],[-11.23812,40.1887],[-11.24143,40.10537],[-11.24477,40.0187],[-11.24477,39.9387],[-11.25143,39.85203],[-11.25143,39.83203],[-11.2481,39.7687],[-11.2481,39.68037],[-11.25143,39.59537],[-11.25143,39.57868],[-11.2481,39.56037],[-11.23643,39.48537],[-11.22143,39.40368],[-11.22477,39.31868],[-11.22643,39.23702],[-11.22977,39.15535],[-11.21142,39.07535],[-11.20808,39.06535],[-11.15475,39.00368],[-11.08225,38.94285],[-11.08142,38.94202],[-11.01808,38.87368],[-10.93475,38.82535],[-10.80808,38.80368],[-10.71142,38.77368],[-10.62473,38.72368],[-10.53642,38.67202],[-10.44473,38.62368],[-10.35307,38.57202],[-10.33807,38.56368],[-10.31807,38.55202],[-10.23473,38.50202],[-10.1514,38.44368],[-10.1014,38.41537],[-10.05973,38.39868],[-9.96473,38.35368],[-9.87557,38.31868],[-9.79472,38.28203],[-9.70722,38.24287],[-9.61472,38.23703],[-9.52138,38.25787],[-9.51022,38.26253],[-9.46805,38.29203],[-9.36472,38.31787],[-9.33638,38.3287],[-9.31555,38.35537],[-9.30305,38.37453],[-9.26972,38.41703],[-9.26722,38.4212],[-9.25805,38.43287],[-9.23638,38.4587],[-9.21422,38.47137],[-9.20072,38.4772],[-9.185,38.48583]]},"properties":{"osm_id":761201731,"osm_type":"way","seamark_type":"cable_submarine","display_class":"OTHER","min_zoom":12,"importance":1,"name":"TAGIDE","ref":null,"common":{"type":"cable_submarine"},"children":{"cable_submarine":{"category":"fiber_optic","name":"TAGIDE"}},"osm_tags":{"communication":"line","location":"underwater","name":"TAGIDE","seamark:cable_submarine:category":"fiber_optic","seamark:cable_submarine:name":"TAGIDE","seamark:type":"cable_submarine","source":"https://www.sigcables.com/index.php/cableliste/fiche_cable/35"}}}],"type":"FeatureCollection"}