{"type":"FeatureCollection","features":[{"type":"Feature","geometry":{"type":"LineString","coordinates":[[-4.34665,47.83228],[-4.3761,47.8365218],[-4.38,47.83708],[-4.41657,47.8308],[-4.44692,47.82972],[-4.45962,47.83],[-4.46068,47.83007],[-4.46217,47.83017],[-4.463,47.8313],[-4.47203,47.83247],[-4.47692,47.83067],[-4.47813,47.83103],[-4.47887,47.831],[-4.482,47.83103],[-4.53002,47.83267],[-4.53488,47.8329],[-4.54633,47.83333],[-4.54695,47.83307],[-4.5966,47.81818],[-4.62305,47.80977],[-4.625,47.80862],[-4.63317,47.8048],[-4.64693,47.79842],[-4.65417,47.79713],[-4.65908,47.79705],[-4.82133,47.79433],[-4.82233,47.79408],[-4.82297,47.79395],[-4.83007,47.7925],[-4.84228,47.7942],[-4.88118,47.78655],[-4.90993,47.76185],[-4.91378,47.75775],[-4.9163,47.75548],[-4.91707,47.75428],[-4.91988,47.7499],[-4.95032,47.7209],[-4.97765,47.70287],[-4.98135,47.70067],[-4.99078,47.69452],[-5.01582,47.67848],[-5.0377,47.66453],[-5.04202,47.66167],[-5.32412,47.48012],[-5.32785,47.47788],[-5.4666,47.38832],[-5.7485,47.31053],[-5.87503,47.27545],[-5.93373,47.19612],[-5.93357,47.19477],[-5.9757,47.13807],[-5.97632,47.13723],[-5.97778,47.13583],[-5.98458,47.12275],[-5.99132,47.1163],[-6.07185,47.05227],[-6.10537,46.9953],[-6.2044,46.87442],[-6.2057,46.8733],[-6.211,46.86958],[-6.71628,46.45955],[-6.91775,46.29757],[-6.95213,46.27757],[-7.54838,45.92768],[-7.65692,45.9154],[-8.07382,45.86617],[-8.68725,45.49552],[-9.28397,45.13283],[-9.57185,44.90417],[-9.82422,44.70358],[-10.37243,44.26415],[-10.55627,44.11628],[-10.70007,43.99998],[-10.88122,43.5081],[-11.00442,43.16652],[-11.31998,42.71255],[-11.52522,42.4164],[-11.51863,42.36427],[-11.50922,42.29213],[-11.4967,42.19277],[-11.4733,41.99847],[-11.4609,41.89983],[-11.37002,41.20007],[-11.38402,41.18575],[-11.48913,41.06697],[-11.5292,41.02488],[-11.48313,40.91662],[-11.5275,40.22505],[-11.54168,39.99977],[-11.41673,39.36983],[-11.39993,39.28317],[-11.54208,38.86672],[-11.2404,38.60622],[-10.92462,38.33323],[-10.73298,38.21678],[-10.53457,38.22305],[-10.48292,38.22485],[-10.38608,38.15925],[-10.21562,38.04465],[-10.12455,37.98353],[-10.11777,37.98313],[-9.86823,37.98343],[-9.74972,37.98312],[-9.71917,37.96542],[-9.64167,37.94187],[-9.54263,37.99488],[-9.5334,37.99987],[-9.49145,38.04112],[-9.31665,38.21665],[-9.1695,38.31437],[-9.1693,38.31448],[-9.16295,38.31812],[-9.14085,38.333],[-9.13052,38.34875],[-9.12065,38.36103],[-9.11847,38.36447],[-9.11512,38.37323],[-9.1019,38.39423],[-9.09378,38.41152],[-9.08882,38.4188],[-9.08775,38.42475],[-9.08763,38.42768],[-9.08748,38.42823],[-9.08765,38.43058],[-9.08778,38.43097],[-9.09355,38.44113]]},"properties":{"osm_id":761201730,"osm_type":"way","seamark_type":"cable_submarine","display_class":"OTHER","min_zoom":12,"importance":1,"name":"SEA ME WE3-S9","ref":null,"common":{"type":"cable_submarine"},"children":{"cable_submarine":{"category":"fiber_optic","name":"SEA ME WE3-S9"}},"osm_tags":{"communication":"line","location":"underwater","name":"SEA ME WE3-S9","seamark:cable_submarine:category":"fiber_optic","seamark:cable_submarine:name":"SEA ME WE3-S9","seamark:type":"cable_submarine","source":"https://www.sigcables.com/index.php/cableliste/fiche_cable/34","wikidata":"Q530880","wikipedia":"en:SEA-ME-WE 3"}}}],"type":"FeatureCollection"}