{"type":"FeatureCollection","features":[{"type":"Feature","geometry":{"type":"Polygon","coordinates":[[[-93.2717594,44.993119],[-93.2717396,44.9931243],[-93.2717232,44.9931148],[-93.2717266,44.9931001],[-93.2717464,44.9930948],[-93.2717628,44.9931043],[-93.2717594,44.993119]]]},"properties":{"osm_id":948785865,"osm_type":"way","seamark_type":"landmark","display_class":"LIGHTHOUSE","min_zoom":7,"importance":5,"name":"Boom Island Lighthouse","ref":null,"common":{"type":"landmark"},"children":{},"osm_tags":{"addr:city":"Minneapolis","man_made":"lighthouse","name":"Boom Island Lighthouse","seamark:type":"landmark"}}},{"type":"Feature","geometry":{"type":"Point","coordinates":[-93.5304843,44.9598724]},"properties":{"osm_id":34515673,"osm_type":"node","seamark_type":"beacon_isolated_danger","display_class":"BEACON","min_zoom":9,"importance":4,"name":null,"ref":null,"common":{"type":"beacon_isolated_danger"},"children":{},"osm_tags":{"seamark:type":"beacon_isolated_danger"}}},{"type":"Feature","geometry":{"type":"Point","coordinates":[-93.5216194,44.9705036]},"properties":{"osm_id":3412074680,"osm_type":"node","seamark_type":"beacon_isolated_danger","display_class":"BEACON","min_zoom":9,"importance":4,"name":null,"ref":null,"common":{"type":"beacon_isolated_danger"},"children":{"beacon_isolated_danger":{"shape":"tower"}},"osm_tags":{"seamark:beacon_isolated_danger:shape":"tower","seamark:type":"beacon_isolated_danger"}}},{"type":"Feature","geometry":{"type":"Point","coordinates":[-93.6704473,44.8949518]},"properties":{"osm_id":6724214675,"osm_type":"node","seamark_type":"beacon_isolated_danger","display_class":"BEACON","min_zoom":9,"importance":4,"name":null,"ref":null,"common":{"type":"beacon_isolated_danger"},"children":{},"osm_tags":{"seamark:type":"beacon_isolated_danger"}}},{"type":"Feature","geometry":{"type":"Point","coordinates":[-93.6703257,44.8950975]},"properties":{"osm_id":6724214676,"osm_type":"node","seamark_type":"beacon_isolated_danger","display_class":"BEACON","min_zoom":9,"importance":4,"name":null,"ref":null,"common":{"type":"beacon_isolated_danger"},"children":{},"osm_tags":{"seamark:type":"beacon_isolated_danger"}}},{"type":"Feature","geometry":{"type":"Point","coordinates":[-93.6702501,44.8952651]},"properties":{"osm_id":6724214677,"osm_type":"node","seamark_type":"beacon_isolated_danger","display_class":"BEACON","min_zoom":9,"importance":4,"name":null,"ref":null,"common":{"type":"beacon_isolated_danger"},"children":{},"osm_tags":{"seamark:type":"beacon_isolated_danger"}}},{"type":"Feature","geometry":{"type":"Point","coordinates":[-93.6701897,44.8954163]},"properties":{"osm_id":6724214678,"osm_type":"node","seamark_type":"beacon_isolated_danger","display_class":"BEACON","min_zoom":9,"importance":4,"name":null,"ref":null,"common":{"type":"beacon_isolated_danger"},"children":{},"osm_tags":{"seamark:type":"beacon_isolated_danger"}}},{"type":"Feature","geometry":{"type":"Point","coordinates":[-93.6699617,44.8954338]},"properties":{"osm_id":6724214679,"osm_type":"node","seamark_type":"beacon_isolated_danger","display_class":"BEACON","min_zoom":9,"importance":4,"name":null,"ref":null,"common":{"type":"beacon_isolated_danger"},"children":{},"osm_tags":{"seamark:type":"beacon_isolated_danger"}}},{"type":"Feature","geometry":{"type":"Point","coordinates":[-93.6697527,44.8953696]},"properties":{"osm_id":6724214680,"osm_type":"node","seamark_type":"beacon_isolated_danger","display_class":"BEACON","min_zoom":9,"importance":4,"name":null,"ref":null,"common":{"type":"beacon_isolated_danger"},"children":{},"osm_tags":{"seamark:type":"beacon_isolated_danger"}}},{"type":"Feature","geometry":{"type":"Point","coordinates":[-93.6696756,44.8952113]},"properties":{"osm_id":6724214681,"osm_type":"node","seamark_type":"beacon_isolated_danger","display_class":"BEACON","min_zoom":9,"importance":4,"name":null,"ref":null,"common":{"type":"beacon_isolated_danger"},"children":{},"osm_tags":{"seamark:type":"beacon_isolated_danger"}}},{"type":"Feature","geometry":{"type":"Point","coordinates":[-93.6696465,44.8950584]},"properties":{"osm_id":6724214682,"osm_type":"node","seamark_type":"beacon_isolated_danger","display_class":"BEACON","min_zoom":9,"importance":4,"name":null,"ref":null,"common":{"type":"beacon_isolated_danger"},"children":{},"osm_tags":{"seamark:type":"beacon_isolated_danger"}}},{"type":"Feature","geometry":{"type":"Point","coordinates":[-93.6696499,44.8948953]},"properties":{"osm_id":6724214683,"osm_type":"node","seamark_type":"beacon_isolated_danger","display_class":"BEACON","min_zoom":9,"importance":4,"name":null,"ref":null,"common":{"type":"beacon_isolated_danger"},"children":{},"osm_tags":{"seamark:type":"beacon_isolated_danger"}}},{"type":"Feature","geometry":{"type":"Point","coordinates":[-93.6698466,44.8948423]},"properties":{"osm_id":6724214684,"osm_type":"node","seamark_type":"beacon_isolated_danger","display_class":"BEACON","min_zoom":9,"importance":4,"name":null,"ref":null,"common":{"type":"beacon_isolated_danger"},"children":{},"osm_tags":{"seamark:type":"beacon_isolated_danger"}}},{"type":"Feature","geometry":{"type":"Point","coordinates":[-93.6700768,44.8948415]},"properties":{"osm_id":6724214985,"osm_type":"node","seamark_type":"beacon_isolated_danger","display_class":"BEACON","min_zoom":9,"importance":4,"name":null,"ref":null,"common":{"type":"beacon_isolated_danger"},"children":{},"osm_tags":{"seamark:type":"beacon_isolated_danger"}}},{"type":"Feature","geometry":{"type":"Point","coordinates":[-93.6703037,44.8948407]},"properties":{"osm_id":6724214986,"osm_type":"node","seamark_type":"beacon_isolated_danger","display_class":"BEACON","min_zoom":9,"importance":4,"name":null,"ref":null,"common":{"type":"beacon_isolated_danger"},"children":{},"osm_tags":{"seamark:type":"beacon_isolated_danger"}}},{"type":"Feature","geometry":{"type":"Point","coordinates":[-93.5520459,44.9675197]},"properties":{"osm_id":7060340886,"osm_type":"node","seamark_type":"beacon_isolated_danger","display_class":"BEACON","min_zoom":9,"importance":4,"name":null,"ref":null,"common":{"type":"beacon_isolated_danger"},"children":{},"osm_tags":{"seamark:type":"beacon_isolated_danger"}}},{"type":"Feature","geometry":{"type":"Point","coordinates":[-93.2003398,44.941797]},"properties":{"osm_id":3489312693,"osm_type":"node","seamark_type":"buoy_lateral","display_class":"OTHER","min_zoom":12,"importance":1,"name":null,"ref":null,"common":{"type":"buoy_lateral"},"children":{"buoy_lateral":{"category":"port","colour":"green"},"topmark":{"shape":"cylinder"}},"osm_tags":{"man_made":"buoy","seamark:buoy_lateral:category":"port","seamark:buoy_lateral:colour":"green","seamark:topmark:shape":"cylinder","seamark:type":"buoy_lateral"}}},{"type":"Feature","geometry":{"type":"Point","coordinates":[-93.2008836,44.9261683]},"properties":{"osm_id":3575104496,"osm_type":"node","seamark_type":"buoy_lateral","display_class":"OTHER","min_zoom":12,"importance":1,"name":null,"ref":null,"common":{"type":"buoy_lateral"},"children":{"buoy_lateral":{"category":"port","colour":"green"},"topmark":{"shape":"cylinder"}},"osm_tags":{"fixme":"confirm color","man_made":"buoy","seamark:buoy_lateral:category":"port","seamark:buoy_lateral:colour":"green","seamark:topmark:shape":"cylinder","seamark:type":"buoy_lateral"}}},{"type":"Feature","geometry":{"type":"Point","coordinates":[-93.2001165,44.9386513]},"properties":{"osm_id":3575104501,"osm_type":"node","seamark_type":"buoy_lateral","display_class":"OTHER","min_zoom":12,"importance":1,"name":null,"ref":null,"common":{"type":"buoy_lateral"},"children":{"buoy_lateral":{"category":"port","colour":"green"},"topmark":{"shape":"cylinder"}},"osm_tags":{"man_made":"buoy","seamark:buoy_lateral:category":"port","seamark:buoy_lateral:colour":"green","seamark:topmark:shape":"cylinder","seamark:type":"buoy_lateral"}}},{"type":"Feature","geometry":{"type":"Point","coordinates":[-93.2154592,44.9577283]},"properties":{"osm_id":3575104508,"osm_type":"node","seamark_type":"buoy_lateral","display_class":"OTHER","min_zoom":12,"importance":1,"name":null,"ref":null,"common":{"type":"buoy_lateral"},"children":{"buoy_lateral":{"category":"starboard","colour":"red"},"topmark":{"shape":"cylinder"}},"osm_tags":{"man_made":"buoy","seamark:buoy_lateral:category":"starboard","seamark:buoy_lateral:colour":"red","seamark:topmark:shape":"cylinder","seamark:type":"buoy_lateral"}}},{"type":"Feature","geometry":{"type":"Point","coordinates":[-93.2186967,44.9606245]},"properties":{"osm_id":3575104514,"osm_type":"node","seamark_type":"buoy_lateral","display_class":"OTHER","min_zoom":12,"importance":1,"name":null,"ref":null,"common":{"type":"buoy_lateral"},"children":{"buoy_lateral":{"category":"starboard","colour":"red"},"topmark":{"shape":"cylinder"}},"osm_tags":{"man_made":"buoy","seamark:buoy_lateral:category":"starboard","seamark:buoy_lateral:colour":"red","seamark:topmark:shape":"cylinder","seamark:type":"buoy_lateral"}}},{"type":"Feature","geometry":{"type":"Point","coordinates":[-93.2135495,44.9568022]},"properties":{"osm_id":3575104517,"osm_type":"node","seamark_type":"buoy_lateral","display_class":"OTHER","min_zoom":12,"importance":1,"name":null,"ref":null,"common":{"type":"buoy_lateral"},"children":{"buoy_lateral":{"category":"port","colour":"green"},"topmark":{"shape":"cylinder"}},"osm_tags":{"fixme":"confirm color","man_made":"buoy","seamark:buoy_lateral:category":"port","seamark:buoy_lateral:colour":"green","seamark:topmark:shape":"cylinder","seamark:type":"buoy_lateral"}}},{"type":"Feature","geometry":{"type":"Point","coordinates":[-93.2000789,44.9321405]},"properties":{"osm_id":3575104524,"osm_type":"node","seamark_type":"buoy_lateral","display_class":"OTHER","min_zoom":12,"importance":1,"name":null,"ref":null,"common":{"type":"buoy_lateral"},"children":{"buoy_lateral":{"category":"port","colour":"green"},"topmark":{"shape":"cylinder"}},"osm_tags":{"fixme":"confirm color","man_made":"buoy","seamark:buoy_lateral:category":"port","seamark:buoy_lateral:colour":"green","seamark:topmark:shape":"cylinder","seamark:type":"buoy_lateral"}}},{"type":"Feature","geometry":{"type":"Point","coordinates":[-93.243888,44.9104989]},"properties":{"osm_id":4917417609,"osm_type":"node","seamark_type":"mooring","display_class":"OTHER","min_zoom":12,"importance":1,"name":null,"ref":"5","common":{"type":"mooring"},"children":{"mooring":{"category":"buoy"}},"osm_tags":{"mooring":"yes","ref":"5","seamark:mooring:category":"buoy","seamark:type":"mooring"}}},{"type":"Feature","geometry":{"type":"Point","coordinates":[-93.2444245,44.9101884]},"properties":{"osm_id":4917417610,"osm_type":"node","seamark_type":"mooring","display_class":"OTHER","min_zoom":12,"importance":1,"name":null,"ref":"17","common":{"type":"mooring"},"children":{"mooring":{"category":"buoy"}},"osm_tags":{"mooring":"yes","ref":"17","seamark:mooring:category":"buoy","seamark:type":"mooring"}}},{"type":"Feature","geometry":{"type":"Point","coordinates":[-93.2440664,44.910309]},"properties":{"osm_id":4917417611,"osm_type":"node","seamark_type":"mooring","display_class":"OTHER","min_zoom":12,"importance":1,"name":null,"ref":"14","common":{"type":"mooring"},"children":{"mooring":{"category":"buoy"}},"osm_tags":{"mooring":"yes","ref":"14","seamark:mooring:category":"buoy","seamark:type":"mooring"}}},{"type":"Feature","geometry":{"type":"Point","coordinates":[-93.2441789,44.9101123]},"properties":{"osm_id":4917417612,"osm_type":"node","seamark_type":"mooring","display_class":"OTHER","min_zoom":12,"importance":1,"name":null,"ref":"22","common":{"type":"mooring"},"children":{"mooring":{"category":"buoy"}},"osm_tags":{"mooring":"yes","ref":"22","seamark:mooring:category":"buoy","seamark:type":"mooring"}}},{"type":"Feature","geometry":{"type":"Point","coordinates":[-93.2439283,44.9103432]},"properties":{"osm_id":4917417613,"osm_type":"node","seamark_type":"mooring","display_class":"OTHER","min_zoom":12,"importance":1,"name":null,"ref":"13","common":{"type":"mooring"},"children":{"mooring":{"category":"buoy"}},"osm_tags":{"mooring":"yes","ref":"13","seamark:mooring:category":"buoy","seamark:type":"mooring"}}},{"type":"Feature","geometry":{"type":"Point","coordinates":[-93.2446592,44.9102605]},"properties":{"osm_id":4917417614,"osm_type":"node","seamark_type":"mooring","display_class":"OTHER","min_zoom":12,"importance":1,"name":null,"ref":"11","common":{"type":"mooring"},"children":{"mooring":{"category":"buoy"}},"osm_tags":{"mooring":"yes","ref":"11","seamark:mooring:category":"buoy","seamark:type":"mooring"}}},{"type":"Feature","geometry":{"type":"Point","coordinates":[-93.2441616,44.9104306]},"properties":{"osm_id":4917417615,"osm_type":"node","seamark_type":"mooring","display_class":"OTHER","min_zoom":12,"importance":1,"name":null,"ref":"7","common":{"type":"mooring"},"children":{"mooring":{"category":"buoy"}},"osm_tags":{"mooring":"yes","ref":"7","seamark:mooring:category":"buoy","seamark:type":"mooring"}}},{"type":"Feature","geometry":{"type":"Point","coordinates":[-93.2439724,44.9101864]},"properties":{"osm_id":4917417616,"osm_type":"node","seamark_type":"mooring","display_class":"OTHER","min_zoom":12,"importance":1,"name":null,"ref":"21","common":{"type":"mooring"},"children":{"mooring":{"category":"buoy"}},"osm_tags":{"mooring":"yes","ref":"21","seamark:mooring:category":"buoy","seamark:type":"mooring"}}},{"type":"Feature","geometry":{"type":"Point","coordinates":[-93.2441938,44.9102662]},"properties":{"osm_id":4917417617,"osm_type":"node","seamark_type":"mooring","display_class":"OTHER","min_zoom":12,"importance":1,"name":null,"ref":"15","common":{"type":"mooring"},"children":{"mooring":{"category":"buoy"}},"osm_tags":{"mooring":"yes","ref":"15","seamark:mooring:category":"buoy","seamark:type":"mooring"}}},{"type":"Feature","geometry":{"type":"Point","coordinates":[-93.2443158,44.9102263]},"properties":{"osm_id":4917417618,"osm_type":"node","seamark_type":"mooring","display_class":"OTHER","min_zoom":12,"importance":1,"name":null,"ref":"16","common":{"type":"mooring"},"children":{"mooring":{"category":"buoy"}},"osm_tags":{"mooring":"yes","ref":"16","seamark:mooring:category":"buoy","seamark:type":"mooring"}}},{"type":"Feature","geometry":{"type":"Point","coordinates":[-93.2444312,44.9103688]},"properties":{"osm_id":4917417619,"osm_type":"node","seamark_type":"mooring","display_class":"OTHER","min_zoom":12,"importance":1,"name":null,"ref":"9","common":{"type":"mooring"},"children":{"mooring":{"category":"buoy"}},"osm_tags":{"mooring":"yes","ref":"9","seamark:mooring:category":"buoy","seamark:type":"mooring"}}},{"type":"Feature","geometry":{"type":"Point","coordinates":[-93.2444044,44.9105492]},"properties":{"osm_id":4917417620,"osm_type":"node","seamark_type":"mooring","display_class":"OTHER","min_zoom":12,"importance":1,"name":null,"ref":"1","common":{"type":"mooring"},"children":{"mooring":{"category":"buoy"}},"osm_tags":{"mooring":"yes","ref":"1","seamark:mooring:category":"buoy","seamark:type":"mooring"}}},{"type":"Feature","geometry":{"type":"Point","coordinates":[-93.2444513,44.9100051]},"properties":{"osm_id":4917418521,"osm_type":"node","seamark_type":"mooring","display_class":"OTHER","min_zoom":12,"importance":1,"name":null,"ref":"24","common":{"type":"mooring"},"children":{"mooring":{"category":"buoy"}},"osm_tags":{"mooring":"yes","ref":"24","seamark:mooring:category":"buoy","seamark:type":"mooring"}}},{"type":"Feature","geometry":{"type":"Point","coordinates":[-93.2445344,44.9104913]},"properties":{"osm_id":4917418522,"osm_type":"node","seamark_type":"mooring","display_class":"OTHER","min_zoom":12,"importance":1,"name":null,"ref":"2","common":{"type":"mooring"},"children":{"mooring":{"category":"buoy"}},"osm_tags":{"mooring":"yes","ref":"2","seamark:mooring:category":"buoy","seamark:type":"mooring"}}},{"type":"Feature","geometry":{"type":"Point","coordinates":[-93.2445479,44.9103042]},"properties":{"osm_id":4917418523,"osm_type":"node","seamark_type":"mooring","display_class":"OTHER","min_zoom":12,"importance":1,"name":null,"ref":"10","common":{"type":"mooring"},"children":{"mooring":{"category":"buoy"}},"osm_tags":{"mooring":"yes","ref":"10","seamark:mooring:category":"buoy","seamark:type":"mooring"}}},{"type":"Feature","geometry":{"type":"Point","coordinates":[-93.2440342,44.9104657]},"properties":{"osm_id":4917418524,"osm_type":"node","seamark_type":"mooring","display_class":"OTHER","min_zoom":12,"importance":1,"name":null,"ref":"6","common":{"type":"mooring"},"children":{"mooring":{"category":"buoy"}},"osm_tags":{"mooring":"yes","ref":"6","seamark:mooring:category":"buoy","seamark:type":"mooring"}}},{"type":"Feature","geometry":{"type":"Point","coordinates":[-93.2436908,44.9102643]},"properties":{"osm_id":4917418525,"osm_type":"node","seamark_type":"mooring","display_class":"OTHER","min_zoom":12,"importance":1,"name":null,"ref":"19","common":{"type":"mooring"},"children":{"mooring":{"category":"buoy"}},"osm_tags":{"mooring":"yes","ref":"19","seamark:mooring:category":"buoy","seamark:type":"mooring"}}},{"type":"Feature","geometry":{"type":"Point","coordinates":[-93.2443024,44.9104087]},"properties":{"osm_id":4917418526,"osm_type":"node","seamark_type":"mooring","display_class":"OTHER","min_zoom":12,"importance":1,"name":null,"ref":"8","common":{"type":"mooring"},"children":{"mooring":{"category":"buoy"}},"osm_tags":{"mooring":"yes","ref":"8","seamark:mooring:category":"buoy","seamark:type":"mooring"}}},{"type":"Feature","geometry":{"type":"Point","coordinates":[-93.2438343,44.9102225]},"properties":{"osm_id":4917418527,"osm_type":"node","seamark_type":"mooring","display_class":"OTHER","min_zoom":12,"importance":1,"name":null,"ref":"20","common":{"type":"mooring"},"children":{"mooring":{"category":"buoy"}},"osm_tags":{"mooring":"yes","ref":"20","seamark:mooring:category":"buoy","seamark:type":"mooring"}}},{"type":"Feature","geometry":{"type":"Point","coordinates":[-93.2445613,44.9101304]},"properties":{"osm_id":4917418528,"osm_type":"node","seamark_type":"mooring","display_class":"OTHER","min_zoom":12,"importance":1,"name":null,"ref":"18","common":{"type":"mooring"},"children":{"mooring":{"category":"buoy"}},"osm_tags":{"mooring":"yes","ref":"18","seamark:mooring:category":"buoy","seamark:type":"mooring"}}},{"type":"Feature","geometry":{"type":"Point","coordinates":[-93.2447437,44.9104058]},"properties":{"osm_id":4917418529,"osm_type":"node","seamark_type":"mooring","display_class":"OTHER","min_zoom":12,"importance":1,"name":null,"ref":"4","common":{"type":"mooring"},"children":{"mooring":{"category":"buoy"}},"osm_tags":{"mooring":"yes","ref":"4","seamark:mooring:category":"buoy","seamark:type":"mooring"}}},{"type":"Feature","geometry":{"type":"Point","coordinates":[-93.2443051,44.9100535]},"properties":{"osm_id":4917418530,"osm_type":"node","seamark_type":"mooring","display_class":"OTHER","min_zoom":12,"importance":1,"name":null,"ref":"23","common":{"type":"mooring"},"children":{"mooring":{"category":"buoy"}},"osm_tags":{"mooring":"yes","ref":"23","seamark:mooring:category":"buoy","seamark:type":"mooring"}}},{"type":"Feature","geometry":{"type":"Point","coordinates":[-93.2446498,44.9104486]},"properties":{"osm_id":4917418531,"osm_type":"node","seamark_type":"mooring","display_class":"OTHER","min_zoom":12,"importance":1,"name":null,"ref":"3","common":{"type":"mooring"},"children":{"mooring":{"category":"buoy"}},"osm_tags":{"mooring":"yes","ref":"3","seamark:mooring:category":"buoy","seamark:type":"mooring"}}},{"type":"Feature","geometry":{"type":"Point","coordinates":[-93.2438009,44.9103821]},"properties":{"osm_id":4917418532,"osm_type":"node","seamark_type":"mooring","display_class":"OTHER","min_zoom":12,"importance":1,"name":null,"ref":"12","common":{"type":"mooring"},"children":{"mooring":{"category":"buoy"}},"osm_tags":{"mooring":"yes","ref":"12","seamark:mooring:category":"buoy","seamark:type":"mooring"}}},{"type":"Feature","geometry":{"type":"Point","coordinates":[-93.5181212,44.8020579]},"properties":{"osm_id":13125702472,"osm_type":"node","seamark_type":"harbour","display_class":"OTHER","min_zoom":12,"importance":1,"name":null,"ref":null,"common":{"type":"harbour"},"children":{"harbour":{"category":"marina"}},"osm_tags":{"check_date":"2025-09-07","description":"A barely maintained plastic dock","fee":"no","leisure":"marina","seamark:harbour:category":"marina","seamark:type":"harbour"}}},{"type":"Feature","geometry":{"type":"Polygon","coordinates":[[[-93.30698,44.9280617],[-93.3064049,44.9273629],[-93.3074349,44.9270104],[-93.3076924,44.9269496],[-93.3080099,44.9264817],[-93.3082503,44.9260259],[-93.3086107,44.9252238],[-93.3090056,44.9244945],[-93.3092974,44.9240691],[-93.3092974,44.9237166],[-93.3093832,44.9232912],[-93.3094176,44.9230664],[-93.3096493,44.9227747],[-93.309778,44.922641],[-93.3106363,44.9228962],[-93.3105505,44.9234432],[-93.3104819,44.923899],[-93.3103789,44.924294],[-93.31019,44.9248531],[-93.3099926,44.9252055],[-93.309778,44.9255398],[-93.3094347,44.9260259],[-93.3090485,44.9266032],[-93.3087052,44.9270894],[-93.3084734,44.9274236],[-93.3082503,44.9275755],[-93.30698,44.9280617]]]},"properties":{"osm_id":24564429,"osm_type":"way","seamark_type":"harbour","display_class":"OTHER","min_zoom":12,"importance":1,"name":null,"ref":null,"common":{"type":"harbour"},"children":{"harbour":{"category":"marina"}},"osm_tags":{"fee":"yes","leisure":"marina","operator":"Minneapolis Park & Recreation Board","seamark:harbour:category":"marina","seamark:type":"harbour"}}},{"type":"Feature","geometry":{"type":"LineString","coordinates":[[-93.247775,44.9786372],[-93.2477814,44.978717],[-93.2477445,44.9787865]]},"properties":{"osm_id":39459413,"osm_type":"way","seamark_type":"gate","display_class":"OTHER","min_zoom":12,"importance":1,"name":null,"ref":null,"common":{"type":"gate"},"children":{},"osm_tags":{"barrier":"lock_gate","fixme":"is new hydropower facility being fitted into this lock--need to confirm location","seamark:type":"gate","waterway":"lock_gate"}}},{"type":"Feature","geometry":{"type":"LineString","coordinates":[[-93.20265,44.9140745],[-93.2025407,44.9141241],[-93.2024272,44.9141068]]},"properties":{"osm_id":51545929,"osm_type":"way","seamark_type":"gate","display_class":"OTHER","min_zoom":12,"importance":1,"name":null,"ref":null,"common":{"type":"gate"},"children":{},"osm_tags":{"operator":"U.S. Army Corps of Engineers' Mississippi Valley Division","seamark:type":"gate","waterway":"lock_gate"}}},{"type":"Feature","geometry":{"type":"LineString","coordinates":[[-93.2028693,44.9152709],[-93.2027694,44.9153117],[-93.2026593,44.9152933]]},"properties":{"osm_id":51545935,"osm_type":"way","seamark_type":"gate","display_class":"OTHER","min_zoom":12,"importance":1,"name":null,"ref":null,"common":{"type":"gate"},"children":{},"osm_tags":{"operator":"U.S. Army Corps of Engineers' Mississippi Valley Division","seamark:type":"gate","waterway":"lock_gate"}}},{"type":"Feature","geometry":{"type":"LineString","coordinates":[[-93.2022883,44.9141156],[-93.2021865,44.9141503],[-93.2020847,44.914134]]},"properties":{"osm_id":51545937,"osm_type":"way","seamark_type":"gate","display_class":"OTHER","min_zoom":12,"importance":1,"name":null,"ref":null,"common":{"type":"gate"},"children":{},"osm_tags":{"operator":"U.S. Army Corps of Engineers' Mississippi Valley Division","seamark:type":"gate","waterway":"lock_gate"}}},{"type":"Feature","geometry":{"type":"LineString","coordinates":[[-93.2025182,44.9153052],[-93.2024203,44.9153433],[-93.2023162,44.9153294]]},"properties":{"osm_id":51545938,"osm_type":"way","seamark_type":"gate","display_class":"OTHER","min_zoom":12,"importance":1,"name":null,"ref":null,"common":{"type":"gate"},"children":{},"osm_tags":{"operator":"U.S. Army Corps of Engineers' Mississippi Valley Division","seamark:type":"gate","waterway":"lock_gate"}}},{"type":"Feature","geometry":{"type":"Polygon","coordinates":[[[-93.518543,44.968301],[-93.5187789,44.969139],[-93.5175989,44.9692877],[-93.5175453,44.969356],[-93.5169072,44.9695509],[-93.5167996,44.9695838],[-93.5166781,44.9695188],[-93.516383,44.9691155],[-93.5172341,44.9688171],[-93.5171429,44.9684755],[-93.518543,44.968301]]]},"properties":{"osm_id":94846430,"osm_type":"way","seamark_type":"harbour","display_class":"OTHER","min_zoom":12,"importance":1,"name":null,"ref":null,"common":{"type":"harbour"},"children":{"harbour":{"category":"marina"}},"osm_tags":{"leisure":"marina","seamark:harbour:category":"marina","seamark:type":"harbour"}}},{"type":"Feature","geometry":{"type":"LineString","coordinates":[[-93.2459898,44.9784488],[-93.2460154,44.9785371],[-93.2459663,44.9786045]]},"properties":{"osm_id":108358411,"osm_type":"way","seamark_type":"gate","display_class":"OTHER","min_zoom":12,"importance":1,"name":null,"ref":null,"common":{"type":"gate"},"children":{},"osm_tags":{"barrier":"lock_gate","seamark:type":"gate","waterway":"lock_gate"}}},{"type":"Feature","geometry":{"type":"LineString","coordinates":[[-93.2582033,44.981381],[-93.2583053,44.9813111],[-93.2583076,44.9812332]]},"properties":{"osm_id":140395407,"osm_type":"way","seamark_type":"gate","display_class":"OTHER","min_zoom":12,"importance":1,"name":null,"ref":null,"common":{"type":"gate"},"children":{},"osm_tags":{"barrier":"lock_gate","seamark:type":"gate","waterway":"lock_gate"}}},{"type":"Feature","geometry":{"type":"LineString","coordinates":[[-93.256533,44.9806164],[-93.2564838,44.9806879],[-93.2564418,44.980749]]},"properties":{"osm_id":140395408,"osm_type":"way","seamark_type":"gate","display_class":"OTHER","min_zoom":12,"importance":1,"name":null,"ref":null,"common":{"type":"gate"},"children":{},"osm_tags":{"barrier":"lock_gate","disused":"yes","seamark:type":"gate","waterway":"lock_gate"}}},{"type":"Feature","geometry":{"type":"LineString","coordinates":[[-93.2662959,44.9879417],[-93.2661632,44.9878184],[-93.2660076,44.9875651],[-93.266013,44.9874228]]},"properties":{"osm_id":379954192,"osm_type":"way","seamark_type":"shoreline_construction","display_class":"OTHER","min_zoom":12,"importance":1,"name":null,"ref":null,"common":{"type":"shoreline_construction"},"children":{"shoreline_construction":{"category":"training_wall"}},"osm_tags":{"barrier":"wall","seamark:shoreline_construction:category":"training_wall","seamark:type":"shoreline_construction"}}},{"type":"Feature","geometry":{"type":"LineString","coordinates":[[-93.2654551,44.9875547],[-93.2654859,44.987567],[-93.2656066,44.9877624],[-93.2656777,44.9878923]]},"properties":{"osm_id":379954194,"osm_type":"way","seamark_type":"shoreline_construction","display_class":"OTHER","min_zoom":12,"importance":1,"name":null,"ref":null,"common":{"type":"shoreline_construction"},"children":{"shoreline_construction":{"category":"training_wall"}},"osm_tags":{"barrier":"wall","seamark:shoreline_construction:category":"training_wall","seamark:type":"shoreline_construction"}}},{"type":"Feature","geometry":{"type":"Polygon","coordinates":[[[-93.2662088,44.9878279],[-93.266202,44.9878302],[-93.2661945,44.9878306],[-93.2661873,44.9878293],[-93.2661811,44.9878262],[-93.2661765,44.9878213],[-93.2661748,44.9878161],[-93.2661758,44.9878109],[-93.2661792,44.9878062],[-93.2661873,44.9878016],[-93.2661945,44.9878002],[-93.266202,44.9878006],[-93.2662088,44.9878029],[-93.2662141,44.9878066],[-93.2662173,44.9878114],[-93.2662179,44.987817],[-93.2662158,44.9878222],[-93.2662088,44.9878279]]]},"properties":{"osm_id":722635305,"osm_type":"way","seamark_type":"pile","display_class":"OTHER","min_zoom":12,"importance":1,"name":null,"ref":null,"common":{"type":"pile"},"children":{"pile":{"category":"tripodal"}},"osm_tags":{"area":"yes","seamark:pile:category":"tripodal","seamark:type":"pile"}}},{"type":"Feature","geometry":{"type":"Polygon","coordinates":[[[-93.2660477,44.9875786],[-93.2660408,44.9875808],[-93.2660334,44.9875813],[-93.2660261,44.9875799],[-93.26602,44.9875768],[-93.2660153,44.987572],[-93.2660137,44.9875668],[-93.2660146,44.9875615],[-93.2660181,44.9875568],[-93.2660261,44.9875522],[-93.2660334,44.9875508],[-93.2660408,44.9875513],[-93.2660477,44.9875535],[-93.266053,44.9875572],[-93.2660562,44.9875621],[-93.2660568,44.9875677],[-93.2660547,44.9875728],[-93.2660477,44.9875786]]]},"properties":{"osm_id":722635306,"osm_type":"way","seamark_type":"pile","display_class":"OTHER","min_zoom":12,"importance":1,"name":null,"ref":null,"common":{"type":"pile"},"children":{"pile":{"category":"tripodal"}},"osm_tags":{"area":"yes","seamark:pile:category":"tripodal","seamark:type":"pile"}}},{"type":"Feature","geometry":{"type":"Polygon","coordinates":[[[-93.2660487,44.987448],[-93.2660419,44.9874503],[-93.2660344,44.9874507],[-93.2660271,44.9874493],[-93.266021,44.9874463],[-93.2660164,44.9874414],[-93.2660147,44.9874362],[-93.2660156,44.987431],[-93.2660191,44.9874262],[-93.2660271,44.9874216],[-93.2660344,44.9874203],[-93.2660419,44.9874207],[-93.2660487,44.9874229],[-93.266054,44.9874267],[-93.2660572,44.9874315],[-93.2660578,44.9874371],[-93.2660557,44.9874422],[-93.2660487,44.987448]]]},"properties":{"osm_id":722635310,"osm_type":"way","seamark_type":"pile","display_class":"OTHER","min_zoom":12,"importance":1,"name":null,"ref":null,"common":{"type":"pile"},"children":{"pile":{"category":"tripodal"}},"osm_tags":{"area":"yes","seamark:pile:category":"tripodal","seamark:type":"pile"}}},{"type":"Feature","geometry":{"type":"Polygon","coordinates":[[[-93.2663188,44.9879291],[-93.266312,44.9879314],[-93.2663045,44.9879318],[-93.2662972,44.9879304],[-93.2662911,44.9879274],[-93.2662864,44.9879225],[-93.2662848,44.9879173],[-93.2662857,44.9879121],[-93.2662892,44.9879073],[-93.2662972,44.9879027],[-93.2663045,44.9879014],[-93.2663119,44.9879018],[-93.2663188,44.987904],[-93.2663241,44.9879078],[-93.2663273,44.9879126],[-93.2663279,44.9879182],[-93.2663258,44.9879233],[-93.2663188,44.9879291]]]},"properties":{"osm_id":722635311,"osm_type":"way","seamark_type":"pile","display_class":"OTHER","min_zoom":12,"importance":1,"name":null,"ref":null,"common":{"type":"pile"},"children":{"pile":{"category":"tripodal"}},"osm_tags":{"area":"yes","seamark:pile:category":"tripodal","seamark:type":"pile"}}},{"type":"Feature","geometry":{"type":"Polygon","coordinates":[[[-93.2706451,44.9906765],[-93.2706631,44.9906827],[-93.2706833,44.9906842],[-93.2707027,44.9906807],[-93.2707216,44.990671],[-93.2707324,44.990659],[-93.2707363,44.9906389],[-93.2707306,44.9906253],[-93.2707187,44.9906139],[-93.2706971,44.9906047],[-93.2706773,44.9906027],[-93.2706576,44.9906056],[-93.2706406,44.9906131],[-93.2706273,44.9906254],[-93.2706217,44.9906389],[-93.2706234,44.9906542],[-93.2706319,44.990667],[-93.2706451,44.9906765]]]},"properties":{"osm_id":722635317,"osm_type":"way","seamark_type":"pile","display_class":"OTHER","min_zoom":12,"importance":1,"name":null,"ref":null,"common":{"type":"pile"},"children":{},"osm_tags":{"area":"yes","seamark:type":"pile"}}},{"type":"Feature","geometry":{"type":"Polygon","coordinates":[[[-93.2701644,44.9904503],[-93.2701824,44.9904565],[-93.2702026,44.990458],[-93.270222,44.9904545],[-93.2702409,44.9904448],[-93.2702517,44.9904328],[-93.2702556,44.9904127],[-93.2702499,44.9903991],[-93.270238,44.9903877],[-93.2702164,44.9903785],[-93.2701965,44.9903765],[-93.2701769,44.9903794],[-93.2701599,44.9903869],[-93.2701466,44.9903992],[-93.270141,44.9904127],[-93.2701427,44.990428],[-93.2701512,44.9904408],[-93.2701644,44.9904503]]]},"properties":{"osm_id":722635318,"osm_type":"way","seamark_type":"pile","display_class":"OTHER","min_zoom":12,"importance":1,"name":null,"ref":null,"common":{"type":"pile"},"children":{},"osm_tags":{"area":"yes","seamark:type":"pile"}}},{"type":"Feature","geometry":{"type":"Polygon","coordinates":[[[-93.2698366,44.9902995],[-93.2698546,44.9903058],[-93.2698747,44.9903072],[-93.2698941,44.9903037],[-93.2699131,44.990294],[-93.2699238,44.9902821],[-93.2699278,44.9902619],[-93.2699221,44.9902484],[-93.2699102,44.990237],[-93.2698885,44.9902278],[-93.2698687,44.9902258],[-93.2698491,44.9902287],[-93.2698321,44.9902361],[-93.2698188,44.9902484],[-93.2698132,44.990262],[-93.2698148,44.9902773],[-93.2698234,44.9902901],[-93.2698366,44.9902995]]]},"properties":{"osm_id":722635319,"osm_type":"way","seamark_type":"pile","display_class":"OTHER","min_zoom":12,"importance":1,"name":null,"ref":null,"common":{"type":"pile"},"children":{},"osm_tags":{"area":"yes","seamark:type":"pile"}}},{"type":"Feature","geometry":{"type":"Polygon","coordinates":[[[-93.3084921,44.9493927],[-93.3089359,44.9495942],[-93.3094359,44.9497208],[-93.310022,44.9497887],[-93.3108333,44.9498309],[-93.3108564,44.9493646],[-93.3096809,44.9492896],[-93.3087438,44.9490505],[-93.3084921,44.9493927]]]},"properties":{"osm_id":1195452540,"osm_type":"way","seamark_type":"harbour","display_class":"OTHER","min_zoom":12,"importance":1,"name":null,"ref":null,"common":{"type":"harbour"},"children":{"harbour":{"category":"marina"}},"osm_tags":{"capacity":"32","fee":"yes","leisure":"marina","operator":"Minneapolis Park & Recreation Board","seamark:harbour:category":"marina","seamark:type":"harbour"}}},{"type":"Feature","geometry":{"type":"Polygon","coordinates":[[[-93.3078062,44.9479097],[-93.3069623,44.9479852],[-93.3070345,44.9485514],[-93.3073231,44.9488866],[-93.3079913,44.9488733],[-93.3078062,44.9479097]]]},"properties":{"osm_id":1195452541,"osm_type":"way","seamark_type":"harbour","display_class":"OTHER","min_zoom":12,"importance":1,"name":null,"ref":null,"common":{"type":"harbour"},"children":{"harbour":{"category":"marina"}},"osm_tags":{"capacity":"23","fee":"yes","leisure":"marina","operator":"Minneapolis Park & Recreation Board","seamark:harbour:category":"marina","seamark:type":"harbour"}}},{"type":"Feature","geometry":{"type":"Polygon","coordinates":[[[-93.3077478,44.9473395],[-93.3067829,44.9473796],[-93.3064342,44.9468143],[-93.3058831,44.9453226],[-93.3057265,44.9448891],[-93.3067628,44.9447],[-93.3072915,44.9460303],[-93.3077478,44.9473395]]]},"properties":{"osm_id":1195452542,"osm_type":"way","seamark_type":"harbour","display_class":"OTHER","min_zoom":12,"importance":1,"name":null,"ref":null,"common":{"type":"harbour"},"children":{"harbour":{"category":"marina"}},"osm_tags":{"capacity":"92","fee":"yes","leisure":"marina","operator":"Minneapolis Park & Recreation Board","seamark:harbour:category":"marina","seamark:type":"harbour"}}},{"type":"Feature","geometry":{"type":"Polygon","coordinates":[[[-93.5575314,44.9066107],[-93.5575267,44.9068568],[-93.5569068,44.9073466],[-93.5566157,44.9071362],[-93.5565288,44.9071944],[-93.5557728,44.9066423],[-93.5559947,44.9056287],[-93.5564314,44.9054108],[-93.5575314,44.9066107]]]},"properties":{"osm_id":1487518424,"osm_type":"way","seamark_type":"harbour","display_class":"OTHER","min_zoom":12,"importance":1,"name":"Bean’s Greenwood Marina","ref":null,"common":{"type":"harbour"},"children":{"harbour":{"category":"marina"}},"osm_tags":{"addr:city":"Excelsior","addr:housenumber":"21945","addr:postcode":"55331","addr:state":"MN","addr:street":"Minnetonka Boulevard","leisure":"marina","name":"Bean’s Greenwood Marina","seamark:harbour:category":"marina","seamark:type":"harbour","website":"https://www.greenwoodmarina.com"}}},{"type":"Feature","geometry":{"type":"Polygon","coordinates":[[[-93.6371668,44.9361048],[-93.6371149,44.9365163],[-93.6373301,44.9365299],[-93.6373821,44.9361184],[-93.6371668,44.9361048]]]},"properties":{"osm_id":1309501922,"osm_type":"way","seamark_type":"harbour","display_class":"OTHER","min_zoom":12,"importance":1,"name":"Blue Lagoon Marina","ref":null,"common":{"type":"harbour"},"children":{"harbour":{"category":"marina"}},"osm_tags":{"leisure":"marina","name":"Blue Lagoon Marina","seamark:harbour:category":"marina","seamark:type":"harbour"}}},{"type":"Feature","geometry":{"type":"Polygon","coordinates":[[[-93.5317286,44.9236741],[-93.5319619,44.9249692],[-93.5307713,44.9250426],[-93.5306091,44.9236693],[-93.5317244,44.9235793],[-93.5317286,44.9236741]]]},"properties":{"osm_id":1487512244,"osm_type":"way","seamark_type":"harbour","display_class":"OTHER","min_zoom":12,"importance":1,"name":"Carson's Bay Facility","ref":null,"common":{"type":"harbour"},"children":{"harbour":{"category":"marina"}},"osm_tags":{"addr:city":"Excelsior","addr:housenumber":"19800","addr:postcode":"55331","addr:state":"MN","addr:street":"Minnetonka Boulevard","leisure":"marina","name":"Carson's Bay Facility","operator":"Minnetonka Yacht Club","seamark:harbour:category":"marina","seamark:type":"harbour"}}},{"type":"Feature","geometry":{"type":"Polygon","coordinates":[[[-93.5317244,44.9235793],[-93.5327122,44.9235176],[-93.5327558,44.9239567],[-93.5329773,44.923953],[-93.5330765,44.9249341],[-93.5319619,44.9249692],[-93.5317286,44.9236741],[-93.5317244,44.9235793]]]},"properties":{"osm_id":1487512245,"osm_type":"way","seamark_type":"harbour","display_class":"OTHER","min_zoom":12,"importance":1,"name":"Carson's Bay Launch","ref":null,"common":{"type":"harbour"},"children":{"harbour":{"category":"marina"}},"osm_tags":{"leisure":"marina","name":"Carson's Bay Launch","operator":"City of Deephaven","seamark:harbour:category":"marina","seamark:type":"harbour"}}},{"type":"Feature","geometry":{"type":"Polygon","coordinates":[[[-93.4417726,44.711628],[-93.4415809,44.7110449],[-93.4414368,44.7110951],[-93.4409669,44.7111423],[-93.4407415,44.7111145],[-93.4406549,44.7113753],[-93.4408098,44.711788],[-93.4417726,44.711628]]]},"properties":{"osm_id":957209982,"osm_type":"way","seamark_type":"harbour","display_class":"OTHER","min_zoom":12,"importance":1,"name":"Charlie's on Prior Marina","ref":null,"common":{"type":"harbour"},"children":{"harbour":{"category":"marina"}},"osm_tags":{"leisure":"marina","name":"Charlie's on Prior Marina","operator":"Charlie's on Prior","power_supply":"no","sanitary_dump_station":"no","seamark:harbour:category":"marina","seamark:type":"harbour"}}},{"type":"Feature","geometry":{"type":"Polygon","coordinates":[[[-93.5160313,44.9696395],[-93.5160991,44.9693246],[-93.5161302,44.9693281],[-93.5161809,44.9693345],[-93.5162244,44.9693381],[-93.5161986,44.9694582],[-93.5165179,44.9694926],[-93.516476,44.9696874],[-93.5160313,44.9696395]]]},"properties":{"osm_id":409843248,"osm_type":"way","seamark_type":"harbour","display_class":"OTHER","min_zoom":12,"importance":1,"name":"Depot Docks","ref":null,"common":{"type":"harbour"},"children":{"harbour":{"category":"marina"}},"osm_tags":{"leisure":"marina","name":"Depot Docks","operator":"City Of Wayzata","seamark:harbour:category":"marina","seamark:type":"harbour"}}},{"type":"Feature","geometry":{"type":"Polygon","coordinates":[[[-93.5593142,44.9080526],[-93.5597052,44.908076],[-93.5597939,44.9079202],[-93.5605717,44.9077068],[-93.560312,44.9071915],[-93.5600311,44.9072286],[-93.5597725,44.9065657],[-93.5596625,44.9060042],[-93.5591379,44.9060716],[-93.5592597,44.9067912],[-93.5593986,44.906908],[-93.5596495,44.9075739],[-93.5594056,44.9075622],[-93.5593142,44.9080526]]]},"properties":{"osm_id":1487518425,"osm_type":"way","seamark_type":"harbour","display_class":"OTHER","min_zoom":12,"importance":1,"name":"Excelsior Bay Marina","ref":null,"common":{"type":"harbour"},"children":{"harbour":{"category":"marina"}},"osm_tags":{"leisure":"marina","name":"Excelsior Bay Marina","seamark:harbour:category":"marina","seamark:type":"harbour"}}},{"type":"Feature","geometry":{"type":"Polygon","coordinates":[[[-93.4979766,44.949277],[-93.4977334,44.9492288],[-93.4965191,44.949157],[-93.4962469,44.9505419],[-93.4961487,44.9509149],[-93.4971463,44.9510399],[-93.4972377,44.950756],[-93.4977675,44.9506595],[-93.4977346,44.9504465],[-93.4979915,44.9503937],[-93.4978372,44.9502034],[-93.4977861,44.9499162],[-93.4978465,44.9496816],[-93.4980525,44.9493527],[-93.4979766,44.949277]]]},"properties":{"osm_id":1487729258,"osm_type":"way","seamark_type":"harbour","display_class":"OTHER","min_zoom":12,"importance":1,"name":"Gray's Bay Marina","ref":null,"common":{"type":"harbour"},"children":{"harbour":{"category":"marina"}},"osm_tags":{"leisure":"marina","name":"Gray's Bay Marina","operator":"City of Minnetonka","seamark:harbour:category":"marina","seamark:type":"harbour","website":"https://www.minnetonkamn.gov/our-city/recreation-facilities-and-amenities/gray-s-bay-marina"}}},{"type":"Feature","geometry":{"type":"Polygon","coordinates":[[[-93.436905,44.7180711],[-93.4365456,44.7177057],[-93.4362085,44.7178758],[-93.436051,44.7181082],[-93.4359496,44.7187516],[-93.4359634,44.7189438],[-93.4366009,44.7191162],[-93.4367426,44.7191256],[-93.4368205,44.7190808],[-93.4367993,44.718592],[-93.4367497,44.7185448],[-93.4366948,44.7185296],[-93.4368496,44.718366],[-93.4366373,44.7182259],[-93.4367537,44.7181474],[-93.436905,44.7180711]]]},"properties":{"osm_id":957206847,"osm_type":"way","seamark_type":"harbour","display_class":"OTHER","min_zoom":12,"importance":1,"name":"Knotty Oar Marina","ref":null,"common":{"type":"harbour"},"children":{"harbour":{"category":"marina"}},"osm_tags":{"leisure":"marina","name":"Knotty Oar Marina","power_supply":"no","sanitary_dump_station":"no","seamark:harbour:category":"marina","seamark:type":"harbour"}}},{"type":"Feature","geometry":{"type":"Polygon","coordinates":[[[-93.2435703,44.9102682],[-93.2444148,44.9099318],[-93.2449003,44.9097267],[-93.2454368,44.9091986],[-93.2457962,44.9094702],[-93.24589,44.9097115],[-93.2453426,44.9103633],[-93.245169,44.9104615],[-93.2450206,44.9105253],[-93.2446474,44.9106654],[-93.243847,44.9106063],[-93.2435703,44.9102682]]]},"properties":{"osm_id":494951934,"osm_type":"way","seamark_type":"harbour","display_class":"OTHER","min_zoom":12,"importance":1,"name":"Lake Nokomis Sailboat Buoys","ref":null,"common":{"type":"harbour"},"children":{"harbour":{"category":"marina"}},"osm_tags":{"capacity":"68","fee":"yes","leisure":"marina","name":"Lake Nokomis Sailboat Buoys","operator":"Minneapolis Park and Recreation Board","seamark:harbour:category":"marina","seamark:type":"harbour","source":"Bing"}}},{"type":"Feature","geometry":{"type":"Point","coordinates":[-93.2027694,44.9153117]},"properties":{"osm_id":659019697,"osm_type":"node","seamark_type":"gate","display_class":"OTHER","min_zoom":12,"importance":1,"name":"Lock and Dam 1","ref":"01","common":{"type":"gate"},"children":{},"osm_tags":{"name":"Lock and Dam 1","ref":"01","seamark:type":"gate","waterway":"lock_gate","website":"https://www.mvp.usace.army.mil/navigation/default.asp?pageid=145&subpageid=146"}}},{"type":"Feature","geometry":{"type":"Point","coordinates":[-93.2025407,44.9141241]},"properties":{"osm_id":659019730,"osm_type":"node","seamark_type":"gate","display_class":"OTHER","min_zoom":12,"importance":1,"name":"Lock and Dam 1","ref":"01","common":{"type":"gate"},"children":{},"osm_tags":{"name":"Lock and Dam 1","ref":"01","seamark:type":"gate","waterway":"lock_gate","website":"https://www.mvp.usace.army.mil/navigation/default.asp?pageid=145&subpageid=146"}}},{"type":"Feature","geometry":{"type":"Point","coordinates":[-93.2021865,44.9141503]},"properties":{"osm_id":659019739,"osm_type":"node","seamark_type":"gate","display_class":"OTHER","min_zoom":12,"importance":1,"name":"Lock and Dam 1","ref":"01","common":{"type":"gate"},"children":{},"osm_tags":{"name":"Lock and Dam 1","ref":"01","seamark:type":"gate","waterway":"lock_gate","website":"https://www.mvp.usace.army.mil/navigation/default.asp?pageid=145&subpageid=146"}}},{"type":"Feature","geometry":{"type":"Point","coordinates":[-93.2024203,44.9153433]},"properties":{"osm_id":659019761,"osm_type":"node","seamark_type":"gate","display_class":"OTHER","min_zoom":12,"importance":1,"name":"Lock and Dam 1","ref":"01","common":{"type":"gate"},"children":{},"osm_tags":{"name":"Lock and Dam 1","ref":"01","seamark:type":"gate","waterway":"lock_gate","website":"https://www.mvp.usace.army.mil/navigation/default.asp?pageid=145&subpageid=146"}}},{"type":"Feature","geometry":{"type":"Polygon","coordinates":[[[-93.2081692,44.9544211],[-93.2082269,44.9543692],[-93.2071568,44.9538524],[-93.2070647,44.9538069],[-93.2070298,44.9537955],[-93.2069295,44.9537557],[-93.2068192,44.9536975],[-93.2067461,44.9537812],[-93.2067901,44.9537907],[-93.2069115,44.9537979],[-93.2069571,44.9538193],[-93.2071246,44.9538585],[-93.2077909,44.9541932],[-93.2080014,44.9543272],[-93.2081692,44.9544211]]]},"properties":{"osm_id":1376335002,"osm_type":"way","seamark_type":"obstruction","display_class":"OTHER","min_zoom":12,"importance":1,"name":"Main Lock Wall","ref":null,"common":{"type":"obstruction"},"children":{"obstruction":{"category":"reef","water_level":"submerged"}},"osm_tags":{"area":"yes","description":"This lock and dam was built in 1906 and abandoned/demolished in 1912.","heritage":"2","heritage:operator":"nrhp","heritage:website":"https://www.nps.gov/subjects/nationalregister/index.htm","historic":"maritime","name":"Main Lock Wall","natural":"reef","nrhp:criteria":"(A)","nrhp:inscription_date":"2003-06-13","protection_title":"U.S. Army Corps of Engineers","reef":"rock","ref:nrhp":"03000522","seamark:obstruction:category":"reef","seamark:obstruction:water_level":"submerged","seamark:type":"obstruction","source_ref":"https://catalog.archives.gov/id/93201927","start_date":"1906"}}},{"type":"Feature","geometry":{"type":"Point","coordinates":[-93.6465479,44.938234]},"properties":{"osm_id":12123439938,"osm_type":"node","seamark_type":"small_craft_facility","display_class":"OTHER","min_zoom":12,"importance":1,"name":"Metro Lakes Marina","ref":null,"common":{"type":"small_craft_facility"},"children":{"small_craft_facility":{"category":"fuel_station"}},"osm_tags":{"addr:city":"Mound","addr:housenumber":"4850","addr:postcode":"55364","addr:state":"MN","addr:street":"Edgewater Drive","name":"Metro Lakes Marina","seamark:small_craft_facility:category":"fuel_station","seamark:type":"small_craft_facility","waterway":"fuel"}}},{"type":"Feature","geometry":{"type":"Polygon","coordinates":[[[-93.6466211,44.9376309],[-93.6461183,44.9378693],[-93.6457581,44.9380573],[-93.6458839,44.9384401],[-93.6463325,44.9383637],[-93.6465758,44.9383795],[-93.6469898,44.9382732],[-93.6468252,44.937931],[-93.6466723,44.9377152],[-93.6466211,44.9376309]]]},"properties":{"osm_id":1487509444,"osm_type":"way","seamark_type":"harbour","display_class":"OTHER","min_zoom":12,"importance":1,"name":"Metro Lakes Marina","ref":null,"common":{"type":"harbour"},"children":{"harbour":{"category":"marina"}},"osm_tags":{"addr:city":"Mound","addr:housenumber":"4850","addr:postcode":"55364","addr:state":"MN","addr:street":"Edgewater Drive","leisure":"marina","name":"Metro Lakes Marina","seamark:harbour:category":"marina","seamark:type":"harbour"}}},{"type":"Feature","geometry":{"type":"Polygon","coordinates":[[[-93.5766398,44.9027819],[-93.577003,44.9035414],[-93.577368,44.9035952],[-93.5781619,44.9035716],[-93.5781815,44.9039283],[-93.5793675,44.9039629],[-93.5793897,44.903518],[-93.5798917,44.9035525],[-93.5799007,44.9037772],[-93.5803291,44.9037801],[-93.5804537,44.9036111],[-93.5807083,44.9033097],[-93.5808113,44.9031667],[-93.5802967,44.9030272],[-93.5802729,44.903084],[-93.5800868,44.9030602],[-93.5796147,44.9029954],[-93.5792339,44.9029712],[-93.5791353,44.9028526],[-93.5790075,44.9028354],[-93.5790273,44.9026894],[-93.5783472,44.9026773],[-93.5769465,44.9027474],[-93.5766398,44.9027819]]]},"properties":{"osm_id":1487514880,"osm_type":"way","seamark_type":"harbour","display_class":"OTHER","min_zoom":12,"importance":1,"name":"Minnetonka Marina Gideon Bay","ref":null,"common":{"type":"harbour"},"children":{"harbour":{"category":"marina"}},"osm_tags":{"leisure":"marina","name":"Minnetonka Marina Gideon Bay","seamark:harbour:category":"marina","seamark:type":"harbour"}}},{"type":"Feature","geometry":{"type":"Polygon","coordinates":[[[-93.560409,44.9045638],[-93.5601251,44.9056351],[-93.5593448,44.9055786],[-93.5595573,44.904378],[-93.560409,44.9045638]]]},"properties":{"osm_id":1487518426,"osm_type":"way","seamark_type":"harbour","display_class":"OTHER","min_zoom":12,"importance":1,"name":"Minnetonka Marine Excelsior Bay Docks","ref":null,"common":{"type":"harbour"},"children":{"harbour":{"category":"marina"}},"osm_tags":{"leisure":"marina","name":"Minnetonka Marine Excelsior Bay Docks","seamark:harbour:category":"marina","seamark:type":"harbour"}}},{"type":"Feature","geometry":{"type":"Polygon","coordinates":[[[-93.5588054,44.9055125],[-93.5582689,44.9055269],[-93.5585329,44.9040335],[-93.5582008,44.9041252],[-93.5582108,44.9036819],[-93.5584665,44.903596],[-93.5584731,44.9034031],[-93.5590476,44.9032585],[-93.5589925,44.9040268],[-93.5588609,44.9049704],[-93.5588054,44.9055125]]]},"properties":{"osm_id":1487518427,"osm_type":"way","seamark_type":"harbour","display_class":"OTHER","min_zoom":12,"importance":1,"name":"Minnetonka Marine Saint Albans Bay Docks","ref":null,"common":{"type":"harbour"},"children":{"harbour":{"category":"marina"}},"osm_tags":{"leisure":"marina","name":"Minnetonka Marine Saint Albans Bay Docks","seamark:harbour:category":"marina","seamark:type":"harbour"}}},{"type":"Feature","geometry":{"type":"Polygon","coordinates":[[[-93.5586693,44.9621839],[-93.557799,44.9625042],[-93.5569626,44.9617901],[-93.5571457,44.9606646],[-93.5571915,44.9604497],[-93.5572017,44.9601416],[-93.5572165,44.9600306],[-93.5580306,44.9594641],[-93.5583148,44.9593605],[-93.5584362,44.9593881],[-93.5583923,44.9594504],[-93.5583669,44.9595591],[-93.5581203,44.9599816],[-93.5579298,44.9603033],[-93.5582172,44.9603714],[-93.5584595,44.9604132],[-93.5584971,44.9603474],[-93.5586607,44.9601918],[-93.5589128,44.9599337],[-93.5589852,44.9598824],[-93.5590523,44.9598824],[-93.5591354,44.9598654],[-93.5594093,44.9596396],[-93.5594412,44.959575],[-93.5595378,44.9591859],[-93.5598115,44.9592041],[-93.5596987,44.9597565],[-93.5587935,44.9604491],[-93.5595572,44.9610445],[-93.559757,44.9609967],[-93.5599413,44.961365],[-93.5585119,44.9617387],[-93.5585927,44.9618981],[-93.5586693,44.9621839]]]},"properties":{"osm_id":1486987443,"osm_type":"way","seamark_type":"harbour","display_class":"OTHER","min_zoom":12,"importance":1,"name":"North Shore Marina Browns Bay","ref":null,"common":{"type":"harbour"},"children":{"harbour":{"category":"marina"}},"osm_tags":{"leisure":"marina","name":"North Shore Marina Browns Bay","power_supply":"yes","sanitary_dump_station":"yes","seamark:harbour:category":"marina","seamark:type":"harbour","website":"https://nsmarina.com/"}}},{"type":"Feature","geometry":{"type":"Polygon","coordinates":[[[-93.6055022,44.9524297],[-93.6049491,44.9526288],[-93.6050215,44.9527859],[-93.605024,44.9533258],[-93.6049317,44.9534105],[-93.6049166,44.9537778],[-93.605005,44.9541623],[-93.6049096,44.9541724],[-93.6048789,44.95482],[-93.6059557,44.9543967],[-93.605889,44.9538049],[-93.6059189,44.9529584],[-93.6057901,44.9525589],[-93.6055557,44.9525861],[-93.6055022,44.9524297]]]},"properties":{"osm_id":1487369532,"osm_type":"way","seamark_type":"harbour","display_class":"OTHER","min_zoom":12,"importance":1,"name":"North Shore Marina Maxwell Bay","ref":null,"common":{"type":"harbour"},"children":{"harbour":{"category":"marina"}},"osm_tags":{"leisure":"marina","name":"North Shore Marina Maxwell Bay","operator":"North Shore Marina","seamark:harbour:category":"marina","seamark:type":"harbour"}}},{"type":"Feature","geometry":{"type":"Polygon","coordinates":[[[-93.2069948,44.9535072],[-93.2070441,44.9534536],[-93.2070853,44.953465],[-93.2070826,44.9534814],[-93.2071318,44.9534947],[-93.2071595,44.9535124],[-93.2071774,44.9535371],[-93.2072338,44.9535878],[-93.2072597,44.9536144],[-93.2081589,44.9540487],[-93.2082001,44.9540614],[-93.2083155,44.9541158],[-93.2083486,44.9541412],[-93.2084161,44.9541801],[-93.2084032,44.954193],[-93.2069948,44.9535072]]]},"properties":{"osm_id":1376335001,"osm_type":"way","seamark_type":"obstruction","display_class":"OTHER","min_zoom":12,"importance":1,"name":"Riverward Lock Wall","ref":null,"common":{"type":"obstruction"},"children":{"obstruction":{"category":"reef","water_level":"submerged"}},"osm_tags":{"area":"yes","description":"This lock and dam was built in 1906 and abandoned/demolished in 1912.","heritage":"2","heritage:operator":"nrhp","heritage:website":"https://www.nps.gov/subjects/nationalregister/index.htm","historic":"maritime","name":"Riverward Lock Wall","natural":"reef","nrhp:criteria":"(A)","nrhp:inscription_date":"2003-06-13","protection_title":"U.S. Army Corps of Engineers","reef":"rock","ref:nrhp":"03000522","seamark:obstruction:category":"reef","seamark:obstruction:water_level":"submerged","seamark:type":"obstruction","source_ref":"https://catalog.archives.gov/id/93201927","start_date":"1906"}}},{"type":"Feature","geometry":{"type":"Polygon","coordinates":[[[-93.5268208,44.9358583],[-93.5270053,44.9359045],[-93.527054,44.9357726],[-93.5273102,44.9358152],[-93.5276696,44.9349182],[-93.5273647,44.9348638],[-93.5273711,44.9347654],[-93.527266,44.9347445],[-93.5268208,44.9358583]]]},"properties":{"osm_id":1487514068,"osm_type":"way","seamark_type":"harbour","display_class":"OTHER","min_zoom":12,"importance":1,"name":"Saint Louis Bay Mooring","ref":null,"common":{"type":"harbour"},"children":{"harbour":{"category":"marina"}},"osm_tags":{"leisure":"marina","name":"Saint Louis Bay Mooring","operator":"City of Deephaven","seamark:harbour:category":"marina","seamark:type":"harbour"}}},{"type":"Feature","geometry":{"type":"Polygon","coordinates":[[[-93.6256307,44.9364434],[-93.6264495,44.9374202],[-93.6261015,44.9376646],[-93.6259716,44.9375853],[-93.6255204,44.9379214],[-93.624505,44.9373106],[-93.6238324,44.936843],[-93.6244312,44.9364013],[-93.625361,44.9364065],[-93.6256307,44.9364434]]]},"properties":{"osm_id":1309198374,"osm_type":"way","seamark_type":"harbour","display_class":"OTHER","min_zoom":12,"importance":1,"name":"Sunset Boat Yards","ref":null,"common":{"type":"harbour"},"children":{"harbour":{"category":"marina"}},"osm_tags":{"addr:city":"Spring Park","addr:housenumber":"4068","addr:postcode":"55384","addr:state":"MN","addr:street":"Sunset Drive","leisure":"marina","name":"Sunset Boat Yards","seamark:harbour:category":"marina","seamark:type":"harbour","website":"https://www.sunsetboatyards.com"}}},{"type":"Feature","geometry":{"type":"Polygon","coordinates":[[[-93.5762601,44.9153009],[-93.5757527,44.9155267],[-93.5754207,44.916017],[-93.57525,44.9165787],[-93.5757396,44.9166308],[-93.5770912,44.9166366],[-93.577109,44.9157694],[-93.5769395,44.9157341],[-93.5766087,44.915546],[-93.5762601,44.9153009]]]},"properties":{"osm_id":1487508873,"osm_type":"way","seamark_type":"harbour","display_class":"OTHER","min_zoom":12,"importance":1,"name":"The Caribbean","ref":null,"common":{"type":"harbour"},"children":{"harbour":{"category":"marina"}},"osm_tags":{"addr:city":"Tonka Bay","addr:housenumber":"135","addr:postcode":"55331","addr:state":"MN","addr:street":"Lakeview Avenue","leisure":"marina","name":"The Caribbean","seamark:harbour:category":"marina","seamark:type":"harbour","website":"https://thecaribbeanmarina.com"}}},{"type":"Feature","geometry":{"type":"Polygon","coordinates":[[[-93.5819891,44.9164087],[-93.5812851,44.9163685],[-93.5810589,44.9163555],[-93.580672,44.9164902],[-93.5804132,44.9162529],[-93.5801927,44.9163494],[-93.5796693,44.9165782],[-93.5796217,44.9166363],[-93.5791802,44.9171755],[-93.5801364,44.917619],[-93.5808337,44.9178324],[-93.5812868,44.9171757],[-93.5828564,44.9168205],[-93.5829011,44.9166283],[-93.5819891,44.9164087]]]},"properties":{"osm_id":1487508857,"osm_type":"way","seamark_type":"harbour","display_class":"OTHER","min_zoom":12,"importance":1,"name":"Tonka Bay Marina","ref":null,"common":{"type":"harbour"},"children":{"harbour":{"category":"marina"}},"osm_tags":{"addr:city":"Tonka Bay","addr:housenumber":"220","addr:postcode":"55331","addr:state":"MN","addr:street":"Tonka Bay Road","leisure":"marina","name":"Tonka Bay Marina","seamark:harbour:category":"marina","seamark:type":"harbour","website":"https://tonkabaymarina.com"}}},{"type":"Feature","geometry":{"type":"Polygon","coordinates":[[[-93.1684796,44.894506],[-93.1682556,44.8945195],[-93.1669353,44.8945462],[-93.1667155,44.8945453],[-93.1665144,44.8945738],[-93.1661708,44.8946441],[-93.1661738,44.8948057],[-93.1661887,44.8956042],[-93.1667542,44.8970287],[-93.1668235,44.8971232],[-93.1671715,44.897598],[-93.1672043,44.8976427],[-93.1678424,44.8975399],[-93.1689287,44.8972079],[-93.1687557,44.8968732],[-93.1698792,44.8965767],[-93.1696411,44.8961155],[-93.1689529,44.8962446],[-93.1684796,44.894506]]]},"properties":{"osm_id":1388394371,"osm_type":"way","seamark_type":"harbour","display_class":"OTHER","min_zoom":12,"importance":1,"name":"Watergate Marina","ref":null,"common":{"type":"harbour"},"children":{"harbour":{"category":"marina"}},"osm_tags":{"leisure":"marina","name":"Watergate Marina","seamark:harbour:category":"marina","seamark:type":"harbour"}}},{"type":"Feature","geometry":{"type":"Polygon","coordinates":[[[-93.5041355,44.9663134],[-93.5039211,44.9663249],[-93.5035409,44.9662264],[-93.5031446,44.965316],[-93.5036182,44.9651944],[-93.5041355,44.9663134]]]},"properties":{"osm_id":1206120379,"osm_type":"way","seamark_type":"harbour","display_class":"OTHER","min_zoom":12,"importance":1,"name":"Wayzata Community Sailing Center","ref":null,"common":{"type":"harbour"},"children":{"harbour":{"category":"marina"}},"osm_tags":{"addr:city":"Wayzata","addr:housenumber":"456","addr:postcode":"55391","addr:state":"MN","addr:street":"Arlington Circle","leisure":"marina","name":"Wayzata Community Sailing Center","seamark:harbour:category":"marina","seamark:type":"harbour"}}},{"type":"Feature","geometry":{"type":"Polygon","coordinates":[[[-93.5030916,44.9652049],[-93.5022906,44.9642787],[-93.5006767,44.9642164],[-93.5001937,44.9653516],[-93.501035,44.9657546],[-93.5012499,44.9658218],[-93.501467,44.9658742],[-93.5020834,44.9659871],[-93.5027204,44.9661212],[-93.5032228,44.9662177],[-93.503231,44.9656604],[-93.5030916,44.9652049]]]},"properties":{"osm_id":192254627,"osm_type":"way","seamark_type":"harbour","display_class":"OTHER","min_zoom":12,"importance":1,"name":"Wayzata Yacht Club","ref":null,"common":{"type":"harbour"},"children":{"harbour":{"category":"marina"}},"osm_tags":{"leisure":"marina","name":"Wayzata Yacht Club","seamark:harbour:category":"marina","seamark:type":"harbour"}}}],"type":"FeatureCollection"}