{"type":"FeatureCollection","features":[{"type":"Feature","geometry":{"type":"Point","coordinates":[75.823306,45.354472]},"properties":{"osm_id":1052298078,"osm_type":"node","seamark_type":"beacon_lateral","display_class":"BEACON","min_zoom":9,"importance":4,"name":"Red 1","ref":null,"common":{"name":"Red 1","type":"beacon_lateral"},"children":{"beacon_lateral":{"category":"port","colour":"red","shape":"stake"}},"osm_tags":{"seamark:beacon_lateral:category":"port","seamark:beacon_lateral:colour":"red","seamark:beacon_lateral:shape":"stake","seamark:name":"Red 1","seamark:type":"beacon_lateral"}}},{"type":"Feature","geometry":{"type":"Polygon","coordinates":[[[75.4825961,45.0431762],[75.4833686,45.0439949],[75.484699,45.0446924],[75.4854285,45.0455414],[75.4849994,45.0468755],[75.484656,45.0487251],[75.4839265,45.050241],[75.4836057,45.0508322],[75.4830263,45.0498772],[75.482447,45.0487402],[75.4823397,45.0476487],[75.4820597,45.0464965],[75.4820607,45.0456627],[75.4821466,45.0447833],[75.4822539,45.0438282],[75.4825961,45.0431762]]]},"properties":{"osm_id":312789710,"osm_type":"way","seamark_type":"harbour","display_class":"OTHER","min_zoom":12,"importance":1,"name":null,"ref":null,"common":{"type":"harbour"},"children":{"harbour":{"category":"marina"}},"osm_tags":{"leisure":"marina","seamark:harbour:category":"marina","seamark:type":"harbour"}}}],"type":"FeatureCollection"}