{"type":"FeatureCollection","features":[{"type":"Feature","geometry":{"type":"Point","coordinates":[-67.0544761,45.0714121]},"properties":{"osm_id":5061130681,"osm_type":"node","seamark_type":"harbour","display_class":"OTHER","min_zoom":12,"importance":1,"name":null,"ref":null,"common":{"type":"harbour"},"children":{"harbour":{"category":"marina"}},"osm_tags":{"leisure":"marina","seamark:harbour:category":"marina","seamark:type":"harbour"}}},{"type":"Feature","geometry":{"type":"Point","coordinates":[-67.0551692,45.0713813]},"properties":{"osm_id":5061130682,"osm_type":"node","seamark_type":"harbour","display_class":"OTHER","min_zoom":12,"importance":1,"name":null,"ref":null,"common":{"type":"harbour"},"children":{"harbour":{"category":"marina"}},"osm_tags":{"leisure":"marina","seamark:harbour:category":"marina","seamark:type":"harbour"}}},{"type":"Feature","geometry":{"type":"Point","coordinates":[-67.277811,45.1918593]},"properties":{"osm_id":5517429044,"osm_type":"node","seamark_type":"harbour","display_class":"OTHER","min_zoom":12,"importance":1,"name":null,"ref":null,"common":{"type":"harbour"},"children":{},"osm_tags":{"leisure":"slipway","seamark:type":"harbour"}}},{"type":"Feature","geometry":{"type":"Point","coordinates":[-67.0720098,45.0183561]},"properties":{"osm_id":11279908767,"osm_type":"node","seamark_type":"pile","display_class":"OTHER","min_zoom":12,"importance":1,"name":null,"ref":null,"common":{"type":"pile"},"children":{"pile":{"category":"post"}},"osm_tags":{"seamark:pile:category":"post","seamark:type":"pile","source":"NOAA Electronic Navigation Chart US5ME55M"}}},{"type":"Feature","geometry":{"type":"Polygon","coordinates":[[[-67.2329108,45.9955617],[-67.2325784,45.9955403],[-67.2322815,45.9950642],[-67.2327984,45.9948845],[-67.233066,45.9948519],[-67.2331907,45.9949279],[-67.2332404,45.9950618],[-67.2332242,45.9951113],[-67.2331966,45.9951956],[-67.2330501,45.9952824],[-67.232963,45.995387],[-67.2329108,45.9955617]]]},"properties":{"osm_id":697048386,"osm_type":"way","seamark_type":"harbour","display_class":"OTHER","min_zoom":12,"importance":1,"name":null,"ref":null,"common":{"type":"harbour"},"children":{"harbour":{"category":"marina"}},"osm_tags":{"leisure":"marina","seamark:harbour:category":"marina","seamark:type":"harbour"}}},{"type":"Feature","geometry":{"type":"Polygon","coordinates":[[[-67.0093377,45.0317663],[-67.0083379,45.032571],[-67.0030324,45.0303704],[-67.003879,45.0293842],[-67.0093377,45.0317663]]]},"properties":{"osm_id":1133362047,"osm_type":"way","seamark_type":"marine_farm","display_class":"OTHER","min_zoom":12,"importance":1,"name":null,"ref":null,"common":{"type":"marine_farm"},"children":{},"osm_tags":{"aquaculture":"fish","landuse":"aquaculture","seamark:type":"marine_farm"}}}],"type":"FeatureCollection"}