{"type":"FeatureCollection","features":[{"type":"Feature","geometry":{"type":"Point","coordinates":[-82.2589976,45.9102662]},"properties":{"osm_id":1390386105,"osm_type":"node","seamark_type":"harbour","display_class":"OTHER","min_zoom":12,"importance":1,"name":null,"ref":null,"common":{"type":"harbour"},"children":{"harbour":{"category":"marina"}},"osm_tags":{"leisure":"marina","seamark:harbour:category":"marina","seamark:type":"harbour","source":"NRCan-CanVec-7.0"}}},{"type":"Feature","geometry":{"type":"Point","coordinates":[-82.2567837,45.9099445]},"properties":{"osm_id":5199025555,"osm_type":"node","seamark_type":"harbour","display_class":"OTHER","min_zoom":12,"importance":1,"name":null,"ref":null,"common":{"type":"harbour"},"children":{"harbour":{"category":"marina"}},"osm_tags":{"leisure":"marina","seamark:harbour:category":"marina","seamark:type":"harbour"}}},{"type":"Feature","geometry":{"type":"Point","coordinates":[-82.9626114,45.6423817]},"properties":{"osm_id":12110321314,"osm_type":"node","seamark_type":"light_minor","display_class":"OTHER","min_zoom":12,"importance":1,"name":null,"ref":null,"common":{"type":"light_minor"},"children":{"light":{"character":"Fl","colour":"white"}},"osm_tags":{"seamark:light:character":"Fl","seamark:light:colour":"white","seamark:type":"light_minor"}}},{"type":"Feature","geometry":{"type":"Polygon","coordinates":[[[-82.0147777,45.5584679],[-82.0142332,45.5583327],[-82.0140401,45.5584115],[-82.0132461,45.5582294],[-82.0125219,45.5578444],[-82.0120981,45.5582688],[-82.0116448,45.5584791],[-82.0117307,45.558635],[-82.0126453,45.5589449],[-82.013576,45.5594031],[-82.0144531,45.5589393],[-82.0147777,45.5584679]]]},"properties":{"osm_id":1301762470,"osm_type":"way","seamark_type":"harbour","display_class":"OTHER","min_zoom":12,"importance":1,"name":null,"ref":null,"common":{"type":"harbour"},"children":{"harbour":{"category":"marina"}},"osm_tags":{"leisure":"marina","seamark:harbour:category":"marina","seamark:type":"harbour"}}},{"type":"Feature","geometry":{"type":"Point","coordinates":[-82.461761,45.92062]},"properties":{"osm_id":1390381131,"osm_type":"node","seamark_type":"harbour","display_class":"OTHER","min_zoom":12,"importance":1,"name":"Gore Bay Marina","ref":null,"common":{"type":"harbour"},"children":{"harbour":{"category":"marina"}},"osm_tags":{"leisure":"marina","name":"Gore Bay Marina","seamark:harbour:category":"marina","seamark:type":"harbour","source":"NRCan-CanVec-7.0","website":"https://www.gorebay.ca/en/community/gore-bay-marina"}}},{"type":"Feature","geometry":{"type":"Polygon","coordinates":[[[-82.9407884,45.8232893],[-82.9405682,45.8230701],[-82.9404168,45.8229152],[-82.9403637,45.8228508],[-82.9402064,45.8227837],[-82.9402477,45.822907],[-82.9404148,45.8230906],[-82.9405741,45.8232564],[-82.9406645,45.8233195],[-82.9407393,45.8233455],[-82.9407884,45.8232893]]]},"properties":{"osm_id":1417449654,"osm_type":"way","seamark_type":"wreck","display_class":"OTHER","min_zoom":12,"importance":1,"name":"Joyland Wreck","ref":null,"common":{"type":"wreck"},"children":{},"osm_tags":{"historic":"wreck","name":"Joyland Wreck","seamark:type":"wreck"}}}],"type":"FeatureCollection"}