{"type":"FeatureCollection","features":[{"type":"Feature","geometry":{"type":"Point","coordinates":[-74.5041639,45.0763633]},"properties":{"osm_id":1068736548,"osm_type":"node","seamark_type":"light_minor","display_class":"OTHER","min_zoom":12,"importance":1,"name":null,"ref":null,"common":{"type":"light_minor"},"children":{"light":{"category":"front","character":"Iso","colour":"green","height":"18","period":"4","range":"13","reference":"H 2568.1"}},"osm_tags":{"man_made":"beacon","seamark:light:category":"front","seamark:light:character":"Iso","seamark:light:colour":"green","seamark:light:height":"18","seamark:light:period":"4","seamark:light:range":"13","seamark:light:reference":"H 2568.1","seamark:type":"light_minor","source":"NRCan-CanVec-7.0"}}},{"type":"Feature","geometry":{"type":"Point","coordinates":[-74.6711065,45.0122788]},"properties":{"osm_id":1069836625,"osm_type":"node","seamark_type":"light_minor","display_class":"OTHER","min_zoom":12,"importance":1,"name":null,"ref":null,"common":{"type":"light_minor"},"children":{"light":{"category":"rear","character":"F","colour":"white","height":"30","reference":"H 2578.1"}},"osm_tags":{"man_made":"beacon","seamark:light:category":"rear","seamark:light:character":"F","seamark:light:colour":"white","seamark:light:height":"30","seamark:light:reference":"H 2578.1","seamark:type":"light_minor","source":"NRCan-CanVec-7.0"}}},{"type":"Feature","geometry":{"type":"Point","coordinates":[-74.322593,45.1979111]},"properties":{"osm_id":1377277351,"osm_type":"node","seamark_type":"light_minor","display_class":"OTHER","min_zoom":12,"importance":1,"name":null,"ref":null,"common":{"type":"light_minor"},"children":{"light":{"category":"upper","character":"F","colour":"yellow","height":"17","reference":"H 2544.1"}},"osm_tags":{"fixme":"could be a beacon with a light","man_made":"lighthouse","seamark:light:category":"upper","seamark:light:character":"F","seamark:light:colour":"yellow","seamark:light:height":"17","seamark:light:reference":"H 2544.1","seamark:type":"light_minor","source":"NRCan-CanVec-7.0"}}},{"type":"Feature","geometry":{"type":"Point","coordinates":[-74.2865589,45.2228307]},"properties":{"osm_id":1377279051,"osm_type":"node","seamark_type":"light_minor","display_class":"OTHER","min_zoom":12,"importance":1,"name":null,"ref":null,"common":{"type":"light_minor"},"children":{"light":{"category":"upper","character":"F","colour":"red","height":"20"}},"osm_tags":{"man_made":"lighthouse","seamark:light:category":"upper","seamark:light:character":"F","seamark:light:colour":"red","seamark:light:height":"20","seamark:type":"light_minor","source":"NRCan-CanVec-7.0"}}},{"type":"Feature","geometry":{"type":"Point","coordinates":[-74.4093134,45.1278073]},"properties":{"osm_id":1419275107,"osm_type":"node","seamark_type":"light_minor","display_class":"OTHER","min_zoom":12,"importance":1,"name":null,"ref":null,"common":{"type":"light_minor"},"children":{"light":{"category":"upper","character":"F","colour":"green","height":"14","reference":"H 2548.1"}},"osm_tags":{"fixme":"could be a beacon with a light","man_made":"lighthouse","seamark:light:category":"upper","seamark:light:character":"F","seamark:light:colour":"green","seamark:light:height":"14","seamark:light:reference":"H 2548.1","seamark:type":"light_minor","source":"NRCan-CanVec-8.0"}}},{"type":"Feature","geometry":{"type":"Point","coordinates":[-74.5175925,45.0675262]},"properties":{"osm_id":1419276359,"osm_type":"node","seamark_type":"light_minor","display_class":"OTHER","min_zoom":12,"importance":1,"name":null,"ref":null,"common":{"type":"light_minor"},"children":{"light":{"category":"front","character":"Iso","colour":"green","height":"10","period":"4","range":"13","reference":"H 2568"}},"osm_tags":{"fixme":"could be a beacon with a light","man_made":"lighthouse","seamark:light:category":"front","seamark:light:character":"Iso","seamark:light:colour":"green","seamark:light:height":"10","seamark:light:period":"4","seamark:light:range":"13","seamark:light:reference":"H 2568","seamark:type":"light_minor","source":"NRCan-CanVec-8.0"}}},{"type":"Feature","geometry":{"type":"Point","coordinates":[-74.5487332,45.0555896]},"properties":{"osm_id":1419276912,"osm_type":"node","seamark_type":"light_minor","display_class":"OTHER","min_zoom":12,"importance":1,"name":null,"ref":null,"common":{"type":"light_minor"},"children":{"light":{"character":"F","colour":"white","height":"8","range":"11","reference":"H 2571"}},"osm_tags":{"fixme":"could be a beacon with a light","man_made":"lighthouse","seamark:light:character":"F","seamark:light:colour":"white","seamark:light:height":"8","seamark:light:range":"11","seamark:light:reference":"H 2571","seamark:type":"light_minor","source":"NRCan-CanVec-8.0"}}},{"type":"Feature","geometry":{"type":"Point","coordinates":[-74.9512895,45.6434182]},"properties":{"osm_id":2019186691,"osm_type":"node","seamark_type":"harbour","display_class":"OTHER","min_zoom":12,"importance":1,"name":null,"ref":null,"common":{"type":"harbour"},"children":{"harbour":{"category":"marina"}},"osm_tags":{"leisure":"marina","seamark:harbour:category":"marina","seamark:type":"harbour","source":"NRCan-CanVec-10.0"}}},{"type":"Feature","geometry":{"type":"Point","coordinates":[-74.4694658,45.9231996]},"properties":{"osm_id":4459428883,"osm_type":"node","seamark_type":"small_craft_facility","display_class":"OTHER","min_zoom":12,"importance":1,"name":null,"ref":null,"common":{"type":"small_craft_facility"},"children":{"small_craft_facility":{"category":"fuel_station"}},"osm_tags":{"seamark:small_craft_facility:category":"fuel_station","seamark:type":"small_craft_facility","waterway":"fuel"}}},{"type":"Feature","geometry":{"type":"Point","coordinates":[-74.4363889,45.1222222]},"properties":{"osm_id":9326974380,"osm_type":"node","seamark_type":"light_minor","display_class":"OTHER","min_zoom":12,"importance":1,"name":null,"ref":null,"common":{"type":"light_minor"},"children":{"light":{"category":"front","character":"F","colour":"green","range":"13"}},"osm_tags":{"seamark:light:category":"front","seamark:light:character":"F","seamark:light:colour":"green","seamark:light:range":"13","seamark:type":"light_minor"}}},{"type":"Feature","geometry":{"type":"Point","coordinates":[-74.2955556,45.1927778]},"properties":{"osm_id":9326974382,"osm_type":"node","seamark_type":"light_minor","display_class":"OTHER","min_zoom":12,"importance":1,"name":null,"ref":null,"common":{"type":"light_minor"},"children":{"light":{"category":"rear","character":"F","colour":"green","range":"13"}},"osm_tags":{"seamark:light:category":"rear","seamark:light:character":"F","seamark:light:colour":"green","seamark:light:range":"13","seamark:type":"light_minor"}}},{"type":"Feature","geometry":{"type":"Point","coordinates":[-74.3080556,45.1863889]},"properties":{"osm_id":9326974383,"osm_type":"node","seamark_type":"light_minor","display_class":"OTHER","min_zoom":12,"importance":1,"name":null,"ref":null,"common":{"type":"light_minor"},"children":{"light":{"category":"front","character":"F","colour":"green","range":"13"}},"osm_tags":{"seamark:light:category":"front","seamark:light:character":"F","seamark:light:colour":"green","seamark:light:range":"13","seamark:type":"light_minor"}}},{"type":"Feature","geometry":{"type":"Point","coordinates":[-74.4836111,45.0961111]},"properties":{"osm_id":9327180232,"osm_type":"node","seamark_type":"light_minor","display_class":"OTHER","min_zoom":12,"importance":1,"name":null,"ref":null,"common":{"type":"light_minor"},"children":{"light":{"category":"rear","character":"F","colour":"green","range":"13"}},"osm_tags":{"seamark:light:category":"rear","seamark:light:character":"F","seamark:light:colour":"green","seamark:light:range":"13","seamark:type":"light_minor"}}},{"type":"Feature","geometry":{"type":"Point","coordinates":[-74.4888889,45.0925]},"properties":{"osm_id":9327180233,"osm_type":"node","seamark_type":"light_minor","display_class":"OTHER","min_zoom":12,"importance":1,"name":null,"ref":null,"common":{"type":"light_minor"},"children":{"light":{"category":"front","character":"Iso","colour":"green","period":"4","range":"13"}},"osm_tags":{"seamark:light:category":"front","seamark:light:character":"Iso","seamark:light:colour":"green","seamark:light:period":"4","seamark:light:range":"13","seamark:type":"light_minor"}}},{"type":"Feature","geometry":{"type":"Point","coordinates":[-74.51,45.0708333]},"properties":{"osm_id":9327180235,"osm_type":"node","seamark_type":"light_minor","display_class":"OTHER","min_zoom":12,"importance":1,"name":null,"ref":null,"common":{"type":"light_minor"},"children":{"light":{"category":"rear","character":"F","colour":"green","range":"13"}},"osm_tags":{"seamark:light:category":"rear","seamark:light:character":"F","seamark:light:colour":"green","seamark:light:range":"13","seamark:type":"light_minor"}}},{"type":"Feature","geometry":{"type":"Point","coordinates":[-74.5088889,45.0705556]},"properties":{"osm_id":9327180237,"osm_type":"node","seamark_type":"light_minor","display_class":"OTHER","min_zoom":12,"importance":1,"name":null,"ref":null,"common":{"type":"light_minor"},"children":{"light":{"category":"rear","character":"F","colour":"green","range":"13"}},"osm_tags":{"seamark:light:category":"rear","seamark:light:character":"F","seamark:light:colour":"green","seamark:light:range":"13","seamark:type":"light_minor"}}},{"type":"Feature","geometry":{"type":"Point","coordinates":[-74.4572222,45.1116667]},"properties":{"osm_id":9327180238,"osm_type":"node","seamark_type":"light_minor","display_class":"OTHER","min_zoom":12,"importance":1,"name":null,"ref":null,"common":{"type":"light_minor"},"children":{"light":{"category":"rear","character":"F","colour":"green","range":"13"}},"osm_tags":{"seamark:light:category":"rear","seamark:light:character":"F","seamark:light:colour":"green","seamark:light:range":"13","seamark:type":"light_minor"}}},{"type":"Feature","geometry":{"type":"Point","coordinates":[-74.4916667,45.1002778]},"properties":{"osm_id":9327180239,"osm_type":"node","seamark_type":"light_minor","display_class":"OTHER","min_zoom":12,"importance":1,"name":null,"ref":null,"common":{"type":"light_minor"},"children":{"light":{"category":"front","character":"Iso","colour":"green","period":"4","range":"13"}},"osm_tags":{"seamark:light:category":"front","seamark:light:character":"Iso","seamark:light:colour":"green","seamark:light:period":"4","seamark:light:range":"13","seamark:type":"light_minor"}}},{"type":"Feature","geometry":{"type":"Point","coordinates":[-74.4988889,45.0955556]},"properties":{"osm_id":9327180240,"osm_type":"node","seamark_type":"light_minor","display_class":"OTHER","min_zoom":12,"importance":1,"name":null,"ref":null,"common":{"type":"light_minor"},"children":{"light":{"category":"rear","character":"F","colour":"green","range":"13"}},"osm_tags":{"seamark:light:category":"rear","seamark:light:character":"F","seamark:light:colour":"green","seamark:light:range":"13","seamark:type":"light_minor"}}},{"type":"Feature","geometry":{"type":"LineString","coordinates":[[-74.0191082,45.322724],[-74.0191355,45.3226638],[-74.0190697,45.3226007]]},"properties":{"osm_id":92549335,"osm_type":"way","seamark_type":"gate","display_class":"OTHER","min_zoom":12,"importance":1,"name":null,"ref":null,"common":{"type":"gate"},"children":{},"osm_tags":{"seamark:type":"gate","waterway":"lock_gate"}}},{"type":"Feature","geometry":{"type":"LineString","coordinates":[[-74.7756477,45.0095767],[-74.7756335,45.0097294]]},"properties":{"osm_id":128415038,"osm_type":"way","seamark_type":"gate","display_class":"OTHER","min_zoom":12,"importance":1,"name":null,"ref":null,"common":{"type":"gate"},"children":{},"osm_tags":{"seamark:type":"gate","source":"NRCan-CanVec-8.0","waterway":"lock_gate"}}},{"type":"Feature","geometry":{"type":"LineString","coordinates":[[-74.7756845,45.009277],[-74.7756683,45.0094105]]},"properties":{"osm_id":128415241,"osm_type":"way","seamark_type":"gate","display_class":"OTHER","min_zoom":12,"importance":1,"name":null,"ref":null,"common":{"type":"gate"},"children":{},"osm_tags":{"seamark:type":"gate","source":"NRCan-CanVec-8.0","waterway":"lock_gate"}}},{"type":"Feature","geometry":{"type":"LineString","coordinates":[[-74.3806793,45.5697553],[-74.3805935,45.5697933],[-74.3805214,45.5698355]]},"properties":{"osm_id":176690519,"osm_type":"way","seamark_type":"gate","display_class":"OTHER","min_zoom":12,"importance":1,"name":null,"ref":null,"common":{"type":"gate"},"children":{},"osm_tags":{"seamark:type":"gate","waterway":"lock_gate"}}},{"type":"Feature","geometry":{"type":"LineString","coordinates":[[-74.3812923,45.5703382],[-74.3812718,45.5703718],[-74.3812421,45.5704204],[-74.3811227,45.5704165]]},"properties":{"osm_id":176690521,"osm_type":"way","seamark_type":"gate","display_class":"OTHER","min_zoom":12,"importance":1,"name":null,"ref":null,"common":{"type":"gate"},"children":{},"osm_tags":{"seamark:type":"gate","waterway":"lock_gate"}}},{"type":"Feature","geometry":{"type":"Polygon","coordinates":[[[-74.7205799,45.0146488],[-74.7178585,45.0142008],[-74.7180095,45.0137808],[-74.7177262,45.0136234],[-74.7177548,45.0135917],[-74.7183251,45.0134685],[-74.7183323,45.0133468],[-74.718548,45.0133158],[-74.7190303,45.0133293],[-74.7190966,45.0133475],[-74.7191962,45.0134025],[-74.7192991,45.0134184],[-74.7196118,45.0134143],[-74.7197862,45.0134317],[-74.7198817,45.0134544],[-74.719995,45.0134776],[-74.7201503,45.0135094],[-74.7202887,45.0135374],[-74.720579,45.0135962],[-74.7206734,45.0135931],[-74.7208034,45.0135729],[-74.7209612,45.0135216],[-74.7208887,45.0137332],[-74.7208491,45.0138484],[-74.7205799,45.0146488]]]},"properties":{"osm_id":435675726,"osm_type":"way","seamark_type":"harbour","display_class":"OTHER","min_zoom":12,"importance":1,"name":null,"ref":null,"common":{"type":"harbour"},"children":{"harbour":{"category":"marina"}},"osm_tags":{"leisure":"marina","seamark:harbour:category":"marina","seamark:type":"harbour"}}},{"type":"Feature","geometry":{"type":"Polygon","coordinates":[[[-74.0435245,45.421462],[-74.0434678,45.4214798],[-74.0434159,45.4214942],[-74.0434244,45.4215154],[-74.0434605,45.421545],[-74.0435667,45.4216254],[-74.0437283,45.4217837],[-74.0438875,45.4219192],[-74.0440902,45.4221148],[-74.0441698,45.4221774],[-74.0442807,45.4222866],[-74.0444966,45.4224983],[-74.0445449,45.4225558],[-74.0445642,45.4226075],[-74.0445811,45.4226396],[-74.0446088,45.4226515],[-74.04468,45.4226515],[-74.0448645,45.4226337],[-74.0451214,45.4225914],[-74.0452228,45.4225728],[-74.0453108,45.4225668],[-74.0453892,45.422566],[-74.0454736,45.4225829],[-74.0455279,45.4225871],[-74.0455617,45.4225939],[-74.0455955,45.4225888],[-74.0456208,45.4225778],[-74.0456305,45.4225567],[-74.0456317,45.4225321],[-74.0456124,45.4225025],[-74.045587,45.4224788],[-74.0455448,45.4224644],[-74.0455014,45.4224602],[-74.0454338,45.4224661],[-74.0452252,45.4224906],[-74.0448947,45.4225287],[-74.0447825,45.4225347],[-74.0447162,45.4225304],[-74.0446752,45.4225126],[-74.0446088,45.4224492],[-74.0444773,45.4223239],[-74.0443869,45.4222434],[-74.044364,45.4222104],[-74.0442216,45.4220826],[-74.04413,45.4219928],[-74.0439309,45.4218278],[-74.043779,45.4216898],[-74.043662,45.4215721],[-74.0435956,45.4215069],[-74.0435522,45.4214747],[-74.0435245,45.421462]]]},"properties":{"osm_id":967820736,"osm_type":"way","seamark_type":"harbour","display_class":"OTHER","min_zoom":12,"importance":1,"name":null,"ref":null,"common":{"type":"harbour"},"children":{},"osm_tags":{"area":"yes","man_made":"breakwater","material":"stone","seamark:type":"harbour"}}},{"type":"Feature","geometry":{"type":"LineString","coordinates":[[-74.0180209,45.3228454],[-74.018058,45.3227802],[-74.0179922,45.3227058]]},"properties":{"osm_id":1004170696,"osm_type":"way","seamark_type":"gate","display_class":"OTHER","min_zoom":12,"importance":1,"name":null,"ref":null,"common":{"type":"gate"},"children":{},"osm_tags":{"seamark:type":"gate","waterway":"lock_gate"}}},{"type":"Feature","geometry":{"type":"LineString","coordinates":[[-74.5375955,45.0588158],[-74.5734541,45.0432112]]},"properties":{"osm_id":1010971502,"osm_type":"way","seamark_type":"recommended_track","display_class":"OTHER","min_zoom":12,"importance":1,"name":null,"ref":null,"common":{"type":"recommended_track"},"children":{"recommended_track":{"category":"fixed_marks","orientation":"239.5","traffic_flow":"two-way"}},"osm_tags":{"seamark:recommended_track:category":"fixed_marks","seamark:recommended_track:orientation":"239.5","seamark:recommended_track:traffic_flow":"two-way","seamark:type":"recommended_track"}}},{"type":"Feature","geometry":{"type":"LineString","coordinates":[[-74.4934523,45.089331],[-74.5375955,45.0588158]]},"properties":{"osm_id":1010971503,"osm_type":"way","seamark_type":"recommended_track","display_class":"OTHER","min_zoom":12,"importance":1,"name":null,"ref":null,"common":{"type":"recommended_track"},"children":{"recommended_track":{"category":"fixed_marks","orientation":"226","traffic_flow":"two-way"}},"osm_tags":{"seamark:recommended_track:category":"fixed_marks","seamark:recommended_track:orientation":"226","seamark:recommended_track:traffic_flow":"two-way","seamark:type":"recommended_track"}}},{"type":"Feature","geometry":{"type":"LineString","coordinates":[[-74.4934523,45.089331],[-74.4760391,45.110498]]},"properties":{"osm_id":1010971504,"osm_type":"way","seamark_type":"recommended_track","display_class":"OTHER","min_zoom":12,"importance":1,"name":null,"ref":null,"common":{"type":"recommended_track"},"children":{"recommended_track":{"category":"fixed_marks","orientation":"207.3","traffic_flow":"two-way"}},"osm_tags":{"seamark:recommended_track:category":"fixed_marks","seamark:recommended_track:orientation":"207.3","seamark:recommended_track:traffic_flow":"two-way","seamark:type":"recommended_track"}}},{"type":"Feature","geometry":{"type":"LineString","coordinates":[[-74.4760391,45.110498],[-74.4515564,45.1265039]]},"properties":{"osm_id":1010971505,"osm_type":"way","seamark_type":"recommended_track","display_class":"OTHER","min_zoom":12,"importance":1,"name":null,"ref":null,"common":{"type":"recommended_track"},"children":{"recommended_track":{"category":"fixed_marks","traffic_flow":"two-way"}},"osm_tags":{"seamark:recommended_track:category":"fixed_marks","seamark:recommended_track:traffic_flow":"two-way","seamark:type":"recommended_track"}}},{"type":"Feature","geometry":{"type":"LineString","coordinates":[[-74.4266172,45.1272363],[-74.4515564,45.1265039]]},"properties":{"osm_id":1010971506,"osm_type":"way","seamark_type":"recommended_track","display_class":"OTHER","min_zoom":12,"importance":1,"name":null,"ref":null,"common":{"type":"recommended_track"},"children":{"recommended_track":{"category":"fixed_marks","traffic_flow":"two-way"}},"osm_tags":{"seamark:recommended_track:category":"fixed_marks","seamark:recommended_track:traffic_flow":"two-way","seamark:type":"recommended_track"}}},{"type":"Feature","geometry":{"type":"LineString","coordinates":[[-74.4988889,45.0955556],[-74.4760391,45.110498]]},"properties":{"osm_id":1010971507,"osm_type":"way","seamark_type":"navigation_line","display_class":"OTHER","min_zoom":12,"importance":1,"name":null,"ref":null,"common":{"type":"navigation_line"},"children":{"navigation_line":{"category":"leading"}},"osm_tags":{"seamark:navigation_line:category":"leading","seamark:type":"navigation_line"}}},{"type":"Feature","geometry":{"type":"LineString","coordinates":[[-74.3371386,45.1720575],[-74.2955556,45.1927778]]},"properties":{"osm_id":1010971508,"osm_type":"way","seamark_type":"navigation_line","display_class":"OTHER","min_zoom":12,"importance":1,"name":null,"ref":null,"common":{"type":"navigation_line"},"children":{"navigation_line":{"category":"leading","orientation":"234.7"}},"osm_tags":{"seamark:navigation_line:category":"leading","seamark:navigation_line:orientation":"234.7","seamark:type":"navigation_line"}}},{"type":"Feature","geometry":{"type":"LineString","coordinates":[[-74.4266172,45.1272363],[-74.3371386,45.1720575]]},"properties":{"osm_id":1010971509,"osm_type":"way","seamark_type":"recommended_track","display_class":"OTHER","min_zoom":12,"importance":1,"name":null,"ref":null,"common":{"type":"recommended_track"},"children":{"recommended_track":{"category":"fixed_marks","orientation":"234.7","traffic_flow":"two-way"}},"osm_tags":{"seamark:recommended_track:category":"fixed_marks","seamark:recommended_track:orientation":"234.7","seamark:recommended_track:traffic_flow":"two-way","seamark:type":"recommended_track"}}},{"type":"Feature","geometry":{"type":"LineString","coordinates":[[-74.4572222,45.1116667],[-74.4266172,45.1272363]]},"properties":{"osm_id":1010971510,"osm_type":"way","seamark_type":"navigation_line","display_class":"OTHER","min_zoom":12,"importance":1,"name":null,"ref":null,"common":{"type":"navigation_line"},"children":{"navigation_line":{"category":"leading"}},"osm_tags":{"seamark:navigation_line:category":"leading","seamark:type":"navigation_line"}}},{"type":"Feature","geometry":{"type":"LineString","coordinates":[[-74.4007687,45.1280559],[-74.4266172,45.1272363]]},"properties":{"osm_id":1010971511,"osm_type":"way","seamark_type":"navigation_line","display_class":"OTHER","min_zoom":12,"importance":1,"name":null,"ref":null,"common":{"type":"navigation_line"},"children":{"navigation_line":{"category":"leading"}},"osm_tags":{"seamark:navigation_line:category":"leading","seamark:type":"navigation_line"}}},{"type":"Feature","geometry":{"type":"LineString","coordinates":[[-74.4836111,45.0961111],[-74.4934523,45.089331]]},"properties":{"osm_id":1010971512,"osm_type":"way","seamark_type":"navigation_line","display_class":"OTHER","min_zoom":12,"importance":1,"name":null,"ref":null,"common":{"type":"navigation_line"},"children":{"navigation_line":{"category":"leading","orientation":"46"}},"osm_tags":{"seamark:navigation_line:category":"leading","seamark:navigation_line:orientation":"46","seamark:type":"navigation_line"}}},{"type":"Feature","geometry":{"type":"LineString","coordinates":[[-74.51,45.0708333],[-74.5375955,45.0588158]]},"properties":{"osm_id":1010971513,"osm_type":"way","seamark_type":"navigation_line","display_class":"OTHER","min_zoom":12,"importance":1,"name":null,"ref":null,"common":{"type":"navigation_line"},"children":{"navigation_line":{"category":"leading","orientation":"59.5"}},"osm_tags":{"seamark:navigation_line:category":"leading","seamark:navigation_line:orientation":"59.5","seamark:type":"navigation_line"}}},{"type":"Feature","geometry":{"type":"LineString","coordinates":[[-74.5088889,45.0705556],[-74.4934523,45.089331]]},"properties":{"osm_id":1010971599,"osm_type":"way","seamark_type":"navigation_line","display_class":"OTHER","min_zoom":12,"importance":1,"name":null,"ref":null,"common":{"type":"navigation_line"},"children":{"navigation_line":{"category":"leading","orientation":"207.3"}},"osm_tags":{"seamark:navigation_line:category":"leading","seamark:navigation_line:orientation":"207.3","seamark:type":"navigation_line"}}},{"type":"Feature","geometry":{"type":"Polygon","coordinates":[[[-74.5426825,45.070044],[-74.5417969,45.0691875],[-74.541447,45.0688702],[-74.5400381,45.0696931],[-74.5411552,45.0710808],[-74.541252,45.0712011],[-74.5417322,45.0713375],[-74.5426825,45.070044]]]},"properties":{"osm_id":1123189602,"osm_type":"way","seamark_type":"harbour","display_class":"OTHER","min_zoom":12,"importance":1,"name":null,"ref":null,"common":{"type":"harbour"},"children":{"harbour":{"category":"marina"}},"osm_tags":{"leisure":"marina","seamark:harbour:category":"marina","seamark:type":"harbour"}}},{"type":"Feature","geometry":{"type":"Polygon","coordinates":[[[-74.5741724,45.0533739],[-74.5737675,45.0528634],[-74.5734322,45.0529976],[-74.5732507,45.0527641],[-74.5734127,45.0527001],[-74.5733464,45.0526321],[-74.5735539,45.0525385],[-74.5731489,45.0520538],[-74.5729247,45.0517854],[-74.5719585,45.0521537],[-74.5723598,45.0526417],[-74.5732707,45.0537494],[-74.5741724,45.0533739]]]},"properties":{"osm_id":1299860445,"osm_type":"way","seamark_type":"harbour","display_class":"OTHER","min_zoom":12,"importance":1,"name":null,"ref":null,"common":{"type":"harbour"},"children":{"harbour":{"category":"marina"}},"osm_tags":{"leisure":"marina","seamark:harbour:category":"marina","seamark:type":"harbour"}}},{"type":"Feature","geometry":{"type":"LineString","coordinates":[[-74.0955671,45.4606591],[-74.0958675,45.4601945],[-74.096125,45.4598041],[-74.0961639,45.4597448],[-74.096188,45.4596837],[-74.0961786,45.4596094],[-74.0961089,45.4595407],[-74.0960244,45.4594739],[-74.0959305,45.4594212],[-74.0958152,45.4593892],[-74.0956623,45.4593808],[-74.0953673,45.4593986]]},"properties":{"osm_id":1361536599,"osm_type":"way","seamark_type":"harbour","display_class":"OTHER","min_zoom":12,"importance":1,"name":null,"ref":null,"common":{"type":"harbour"},"children":{},"osm_tags":{"hazard":"flooding","man_made":"breakwater","material":"concrete","seamark:type":"harbour"}}},{"type":"Feature","geometry":{"type":"LineString","coordinates":[[-74.094698,45.4604217],[-74.0951687,45.4596311]]},"properties":{"osm_id":1361536600,"osm_type":"way","seamark_type":"harbour","display_class":"OTHER","min_zoom":12,"importance":1,"name":null,"ref":null,"common":{"type":"harbour"},"children":{},"osm_tags":{"hazard":"flooding","man_made":"breakwater","material":"concrete","seamark:type":"harbour"}}},{"type":"Feature","geometry":{"type":"LineString","coordinates":[[-74.091525,45.4593154],[-74.0918763,45.4587849]]},"properties":{"osm_id":1361539547,"osm_type":"way","seamark_type":"shoreline_construction","display_class":"OTHER","min_zoom":12,"importance":1,"name":null,"ref":null,"common":{"type":"shoreline_construction"},"children":{},"osm_tags":{"hazard":"flooding","man_made":"breakwater","material":"rock","seamark:type":"shoreline_construction"}}},{"type":"Feature","geometry":{"type":"LineString","coordinates":[[-74.1012052,45.4619071],[-74.1012361,45.4618167],[-74.1013039,45.4616525]]},"properties":{"osm_id":1361539548,"osm_type":"way","seamark_type":"shoreline_construction","display_class":"OTHER","min_zoom":12,"importance":1,"name":null,"ref":null,"common":{"type":"shoreline_construction"},"children":{},"osm_tags":{"hazard":"flooding","man_made":"breakwater","material":"rock","seamark:type":"shoreline_construction"}}},{"type":"Feature","geometry":{"type":"LineString","coordinates":[[-74.3812421,45.5704204],[-74.3805935,45.5697933]]},"properties":{"osm_id":839396182,"osm_type":"way","seamark_type":"lock_basin","display_class":"OTHER","min_zoom":12,"importance":1,"name":"Canal et Écluse de Carillon","ref":null,"common":{"type":"lock_basin"},"children":{},"osm_tags":{"boat":"permit","canoe":"permit","intermittent":"no","lock":"yes","lock_name":"Carillon Lock","motorboat":"permit","name":"Canal et Écluse de Carillon","oneway:boat":"no","oneway:canoe":"no","phone":"+1-514-283-6054","seamark:type":"lock_basin","tidal":"no","waterway":"canal","website":"https://www.pc.gc.ca/en/lhn-nhs/qc/canalcarillon"}}},{"type":"Feature","geometry":{"type":"Polygon","coordinates":[[[-74.174307,45.4963541],[-74.174503,45.4962624],[-74.1743102,45.4960726],[-74.1740435,45.4958801],[-74.1739069,45.4957815],[-74.1723709,45.4959478],[-74.1722697,45.4960113],[-74.1722547,45.4960831],[-74.1721821,45.4960955],[-74.1721434,45.4960574],[-74.172004,45.4960853],[-74.1717698,45.4962768],[-74.1713211,45.4962901],[-74.170934,45.4963504],[-74.1707028,45.4965111],[-74.1705412,45.4965921],[-74.1702596,45.4972256],[-74.1709894,45.4973475],[-74.1710483,45.4974026],[-74.1712031,45.4972991],[-74.1718323,45.4968787],[-74.1730879,45.4965872],[-74.1731901,45.49649],[-74.174307,45.4963541]]]},"properties":{"osm_id":425669230,"osm_type":"way","seamark_type":"harbour","display_class":"OTHER","min_zoom":12,"importance":1,"name":"Club de Voile des Laurentides","ref":null,"common":{"type":"harbour"},"children":{"harbour":{"category":"marina"}},"osm_tags":{"leisure":"marina","name":"Club de Voile des Laurentides","seamark:harbour:category":"marina","seamark:type":"harbour"}}},{"type":"Feature","geometry":{"type":"Point","coordinates":[-74.043131,45.4197834]},"properties":{"osm_id":1420643442,"osm_type":"node","seamark_type":"harbour","display_class":"OTHER","min_zoom":12,"importance":1,"name":"Club de voile Deux-Montagnes","ref":null,"common":{"type":"harbour"},"children":{"harbour":{"category":"marina"}},"osm_tags":{"addr:city":"Vaudreuil-sur-le-Lac","addr:housenumber":"30","addr:province":"QC","addr:street":"Rue des Rigolets","capacity":"210","leisure":"marina","name":"Club de voile Deux-Montagnes","seamark:harbour:category":"marina","seamark:type":"harbour"}}},{"type":"Feature","geometry":{"type":"Polygon","coordinates":[[[-74.0449092,45.4230388],[-74.0427266,45.4209309],[-74.0426586,45.4208772],[-74.0424932,45.420744],[-74.0424435,45.4207278],[-74.0416096,45.4199968],[-74.0412267,45.4195714],[-74.0417769,45.4194268],[-74.0423807,45.4192696],[-74.0426876,45.4191859],[-74.0428786,45.4191281],[-74.0430269,45.419078],[-74.0431927,45.4190146],[-74.0433358,45.4189555],[-74.0433734,45.4189852],[-74.0440263,45.4196064],[-74.0440803,45.4196512],[-74.0445589,45.420098],[-74.0467531,45.4220615],[-74.0449092,45.4230388]]]},"properties":{"osm_id":418733404,"osm_type":"way","seamark_type":"harbour","display_class":"OTHER","min_zoom":12,"importance":1,"name":"Club de voile Deux-Montagnes","ref":null,"common":{"type":"harbour"},"children":{"harbour":{"category":"marina"}},"osm_tags":{"flats":"1","landuse":"commercial","leisure":"marina","name":"Club de voile Deux-Montagnes","seamark:harbour:category":"marina","seamark:type":"harbour"}}},{"type":"Feature","geometry":{"type":"Polygon","coordinates":[[[-74.1383457,45.4619768],[-74.1382782,45.4621321],[-74.1383362,45.462188],[-74.1382912,45.4622653],[-74.1383101,45.4622714],[-74.1382826,45.4623252],[-74.1382121,45.4624572],[-74.1387238,45.4632057],[-74.1399373,45.4636749],[-74.1403686,45.4637464],[-74.1414364,45.4633737],[-74.142584,45.4635247],[-74.1426058,45.4635186],[-74.1426261,45.4634983],[-74.1426594,45.4634891],[-74.1426652,45.4634779],[-74.1426754,45.4634596],[-74.142858,45.4632614],[-74.1428855,45.4632635],[-74.1429029,45.4632574],[-74.1429362,45.4632299],[-74.1430333,45.4631679],[-74.1430812,45.4631466],[-74.1431493,45.4631283],[-74.1432478,45.4631069],[-74.1433841,45.4630815],[-74.1435217,45.4630581],[-74.1436116,45.4630378],[-74.1436841,45.4630256],[-74.143742,45.4630266],[-74.1438029,45.4630378],[-74.1440087,45.4630652],[-74.1441362,45.4630795],[-74.1442044,45.4630957],[-74.1442449,45.463112],[-74.1443,45.4631334],[-74.1443275,45.4631547],[-74.1443429,45.4631696],[-74.144404,45.4631064],[-74.1448851,45.4626088],[-74.144483,45.4623287],[-74.1442566,45.4621583],[-74.1440089,45.4619647],[-74.143714,45.4617446],[-74.1432847,45.461422],[-74.1429757,45.4611804],[-74.1429261,45.4611325],[-74.142886,45.4610828],[-74.142853,45.4610613],[-74.1428105,45.4610547],[-74.1427563,45.4610696],[-74.1426336,45.4611358],[-74.1424944,45.4612235],[-74.1424072,45.4612896],[-74.1423057,45.4613889],[-74.1420557,45.4616652],[-74.1419236,45.4618257],[-74.1418684,45.4617962],[-74.1410251,45.4613746],[-74.1408621,45.4612929],[-74.1405495,45.4615818],[-74.1405985,45.4616147],[-74.1402246,45.4619786],[-74.1395838,45.4620541],[-74.1386304,45.4619664],[-74.1386173,45.4619725],[-74.1386014,45.4619745],[-74.1385739,45.4619674],[-74.1385463,45.4619623],[-74.1385086,45.4619623],[-74.1384681,45.4619684],[-74.1384086,45.4619735],[-74.1383457,45.4619768]]]},"properties":{"osm_id":1017892243,"osm_type":"way","seamark_type":"harbour","display_class":"OTHER","min_zoom":12,"importance":1,"name":"Club nautique d'Hudson","ref":null,"common":{"type":"harbour"},"children":{"harbour":{"category":"marina"}},"osm_tags":{"addr:city":"Hudson","addr:housenumber":"10","addr:province":"QC","addr:street":"Rue du Yacht Club","leisure":"marina","name":"Club nautique d'Hudson","name:en":"Hudson Yacht Club","name:fr":"Club nautique d'Hudson","seamark:harbour:category":"marina","seamark:type":"harbour"}}},{"type":"Feature","geometry":{"type":"Point","coordinates":[-74.6836312,45.0008533]},"properties":{"osm_id":1069838900,"osm_type":"node","seamark_type":"light_minor","display_class":"OTHER","min_zoom":12,"importance":1,"name":"Cornwall Island","ref":null,"common":{"name":"Cornwall Island","type":"light_minor"},"children":{"light":{"character":"Fl","colour":"red","height":"12","period":"4","reference":"H 2601.4","sequence":"0.5+(3.5)"}},"osm_tags":{"man_made":"beacon","seamark:light:character":"Fl","seamark:light:colour":"red","seamark:light:height":"12","seamark:light:period":"4","seamark:light:reference":"H 2601.4","seamark:light:sequence":"0.5+(3.5)","seamark:name":"Cornwall Island","seamark:type":"light_minor","source":"NRCan-CanVec-7.0"}}},{"type":"Feature","geometry":{"type":"Point","coordinates":[-74.6741351,45.00345]},"properties":{"osm_id":1069842193,"osm_type":"node","seamark_type":"light_minor","display_class":"OTHER","min_zoom":12,"importance":1,"name":"Cornwall Island","ref":null,"common":{"name":"Cornwall Island","type":"light_minor"},"children":{"light":{"character":"Q","colour":"red","height":"12","reference":"H 2601"}},"osm_tags":{"man_made":"beacon","seamark:light:character":"Q","seamark:light:colour":"red","seamark:light:height":"12","seamark:light:reference":"H 2601","seamark:name":"Cornwall Island","seamark:type":"light_minor","source":"NRCan-CanVec-7.0"}}},{"type":"Feature","geometry":{"type":"Point","coordinates":[-74.2059849,45.2527322]},"properties":{"osm_id":1419616339,"osm_type":"node","seamark_type":"light_minor","display_class":"OTHER","min_zoom":12,"importance":1,"name":"Coteau-Landing","ref":null,"common":{"name":"Coteau-Landing","type":"light_minor"},"children":{"light":{"character":"Fl","colour":"green","height":"6","period":"4","reference":"H 2541","sequence":"0.5+(3.5)"}},"osm_tags":{"fixme":"could be a beacon with a light","man_made":"lighthouse","seamark:light:character":"Fl","seamark:light:colour":"green","seamark:light:height":"6","seamark:light:period":"4","seamark:light:reference":"H 2541","seamark:light:sequence":"0.5+(3.5)","seamark:name":"Coteau-Landing","seamark:type":"light_minor","source":"NRCan-CanVec-8.0"}}},{"type":"Feature","geometry":{"type":"Point","coordinates":[-74.4218616,45.163387]},"properties":{"osm_id":6241607637,"osm_type":"node","seamark_type":"harbour","display_class":"OTHER","min_zoom":12,"importance":1,"name":"Creg Quay","ref":null,"common":{"type":"harbour"},"children":{"harbour":{"category":"marina"}},"osm_tags":{"leisure":"marina","name":"Creg Quay","seamark:harbour:category":"marina","seamark:type":"harbour","website":"https://cregquay.com/"}}},{"type":"Feature","geometry":{"type":"Point","coordinates":[-74.2753448,45.2236182]},"properties":{"osm_id":1377279116,"osm_type":"node","seamark_type":"light_minor","display_class":"OTHER","min_zoom":12,"importance":1,"name":"Hay Point","ref":null,"common":{"name":"Hay Point","type":"light_minor"},"children":{"light":{"category":"lower","character":"F","colour":"green","height":"11","reference":"H 2543"}},"osm_tags":{"man_made":"lighthouse","seamark:light:category":"lower","seamark:light:character":"F","seamark:light:colour":"green","seamark:light:height":"11","seamark:light:reference":"H 2543","seamark:name":"Hay Point","seamark:type":"light_minor","source":"NRCan-CanVec-7.0"}}},{"type":"Feature","geometry":{"type":"Point","coordinates":[-74.7187142,45.0135843]},"properties":{"osm_id":13073010207,"osm_type":"node","seamark_type":"small_craft_facility","display_class":"OTHER","min_zoom":12,"importance":1,"name":"Marina 200","ref":null,"common":{"type":"small_craft_facility"},"children":{"small_craft_facility":{"category":"fuel_station"}},"osm_tags":{"addr:city":"Cornwall","addr:housenumber":"200","addr:postcode":"K6H1A3","addr:province":"Ontario","addr:street":"Water Street E","name":"Marina 200","opening_hours":"07:00-23:00","operator":"Marina 200","seamark:small_craft_facility:category":"fuel_station","seamark:type":"small_craft_facility","seasonal":"summer","waterway":"fuel"}}},{"type":"Feature","geometry":{"type":"Point","coordinates":[-74.591998,45.0194998]},"properties":{"osm_id":10775948443,"osm_type":"node","seamark_type":"harbour","display_class":"OTHER","min_zoom":12,"importance":1,"name":"Marina Adams","ref":null,"common":{"type":"harbour"},"children":{"harbour":{"category":"marina"}},"osm_tags":{"leisure":"marina","name":"Marina Adams","seamark:harbour:category":"marina","seamark:type":"harbour"}}},{"type":"Feature","geometry":{"type":"Point","coordinates":[-74.9344062,45.6479672]},"properties":{"osm_id":4697940537,"osm_type":"node","seamark_type":"harbour","display_class":"OTHER","min_zoom":12,"importance":1,"name":"Marina Municipale","ref":null,"common":{"type":"harbour"},"children":{"harbour":{"category":"marina"}},"osm_tags":{"leisure":"marina","name":"Marina Municipale","seamark:harbour:category":"marina","seamark:type":"harbour"}}},{"type":"Feature","geometry":{"type":"Polygon","coordinates":[[[-74.440873,45.5840877],[-74.4394843,45.5835207],[-74.4371818,45.5824269],[-74.4373729,45.5821332],[-74.4380588,45.5822642],[-74.4380861,45.5822766],[-74.438736,45.5825716],[-74.4394082,45.5823565],[-74.4380424,45.5819786],[-74.4383466,45.581407],[-74.4398284,45.5819784],[-74.4401714,45.5821526],[-74.4402427,45.5824219],[-74.4404576,45.5827811],[-74.440852,45.5832385],[-74.4409353,45.5835106],[-74.4408788,45.5837686],[-74.440873,45.5840877]]]},"properties":{"osm_id":958716980,"osm_type":"way","seamark_type":"harbour","display_class":"OTHER","min_zoom":12,"importance":1,"name":"Marina de Brownsburg-Chatham","ref":null,"common":{"type":"harbour"},"children":{"harbour":{"category":"marina"}},"osm_tags":{"leisure":"marina","name":"Marina de Brownsburg-Chatham","seamark:harbour:category":"marina","seamark:type":"harbour"}}},{"type":"Feature","geometry":{"type":"Point","coordinates":[-74.8899878,45.6404558]},"properties":{"osm_id":7969596455,"osm_type":"node","seamark_type":"harbour","display_class":"OTHER","min_zoom":12,"importance":1,"name":"Marina de Lefaivre","ref":null,"common":{"type":"harbour"},"children":{"harbour":{"category":"marina"}},"osm_tags":{"leisure":"marina","name":"Marina de Lefaivre","seamark:harbour:category":"marina","seamark:type":"harbour"}}},{"type":"Feature","geometry":{"type":"Polygon","coordinates":[[[-74.1478265,45.254576],[-74.1479224,45.2544868],[-74.1479407,45.2542012],[-74.1477487,45.25394],[-74.1475394,45.2538523],[-74.1473931,45.2537985],[-74.1470682,45.2537859],[-74.1466165,45.2537615],[-74.1462421,45.2538333],[-74.1460346,45.2539114],[-74.1457838,45.2539463],[-74.145318,45.2540107],[-74.1448931,45.2540957],[-74.1448769,45.2541292],[-74.1443309,45.2544282],[-74.1436445,45.2548041],[-74.1430731,45.255117],[-74.1425028,45.2554293],[-74.1424667,45.2554768],[-74.142506,45.2559726],[-74.1421331,45.2560045],[-74.1419318,45.2559001],[-74.1418854,45.2564951],[-74.1427401,45.2564728],[-74.1433875,45.2558196],[-74.1435086,45.2555681],[-74.1438232,45.2554099],[-74.14503,45.2552135],[-74.1468911,45.2550059],[-74.1478265,45.254576]]]},"properties":{"osm_id":417421147,"osm_type":"way","seamark_type":"harbour","display_class":"OTHER","min_zoom":12,"importance":1,"name":"Marina de Valleyfield","ref":null,"common":{"type":"harbour"},"children":{"harbour":{"category":"marina"}},"osm_tags":{"leisure":"marina","name":"Marina de Valleyfield","seamark:harbour:category":"marina","seamark:type":"harbour"}}},{"type":"Feature","geometry":{"type":"Point","coordinates":[-74.6081513,45.0406143]},"properties":{"osm_id":1068711113,"osm_type":"node","seamark_type":"light_minor","display_class":"OTHER","min_zoom":12,"importance":1,"name":"McGibbons Point","ref":null,"common":{"name":"McGibbons Point","type":"light_minor"},"children":{"light":{"character":"F","colour":"green","height":"10","range":"13"}},"osm_tags":{"man_made":"lighthouse","seamark:light:character":"F","seamark:light:colour":"green","seamark:light:height":"10","seamark:light:range":"13","seamark:name":"McGibbons Point","seamark:type":"light_minor","source":"NRCan-CanVec-7.0"}}},{"type":"Feature","geometry":{"type":"Point","coordinates":[-74.7137488,45.0020092]},"properties":{"osm_id":1419266502,"osm_type":"node","seamark_type":"light_minor","display_class":"OTHER","min_zoom":12,"importance":1,"name":"No.10","ref":null,"common":{"name":"No.10","type":"light_minor"},"children":{"light":{"1:character":"F","1:colour":"red","1:height":"16","1:sector_end":"277.75","1:sector_start":"276","2:character":"F","2:colour":"white","2:height":"16","2:sector_end":"279.25","2:sector_start":"277.75","3:character":"F","3:colour":"green","3:height":"16","3:sector_end":"281","3:sector_start":"279.25","reference":"H 2604"}},"osm_tags":{"fixme":"could be a beacon with a light","man_made":"lighthouse","seamark:light:1:character":"F","seamark:light:1:colour":"red","seamark:light:1:height":"16","seamark:light:1:sector_end":"277.75","seamark:light:1:sector_start":"276","seamark:light:2:character":"F","seamark:light:2:colour":"white","seamark:light:2:height":"16","seamark:light:2:sector_end":"279.25","seamark:light:2:sector_start":"277.75","seamark:light:3:character":"F","seamark:light:3:colour":"green","seamark:light:3:height":"16","seamark:light:3:sector_end":"281","seamark:light:3:sector_start":"279.25","seamark:light:reference":"H 2604","seamark:name":"No.10","seamark:type":"light_minor","source":"NRCan-CanVec-8.0"}}},{"type":"Feature","geometry":{"type":"Point","coordinates":[-74.4007687,45.1280559]},"properties":{"osm_id":1375381586,"osm_type":"node","seamark_type":"light_minor","display_class":"OTHER","min_zoom":12,"importance":1,"name":"Point Dupuis","ref":null,"common":{"name":"Point Dupuis","type":"light_minor"},"children":{"light":{"category":"rear","character":"F","colour":"green","height":"9","range":"14","reference":"H 2548"}},"osm_tags":{"man_made":"lighthouse","seamark:light:category":"rear","seamark:light:character":"F","seamark:light:colour":"green","seamark:light:height":"9","seamark:light:range":"14","seamark:light:reference":"H 2548","seamark:name":"Point Dupuis","seamark:type":"light_minor","source":"NRCan-CanVec-7.0"}}},{"type":"Feature","geometry":{"type":"Point","coordinates":[-74.1314294,45.2573254]},"properties":{"osm_id":6858935868,"osm_type":"node","seamark_type":"harbour","display_class":"OTHER","min_zoom":12,"importance":1,"name":"Quai fédéral de Valleyfield","ref":null,"common":{"type":"harbour"},"children":{"harbour":{"category":"marina"}},"osm_tags":{"leisure":"marina","name":"Quai fédéral de Valleyfield","seamark:harbour:category":"marina","seamark:type":"harbour"}}},{"type":"Feature","geometry":{"type":"Polygon","coordinates":[[[-74.2967489,45.2264221],[-74.296166,45.2258324],[-74.2959707,45.2256347],[-74.2954373,45.2249488],[-74.2948543,45.2250621],[-74.2945822,45.224829],[-74.2941654,45.2249818],[-74.2945757,45.2253133],[-74.2949371,45.2258854],[-74.2953021,45.2262446],[-74.2962447,45.2267154],[-74.2967489,45.2264221]]]},"properties":{"osm_id":697408718,"osm_type":"way","seamark_type":"harbour","display_class":"OTHER","min_zoom":12,"importance":1,"name":"Rachel Marine Sport","ref":null,"common":{"type":"harbour"},"children":{"harbour":{"category":"marina"}},"osm_tags":{"leisure":"marina","name":"Rachel Marine Sport","seamark:harbour:category":"marina","seamark:type":"harbour"}}},{"type":"Feature","geometry":{"type":"Point","coordinates":[-74.5548722,45.0507825]},"properties":{"osm_id":1419274888,"osm_type":"node","seamark_type":"light_minor","display_class":"OTHER","min_zoom":12,"importance":1,"name":"Stanley Island","ref":null,"common":{"name":"Stanley Island","type":"light_minor"},"children":{"light":{"character":"Fl","colour":"green","height":"8","period":"4","range":"5","reference":"H 2572","sequence":"0.5+(3.5)"}},"osm_tags":{"fixme":"could be a beacon with a light","man_made":"lighthouse","seamark:light:character":"Fl","seamark:light:colour":"green","seamark:light:height":"8","seamark:light:period":"4","seamark:light:range":"5","seamark:light:reference":"H 2572","seamark:light:sequence":"0.5+(3.5)","seamark:name":"Stanley Island","seamark:type":"light_minor","source":"NRCan-CanVec-8.0"}}},{"type":"Feature","geometry":{"type":"Polygon","coordinates":[[[-74.8841965,45.0285409],[-74.8844916,45.0282793],[-74.8846176,45.0280253],[-74.8845908,45.0276841],[-74.8843387,45.0272215],[-74.8840302,45.026795],[-74.8838934,45.0266301],[-74.883467,45.0267116],[-74.8829949,45.0268955],[-74.8825067,45.0271116],[-74.8821017,45.0274509],[-74.8822036,45.0275376],[-74.8826539,45.0280459],[-74.8831743,45.0285573],[-74.8838816,45.0287647],[-74.8841965,45.0285409]]]},"properties":{"osm_id":635780087,"osm_type":"way","seamark_type":"harbour","display_class":"OTHER","min_zoom":12,"importance":1,"name":"Stormont Yacht Club","ref":null,"common":{"type":"harbour"},"children":{"harbour":{"category":"marina"}},"osm_tags":{"leisure":"marina","name":"Stormont Yacht Club","seamark:harbour:category":"marina","seamark:type":"harbour"}}},{"type":"Feature","geometry":{"type":"Polygon","coordinates":[[[-74.1601857,45.4999907],[-74.158479,45.5000496],[-74.1584769,45.4980527],[-74.1584203,45.4980362],[-74.1579293,45.4978933],[-74.1579941,45.4969623],[-74.1580155,45.4960147],[-74.1594425,45.4955635],[-74.1601398,45.4961351],[-74.1600004,45.4979324],[-74.1602042,45.4980828],[-74.1601857,45.4999907]]]},"properties":{"osm_id":418988264,"osm_type":"way","seamark_type":"harbour","display_class":"OTHER","min_zoom":12,"importance":1,"name":"Yacht Club Pointe Aux Anglais","ref":null,"common":{"type":"harbour"},"children":{"harbour":{"category":"marina"}},"osm_tags":{"leisure":"marina","name":"Yacht Club Pointe Aux Anglais","seamark:harbour:category":"marina","seamark:type":"harbour"}}}],"type":"FeatureCollection"}