{"type":"FeatureCollection","features":[{"type":"Feature","geometry":{"type":"Point","coordinates":[32.0300831,46.6714885]},"properties":{"osm_id":7881975603,"osm_type":"node","seamark_type":"light_major","display_class":"LIGHTHOUSE","min_zoom":7,"importance":5,"name":"Khablivskyi Rear","ref":null,"common":{"name":"Khablivskyi Rear","type":"light_major"},"children":{"light":{"1:category":"directional","1:character":"F","1:colour":"white","1:height":"58","1:orientation":"64.1","1:range":"20","reference":"N 5182.1"}},"osm_tags":{"man_made":"lighthouse","name":"Хаблівський Задній маяк","name:de":"Leuchtturm Schablewski (Oberfeuer)","name:en":"Khablivskyi Rear Lighthouse","name:ru":"Хабловский Задний маяк","name:uk":"Хаблівський Задній маяк","seamark:light:1:category":"directional","seamark:light:1:character":"F","seamark:light:1:colour":"white","seamark:light:1:height":"58","seamark:light:1:orientation":"64.1","seamark:light:1:range":"20","seamark:light:reference":"N 5182.1","seamark:name":"Khablivskyi Rear","seamark:type":"light_major","source":"US NGA Pub. 113. 2020","wikidata":"Q131154328","wikipedia":"uk:Хаблівський задній маяк"}}},{"type":"Feature","geometry":{"type":"Polygon","coordinates":[[[32.0111924,46.8940534],[32.0112237,46.8940344],[32.0112635,46.8940434],[32.0112719,46.8940715],[32.0112406,46.8940905],[32.0112008,46.8940814],[32.0111924,46.8940534]]]},"properties":{"osm_id":843876017,"osm_type":"way","seamark_type":"light_major","display_class":"LIGHTHOUSE","min_zoom":7,"importance":5,"name":"Маяк Сіверсів передній","ref":null,"common":{"type":"light_major"},"children":{"light":{"1:category":"directional","1:character":"F","1:colour":"red","1:orientation":"42.5","1:range":"15"}},"osm_tags":{"building":"service","man_made":"lighthouse","name":"Маяк Сіверсів передній","name:en":"Maiak Siversiv Perednii","name:ru":"Маяк Северсов передний","name:uk":"Маяк Сіверсів передній","seamark:light:1:category":"directional","seamark:light:1:character":"F","seamark:light:1:colour":"red","seamark:light:1:orientation":"42.5","seamark:light:1:range":"15","seamark:type":"light_major"}}},{"type":"Feature","geometry":{"type":"Point","coordinates":[32.0283633,46.9303285]},"properties":{"osm_id":4729229222,"osm_type":"node","seamark_type":"light_minor","display_class":"OTHER","min_zoom":12,"importance":1,"name":null,"ref":null,"common":{"type":"light_minor"},"children":{},"osm_tags":{"seamark:type":"light_minor"}}},{"type":"Feature","geometry":{"type":"Point","coordinates":[32.0258333,46.9308333]},"properties":{"osm_id":4729229223,"osm_type":"node","seamark_type":"light_minor","display_class":"OTHER","min_zoom":12,"importance":1,"name":null,"ref":null,"common":{"type":"light_minor"},"children":{},"osm_tags":{"seamark:type":"light_minor"}}},{"type":"Feature","geometry":{"type":"Point","coordinates":[32.0816392,46.4964683]},"properties":{"osm_id":6334346339,"osm_type":"node","seamark_type":"harbour","display_class":"OTHER","min_zoom":12,"importance":1,"name":null,"ref":null,"common":{"type":"harbour"},"children":{"harbour":{"category":"cargo"}},"osm_tags":{"harbour":"yes","port_of_entry":"no","seamark:harbour:category":"cargo","seamark:type":"harbour"}}},{"type":"Feature","geometry":{"type":"Point","coordinates":[32.6376855,46.6374898]},"properties":{"osm_id":10852968043,"osm_type":"node","seamark_type":"mooring","display_class":"OTHER","min_zoom":12,"importance":1,"name":null,"ref":null,"common":{"type":"mooring"},"children":{},"osm_tags":{"seamark:type":"mooring"}}},{"type":"Feature","geometry":{"type":"Point","coordinates":[32.6359431,46.6357837]},"properties":{"osm_id":10852977659,"osm_type":"node","seamark_type":"mooring","display_class":"OTHER","min_zoom":12,"importance":1,"name":null,"ref":null,"common":{"type":"mooring"},"children":{},"osm_tags":{"seamark:type":"mooring"}}},{"type":"Feature","geometry":{"type":"Point","coordinates":[32.5932041,46.6058844]},"properties":{"osm_id":13971963683,"osm_type":"node","seamark_type":"mooring","display_class":"OTHER","min_zoom":12,"importance":1,"name":null,"ref":null,"common":{"type":"mooring"},"children":{},"osm_tags":{"seamark:type":"mooring"}}},{"type":"Feature","geometry":{"type":"Point","coordinates":[32.6016169,46.609131]},"properties":{"osm_id":13971963684,"osm_type":"node","seamark_type":"mooring","display_class":"OTHER","min_zoom":12,"importance":1,"name":null,"ref":null,"common":{"type":"mooring"},"children":{},"osm_tags":{"seamark:type":"mooring"}}},{"type":"Feature","geometry":{"type":"Point","coordinates":[32.5697075,46.5964727]},"properties":{"osm_id":13971963688,"osm_type":"node","seamark_type":"buoy_lateral","display_class":"OTHER","min_zoom":12,"importance":1,"name":null,"ref":null,"common":{"type":"buoy_lateral"},"children":{},"osm_tags":{"seamark:type":"buoy_lateral"}}},{"type":"Feature","geometry":{"type":"Point","coordinates":[32.5610093,46.5984129]},"properties":{"osm_id":13971963689,"osm_type":"node","seamark_type":"buoy_lateral","display_class":"OTHER","min_zoom":12,"importance":1,"name":null,"ref":null,"common":{"type":"buoy_lateral"},"children":{},"osm_tags":{"seamark:type":"buoy_lateral"}}},{"type":"Feature","geometry":{"type":"LineString","coordinates":[[32.2869253,46.5588498],[32.1795894,46.5403572],[32.0935373,46.5255269]]},"properties":{"osm_id":444227027,"osm_type":"way","seamark_type":"recommended_track","display_class":"OTHER","min_zoom":12,"importance":1,"name":null,"ref":null,"common":{"type":"recommended_track"},"children":{"recommended_track":{"category":"fixed_marks","orientation":"75.9"}},"osm_tags":{"seamark:recommended_track:category":"fixed_marks","seamark:recommended_track:orientation":"75.9","seamark:type":"recommended_track"}}},{"type":"Feature","geometry":{"type":"LineString","coordinates":[[32.3318345,46.5666498],[32.3227203,46.5650516],[32.3111278,46.5630188],[32.2869253,46.5588498]]},"properties":{"osm_id":444227039,"osm_type":"way","seamark_type":"navigation_line","display_class":"OTHER","min_zoom":12,"importance":1,"name":null,"ref":null,"common":{"type":"navigation_line"},"children":{"navigation_line":{"category":"leading","orientation":"75.9"}},"osm_tags":{"seamark:navigation_line:category":"leading","seamark:navigation_line:orientation":"75.9","seamark:type":"navigation_line"}}},{"type":"Feature","geometry":{"type":"LineString","coordinates":[[32.2325978,46.4922608],[32.2324566,46.4922948],[32.1511283,46.5118838],[32.0935373,46.5255269]]},"properties":{"osm_id":444227044,"osm_type":"way","seamark_type":"navigation_line","display_class":"OTHER","min_zoom":12,"importance":1,"name":null,"ref":null,"common":{"type":"navigation_line"},"children":{"navigation_line":{"category":"leading","orientation":"109"}},"osm_tags":{"seamark:navigation_line:category":"leading","seamark:navigation_line:orientation":"109","seamark:type":"navigation_line"}}},{"type":"Feature","geometry":{"type":"LineString","coordinates":[[32.0352811,46.9120225],[32.0239962,46.922595]]},"properties":{"osm_id":444287621,"osm_type":"way","seamark_type":"navigation_line","display_class":"OTHER","min_zoom":12,"importance":1,"name":null,"ref":null,"common":{"type":"navigation_line"},"children":{"navigation_line":{"category":"leading","orientation":"143.8"}},"osm_tags":{"seamark:navigation_line:category":"leading","seamark:navigation_line:orientation":"143.8","seamark:type":"navigation_line"}}},{"type":"Feature","geometry":{"type":"LineString","coordinates":[[32.0268964,46.9271792],[32.0239962,46.922595],[32.023486,46.9217885]]},"properties":{"osm_id":444289977,"osm_type":"way","seamark_type":"navigation_line","display_class":"OTHER","min_zoom":12,"importance":1,"name":null,"ref":null,"common":{"type":"navigation_line"},"children":{"navigation_line":{"category":"leading","orientation":"23.4"}},"osm_tags":{"seamark:navigation_line:category":"leading","seamark:navigation_line:orientation":"23.4","seamark:type":"navigation_line"}}},{"type":"Feature","geometry":{"type":"LineString","coordinates":[[32.0239962,46.922595],[32.0232506,46.9232933]]},"properties":{"osm_id":479860843,"osm_type":"way","seamark_type":"navigation_line","display_class":"OTHER","min_zoom":12,"importance":1,"name":null,"ref":null,"common":{"type":"navigation_line"},"children":{"navigation_line":{"category":"leading","orientation":"143.8"}},"osm_tags":{"seamark:navigation_line:category":"leading","seamark:navigation_line:orientation":"143.8","seamark:type":"navigation_line"}}},{"type":"Feature","geometry":{"type":"LineString","coordinates":[[32.0283633,46.9303285],[32.0258333,46.9308333],[32.0134269,46.932495]]},"properties":{"osm_id":479886673,"osm_type":"way","seamark_type":"navigation_line","display_class":"OTHER","min_zoom":12,"importance":1,"name":null,"ref":null,"common":{"type":"navigation_line"},"children":{"navigation_line":{"category":"leading","orientation":"106.3"}},"osm_tags":{"seamark:navigation_line:category":"leading","seamark:navigation_line:orientation":"106.3","seamark:type":"navigation_line"}}},{"type":"Feature","geometry":{"type":"LineString","coordinates":[[32.0352811,46.9120225],[32.0112321,46.8940624],[32.001224,46.8865864]]},"properties":{"osm_id":843876015,"osm_type":"way","seamark_type":"navigation_line","display_class":"OTHER","min_zoom":12,"importance":1,"name":null,"ref":null,"common":{"type":"navigation_line"},"children":{"navigation_line":{"category":"leading","orientation":"42.5"}},"osm_tags":{"seamark:navigation_line:category":"leading","seamark:navigation_line:orientation":"42.5","seamark:type":"navigation_line"}}},{"type":"Feature","geometry":{"type":"Polygon","coordinates":[[[32.5718263,46.6127704],[32.573368,46.6133534],[32.5734315,46.6133123],[32.5735054,46.6131393],[32.5734478,46.6131217],[32.5734998,46.6130041],[32.5735581,46.6130159],[32.5735958,46.6129394],[32.5735752,46.6128801],[32.5736099,46.6128514],[32.5737664,46.6127025],[32.574226,46.6122935],[32.5728536,46.6118805],[32.5718263,46.6127704]]]},"properties":{"osm_id":929220927,"osm_type":"way","seamark_type":"harbour","display_class":"OTHER","min_zoom":12,"importance":1,"name":null,"ref":null,"common":{"type":"harbour"},"children":{"harbour":{"category":"marina"}},"osm_tags":{"amenity":"yacht club","leisure":"marina","seamark:harbour:category":"marina","seamark:type":"harbour"}}},{"type":"Feature","geometry":{"type":"Polygon","coordinates":[[[32.5762026,46.6009901],[32.5761041,46.6002],[32.5759494,46.6002091],[32.5760477,46.6009992],[32.5762026,46.6009901]]]},"properties":{"osm_id":1478539278,"osm_type":"way","seamark_type":"wreck","display_class":"OTHER","min_zoom":12,"importance":1,"name":null,"ref":null,"common":{"type":"wreck"},"children":{"wreck":{"category":"hull_showing"}},"osm_tags":{"historic":"wreck","seamark:type":"wreck","seamark:wreck:category":"hull_showing","wreck:visible_at_high_tide":"yes","wreck:visible_at_low_tide":"yes"}}},{"type":"Feature","geometry":{"type":"Polygon","coordinates":[[[32.5773566,46.598106],[32.5774712,46.5981867],[32.5782376,46.5976724],[32.578267,46.5975825],[32.5781302,46.5975871],[32.5773566,46.598106]]]},"properties":{"osm_id":1478539280,"osm_type":"way","seamark_type":"wreck","display_class":"OTHER","min_zoom":12,"importance":1,"name":null,"ref":null,"common":{"type":"wreck"},"children":{},"osm_tags":{"historic":"wreck","seamark:type":"wreck"}}},{"type":"Feature","geometry":{"type":"Polygon","coordinates":[[[32.5696936,46.6275938],[32.5698366,46.6275225],[32.569285,46.6270005],[32.5691706,46.62698],[32.5691375,46.6270673],[32.5696936,46.6275938]]]},"properties":{"osm_id":1478539523,"osm_type":"way","seamark_type":"wreck","display_class":"OTHER","min_zoom":12,"importance":1,"name":null,"ref":null,"common":{"type":"wreck"},"children":{},"osm_tags":{"historic":"wreck","seamark:type":"wreck"}}},{"type":"Feature","geometry":{"type":"Polygon","coordinates":[[[32.5689958,46.6270875],[32.5691207,46.6270932],[32.5691643,46.626644],[32.5691816,46.6264662],[32.5691249,46.6264201],[32.569057,46.6264595],[32.5689958,46.6270875]]]},"properties":{"osm_id":1478539524,"osm_type":"way","seamark_type":"wreck","display_class":"OTHER","min_zoom":12,"importance":1,"name":null,"ref":null,"common":{"type":"wreck"},"children":{},"osm_tags":{"historic":"wreck","seamark:type":"wreck"}}},{"type":"Feature","geometry":{"type":"Polygon","coordinates":[[[32.5692628,46.6268864],[32.5694444,46.6268522],[32.5693481,46.6266106],[32.5691664,46.6266448],[32.5692628,46.6268864]]]},"properties":{"osm_id":1478539525,"osm_type":"way","seamark_type":"wreck","display_class":"OTHER","min_zoom":12,"importance":1,"name":null,"ref":null,"common":{"type":"wreck"},"children":{},"osm_tags":{"historic":"wreck","seamark:type":"wreck"}}},{"type":"Feature","geometry":{"type":"Polygon","coordinates":[[[32.586968,46.5958532],[32.5870256,46.5957624],[32.5870325,46.5946728],[32.58701,46.5946307],[32.5868854,46.5946313],[32.5868552,46.5946723],[32.5868486,46.5957612],[32.586902,46.5958507],[32.586968,46.5958532]]]},"properties":{"osm_id":1482650090,"osm_type":"way","seamark_type":"wreck","display_class":"OTHER","min_zoom":12,"importance":1,"name":null,"ref":null,"common":{"type":"wreck"},"children":{},"osm_tags":{"historic":"wreck","seamark:type":"wreck"}}},{"type":"Feature","geometry":{"type":"Polygon","coordinates":[[[32.5868088,46.5964851],[32.5868669,46.5963979],[32.5868086,46.5955918],[32.5867649,46.5955416],[32.5866626,46.5955467],[32.5866222,46.5955981],[32.5866801,46.596401],[32.5867578,46.5964851],[32.5868088,46.5964851]]]},"properties":{"osm_id":1482650091,"osm_type":"way","seamark_type":"wreck","display_class":"OTHER","min_zoom":12,"importance":1,"name":null,"ref":null,"common":{"type":"wreck"},"children":{},"osm_tags":{"historic":"wreck","seamark:type":"wreck"}}},{"type":"Feature","geometry":{"type":"Polygon","coordinates":[[[32.5475144,46.5579256],[32.5470056,46.5577633],[32.5470795,46.5576536],[32.5476051,46.5578211],[32.5476804,46.5578907],[32.5476584,46.5579254],[32.5475144,46.5579256]]]},"properties":{"osm_id":1533191602,"osm_type":"way","seamark_type":"wreck","display_class":"OTHER","min_zoom":12,"importance":1,"name":null,"ref":null,"common":{"type":"wreck"},"children":{},"osm_tags":{"historic":"wreck","seamark:type":"wreck"}}},{"type":"Feature","geometry":{"type":"Polygon","coordinates":[[[32.5412075,46.59997],[32.5412409,46.5998596],[32.5423397,46.6000166],[32.5423064,46.6001268],[32.5412075,46.59997]]]},"properties":{"osm_id":1533191603,"osm_type":"way","seamark_type":"wreck","display_class":"OTHER","min_zoom":12,"importance":1,"name":null,"ref":null,"common":{"type":"wreck"},"children":{},"osm_tags":{"historic":"wreck","seamark:type":"wreck"}}},{"type":"Feature","geometry":{"type":"Polygon","coordinates":[[[32.5677721,46.5691146],[32.5674434,46.5687463],[32.5675991,46.5686806],[32.5679277,46.569049],[32.5677721,46.5691146]]]},"properties":{"osm_id":1533191604,"osm_type":"way","seamark_type":"wreck","display_class":"OTHER","min_zoom":12,"importance":1,"name":null,"ref":null,"common":{"type":"wreck"},"children":{},"osm_tags":{"historic":"wreck","seamark:type":"wreck"}}},{"type":"Feature","geometry":{"type":"Polygon","coordinates":[[[32.5756665,46.5741775],[32.575403,46.5739705],[32.5755063,46.5739083],[32.5757699,46.5741153],[32.5756665,46.5741775]]]},"properties":{"osm_id":1533191605,"osm_type":"way","seamark_type":"wreck","display_class":"OTHER","min_zoom":12,"importance":1,"name":null,"ref":null,"common":{"type":"wreck"},"children":{},"osm_tags":{"historic":"wreck","seamark:type":"wreck"}}},{"type":"Feature","geometry":{"type":"Polygon","coordinates":[[[32.6137199,46.615568],[32.6137596,46.615501],[32.6142143,46.6156279],[32.6142838,46.6156733],[32.6142704,46.6156988],[32.6141806,46.6156965],[32.6137199,46.615568]]]},"properties":{"osm_id":1533191606,"osm_type":"way","seamark_type":"wreck","display_class":"OTHER","min_zoom":12,"importance":1,"name":null,"ref":null,"common":{"type":"wreck"},"children":{},"osm_tags":{"historic":"wreck","seamark:type":"wreck"}}},{"type":"Feature","geometry":{"type":"Polygon","coordinates":[[[32.6142458,46.6157875],[32.6142793,46.6157234],[32.6137214,46.6155857],[32.6136878,46.6156499],[32.6142458,46.6157875]]]},"properties":{"osm_id":1533191607,"osm_type":"way","seamark_type":"wreck","display_class":"OTHER","min_zoom":12,"importance":1,"name":null,"ref":null,"common":{"type":"wreck"},"children":{},"osm_tags":{"historic":"wreck","seamark:type":"wreck"}}},{"type":"Feature","geometry":{"type":"Polygon","coordinates":[[[32.6136131,46.6146555],[32.6135275,46.61461],[32.6138056,46.6143636],[32.6138912,46.6144092],[32.6136131,46.6146555]]]},"properties":{"osm_id":1533191608,"osm_type":"way","seamark_type":"wreck","display_class":"OTHER","min_zoom":12,"importance":1,"name":null,"ref":null,"common":{"type":"wreck"},"children":{},"osm_tags":{"historic":"wreck","seamark:type":"wreck"}}},{"type":"Feature","geometry":{"type":"Polygon","coordinates":[[[32.6141056,46.6136449],[32.6141931,46.6134437],[32.6142603,46.6134575],[32.6141727,46.6136587],[32.6141056,46.6136449]]]},"properties":{"osm_id":1533191609,"osm_type":"way","seamark_type":"wreck","display_class":"OTHER","min_zoom":12,"importance":1,"name":null,"ref":null,"common":{"type":"wreck"},"children":{},"osm_tags":{"historic":"wreck","seamark:type":"wreck"}}},{"type":"Feature","geometry":{"type":"Polygon","coordinates":[[[32.6141979,46.6136274],[32.6142677,46.6134582],[32.6143203,46.6134685],[32.6142505,46.6136377],[32.6141979,46.6136274]]]},"properties":{"osm_id":1533191610,"osm_type":"way","seamark_type":"wreck","display_class":"OTHER","min_zoom":12,"importance":1,"name":null,"ref":null,"common":{"type":"wreck"},"children":{},"osm_tags":{"historic":"wreck","seamark:type":"wreck"}}},{"type":"Feature","geometry":{"type":"Polygon","coordinates":[[[32.6184466,46.6148226],[32.6184162,46.6147769],[32.618855,46.6146391],[32.6188854,46.6146848],[32.6184466,46.6148226]]]},"properties":{"osm_id":1533191611,"osm_type":"way","seamark_type":"wreck","display_class":"OTHER","min_zoom":12,"importance":1,"name":null,"ref":null,"common":{"type":"wreck"},"children":{},"osm_tags":{"historic":"wreck","seamark:type":"wreck"}}},{"type":"Feature","geometry":{"type":"Polygon","coordinates":[[[32.6325292,46.6272426],[32.632504,46.6271295],[32.6335964,46.6270144],[32.6336216,46.6271276],[32.6325292,46.6272426]]]},"properties":{"osm_id":1533191612,"osm_type":"way","seamark_type":"wreck","display_class":"OTHER","min_zoom":12,"importance":1,"name":null,"ref":null,"common":{"type":"wreck"},"children":{},"osm_tags":{"historic":"wreck","seamark:type":"wreck"}}},{"type":"Feature","geometry":{"type":"Polygon","coordinates":[[[32.632554,46.6273672],[32.6325288,46.6272542],[32.6336211,46.6271391],[32.6336464,46.6272522],[32.632554,46.6273672]]]},"properties":{"osm_id":1533191613,"osm_type":"way","seamark_type":"wreck","display_class":"OTHER","min_zoom":12,"importance":1,"name":null,"ref":null,"common":{"type":"wreck"},"children":{},"osm_tags":{"historic":"wreck","seamark:type":"wreck"}}},{"type":"Feature","geometry":{"type":"Polygon","coordinates":[[[32.5183056,46.54029],[32.5183643,46.5404086],[32.5194857,46.5401457],[32.519427,46.5400273],[32.5183056,46.54029]]]},"properties":{"osm_id":1533191614,"osm_type":"way","seamark_type":"wreck","display_class":"OTHER","min_zoom":12,"importance":1,"name":null,"ref":null,"common":{"type":"wreck"},"children":{},"osm_tags":{"historic":"wreck","seamark:type":"wreck"}}},{"type":"Feature","geometry":{"type":"Polygon","coordinates":[[[32.5194879,46.5401247],[32.5194499,46.5400263],[32.5201288,46.5399022],[32.5201669,46.5400007],[32.5194879,46.5401247]]]},"properties":{"osm_id":1533191615,"osm_type":"way","seamark_type":"wreck","display_class":"OTHER","min_zoom":12,"importance":1,"name":null,"ref":null,"common":{"type":"wreck"},"children":{},"osm_tags":{"historic":"wreck","seamark:type":"wreck"}}},{"type":"Feature","geometry":{"type":"Polygon","coordinates":[[[32.5195656,46.5404475],[32.519505,46.5403919],[32.519678,46.5403026],[32.5197386,46.5403582],[32.5195656,46.5404475]]]},"properties":{"osm_id":1533191616,"osm_type":"way","seamark_type":"wreck","display_class":"OTHER","min_zoom":12,"importance":1,"name":null,"ref":null,"common":{"type":"wreck"},"children":{},"osm_tags":{"historic":"wreck","seamark:type":"wreck"}}},{"type":"Feature","geometry":{"type":"Polygon","coordinates":[[[32.5193677,46.5402861],[32.519358,46.5401907],[32.5195924,46.5401794],[32.5198247,46.5401682],[32.5198344,46.5402636],[32.5193677,46.5402861]]]},"properties":{"osm_id":1533191617,"osm_type":"way","seamark_type":"wreck","display_class":"OTHER","min_zoom":12,"importance":1,"name":null,"ref":null,"common":{"type":"wreck"},"children":{},"osm_tags":{"historic":"wreck","seamark:type":"wreck"}}},{"type":"Feature","geometry":{"type":"Polygon","coordinates":[[[32.5202057,46.5400162],[32.5201578,46.5399088],[32.5214178,46.5396432],[32.5214656,46.5397504],[32.5202057,46.5400162]]]},"properties":{"osm_id":1533191618,"osm_type":"way","seamark_type":"wreck","display_class":"OTHER","min_zoom":12,"importance":1,"name":null,"ref":null,"common":{"type":"wreck"},"children":{},"osm_tags":{"historic":"wreck","seamark:type":"wreck"}}},{"type":"Feature","geometry":{"type":"Polygon","coordinates":[[[32.5203762,46.5399979],[32.5204037,46.5400594],[32.5214773,46.5398315],[32.5214496,46.5397699],[32.5203762,46.5399979]]]},"properties":{"osm_id":1533191619,"osm_type":"way","seamark_type":"wreck","display_class":"OTHER","min_zoom":12,"importance":1,"name":null,"ref":null,"common":{"type":"wreck"},"children":{},"osm_tags":{"historic":"wreck","seamark:type":"wreck"}}},{"type":"Feature","geometry":{"type":"Polygon","coordinates":[[[32.5195909,46.5401812],[32.5195694,46.5401284],[32.5201762,46.5400116],[32.5201978,46.5400645],[32.5195909,46.5401812]]]},"properties":{"osm_id":1533191620,"osm_type":"way","seamark_type":"wreck","display_class":"OTHER","min_zoom":12,"importance":1,"name":null,"ref":null,"common":{"type":"wreck"},"children":{},"osm_tags":{"historic":"wreck","seamark:type":"wreck"}}},{"type":"Feature","geometry":{"type":"Polygon","coordinates":[[[32.5187717,46.5403802],[32.5187454,46.5403272],[32.5190535,46.5402547],[32.5190799,46.5403077],[32.5187717,46.5403802]]]},"properties":{"osm_id":1533191621,"osm_type":"way","seamark_type":"wreck","display_class":"OTHER","min_zoom":12,"importance":1,"name":null,"ref":null,"common":{"type":"wreck"},"children":{},"osm_tags":{"historic":"wreck","seamark:type":"wreck"}}},{"type":"Feature","geometry":{"type":"Polygon","coordinates":[[[32.5158865,46.5379955],[32.5160511,46.5379337],[32.5165135,46.5385162],[32.5163487,46.538578],[32.5158865,46.5379955]]]},"properties":{"osm_id":1533191622,"osm_type":"way","seamark_type":"wreck","display_class":"OTHER","min_zoom":12,"importance":1,"name":null,"ref":null,"common":{"type":"wreck"},"children":{},"osm_tags":{"historic":"wreck","seamark:type":"wreck"}}},{"type":"Feature","geometry":{"type":"Polygon","coordinates":[[[32.5164259,46.5383354],[32.5159348,46.5377369],[32.5160805,46.5376803],[32.5165714,46.5382789],[32.5164259,46.5383354]]]},"properties":{"osm_id":1533191623,"osm_type":"way","seamark_type":"wreck","display_class":"OTHER","min_zoom":12,"importance":1,"name":null,"ref":null,"common":{"type":"wreck"},"children":{},"osm_tags":{"historic":"wreck","seamark:type":"wreck"}}},{"type":"Feature","geometry":{"type":"Polygon","coordinates":[[[32.517355,46.5383277],[32.5169027,46.5376028],[32.5170542,46.5375581],[32.5175066,46.5382829],[32.517355,46.5383277]]]},"properties":{"osm_id":1533191624,"osm_type":"way","seamark_type":"wreck","display_class":"OTHER","min_zoom":12,"importance":1,"name":null,"ref":null,"common":{"type":"wreck"},"children":{},"osm_tags":{"historic":"wreck","seamark:type":"wreck"}}},{"type":"Feature","geometry":{"type":"Polygon","coordinates":[[[32.5174414,46.5376185],[32.5172847,46.5376441],[32.5175149,46.5383086],[32.5176713,46.538283],[32.5174414,46.5376185]]]},"properties":{"osm_id":1533191625,"osm_type":"way","seamark_type":"wreck","display_class":"OTHER","min_zoom":12,"importance":1,"name":null,"ref":null,"common":{"type":"wreck"},"children":{},"osm_tags":{"historic":"wreck","seamark:type":"wreck"}}},{"type":"Feature","geometry":{"type":"Polygon","coordinates":[[[32.5176208,46.5378202],[32.5175608,46.5377666],[32.5178551,46.5376107],[32.5179151,46.5376643],[32.5176208,46.5378202]]]},"properties":{"osm_id":1533191626,"osm_type":"way","seamark_type":"wreck","display_class":"OTHER","min_zoom":12,"importance":1,"name":null,"ref":null,"common":{"type":"wreck"},"children":{},"osm_tags":{"historic":"wreck","seamark:type":"wreck"}}},{"type":"Feature","geometry":{"type":"Polygon","coordinates":[[[32.5180804,46.5373361],[32.518039,46.5375699],[32.5186015,46.5377152],[32.5187852,46.5378952],[32.519063,46.537821],[32.5191227,46.537532],[32.5189023,46.5373377],[32.5180804,46.5373361]]]},"properties":{"osm_id":1533191627,"osm_type":"way","seamark_type":"wreck","display_class":"OTHER","min_zoom":12,"importance":1,"name":null,"ref":null,"common":{"type":"wreck"},"children":{},"osm_tags":{"historic":"wreck","seamark:type":"wreck"}}},{"type":"Feature","geometry":{"type":"Polygon","coordinates":[[[32.5147469,46.5407442],[32.5147438,46.5405745],[32.5152165,46.5405705],[32.5152196,46.5407401],[32.5147469,46.5407442]]]},"properties":{"osm_id":1533191628,"osm_type":"way","seamark_type":"wreck","display_class":"OTHER","min_zoom":12,"importance":1,"name":null,"ref":null,"common":{"type":"wreck"},"children":{},"osm_tags":{"historic":"wreck","seamark:type":"wreck"}}},{"type":"Feature","geometry":{"type":"Polygon","coordinates":[[[32.4754907,46.5153677],[32.4755071,46.5152794],[32.4763581,46.5153545],[32.4763417,46.5154426],[32.4754907,46.5153677]]]},"properties":{"osm_id":1533191629,"osm_type":"way","seamark_type":"wreck","display_class":"OTHER","min_zoom":12,"importance":1,"name":null,"ref":null,"common":{"type":"wreck"},"children":{},"osm_tags":{"historic":"wreck","seamark:type":"wreck"}}},{"type":"Feature","geometry":{"type":"Polygon","coordinates":[[[32.4757032,46.5145352],[32.4757691,46.5144569],[32.4754668,46.5143362],[32.4754008,46.5144145],[32.4757032,46.5145352]]]},"properties":{"osm_id":1533191630,"osm_type":"way","seamark_type":"wreck","display_class":"OTHER","min_zoom":12,"importance":1,"name":null,"ref":null,"common":{"type":"wreck"},"children":{},"osm_tags":{"historic":"wreck","seamark:type":"wreck"}}},{"type":"Feature","geometry":{"type":"Polygon","coordinates":[[[32.4171951,46.5042217],[32.4171584,46.5041063],[32.4178709,46.5039989],[32.4179076,46.5041143],[32.4171951,46.5042217]]]},"properties":{"osm_id":1533191631,"osm_type":"way","seamark_type":"wreck","display_class":"OTHER","min_zoom":12,"importance":1,"name":null,"ref":null,"common":{"type":"wreck"},"children":{},"osm_tags":{"historic":"wreck","seamark:type":"wreck"}}},{"type":"Feature","geometry":{"type":"Polygon","coordinates":[[[32.2451972,46.4981112],[32.2452021,46.4980591],[32.2452323,46.497739],[32.2454087,46.4977469],[32.2453737,46.4981191],[32.2451972,46.4981112]]]},"properties":{"osm_id":1533191632,"osm_type":"way","seamark_type":"wreck","display_class":"OTHER","min_zoom":12,"importance":1,"name":null,"ref":null,"common":{"type":"wreck"},"children":{},"osm_tags":{"historic":"wreck","seamark:type":"wreck"}}},{"type":"Feature","geometry":{"type":"Polygon","coordinates":[[[32.2227793,46.4847939],[32.2226817,46.4847634],[32.2228969,46.4844358],[32.2229947,46.4844663],[32.2227793,46.4847939]]]},"properties":{"osm_id":1533191634,"osm_type":"way","seamark_type":"wreck","display_class":"OTHER","min_zoom":12,"importance":1,"name":null,"ref":null,"common":{"type":"wreck"},"children":{},"osm_tags":{"historic":"wreck","seamark:type":"wreck"}}},{"type":"Feature","geometry":{"type":"Polygon","coordinates":[[[32.1978303,46.4878739],[32.1980453,46.4875421],[32.1981487,46.4875738],[32.1979337,46.4879057],[32.1978303,46.4878739]]]},"properties":{"osm_id":1533191635,"osm_type":"way","seamark_type":"wreck","display_class":"OTHER","min_zoom":12,"importance":1,"name":null,"ref":null,"common":{"type":"wreck"},"children":{},"osm_tags":{"historic":"wreck","seamark:type":"wreck"}}},{"type":"Feature","geometry":{"type":"Polygon","coordinates":[[[32.4278227,46.5552954],[32.4277718,46.5552438],[32.4278072,46.5552273],[32.427858,46.5552789],[32.4278227,46.5552954]]]},"properties":{"osm_id":1533191646,"osm_type":"way","seamark_type":"wreck","display_class":"OTHER","min_zoom":12,"importance":1,"name":null,"ref":null,"common":{"type":"wreck"},"children":{},"osm_tags":{"historic":"wreck","seamark:type":"wreck"}}},{"type":"Feature","geometry":{"type":"Polygon","coordinates":[[[32.5523691,46.5540558],[32.5521628,46.5537722],[32.5523069,46.5537226],[32.5525131,46.5540063],[32.5523691,46.5540558]]]},"properties":{"osm_id":1533191647,"osm_type":"way","seamark_type":"wreck","display_class":"OTHER","min_zoom":12,"importance":1,"name":null,"ref":null,"common":{"type":"wreck"},"children":{},"osm_tags":{"historic":"wreck","seamark:type":"wreck"}}},{"type":"Feature","geometry":{"type":"Polygon","coordinates":[[[32.5617064,46.6252385],[32.561783,46.6251436],[32.5622291,46.6253133],[32.5621526,46.6254082],[32.5617064,46.6252385]]]},"properties":{"osm_id":1533871764,"osm_type":"way","seamark_type":"wreck","display_class":"OTHER","min_zoom":12,"importance":1,"name":null,"ref":null,"common":{"type":"wreck"},"children":{"wreck":{"category":"hull_showing"}},"osm_tags":{"historic":"wreck","seamark:type":"wreck","seamark:wreck:category":"hull_showing","wreck:visible_at_high_tide":"yes","wreck:visible_at_low_tide":"yes"}}},{"type":"Feature","geometry":{"type":"Point","coordinates":[32.5856573,46.5987866]},"properties":{"osm_id":4894929878,"osm_type":"node","seamark_type":"buoy_lateral","display_class":"OTHER","min_zoom":12,"importance":1,"name":"\"120\"","ref":null,"common":{"name":"\"120\"","type":"buoy_lateral"},"children":{"buoy_lateral":{"colour":"red","shape":"pillar"},"topmark":{"colour":"red","shape":"square"}},"osm_tags":{"seamark:buoy_lateral:colour":"red","seamark:buoy_lateral:shape":"pillar","seamark:name":"\"120\"","seamark:topmark:colour":"red","seamark:topmark:shape":"square","seamark:type":"buoy_lateral"}}},{"type":"Feature","geometry":{"type":"Point","coordinates":[32.756241,46.6669015]},"properties":{"osm_id":8914912013,"osm_type":"node","seamark_type":"buoy_lateral","display_class":"OTHER","min_zoom":12,"importance":1,"name":"\"120\"","ref":"Буй #3","common":{"name":"\"120\"","type":"buoy_lateral"},"children":{"buoy_lateral":{"colour":"green","shape":"pillar"},"topmark":{"colour":"red","shape":"square"}},"osm_tags":{"ref":"Буй #3","seamark:buoy_lateral:colour":"green","seamark:buoy_lateral:shape":"pillar","seamark:name":"\"120\"","seamark:topmark:colour":"red","seamark:topmark:shape":"square","seamark:type":"buoy_lateral"}}},{"type":"Feature","geometry":{"type":"Point","coordinates":[32.0141667,46.9327778]},"properties":{"osm_id":4729008496,"osm_type":"node","seamark_type":"buoy_cardinal","display_class":"OTHER","min_zoom":12,"importance":1,"name":"\"130\"","ref":null,"common":{"name":"\"130\"","type":"buoy_cardinal"},"children":{"buoy_cardinal":{"category":"east","colour":"black;yellow;black","colour_pattern":"horizontal","shape":"pillar"},"light":{"character":"Q","colour":"white","group":"3","period":"10"},"topmark":{"colour":"black","shape":"2 cones base together"}},"osm_tags":{"seamark:buoy_cardinal:category":"east","seamark:buoy_cardinal:colour":"black;yellow;black","seamark:buoy_cardinal:colour_pattern":"horizontal","seamark:buoy_cardinal:shape":"pillar","seamark:light:character":"Q","seamark:light:colour":"white","seamark:light:group":"3","seamark:light:period":"10","seamark:name":"\"130\"","seamark:topmark:colour":"black","seamark:topmark:shape":"2 cones base together","seamark:type":"buoy_cardinal"}}},{"type":"Feature","geometry":{"type":"Polygon","coordinates":[[[32.11,46.1566667],[32.0916667,46.1166667],[32.2004852,46.097026],[32.321692,46.0751411],[32.414654,46.0583501],[32.5224385,46.0388755],[32.6123117,46.0226318],[32.7124219,46.0045324],[32.8023267,45.9882729],[32.9033333,45.97],[33.0916667,45.9916667],[33.0916667,46.015],[33.08,46.015],[32.9645403,46.0318818],[32.8506968,46.0485221],[32.7302334,46.0661247],[32.6038458,46.0845869],[32.4613379,46.1053965],[32.3514015,46.1214445],[32.2152683,46.1413101],[32.11,46.1566667]]]},"properties":{"osm_id":1110604723,"osm_type":"way","seamark_type":"restricted_area","display_class":"OTHER","min_zoom":12,"importance":1,"name":"C","ref":null,"common":{"information":"and coastline","name":"C","type":"restricted_area"},"children":{"restricted_area":{"category":"minefield","restriction":"no_entry"}},"osm_tags":{"seamark:information":"and coastline","seamark:name":"C","seamark:restricted_area:category":"minefield","seamark:restricted_area:restriction":"no_entry","seamark:type":"restricted_area"}}},{"type":"Feature","geometry":{"type":"LineString","coordinates":[[32.023486,46.9217885],[32.001224,46.8865864]]},"properties":{"osm_id":444289976,"osm_type":"way","seamark_type":"recommended_track","display_class":"OTHER","min_zoom":12,"importance":1,"name":"Kostiantynivs’ke (twelfth) Elbow","ref":null,"common":{"name":"Kostiantynivs’ke (twelfth) Elbow","type":"recommended_track"},"children":{"recommended_track":{"category":"no_fixed_marks","orientation":"23.4"}},"osm_tags":{"CEMT":"VII","bicycle":"no","hgv":"no","motor_vehicle":"no","route":"ferry","seamark:name":"Kostiantynivs’ke (twelfth) Elbow","seamark:recommended_track:category":"no_fixed_marks","seamark:recommended_track:orientation":"23.4","seamark:type":"recommended_track","waterway":"fairway"}}},{"type":"Feature","geometry":{"type":"LineString","coordinates":[[32.0232506,46.9232933],[32.0167636,46.9293698],[32.0134269,46.932495]]},"properties":{"osm_id":479860842,"osm_type":"way","seamark_type":"recommended_track","display_class":"OTHER","min_zoom":12,"importance":1,"name":"Siversovo-Kostiantynivs’ke (thirteenth) Elbow","ref":null,"common":{"name":"Siversovo-Kostiantynivs’ke (thirteenth) Elbow","type":"recommended_track"},"children":{"recommended_track":{"category":"no_fixed_marks","orientation":"143.8"}},"osm_tags":{"CEMT":"VII","bicycle":"no","hgv":"no","motor_vehicle":"no","route":"ferry","seamark:name":"Siversovo-Kostiantynivs’ke (thirteenth) Elbow","seamark:recommended_track:category":"no_fixed_marks","seamark:recommended_track:orientation":"143.8","seamark:type":"recommended_track","waterway":"fairway"}}},{"type":"Feature","geometry":{"type":"Point","coordinates":[32.1511283,46.5118838]},"properties":{"osm_id":2136868652,"osm_type":"node","seamark_type":"light_minor","display_class":"OTHER","min_zoom":12,"importance":1,"name":"Stanislav Range, front","ref":null,"common":{"name":"Stanislav Range, front","type":"light_minor"},"children":{"light":{"1:category":"directional","1:character":"F","1:colour":"red","1:height":"24","1:information":"Visible on range line only. Shown on request by day or in poor visibility.","1:orientation":"109","1:range":"16","reference":"N 5149"}},"osm_tags":{"man_made":"lighthouse","name":"Stanislav-Adžyhol's'ky front","name:de":"Leuchtturm Stanislaw-Adschihol (Unterfeuer)","name:ru":"Маяк Станислав-Аджигольский передний","name:uk":"Маяк Станіслав-Аджигольський передній","seamark:light:1:category":"directional","seamark:light:1:character":"F","seamark:light:1:colour":"red","seamark:light:1:height":"24","seamark:light:1:information":"Visible on range line only. Shown on request by day or in poor visibility.","seamark:light:1:orientation":"109","seamark:light:1:range":"16","seamark:light:reference":"N 5149","seamark:name":"Stanislav Range, front","seamark:type":"light_minor","source":"US NGA Pub. 113. 2020 (#18088)","wikidata":"Q380270","wikipedia":"uk:Аджигольський маяк"}}},{"type":"Feature","geometry":{"type":"Point","coordinates":[32.2325978,46.4922608]},"properties":{"osm_id":4416038378,"osm_type":"node","seamark_type":"light_minor","display_class":"OTHER","min_zoom":12,"importance":1,"name":"Stanislav Range, rear","ref":null,"common":{"name":"Stanislav Range, rear","type":"light_minor"},"children":{"light":{"1:category":"directional","1:character":"F","1:colour":"white","1:height":"67","1:information":"Visible on range line only. On request in poor visibility.","1:orientation":"109","1:range":"19","reference":"N 5149.1"}},"osm_tags":{"man_made":"lighthouse","name":"Stanislav-Adžyhol's'kyj rear","name:de":"Leuchtturm Stanislaw-Adschihol (Oberfeuer)","name:ru":"Маяк Станислав-Аджигольский задний","name:uk":"Маяк Станіслав-Аджигольський задній","seamark:light:1:category":"directional","seamark:light:1:character":"F","seamark:light:1:colour":"white","seamark:light:1:height":"67","seamark:light:1:information":"Visible on range line only. On request in poor visibility.","seamark:light:1:orientation":"109","seamark:light:1:range":"19","seamark:light:reference":"N 5149.1","seamark:name":"Stanislav Range, rear","seamark:type":"light_minor","source":"US NGA Pub. 113. 2020 (#18092)","wikidata":"Q380270","wikipedia":"uk:Аджигольський маяк"}}},{"type":"Feature","geometry":{"type":"Point","coordinates":[32.069467,46.1661167]},"properties":{"osm_id":1578670110,"osm_type":"node","seamark_type":"light_minor","display_class":"OTHER","min_zoom":12,"importance":1,"name":"Tendrovskiy-Zheleznyy","ref":null,"common":{"name":"Tendrovskiy-Zheleznyy","radar_reflector":"yes","type":"light_minor"},"children":{"light":{"character":"Fl","colour":"white","height":"13","period":"5","range":"9","reference":"E 5248"}},"osm_tags":{"seamark:light:character":"Fl","seamark:light:colour":"white","seamark:light:height":"13","seamark:light:period":"5","seamark:light:range":"9","seamark:light:reference":"E 5248","seamark:name":"Tendrovskiy-Zheleznyy","seamark:radar_reflector":"yes","seamark:type":"light_minor","source":"US NGA Pub. 113. 2011-10-20."}}},{"type":"Feature","geometry":{"type":"Polygon","coordinates":[[[32.7247473,46.6349888],[32.7248197,46.6349594],[32.7250799,46.6346573],[32.7250745,46.6345929],[32.7249806,46.6346131],[32.7247151,46.634917],[32.7247124,46.6349575],[32.7247473,46.6349888]]]},"properties":{"osm_id":1482939053,"osm_type":"way","seamark_type":"wreck","display_class":"OTHER","min_zoom":12,"importance":1,"name":"Баржа","ref":null,"common":{"type":"wreck"},"children":{},"osm_tags":{"historic":"wreck","name":"Баржа","seamark:type":"wreck"}}},{"type":"Feature","geometry":{"type":"Point","coordinates":[32.7560834,46.631668]},"properties":{"osm_id":3991782092,"osm_type":"node","seamark_type":"wreck","display_class":"OTHER","min_zoom":12,"importance":1,"name":"Залишки затонулої баржі","ref":null,"common":{"type":"wreck"},"children":{},"osm_tags":{"access":"yes","historic":"wreck","name":"Залишки затонулої баржі","name:uk":"Залишки затонулої баржі","seamark:type":"wreck"}}},{"type":"Feature","geometry":{"type":"Point","coordinates":[32.0242412,46.7294653]},"properties":{"osm_id":4417631664,"osm_type":"node","seamark_type":"light_minor","display_class":"OTHER","min_zoom":12,"importance":1,"name":"Кисляківський Задній маяк","ref":null,"common":{"type":"light_minor"},"children":{"light":{"1:category":"rear","1:character":"F","1:colour":"red","1:range":"19","1:sector_end":"50","1:sector_start":"30","2:category":"directional","2:character":"F","2:colour":"white","2:orientation":"40.2","2:range":"7"}},"osm_tags":{"image":"https://rest.guru.ua/img/place_photo/2349/5339.jpg","man_made":"lighthouse","name":"Кисляківський Задній маяк","name:de":"Leuchtturm Kysljakowskyj (Oberfeuer)","name:en":"Kysliakivskyi Zadnii","name:uk":"Кисляківський Задній маяк","seamark:light:1:category":"rear","seamark:light:1:character":"F","seamark:light:1:colour":"red","seamark:light:1:range":"19","seamark:light:1:sector_end":"50","seamark:light:1:sector_start":"30","seamark:light:2:category":"directional","seamark:light:2:character":"F","seamark:light:2:colour":"white","seamark:light:2:orientation":"40.2","seamark:light:2:range":"7","seamark:type":"light_minor"}}},{"type":"Feature","geometry":{"type":"Point","coordinates":[32.0268964,46.9271792]},"properties":{"osm_id":7871962243,"osm_type":"node","seamark_type":"light_minor","display_class":"OTHER","min_zoom":12,"importance":1,"name":"Маяк Костянтинівський задній","ref":null,"common":{"information":"Visible on range line only","type":"light_minor"},"children":{"light":{"1:category":"directional","1:character":"F","1:colour":"red","1:height":"40","1:range":"10","1:sector_end":"23","1:sector_start":"23"}},"osm_tags":{"man_made":"lighthouse","name":"Маяк Костянтинівський задній","name:de":"Leuchtturm Kostiantyn (Oberfeuer)","name:ru":"Маяк Константиновский задний","name:uk":"Маяк Костянтинівський задній","seamark:information":"Visible on range line only","seamark:light:1:category":"directional","seamark:light:1:character":"F","seamark:light:1:colour":"red","seamark:light:1:height":"40","seamark:light:1:range":"10","seamark:light:1:sector_end":"23","seamark:light:1:sector_start":"23","seamark:type":"light_minor","source":"US NGA Pub. 113. 2020"}}},{"type":"Feature","geometry":{"type":"Point","coordinates":[32.0239962,46.922595]},"properties":{"osm_id":7871962249,"osm_type":"node","seamark_type":"light_minor","display_class":"OTHER","min_zoom":12,"importance":1,"name":"Маяк Костянтинівський передній","ref":null,"common":{"type":"light_minor"},"children":{"light":{"category":"front","character":"Fl","colour":"white","period":"2.5","range":"10"}},"osm_tags":{"man_made":"lighthouse","name":"Маяк Костянтинівський передній","name:de":"Leuchtturm Kostiantyn (Unterfeuer)","name:ru":"Маяк Константиновский передний","name:uk":"Маяк Костянтинівський передній","seamark:light:category":"front","seamark:light:character":"Fl","seamark:light:colour":"white","seamark:light:period":"2.5","seamark:light:range":"10","seamark:type":"light_minor"}}},{"type":"Feature","geometry":{"type":"Polygon","coordinates":[[[32.035254,46.9119979],[32.0352665,46.9119934],[32.0352804,46.9119918],[32.0352943,46.9119931],[32.035307,46.9119973],[32.0353171,46.912004],[32.0353237,46.9120125],[32.0353261,46.912022],[32.0353242,46.9120315],[32.035318,46.9120402],[32.0353082,46.9120471],[32.0352958,46.9120516],[32.0352819,46.9120533],[32.0352679,46.9120519],[32.0352553,46.9120477],[32.0352452,46.912041],[32.0352385,46.9120325],[32.0352361,46.912023],[32.0352381,46.9120135],[32.0352443,46.9120049],[32.035254,46.9119979]]]},"properties":{"osm_id":722724257,"osm_type":"way","seamark_type":"light_minor","display_class":"OTHER","min_zoom":12,"importance":1,"name":"Маяк Сіверсів задній","ref":null,"common":{"type":"light_minor"},"children":{"light":{"1:category":"directional","1:character":"F","1:colour":"red","1:orientation":"143.8","1:range":"10","2:category":"directional","2:character":"F","2:colour":"white","2:orientation":"42.5","2:range":"16"}},"osm_tags":{"building":"service","man_made":"lighthouse","name":"Маяк Сіверсів задній","name:de":"Leuchtturm Siwersiw (Oberfeuer)","name:en":"Maiak Siversiv Zadnii","name:ru":"Маяк Северсов задний","name:uk":"Маяк Сіверсів задній","seamark:light:1:category":"directional","seamark:light:1:character":"F","seamark:light:1:colour":"red","seamark:light:1:orientation":"143.8","seamark:light:1:range":"10","seamark:light:2:category":"directional","seamark:light:2:character":"F","seamark:light:2:colour":"white","seamark:light:2:orientation":"42.5","seamark:light:2:range":"16","seamark:type":"light_minor"}}},{"type":"Feature","geometry":{"type":"Polygon","coordinates":[[[32.153617,46.5070582],[32.1534965,46.5069112],[32.1550917,46.506291],[32.1552124,46.5064382],[32.153617,46.5070582]]]},"properties":{"osm_id":1533191636,"osm_type":"way","seamark_type":"wreck","display_class":"OTHER","min_zoom":12,"importance":1,"name":"Механік Погодін","ref":null,"common":{"type":"wreck"},"children":{"wreck":{"category":"hull_showing"}},"osm_tags":{"historic":"wreck","name":"Механік Погодін","name:en":"Mekhanik Pohodin","name:ru":"Механик Погодин","name:uk":"Механік Погодін","seamark:type":"wreck","seamark:wreck:category":"hull_showing","wreck:visible_at_high_tide":"yes","wreck:visible_at_low_tide":"yes"}}},{"type":"Feature","geometry":{"type":"Polygon","coordinates":[[[32.6104392,46.605876],[32.6117992,46.6072712],[32.6124536,46.607168],[32.6163174,46.6053896],[32.6148244,46.6038583],[32.6104392,46.605876]]]},"properties":{"osm_id":1482938694,"osm_type":"way","seamark_type":"wreck","display_class":"OTHER","min_zoom":12,"importance":1,"name":"Множество барж","ref":null,"common":{"type":"wreck"},"children":{},"osm_tags":{"historic":"wreck","name":"Множество барж","seamark:type":"wreck"}}},{"type":"Feature","geometry":{"type":"Point","coordinates":[32.93743,46.04242]},"properties":{"osm_id":3500513985,"osm_type":"node","seamark_type":"harbour","display_class":"OTHER","min_zoom":12,"importance":1,"name":"Пристань","ref":null,"common":{"type":"harbour"},"children":{"harbour":{"category":"marina"}},"osm_tags":{"leisure":"marina","name":"Пристань","name:de":"Seebrücke","name:uk":"Пристань","seamark:harbour:category":"marina","seamark:type":"harbour"}}},{"type":"Feature","geometry":{"type":"Point","coordinates":[32.9079977,46.1075191]},"properties":{"osm_id":8912092376,"osm_type":"node","seamark_type":"harbour","display_class":"OTHER","min_zoom":12,"importance":1,"name":"Причал 380 \"Скадовськ-Марина\"","ref":null,"common":{"type":"harbour"},"children":{"harbour":{"category":"marina"}},"osm_tags":{"leisure":"marina","name":"Причал 380 \"Скадовськ-Марина\"","name:uk":"Причал 380 \"Скадовськ-Марина\"","seamark:harbour:category":"marina","seamark:type":"harbour"}}},{"type":"Feature","geometry":{"type":"Point","coordinates":[32.5744478,46.6165402]},"properties":{"osm_id":10872873587,"osm_type":"node","seamark_type":"harbour","display_class":"OTHER","min_zoom":12,"importance":1,"name":"Човновий причал №5 \"Судобудівник\"","ref":null,"common":{"type":"harbour"},"children":{"harbour":{"category":"marina"}},"osm_tags":{"leisure":"marina","name":"Човновий причал №5 \"Судобудівник\"","name:en":"Boat dock №5","name:ru":"Лодочний причал №5 \"Судостроитель\"","name:uk":"Човновий причал №5  \"Судобудівник\"","seamark:harbour:category":"marina","seamark:type":"harbour"}}},{"type":"Feature","geometry":{"type":"Point","coordinates":[32.5750613,46.6143251]},"properties":{"osm_id":10872875343,"osm_type":"node","seamark_type":"harbour","display_class":"OTHER","min_zoom":12,"importance":1,"name":"Човновий причал №9","ref":null,"common":{"type":"harbour"},"children":{"harbour":{"category":"marina"}},"osm_tags":{"leisure":"marina","name":"Човновий причал №9","name:en":"Boat dock №9","name:ru":"Лодочний причал №9","name:uk":"Човновий причал №9","seamark:harbour:category":"marina","seamark:type":"harbour"}}},{"type":"Feature","geometry":{"type":"Point","coordinates":[32.5735606,46.613099]},"properties":{"osm_id":7756525423,"osm_type":"node","seamark_type":"harbour","display_class":"OTHER","min_zoom":12,"importance":1,"name":"Яхт клуб \"Стеблеєвський\"","ref":null,"common":{"type":"harbour"},"children":{"harbour":{"category":"marina"}},"osm_tags":{"leisure":"marina","name":"Яхт клуб \"Стеблеєвський\"","name:uk":"Яхт клуб \"Стеблеєвський\"","seamark:harbour:category":"marina","seamark:type":"harbour"}}}],"type":"FeatureCollection"}