{"type":"FeatureCollection","features":[{"type":"Feature","geometry":{"type":"Point","coordinates":[14.1065959,46.5380118]},"properties":{"osm_id":4674161382,"osm_type":"node","seamark_type":"beacon_lateral","display_class":"BEACON","min_zoom":9,"importance":4,"name":null,"ref":null,"common":{"type":"beacon_lateral"},"children":{"beacon_lateral":{"category":"starboard","colour":"green","system":"iala-a"}},"osm_tags":{"seamark:beacon_lateral:category":"starboard","seamark:beacon_lateral:colour":"green","seamark:beacon_lateral:system":"iala-a","seamark:type":"beacon_lateral"}}},{"type":"Feature","geometry":{"type":"Point","coordinates":[14.1107708,46.5378015]},"properties":{"osm_id":4674161383,"osm_type":"node","seamark_type":"beacon_lateral","display_class":"BEACON","min_zoom":9,"importance":4,"name":null,"ref":null,"common":{"type":"beacon_lateral"},"children":{"beacon_lateral":{"category":"starboard","colour":"green","system":"iala-a"}},"osm_tags":{"seamark:beacon_lateral:category":"starboard","seamark:beacon_lateral:colour":"green","seamark:beacon_lateral:system":"iala-a","seamark:type":"beacon_lateral"}}},{"type":"Feature","geometry":{"type":"Point","coordinates":[14.5104281,46.0409308]},"properties":{"osm_id":175830791,"osm_type":"node","seamark_type":"notice","display_class":"OTHER","min_zoom":12,"importance":1,"name":null,"ref":null,"common":{"type":"notice"},"children":{"notice":{"category":"limited_headroom","function":"restriction","information":"3.3m","system":"cevni"}},"osm_tags":{"fixme":"It has 3.3 on the sign, so 3.3 m limited headroom. Not sure how to map that?","seamark:notice:category":"limited_headroom","seamark:notice:function":"restriction","seamark:notice:information":"3.3m","seamark:notice:system":"cevni","seamark:type":"notice"}}},{"type":"Feature","geometry":{"type":"Point","coordinates":[14.5182045,46.0445038]},"properties":{"osm_id":968859967,"osm_type":"node","seamark_type":"notice","display_class":"OTHER","min_zoom":12,"importance":1,"name":null,"ref":null,"common":{"type":"notice"},"children":{"notice":{"category":"no_entry","function":"prohibition","system":"cevni"}},"osm_tags":{"seamark:notice:category":"no_entry","seamark:notice:function":"prohibition","seamark:notice:system":"cevni","seamark:type":"notice"}}},{"type":"Feature","geometry":{"type":"Point","coordinates":[14.6334812,46.6540292]},"properties":{"osm_id":1785752753,"osm_type":"node","seamark_type":"harbour","display_class":"OTHER","min_zoom":12,"importance":1,"name":null,"ref":null,"common":{"type":"harbour"},"children":{"harbour":{"category":"marina"}},"osm_tags":{"leisure":"marina","seamark:harbour:category":"marina","seamark:type":"harbour"}}},{"type":"Feature","geometry":{"type":"Point","coordinates":[14.2241671,46.623546]},"properties":{"osm_id":2422721616,"osm_type":"node","seamark_type":"harbour","display_class":"OTHER","min_zoom":12,"importance":1,"name":null,"ref":null,"common":{"type":"harbour"},"children":{"harbour":{"category":"marina"}},"osm_tags":{"leisure":"marina","seamark:harbour:category":"marina","seamark:type":"harbour"}}},{"type":"Feature","geometry":{"type":"Point","coordinates":[14.133473,46.5337415]},"properties":{"osm_id":3061722502,"osm_type":"node","seamark_type":"harbour","display_class":"OTHER","min_zoom":12,"importance":1,"name":null,"ref":null,"common":{"type":"harbour"},"children":{"harbour":{"category":"marina"}},"osm_tags":{"leisure":"marina","seamark:harbour:category":"marina","seamark:type":"harbour"}}},{"type":"Feature","geometry":{"type":"Point","coordinates":[14.5057977,46.046635]},"properties":{"osm_id":5557258319,"osm_type":"node","seamark_type":"berth","display_class":"OTHER","min_zoom":12,"importance":1,"name":null,"ref":null,"common":{"type":"berth"},"children":{},"osm_tags":{"seamark:type":"berth"}}},{"type":"Feature","geometry":{"type":"Point","coordinates":[14.5058182,46.0468915]},"properties":{"osm_id":5557258320,"osm_type":"node","seamark_type":"berth","display_class":"OTHER","min_zoom":12,"importance":1,"name":null,"ref":null,"common":{"type":"berth"},"children":{},"osm_tags":{"seamark:type":"berth"}}},{"type":"Feature","geometry":{"type":"Point","coordinates":[14.505615,46.0439715]},"properties":{"osm_id":6777723911,"osm_type":"node","seamark_type":"notice","display_class":"OTHER","min_zoom":12,"importance":1,"name":null,"ref":null,"common":{"type":"notice"},"children":{"notice":{"category":"no_entry","function":"prohibition","system":"cevni"}},"osm_tags":{"seamark:notice:category":"no_entry","seamark:notice:function":"prohibition","seamark:notice:system":"cevni","seamark:type":"notice"}}},{"type":"Feature","geometry":{"type":"Point","coordinates":[14.612456,46.1151256]},"properties":{"osm_id":7530379552,"osm_type":"node","seamark_type":"gate","display_class":"OTHER","min_zoom":12,"importance":1,"name":null,"ref":null,"common":{"type":"gate"},"children":{},"osm_tags":{"seamark:type":"gate","waterway":"lock_gate"}}},{"type":"Feature","geometry":{"type":"Point","coordinates":[14.5089188,46.0361477]},"properties":{"osm_id":7623118062,"osm_type":"node","seamark_type":"notice","display_class":"OTHER","min_zoom":12,"importance":1,"name":null,"ref":null,"common":{"type":"notice"},"children":{"notice":{"category":"mooring_permitted","function":"information","system":"cevni"}},"osm_tags":{"seamark:notice:category":"mooring_permitted","seamark:notice:function":"information","seamark:notice:system":"cevni","seamark:type":"notice"}}},{"type":"Feature","geometry":{"type":"Point","coordinates":[14.6079242,46.1227848]},"properties":{"osm_id":8019637820,"osm_type":"node","seamark_type":"gate","display_class":"OTHER","min_zoom":12,"importance":1,"name":null,"ref":null,"common":{"type":"gate"},"children":{},"osm_tags":{"seamark:type":"gate","waterway":"lock_gate"}}},{"type":"Feature","geometry":{"type":"Point","coordinates":[14.5087939,46.0360681]},"properties":{"osm_id":8866362445,"osm_type":"node","seamark_type":"notice","display_class":"OTHER","min_zoom":12,"importance":1,"name":null,"ref":null,"common":{"type":"notice"},"children":{"notice":{"category":"no_high_speeds","function":"prohibition","system":"cevni"}},"osm_tags":{"seamark:notice:category":"no_high_speeds","seamark:notice:function":"prohibition","seamark:notice:system":"cevni","seamark:type":"notice"}}},{"type":"Feature","geometry":{"type":"Point","coordinates":[14.5099995,46.0366907]},"properties":{"osm_id":8866362447,"osm_type":"node","seamark_type":"notice","display_class":"OTHER","min_zoom":12,"importance":1,"name":null,"ref":null,"common":{"type":"notice"},"children":{"notice":{"category":"mooring_permitted","function":"information","system":"cevni"}},"osm_tags":{"seamark:notice:category":"mooring_permitted","seamark:notice:function":"information","seamark:notice:system":"cevni","seamark:type":"notice"}}},{"type":"Feature","geometry":{"type":"Point","coordinates":[14.5056798,46.0439325]},"properties":{"osm_id":8909419223,"osm_type":"node","seamark_type":"notice","display_class":"OTHER","min_zoom":12,"importance":1,"name":null,"ref":null,"common":{"type":"notice"},"children":{"notice":{"category":"opening_to_right","function":"recommendation","system":"cevni"}},"osm_tags":{"seamark:notice:category":"opening_to_right","seamark:notice:function":"recommendation","seamark:notice:system":"cevni","seamark:type":"notice"}}},{"type":"Feature","geometry":{"type":"Point","coordinates":[14.5105325,46.040792]},"properties":{"osm_id":8909419225,"osm_type":"node","seamark_type":"notice","display_class":"OTHER","min_zoom":12,"importance":1,"name":null,"ref":null,"common":{"type":"notice"},"children":{"notice":{"addition":"left_triangle","category":"prohibition","distance_down":"200","function":"no_berthing","system":"cevni"}},"osm_tags":{"fixme":"Not sure if it's correct. It's 200 m no berthing downstream of the river.","seamark:notice:addition":"left_triangle","seamark:notice:category":"prohibition","seamark:notice:distance_down":"200","seamark:notice:function":"no_berthing","seamark:notice:system":"cevni","seamark:type":"notice"}}},{"type":"Feature","geometry":{"type":"Point","coordinates":[14.5183708,46.0445525]},"properties":{"osm_id":8911394797,"osm_type":"node","seamark_type":"notice","display_class":"OTHER","min_zoom":12,"importance":1,"name":null,"ref":null,"common":{"type":"notice"},"children":{"notice":{"category":"weir","function":"information","system":"cevni"}},"osm_tags":{"seamark:notice:category":"weir","seamark:notice:function":"information","seamark:notice:system":"cevni","seamark:type":"notice"}}},{"type":"Feature","geometry":{"type":"Point","coordinates":[14.5142305,46.042164]},"properties":{"osm_id":8911394798,"osm_type":"node","seamark_type":"notice","display_class":"OTHER","min_zoom":12,"importance":1,"name":null,"ref":null,"common":{"type":"notice"},"children":{"notice":{"category":"no_passing","function":"prohibition","system":"cevni"}},"osm_tags":{"seamark:notice:category":"no_passing","seamark:notice:function":"prohibition","seamark:notice:system":"cevni","seamark:type":"notice"}}},{"type":"Feature","geometry":{"type":"Point","coordinates":[14.514364,46.0419169]},"properties":{"osm_id":9002000570,"osm_type":"node","seamark_type":"notice","display_class":"OTHER","min_zoom":12,"importance":1,"name":null,"ref":null,"common":{"type":"notice"},"children":{"notice":{"category":"turning_area","function":"information","system":"cevni"}},"osm_tags":{"seamark:notice:category":"turning_area","seamark:notice:function":"information","seamark:notice:system":"cevni","seamark:type":"notice"}}},{"type":"Feature","geometry":{"type":"Point","coordinates":[14.5138721,46.0417274]},"properties":{"osm_id":9002010107,"osm_type":"node","seamark_type":"small_craft_facility","display_class":"OTHER","min_zoom":12,"importance":1,"name":null,"ref":null,"common":{"type":"small_craft_facility"},"children":{"small_craft_facility":{"category":"pump-out"}},"osm_tags":{"seamark:small_craft_facility:category":"pump-out","seamark:type":"small_craft_facility"}}},{"type":"Feature","geometry":{"type":"Point","coordinates":[14.0859379,46.3674488]},"properties":{"osm_id":9045707257,"osm_type":"node","seamark_type":"small_craft_facility","display_class":"OTHER","min_zoom":12,"importance":1,"name":null,"ref":null,"common":{"type":"small_craft_facility"},"children":{"small_craft_facility":{"category":"slipway"}},"osm_tags":{"leisure":"slipway","seamark:small_craft_facility:category":"slipway","seamark:type":"small_craft_facility"}}},{"type":"Feature","geometry":{"type":"Point","coordinates":[14.0859128,46.36701]},"properties":{"osm_id":9045707270,"osm_type":"node","seamark_type":"mooring","display_class":"OTHER","min_zoom":12,"importance":1,"name":null,"ref":null,"common":{"type":"mooring"},"children":{},"osm_tags":{"seamark:type":"mooring"}}},{"type":"Feature","geometry":{"type":"Point","coordinates":[14.0858657,46.366905]},"properties":{"osm_id":9045707271,"osm_type":"node","seamark_type":"mooring","display_class":"OTHER","min_zoom":12,"importance":1,"name":null,"ref":null,"common":{"type":"mooring"},"children":{},"osm_tags":{"seamark:type":"mooring"}}},{"type":"Feature","geometry":{"type":"Point","coordinates":[14.0859274,46.3669465]},"properties":{"osm_id":9045707272,"osm_type":"node","seamark_type":"mooring","display_class":"OTHER","min_zoom":12,"importance":1,"name":null,"ref":null,"common":{"type":"mooring"},"children":{},"osm_tags":{"seamark:type":"mooring"}}},{"type":"Feature","geometry":{"type":"Point","coordinates":[14.0822302,46.362354]},"properties":{"osm_id":9045707307,"osm_type":"node","seamark_type":"mooring","display_class":"OTHER","min_zoom":12,"importance":1,"name":null,"ref":null,"common":{"type":"mooring"},"children":{},"osm_tags":{"seamark:type":"mooring"}}},{"type":"Feature","geometry":{"type":"Point","coordinates":[14.0822509,46.3623159]},"properties":{"osm_id":9045707308,"osm_type":"node","seamark_type":"mooring","display_class":"OTHER","min_zoom":12,"importance":1,"name":null,"ref":null,"common":{"type":"mooring"},"children":{},"osm_tags":{"seamark:type":"mooring"}}},{"type":"Feature","geometry":{"type":"Point","coordinates":[14.6125098,46.1146908]},"properties":{"osm_id":9719093368,"osm_type":"node","seamark_type":"gate","display_class":"OTHER","min_zoom":12,"importance":1,"name":null,"ref":null,"common":{"type":"gate"},"children":{},"osm_tags":{"seamark:type":"gate","waterway":"lock_gate"}}},{"type":"Feature","geometry":{"type":"LineString","coordinates":[[14.5055436,46.0444004],[14.5059409,46.0444166]]},"properties":{"osm_id":169025347,"osm_type":"way","seamark_type":"bridge","display_class":"OTHER","min_zoom":12,"importance":1,"name":null,"ref":null,"common":{"type":"bridge"},"children":{"bridge":{"category":"fixed","clearance_height":"5"}},"osm_tags":{"bicycle":"yes","bridge":"yes","foot":"yes","highway":"pedestrian","layer":"1","lit":"yes","motor_vehicle":"no","oneway":"no","seamark:bridge:category":"fixed","seamark:bridge:clearance_height":"5","seamark:type":"bridge","surface":"rubber"}}},{"type":"Feature","geometry":{"type":"LineString","coordinates":[[14.0897189,46.5412947],[14.0896935,46.5412329]]},"properties":{"osm_id":473267700,"osm_type":"way","seamark_type":"small_craft_facility","display_class":"OTHER","min_zoom":12,"importance":1,"name":null,"ref":null,"common":{"type":"small_craft_facility"},"children":{"small_craft_facility":{"category":"slipway"}},"osm_tags":{"seamark:small_craft_facility:category":"slipway","seamark:type":"small_craft_facility"}}},{"type":"Feature","geometry":{"type":"LineString","coordinates":[[14.1115728,46.5369085],[14.1114561,46.536819]]},"properties":{"osm_id":473267704,"osm_type":"way","seamark_type":"small_craft_facility","display_class":"OTHER","min_zoom":12,"importance":1,"name":null,"ref":null,"common":{"type":"small_craft_facility"},"children":{"small_craft_facility":{"category":"slipway"}},"osm_tags":{"seamark:small_craft_facility:category":"slipway","seamark:type":"small_craft_facility"}}},{"type":"Feature","geometry":{"type":"LineString","coordinates":[[14.2531289,46.6155718],[14.253145,46.6155243]]},"properties":{"osm_id":473278271,"osm_type":"way","seamark_type":"small_craft_facility","display_class":"OTHER","min_zoom":12,"importance":1,"name":null,"ref":null,"common":{"type":"small_craft_facility"},"children":{"small_craft_facility":{"category":"slipway"}},"osm_tags":{"seamark:small_craft_facility:category":"slipway","seamark:type":"small_craft_facility"}}},{"type":"Feature","geometry":{"type":"Polygon","coordinates":[[[14.0902905,46.3615961],[14.0903637,46.3615747],[14.0902421,46.3614667],[14.0899848,46.3614562],[14.0899845,46.3615341],[14.0898862,46.3615785],[14.089754,46.3617084],[14.089678,46.361778],[14.0895421,46.3617785],[14.0895431,46.3618934],[14.0896931,46.3618917],[14.0897026,46.361793],[14.0897891,46.3617281],[14.0899135,46.3616039],[14.0900127,46.3615406],[14.0900115,46.3615109],[14.0901283,46.3615172],[14.0901928,46.3615207],[14.0902905,46.3615961]]]},"properties":{"osm_id":544389938,"osm_type":"way","seamark_type":"harbour","display_class":"OTHER","min_zoom":12,"importance":1,"name":null,"ref":null,"common":{"type":"harbour"},"children":{"harbour":{"category":"marina"}},"osm_tags":{"leisure":"marina","seamark:harbour:category":"marina","seamark:type":"harbour"}}},{"type":"Feature","geometry":{"type":"LineString","coordinates":[[14.5097542,46.0365368],[14.5104465,46.037319]]},"properties":{"osm_id":941567049,"osm_type":"way","seamark_type":"obstruction","display_class":"OTHER","min_zoom":12,"importance":1,"name":null,"ref":null,"common":{"type":"obstruction"},"children":{},"osm_tags":{"canoe:type":"slalom","comment":"Gates for kayak/canoe slalom. Not sure how to tag this.","seamark:type":"obstruction","sport":"canoe"}}},{"type":"Feature","geometry":{"type":"Polygon","coordinates":[[[14.5084495,46.0355695],[14.5086563,46.0354609],[14.508878,46.0353756],[14.5088845,46.0353838],[14.5088768,46.0353909],[14.5088975,46.035414],[14.5088892,46.0354183],[14.5089075,46.0354386],[14.5089253,46.0354696],[14.5089474,46.0354734],[14.5089572,46.0354817],[14.5089665,46.0354838],[14.5090304,46.0355612],[14.5090599,46.0355822],[14.5090613,46.0355929],[14.5091057,46.0356531],[14.5091416,46.0356571],[14.5091497,46.0356754],[14.5091561,46.0357089],[14.5091675,46.035728],[14.5092096,46.0357379],[14.5092372,46.0357807],[14.5092569,46.0357907],[14.5092545,46.0358021],[14.5092733,46.0358386],[14.5092697,46.0358501],[14.50928,46.0358703],[14.5093061,46.0358772],[14.5093042,46.0358858],[14.5093085,46.0358925],[14.5093142,46.035893],[14.5093118,46.0358968],[14.5093149,46.0359031],[14.509323,46.0359059],[14.5093353,46.035929],[14.509322,46.035949],[14.5094266,46.0360445],[14.5096569,46.0362546],[14.5097217,46.0363305],[14.5101762,46.0368626],[14.5104278,46.0371664],[14.5104733,46.0372213],[14.5105158,46.0372751],[14.5105342,46.0373002],[14.5105542,46.0373275],[14.5105841,46.0373634],[14.510594,46.0373752],[14.5106837,46.0374912],[14.5105127,46.0375956],[14.5102111,46.0376047],[14.5101303,46.0374868],[14.510149,46.0374583],[14.5101358,46.037374],[14.5100269,46.0373526],[14.5099576,46.0372628],[14.509793,46.0370377],[14.5094126,46.0366246],[14.5091645,46.036364],[14.508976,46.036156],[14.5089318,46.0361129],[14.5088397,46.0359972],[14.5088051,46.0359132],[14.5087438,46.035851],[14.5086835,46.0358164],[14.5086551,46.0358001],[14.5086122,46.035752],[14.5084495,46.0355695]]]},"properties":{"osm_id":942099078,"osm_type":"way","seamark_type":"cable_overhead","display_class":"OTHER","min_zoom":12,"importance":1,"name":null,"ref":null,"common":{"type":"cable_overhead"},"children":{},"osm_tags":{"seamark:type":"cable_overhead"}}},{"type":"Feature","geometry":{"type":"LineString","coordinates":[[14.5089188,46.0361477],[14.509385,46.0359546]]},"properties":{"osm_id":958618434,"osm_type":"way","seamark_type":"cable_overhead","display_class":"OTHER","min_zoom":12,"importance":1,"name":null,"ref":null,"common":{"type":"cable_overhead"},"children":{},"osm_tags":{"location":"overhead","power":"cable","seamark:type":"cable_overhead"}}},{"type":"Feature","geometry":{"type":"Polygon","coordinates":[[[14.4170757,46.1569473],[14.4170352,46.1568488],[14.4174448,46.1567791],[14.4175113,46.1566932],[14.4174556,46.1565015],[14.4178671,46.1564293],[14.4179633,46.156766],[14.4178876,46.1567756],[14.4178741,46.1567863],[14.4177839,46.1567994],[14.4177808,46.1567872],[14.4177484,46.1567912],[14.417737,46.1567926],[14.4177246,46.1567941],[14.4175354,46.1568175],[14.4175439,46.1568507],[14.4173301,46.156895],[14.4170757,46.1569473]]]},"properties":{"osm_id":966966561,"osm_type":"way","seamark_type":"harbour","display_class":"OTHER","min_zoom":12,"importance":1,"name":null,"ref":null,"common":{"type":"harbour"},"children":{"harbour":{"category":"marina"}},"osm_tags":{"leisure":"marina","seamark:harbour:category":"marina","seamark:type":"harbour"}}},{"type":"Feature","geometry":{"type":"Polygon","coordinates":[[[14.5121469,46.0400976],[14.5121143,46.0400655],[14.5121178,46.0400595],[14.5121427,46.040017],[14.512171,46.0400434],[14.5121927,46.0400702],[14.5121469,46.0400976]]]},"properties":{"osm_id":972639869,"osm_type":"way","seamark_type":"small_craft_facility","display_class":"OTHER","min_zoom":12,"importance":1,"name":null,"ref":null,"common":{"type":"small_craft_facility"},"children":{"small_craft_facility":{"category":"toilets"}},"osm_tags":{"access":"yes","amenity":"toilets","building":"yes","fee":"no","seamark:small_craft_facility:category":"toilets","seamark:type":"small_craft_facility","toilets:disposal":"flush","unisex":"yes","wheelchair":"yes"}}},{"type":"Feature","geometry":{"type":"LineString","coordinates":[[14.5120615,46.0398485],[14.5121891,46.0398922]]},"properties":{"osm_id":977080270,"osm_type":"way","seamark_type":"obstruction","display_class":"OTHER","min_zoom":12,"importance":1,"name":null,"ref":null,"common":{"type":"obstruction"},"children":{},"osm_tags":{"man_made":"groyne","seamark:type":"obstruction"}}},{"type":"Feature","geometry":{"type":"Point","coordinates":[14.5125393,46.0402607]},"properties":{"osm_id":9002010106,"osm_type":"node","seamark_type":"berth","display_class":"OTHER","min_zoom":12,"importance":1,"name":"1","ref":null,"common":{"type":"berth"},"children":{},"osm_tags":{"name":"1","seamark:type":"berth"}}},{"type":"Feature","geometry":{"type":"Point","coordinates":[14.5134832,46.0412884]},"properties":{"osm_id":9002010116,"osm_type":"node","seamark_type":"berth","display_class":"OTHER","min_zoom":12,"importance":1,"name":"10","ref":null,"common":{"type":"berth"},"children":{},"osm_tags":{"name":"10","seamark:type":"berth"}}},{"type":"Feature","geometry":{"type":"Point","coordinates":[14.5135974,46.0414025]},"properties":{"osm_id":9002014317,"osm_type":"node","seamark_type":"berth","display_class":"OTHER","min_zoom":12,"importance":1,"name":"11","ref":null,"common":{"type":"berth"},"children":{},"osm_tags":{"name":"11","seamark:type":"berth"}}},{"type":"Feature","geometry":{"type":"Point","coordinates":[14.5136972,46.0415117]},"properties":{"osm_id":9002014318,"osm_type":"node","seamark_type":"berth","display_class":"OTHER","min_zoom":12,"importance":1,"name":"12","ref":null,"common":{"type":"berth"},"children":{},"osm_tags":{"name":"12","seamark:type":"berth"}}},{"type":"Feature","geometry":{"type":"Point","coordinates":[14.5126343,46.0403749]},"properties":{"osm_id":9002010108,"osm_type":"node","seamark_type":"berth","display_class":"OTHER","min_zoom":12,"importance":1,"name":"2","ref":null,"common":{"type":"berth"},"children":{},"osm_tags":{"name":"2","seamark:type":"berth"}}},{"type":"Feature","geometry":{"type":"Point","coordinates":[14.5127469,46.0404935]},"properties":{"osm_id":9002010109,"osm_type":"node","seamark_type":"berth","display_class":"OTHER","min_zoom":12,"importance":1,"name":"3","ref":null,"common":{"type":"berth"},"children":{},"osm_tags":{"name":"3","seamark:type":"berth"}}},{"type":"Feature","geometry":{"type":"Point","coordinates":[14.512846,46.0406044]},"properties":{"osm_id":9002010110,"osm_type":"node","seamark_type":"berth","display_class":"OTHER","min_zoom":12,"importance":1,"name":"4","ref":null,"common":{"type":"berth"},"children":{},"osm_tags":{"name":"4","seamark:type":"berth"}}},{"type":"Feature","geometry":{"type":"Point","coordinates":[14.512953,46.0407174]},"properties":{"osm_id":9002010111,"osm_type":"node","seamark_type":"berth","display_class":"OTHER","min_zoom":12,"importance":1,"name":"5","ref":null,"common":{"type":"berth"},"children":{},"osm_tags":{"name":"5","seamark:type":"berth"}}},{"type":"Feature","geometry":{"type":"Point","coordinates":[14.5130616,46.0408327]},"properties":{"osm_id":9002010112,"osm_type":"node","seamark_type":"berth","display_class":"OTHER","min_zoom":12,"importance":1,"name":"6","ref":null,"common":{"type":"berth"},"children":{},"osm_tags":{"name":"6","seamark:type":"berth"}}},{"type":"Feature","geometry":{"type":"Point","coordinates":[14.5131614,46.0409458]},"properties":{"osm_id":9002010113,"osm_type":"node","seamark_type":"berth","display_class":"OTHER","min_zoom":12,"importance":1,"name":"7","ref":null,"common":{"type":"berth"},"children":{},"osm_tags":{"name":"7","seamark:type":"berth"}}},{"type":"Feature","geometry":{"type":"Point","coordinates":[14.5132748,46.0410611]},"properties":{"osm_id":9002010114,"osm_type":"node","seamark_type":"berth","display_class":"OTHER","min_zoom":12,"importance":1,"name":"8","ref":null,"common":{"type":"berth"},"children":{},"osm_tags":{"name":"8","seamark:type":"berth"}}},{"type":"Feature","geometry":{"type":"Point","coordinates":[14.513381,46.041172]},"properties":{"osm_id":9002010115,"osm_type":"node","seamark_type":"berth","display_class":"OTHER","min_zoom":12,"importance":1,"name":"9","ref":null,"common":{"type":"berth"},"children":{},"osm_tags":{"name":"9","seamark:type":"berth"}}},{"type":"Feature","geometry":{"type":"Polygon","coordinates":[[[14.0897198,46.3629484],[14.0895421,46.3630585],[14.0897345,46.3631989],[14.0899234,46.3632089],[14.0901279,46.3631479],[14.0904414,46.3629207],[14.0903158,46.3628304],[14.0901972,46.3629269],[14.0900782,46.3630101],[14.0899604,46.3630632],[14.0898366,46.3630802],[14.0897198,46.3629484]]]},"properties":{"osm_id":977592050,"osm_type":"way","seamark_type":"harbour","display_class":"OTHER","min_zoom":12,"importance":1,"name":"Blejski otok - Severna stran","ref":null,"common":{"type":"harbour"},"children":{"harbour":{"category":"marina_no_facilities"}},"osm_tags":{"fee":"no","leisure":"marina","name":"Blejski otok - Severna stran","seamark:harbour:category":"marina_no_facilities","seamark:type":"harbour"}}},{"type":"Feature","geometry":{"type":"Point","coordinates":[14.204676,46.5432849]},"properties":{"osm_id":368250113,"osm_type":"node","seamark_type":"harbour","display_class":"OTHER","min_zoom":12,"importance":1,"name":"Bootshafen St. Johann","ref":null,"common":{"type":"harbour"},"children":{"harbour":{"category":"marina"}},"osm_tags":{"leisure":"marina","name":"Bootshafen St. Johann","seamark:harbour:category":"marina","seamark:type":"harbour"}}},{"type":"Feature","geometry":{"type":"Point","coordinates":[14.0899802,46.5419685]},"properties":{"osm_id":3463651337,"osm_type":"node","seamark_type":"harbour","display_class":"OTHER","min_zoom":12,"importance":1,"name":"Dragositschach","ref":null,"common":{"type":"harbour"},"children":{"harbour":{"category":"marina"}},"osm_tags":{"leisure":"marina","name":"Dragositschach","seamark:harbour:category":"marina","seamark:type":"harbour"}}},{"type":"Feature","geometry":{"type":"Point","coordinates":[14.2524586,46.6172043]},"properties":{"osm_id":553069813,"osm_type":"node","seamark_type":"harbour","display_class":"OTHER","min_zoom":12,"importance":1,"name":"Loretto","ref":null,"common":{"type":"harbour"},"children":{"harbour":{"category":"marina"}},"osm_tags":{"leisure":"marina","name":"Loretto","seamark:harbour:category":"marina","seamark:type":"harbour"}}},{"type":"Feature","geometry":{"type":"Polygon","coordinates":[[[14.0857466,46.3671311],[14.0858708,46.3674556],[14.0858837,46.3674811],[14.0860634,46.3673864],[14.086158,46.3673318],[14.0859564,46.3667281],[14.0859401,46.3667482],[14.0858477,46.3668329],[14.0857231,46.3668994],[14.0856906,46.3669865],[14.0857466,46.3671311]]]},"properties":{"osm_id":977592035,"osm_type":"way","seamark_type":"harbour","display_class":"OTHER","min_zoom":12,"importance":1,"name":"Mala Zaka","ref":null,"common":{"type":"harbour"},"children":{"harbour":{"category":"marina_no_facilities"}},"osm_tags":{"fee":"no","leisure":"marina","name":"Mala Zaka","power_supply":"no","sanitary_dump_station":"no","seamark:harbour:category":"marina_no_facilities","seamark:type":"harbour"}}},{"type":"Feature","geometry":{"type":"Point","coordinates":[14.0896824,46.3618023]},"properties":{"osm_id":6688639877,"osm_type":"node","seamark_type":"harbour","display_class":"OTHER","min_zoom":12,"importance":1,"name":"Marina for disabled persons","ref":null,"common":{"type":"harbour"},"children":{"harbour":{"category":"marina"}},"osm_tags":{"leisure":"marina","name":"Marina for disabled persons","seamark:harbour:category":"marina","seamark:type":"harbour"}}},{"type":"Feature","geometry":{"type":"LineString","coordinates":[[14.5087429,46.0518593],[14.5088547,46.0515944]]},"properties":{"osm_id":69808616,"osm_type":"way","seamark_type":"bridge","display_class":"OTHER","min_zoom":12,"importance":1,"name":"Mesarski most","ref":null,"common":{"type":"bridge"},"children":{"bridge":{"category":"fixed","clearance_height":"5.5"}},"osm_tags":{"alt_name:en":"Lockers' Bridge","bridge":"yes","highway":"pedestrian","layer":"1","lit":"yes","name":"Mesarski most","name:en":"Butcher Bridge","name:fr":"Pont des Bouchers","name:sl":"Mesarski most","old_name":"Jubilejni most","oneway":"no","seamark:bridge:category":"fixed","seamark:bridge:clearance_height":"5.5","seamark:type":"bridge","surface":"paving_stones","width":"14"}}},{"type":"Feature","geometry":{"type":"Point","coordinates":[14.1868451,46.6069249]},"properties":{"osm_id":1507709147,"osm_type":"node","seamark_type":"harbour","display_class":"OTHER","min_zoom":12,"importance":1,"name":"Mureny Marina","ref":null,"common":{"type":"harbour"},"children":{"harbour":{"category":"marina"}},"osm_tags":{"leisure":"marina","name":"Mureny Marina","seamark:harbour:category":"marina","seamark:type":"harbour"}}},{"type":"Feature","geometry":{"type":"Point","coordinates":[14.0901705,46.3615228]},"properties":{"osm_id":6688639876,"osm_type":"node","seamark_type":"harbour","display_class":"OTHER","min_zoom":12,"importance":1,"name":"Pletnarska marina","ref":null,"common":{"type":"harbour"},"children":{"harbour":{"category":"marina"}},"osm_tags":{"leisure":"marina","name":"Pletnarska marina","seamark:harbour:category":"marina","seamark:type":"harbour"}}},{"type":"Feature","geometry":{"type":"Polygon","coordinates":[[[14.0989474,46.3598812],[14.0989672,46.3598551],[14.0985179,46.3597378],[14.0982704,46.3597045],[14.0982072,46.3596964],[14.0982069,46.3597228],[14.0984937,46.3597589],[14.0989474,46.3598812]]]},"properties":{"osm_id":1127994507,"osm_type":"way","seamark_type":"harbour","display_class":"OTHER","min_zoom":12,"importance":1,"name":"Pristan za pletne Mlino","ref":null,"common":{"type":"harbour"},"children":{"harbour":{"category":"marina"}},"osm_tags":{"leisure":"marina","mooring":"cruise","name":"Pristan za pletne Mlino","name:en":"Mlino Pletna Boat Pier","name:sl":"Pristan za pletne Mlino","seamark:harbour:category":"marina","seamark:type":"harbour"}}},{"type":"Feature","geometry":{"type":"LineString","coordinates":[[14.5053896,46.0503146],[14.5057002,46.0502684]]},"properties":{"osm_id":362336849,"osm_type":"way","seamark_type":"bridge","display_class":"OTHER","min_zoom":12,"importance":1,"name":"Ribja brv","ref":null,"common":{"type":"bridge"},"children":{"bridge":{"category":"fixed","clearance_height":"5"}},"osm_tags":{"bicycle":"dismount","bridge":"yes","foot":"yes","handrail":"both","highway":"pedestrian","layer":"1","lit":"no","motor_vehicle":"no","name":"Ribja brv","oneway":"no","seamark:bridge:category":"fixed","seamark:bridge:clearance_height":"5","seamark:type":"bridge","surface":"wood","width":"3.8"}}},{"type":"Feature","geometry":{"type":"Point","coordinates":[14.1102344,46.5377922]},"properties":{"osm_id":1369678775,"osm_type":"node","seamark_type":"harbour","display_class":"OTHER","min_zoom":12,"importance":1,"name":"Sankt Oswald","ref":null,"common":{"type":"harbour"},"children":{"harbour":{"category":"marina"}},"osm_tags":{"leisure":"marina","name":"Sankt Oswald","seamark:harbour:category":"marina","seamark:type":"harbour"}}},{"type":"Feature","geometry":{"type":"Point","coordinates":[14.0496729,46.610425]},"properties":{"osm_id":1326951846,"osm_type":"node","seamark_type":"harbour","display_class":"OTHER","min_zoom":12,"importance":1,"name":"Schmalzl","ref":null,"common":{"type":"harbour"},"children":{"harbour":{"category":"marina"}},"osm_tags":{"leisure":"marina","name":"Schmalzl","seamark:harbour:category":"marina","seamark:type":"harbour"}}},{"type":"Feature","geometry":{"type":"Point","coordinates":[14.1811312,46.6080589]},"properties":{"osm_id":7572391509,"osm_type":"node","seamark_type":"mooring","display_class":"OTHER","min_zoom":12,"importance":1,"name":"Segelschule Reifnitz","ref":null,"common":{"type":"mooring"},"children":{},"osm_tags":{"name":"Segelschule Reifnitz","operator":"Stornig","seamark:type":"mooring"}}},{"type":"Feature","geometry":{"type":"Point","coordinates":[14.2212886,46.622152]},"properties":{"osm_id":1382207465,"osm_type":"node","seamark_type":"harbour","display_class":"OTHER","min_zoom":12,"importance":1,"name":"Terrassenareal","ref":null,"common":{"type":"harbour"},"children":{"harbour":{"category":"marina"}},"osm_tags":{"leisure":"marina","name":"Terrassenareal","seamark:harbour:category":"marina","seamark:type":"harbour"}}},{"type":"Feature","geometry":{"type":"Point","coordinates":[14.205996,46.6193229]},"properties":{"osm_id":2435688162,"osm_type":"node","seamark_type":"harbour","display_class":"OTHER","min_zoom":12,"importance":1,"name":"Thomas-Koschat-Park","ref":null,"common":{"type":"harbour"},"children":{"harbour":{"category":"marina"}},"osm_tags":{"leisure":"marina","name":"Thomas-Koschat-Park","seamark:harbour:category":"marina","seamark:type":"harbour"}}},{"type":"Feature","geometry":{"type":"LineString","coordinates":[[14.5063005,46.050994],[14.5061304,46.051256]]},"properties":{"osm_id":453076140,"osm_type":"way","seamark_type":"bridge","display_class":"OTHER","min_zoom":12,"importance":1,"name":"Tromostovje","ref":null,"common":{"type":"bridge"},"children":{"bridge":{"category":"fixed","clearance_height":"5"}},"osm_tags":{"bridge":"yes","highway":"pedestrian","layer":"1","lit":"yes","name":"Tromostovje","old_name":"Frančiškanski most","seamark:bridge:category":"fixed","seamark:bridge:clearance_height":"5","seamark:type":"bridge","smoothness":"good","surface":"sett"}}},{"type":"Feature","geometry":{"type":"LineString","coordinates":[[14.5061849,46.0509483],[14.5060903,46.0510323],[14.5060005,46.0511156]]},"properties":{"osm_id":453076141,"osm_type":"way","seamark_type":"bridge","display_class":"OTHER","min_zoom":12,"importance":1,"name":"Tromostovje","ref":null,"common":{"type":"bridge"},"children":{"bridge":{"category":"fixed","clearance_height":"5"}},"osm_tags":{"bridge":"yes","highway":"pedestrian","layer":"1","lit":"yes","name":"Tromostovje","seamark:bridge:category":"fixed","seamark:bridge:clearance_height":"5","seamark:type":"bridge","smoothness":"excellent","surface":"asphalt"}}},{"type":"Feature","geometry":{"type":"LineString","coordinates":[[14.5064155,46.0510393],[14.5063891,46.0511416],[14.5063624,46.0512432]]},"properties":{"osm_id":453076142,"osm_type":"way","seamark_type":"bridge","display_class":"OTHER","min_zoom":12,"importance":1,"name":"Tromostovje","ref":null,"common":{"type":"bridge"},"children":{"bridge":{"category":"fixed","clearance_height":"5"}},"osm_tags":{"bridge":"yes","highway":"pedestrian","layer":"1","lit":"yes","name":"Tromostovje","seamark:bridge:category":"fixed","seamark:bridge:clearance_height":"5","seamark:type":"bridge","smoothness":"excellent","surface":"asphalt"}}},{"type":"Feature","geometry":{"type":"Polygon","coordinates":[[[14.0822086,46.3622303],[14.0824327,46.3623011],[14.0822175,46.3626906],[14.0821559,46.3627287],[14.0821214,46.3627239],[14.0820434,46.3626707],[14.0819744,46.3626212],[14.0819516,46.3625929],[14.0819427,46.3625534],[14.0820095,46.3625099],[14.0819682,46.3624863],[14.0820038,46.362465],[14.0820482,46.3624337],[14.0821121,46.3623894],[14.0822192,46.362364],[14.0821149,46.362346],[14.0822086,46.3622303]]]},"properties":{"osm_id":977592047,"osm_type":"way","seamark_type":"harbour","display_class":"OTHER","min_zoom":12,"importance":1,"name":"Velika Zaka","ref":null,"common":{"type":"harbour"},"children":{"harbour":{"category":"marina_no_facilities"}},"osm_tags":{"fee":"no","leisure":"marina","name":"Velika Zaka","power_supply":"no","sanitary_dump_station":"no","seamark:harbour:category":"marina_no_facilities","seamark:type":"harbour"}}},{"type":"Feature","geometry":{"type":"LineString","coordinates":[[14.5058347,46.0458668],[14.505813,46.0458664],[14.5053579,46.0458585],[14.5053439,46.0458583]]},"properties":{"osm_id":39753286,"osm_type":"way","seamark_type":"bridge","display_class":"OTHER","min_zoom":12,"importance":1,"name":"Zoisova cesta","ref":null,"common":{"type":"bridge"},"children":{"bridge":{"category":"fixed","clearance_height":"5"}},"osm_tags":{"bridge":"yes","change":"no","foot":"use_sidepath","highway":"primary","lanes":"3","lanes:backward":"1","lanes:forward":"2","layer":"1","lit":"yes","maxspeed":"50","maxweight:signed":"no","name":"Zoisova cesta","name:etymology:wikidata":"Q200509","parking:both":"no","seamark:bridge:category":"fixed","seamark:bridge:clearance_height":"5","seamark:type":"bridge","shoulder":"no","sidewalk":"separate","smoothness":"good","source:maxspeed":"SI:urban","surface":"asphalt"}}},{"type":"Feature","geometry":{"type":"LineString","coordinates":[[14.5054425,46.0484042],[14.5057415,46.0484472]]},"properties":{"osm_id":453076453,"osm_type":"way","seamark_type":"bridge","display_class":"OTHER","min_zoom":12,"importance":1,"name":"Čevljarski most","ref":null,"common":{"type":"bridge"},"children":{"bridge":{"category":"fixed","clearance_height":"5"}},"osm_tags":{"alt_name":"Šuštarski most","architect":"Jože Plečnik","architect:wikidata":"Q314886","architect:wikipedia":"sl:Jože Plečnik","bridge":"yes","highway":"pedestrian","layer":"1","lit":"yes","name":"Čevljarski most","seamark:bridge:category":"fixed","seamark:bridge:clearance_height":"5","seamark:type":"bridge","smoothness":"excellent","surface":"asphalt"}}}],"type":"FeatureCollection"}