{"type":"FeatureCollection","features":[{"type":"Feature","geometry":{"type":"Point","coordinates":[61.6628802,46.7944829]},"properties":{"osm_id":6516226802,"osm_type":"node","seamark_type":"wreck","display_class":"OTHER","min_zoom":12,"importance":1,"name":null,"ref":null,"common":{"type":"wreck"},"children":{"wreck":{"category":"hull_visible"}},"osm_tags":{"historic":"wreck","seamark:type":"wreck","seamark:wreck:category":"hull_visible","source":"Digital Globe Premium"}}},{"type":"Feature","geometry":{"type":"Point","coordinates":[61.6697466,46.7879656]},"properties":{"osm_id":6516226803,"osm_type":"node","seamark_type":"wreck","display_class":"OTHER","min_zoom":12,"importance":1,"name":null,"ref":null,"common":{"type":"wreck"},"children":{"wreck":{"category":"hull_visible"}},"osm_tags":{"historic":"wreck","seamark:type":"wreck","seamark:wreck:category":"hull_visible","source":"Digital Globe Premium"}}}],"type":"FeatureCollection"}