{"type":"FeatureCollection","features":[{"type":"Feature","geometry":{"type":"Point","coordinates":[-82.3351381,46.1869274]},"properties":{"osm_id":2616741437,"osm_type":"node","seamark_type":"harbour","display_class":"OTHER","min_zoom":12,"importance":1,"name":null,"ref":null,"common":{"type":"harbour"},"children":{"harbour":{"category":"marina"}},"osm_tags":{"leisure":"marina","seamark:harbour:category":"marina","seamark:type":"harbour","source":"NRCan-CanVec-10.0"}}},{"type":"Feature","geometry":{"type":"Point","coordinates":[-82.255627,46.0908996]},"properties":{"osm_id":13945987207,"osm_type":"node","seamark_type":"rock","display_class":"OTHER","min_zoom":12,"importance":1,"name":null,"ref":null,"common":{"type":"rock"},"children":{},"osm_tags":{"seamark:type":"rock"}}},{"type":"Feature","geometry":{"type":"Point","coordinates":[-82.2568083,46.0912295]},"properties":{"osm_id":13945987498,"osm_type":"node","seamark_type":"rock","display_class":"OTHER","min_zoom":12,"importance":1,"name":null,"ref":null,"common":{"type":"rock"},"children":{},"osm_tags":{"seamark:type":"rock"}}},{"type":"Feature","geometry":{"type":"Point","coordinates":[-82.2376338,46.0677144]},"properties":{"osm_id":13945987526,"osm_type":"node","seamark_type":"rock","display_class":"OTHER","min_zoom":12,"importance":1,"name":null,"ref":null,"common":{"type":"rock"},"children":{},"osm_tags":{"seamark:type":"rock"}}},{"type":"Feature","geometry":{"type":"Point","coordinates":[-82.2420864,46.0686502]},"properties":{"osm_id":13945987527,"osm_type":"node","seamark_type":"rock","display_class":"OTHER","min_zoom":12,"importance":1,"name":null,"ref":null,"common":{"type":"rock"},"children":{},"osm_tags":{"seamark:type":"rock"}}},{"type":"Feature","geometry":{"type":"Point","coordinates":[-82.2412644,46.0708923]},"properties":{"osm_id":13945987528,"osm_type":"node","seamark_type":"rock","display_class":"OTHER","min_zoom":12,"importance":1,"name":null,"ref":null,"common":{"type":"rock"},"children":{},"osm_tags":{"seamark:type":"rock"}}},{"type":"Feature","geometry":{"type":"Point","coordinates":[-82.2447336,46.0739657]},"properties":{"osm_id":13945987529,"osm_type":"node","seamark_type":"rock","display_class":"OTHER","min_zoom":12,"importance":1,"name":null,"ref":null,"common":{"type":"rock"},"children":{},"osm_tags":{"seamark:type":"rock"}}},{"type":"Feature","geometry":{"type":"Point","coordinates":[-82.2281177,46.0722292]},"properties":{"osm_id":13945987530,"osm_type":"node","seamark_type":"rock","display_class":"OTHER","min_zoom":12,"importance":1,"name":null,"ref":null,"common":{"type":"rock"},"children":{},"osm_tags":{"seamark:type":"rock"}}},{"type":"Feature","geometry":{"type":"Point","coordinates":[-82.2479633,46.0794541]},"properties":{"osm_id":13945987531,"osm_type":"node","seamark_type":"rock","display_class":"OTHER","min_zoom":12,"importance":1,"name":null,"ref":null,"common":{"type":"rock"},"children":{},"osm_tags":{"seamark:type":"rock"}}},{"type":"Feature","geometry":{"type":"Point","coordinates":[-82.2474674,46.0800322]},"properties":{"osm_id":13945987532,"osm_type":"node","seamark_type":"rock","display_class":"OTHER","min_zoom":12,"importance":1,"name":null,"ref":null,"common":{"type":"rock"},"children":{},"osm_tags":{"seamark:type":"rock"}}},{"type":"Feature","geometry":{"type":"Point","coordinates":[-82.2510252,46.0768558]},"properties":{"osm_id":13945987533,"osm_type":"node","seamark_type":"rock","display_class":"OTHER","min_zoom":12,"importance":1,"name":null,"ref":null,"common":{"type":"rock"},"children":{},"osm_tags":{"seamark:type":"rock"}}},{"type":"Feature","geometry":{"type":"Point","coordinates":[-82.2481053,46.0815017]},"properties":{"osm_id":13945987534,"osm_type":"node","seamark_type":"rock","display_class":"OTHER","min_zoom":12,"importance":1,"name":null,"ref":null,"common":{"type":"rock"},"children":{},"osm_tags":{"seamark:type":"rock"}}},{"type":"Feature","geometry":{"type":"Point","coordinates":[-82.2477673,46.0814354]},"properties":{"osm_id":13945987535,"osm_type":"node","seamark_type":"rock","display_class":"OTHER","min_zoom":12,"importance":1,"name":null,"ref":null,"common":{"type":"rock"},"children":{},"osm_tags":{"seamark:type":"rock"}}},{"type":"Feature","geometry":{"type":"Point","coordinates":[-82.2470736,46.0817067]},"properties":{"osm_id":13945987536,"osm_type":"node","seamark_type":"rock","display_class":"OTHER","min_zoom":12,"importance":1,"name":null,"ref":null,"common":{"type":"rock"},"children":{},"osm_tags":{"seamark:type":"rock"}}},{"type":"Feature","geometry":{"type":"Point","coordinates":[-82.2471391,46.0820835]},"properties":{"osm_id":13945987537,"osm_type":"node","seamark_type":"rock","display_class":"OTHER","min_zoom":12,"importance":1,"name":null,"ref":null,"common":{"type":"rock"},"children":{},"osm_tags":{"seamark:type":"rock"}}},{"type":"Feature","geometry":{"type":"Point","coordinates":[-82.2633788,46.0912683]},"properties":{"osm_id":13945987538,"osm_type":"node","seamark_type":"rock","display_class":"OTHER","min_zoom":12,"importance":1,"name":null,"ref":null,"common":{"type":"rock"},"children":{},"osm_tags":{"seamark:type":"rock"}}},{"type":"Feature","geometry":{"type":"Point","coordinates":[-82.2406069,46.1115179]},"properties":{"osm_id":13945994568,"osm_type":"node","seamark_type":"rock","display_class":"OTHER","min_zoom":12,"importance":1,"name":null,"ref":null,"common":{"type":"rock"},"children":{},"osm_tags":{"seamark:type":"rock"}}},{"type":"Feature","geometry":{"type":"Point","coordinates":[-82.2407166,46.1114418]},"properties":{"osm_id":13945994569,"osm_type":"node","seamark_type":"rock","display_class":"OTHER","min_zoom":12,"importance":1,"name":null,"ref":null,"common":{"type":"rock"},"children":{},"osm_tags":{"seamark:type":"rock"}}},{"type":"Feature","geometry":{"type":"Point","coordinates":[-82.2398141,46.11167]},"properties":{"osm_id":13945994570,"osm_type":"node","seamark_type":"rock","display_class":"OTHER","min_zoom":12,"importance":1,"name":null,"ref":null,"common":{"type":"rock"},"children":{},"osm_tags":{"seamark:type":"rock"}}},{"type":"Feature","geometry":{"type":"Point","coordinates":[-82.2397486,46.1118859]},"properties":{"osm_id":13945994571,"osm_type":"node","seamark_type":"rock","display_class":"OTHER","min_zoom":12,"importance":1,"name":null,"ref":null,"common":{"type":"rock"},"children":{},"osm_tags":{"seamark:type":"rock"}}},{"type":"Feature","geometry":{"type":"Point","coordinates":[-82.0810013,46.0823708]},"properties":{"osm_id":2618008917,"osm_type":"node","seamark_type":"rock","display_class":"OTHER","min_zoom":12,"importance":1,"name":"Belcher Rock","ref":null,"common":{"type":"rock"},"children":{},"osm_tags":{"name":"Belcher Rock","natural":"stone","seamark:type":"rock","source":"NRCan-CanVec-10.0"}}},{"type":"Feature","geometry":{"type":"Polygon","coordinates":[[[-82.9665636,46.1812123],[-82.9670903,46.1801034],[-82.9666835,46.1798069],[-82.9669789,46.1787988],[-82.9670046,46.1782206],[-82.9669104,46.1778441],[-82.9659041,46.1776424],[-82.9642768,46.177675],[-82.9642083,46.179973],[-82.965326,46.180053],[-82.9650091,46.1808921],[-82.9665636,46.1812123]]]},"properties":{"osm_id":1287464901,"osm_type":"way","seamark_type":"harbour","display_class":"OTHER","min_zoom":12,"importance":1,"name":"Blind River Marina","ref":null,"common":{"type":"harbour"},"children":{"harbour":{"category":"marina"}},"osm_tags":{"leisure":"marina","name":"Blind River Marina","seamark:harbour:category":"marina","seamark:type":"harbour","source":"NRCan-CanVec-10.0;NRCan-CanVec-7.0","website":"https://www.brmarinepark.ca/marina"}}},{"type":"Feature","geometry":{"type":"Point","coordinates":[-82.202372,46.0601857]},"properties":{"osm_id":663869548,"osm_type":"node","seamark_type":"wreck","display_class":"OTHER","min_zoom":12,"importance":1,"name":"North Wind (Wrack)","ref":null,"common":{"type":"wreck"},"children":{},"osm_tags":{"historic":"wreck","name":"North Wind (Wrack)","seamark:type":"wreck","source":"www.dive-links.com","sport":"scuba_diving","verified":"no, please check and del this tag","website":"http://www.dive-links.com/tauchplatz.php?id=1600"}}},{"type":"Feature","geometry":{"type":"Polygon","coordinates":[[[-82.3620802,46.1830762],[-82.3618012,46.183013],[-82.3614579,46.1830205],[-82.3608464,46.1830613],[-82.3593926,46.1831913],[-82.3590278,46.1833027],[-82.3588454,46.1833399],[-82.358309,46.1834587],[-82.3581695,46.1835256],[-82.3578798,46.1841087],[-82.3571717,46.1849963],[-82.3580729,46.1851857],[-82.3584377,46.1844021],[-82.3625576,46.1839675],[-82.3625254,46.1837596],[-82.3622947,46.1836036],[-82.3621875,46.1834959],[-82.3620802,46.1830762]]]},"properties":{"osm_id":749424552,"osm_type":"way","seamark_type":"harbour","display_class":"OTHER","min_zoom":12,"importance":1,"name":"Spanish Marina","ref":null,"common":{"type":"harbour"},"children":{"harbour":{"category":"marina"}},"osm_tags":{"leisure":"marina","name":"Spanish Marina","operator":"Town of Spanish","seamark:harbour:category":"marina","seamark:type":"harbour"}}},{"type":"Feature","geometry":{"type":"Point","coordinates":[-82.3411421,46.186181]},"properties":{"osm_id":1381743305,"osm_type":"node","seamark_type":"harbour","display_class":"OTHER","min_zoom":12,"importance":1,"name":"Spanish River Resort Marina","ref":null,"common":{"type":"harbour"},"children":{"harbour":{"category":"marina"}},"osm_tags":{"leisure":"marina","name":"Spanish River Resort Marina","seamark:harbour:category":"marina","seamark:type":"harbour","source":"NRCan-CanVec-10.0;NRCan-CanVec-7.0"}}}],"type":"FeatureCollection"}