{"type":"FeatureCollection","features":[{"type":"Feature","geometry":{"type":"Polygon","coordinates":[[[-54.1961468,46.8230409],[-54.1961323,46.8230591],[-54.1961341,46.8230798],[-54.1961489,46.8230953],[-54.1961726,46.823104],[-54.1961995,46.8231041],[-54.1962233,46.8230955],[-54.1962384,46.8230802],[-54.196241,46.8230619],[-54.1962286,46.823043],[-54.1962034,46.8230314],[-54.1961731,46.8230306],[-54.1961468,46.8230409]]]},"properties":{"osm_id":1548517152,"osm_type":"way","seamark_type":"landmark","display_class":"LIGHTHOUSE","min_zoom":7,"importance":5,"name":"Cape St. Mary's","ref":null,"common":{"name":"Cape St. Mary's","type":"landmark"},"children":{"fog_signal":{"category":"horn","group":"1","period":"30","sequence":"3+(27)"},"landmark":{"height":"12"},"light":{"character":"Fl","colour":"white","height":"118.9","period":"5","range":"21","reference":"H 0432","sequence":"0.5+(4.5)"}},"osm_tags":{"area":"yes","man_made":"lighthouse","name":"Cape St. Mary's Lighthouse","seamark:fog_signal:category":"horn","seamark:fog_signal:group":"1","seamark:fog_signal:period":"30","seamark:fog_signal:sequence":"3+(27)","seamark:landmark:height":"12","seamark:light:character":"Fl","seamark:light:colour":"white","seamark:light:height":"118.9","seamark:light:period":"5","seamark:light:range":"21","seamark:light:reference":"H 0432","seamark:light:sequence":"0.5+(4.5)","seamark:name":"Cape St. Mary's","seamark:type":"landmark"}}},{"type":"Feature","geometry":{"type":"Point","coordinates":[-54.10025,46.7976111]},"properties":{"osm_id":1837834369,"osm_type":"node","seamark_type":"beacon_isolated_danger","display_class":"BEACON","min_zoom":9,"importance":4,"name":"Bull Island Point Fog Signal","ref":null,"common":{"name":"Bull Island Point Fog Signal","reference":"13.5","type":"beacon_isolated_danger"},"children":{"beacon_isolated_danger":{"colour":"black;red;black","colour_pattern":"horizontal","shape":"tower"},"fog_signal":{"category":"whistle","group":"1","period":"60","sequence":"5+(55)"}},"osm_tags":{"seamark:beacon_isolated_danger:colour":"black;red;black","seamark:beacon_isolated_danger:colour_pattern":"horizontal","seamark:beacon_isolated_danger:shape":"tower","seamark:fog_signal:category":"whistle","seamark:fog_signal:group":"1","seamark:fog_signal:period":"60","seamark:fog_signal:sequence":"5+(55)","seamark:name":"Bull Island Point Fog Signal","seamark:reference":"13.5","seamark:type":"beacon_isolated_danger"}}},{"type":"Feature","geometry":{"type":"Point","coordinates":[-54.1769444,46.9181667]},"properties":{"osm_id":1838208201,"osm_type":"node","seamark_type":"beacon_lateral","display_class":"BEACON","min_zoom":9,"importance":4,"name":"St. Brides","ref":null,"common":{"name":"St. Brides","type":"beacon_lateral"},"children":{"beacon_lateral":{"category":"port","colour":"red","system":"iala-a"},"light":{"character":"Fl","colour":"red","height":"3.4","period":"3","range":"3"}},"osm_tags":{"seamark:beacon_lateral:category":"port","seamark:beacon_lateral:colour":"red","seamark:beacon_lateral:system":"iala-a","seamark:light:character":"Fl","seamark:light:colour":"red","seamark:light:height":"3.4","seamark:light:period":"3","seamark:light:range":"3","seamark:name":"St. Brides","seamark:type":"beacon_lateral"}}},{"type":"Feature","geometry":{"type":"Point","coordinates":[-54.1768889,46.9173333]},"properties":{"osm_id":1838208188,"osm_type":"node","seamark_type":"beacon_lateral","display_class":"BEACON","min_zoom":9,"importance":4,"name":"St. Brides Floating Wharf","ref":null,"common":{"name":"St. Brides Floating Wharf","type":"beacon_lateral"},"children":{"beacon_lateral":{"category":"starboard","colour":"green","system":"iala-a"},"light":{"character":"Fl","colour":"green","period":"4","range":"2"}},"osm_tags":{"seamark:beacon_lateral:category":"starboard","seamark:beacon_lateral:colour":"green","seamark:beacon_lateral:system":"iala-a","seamark:light:character":"Fl","seamark:light:colour":"green","seamark:light:period":"4","seamark:light:range":"2","seamark:name":"St. Brides Floating Wharf","seamark:type":"beacon_lateral"}}},{"type":"Feature","geometry":{"type":"Point","coordinates":[-54.1763889,46.9183333]},"properties":{"osm_id":1838208204,"osm_type":"node","seamark_type":"beacon_lateral","display_class":"BEACON","min_zoom":9,"importance":4,"name":"St. Brides Inner Wharf","ref":null,"common":{"name":"St. Brides Inner Wharf","type":"beacon_lateral"},"children":{"beacon_lateral":{"category":"starboard","colour":"green","system":"iala-a"},"light":{"character":"Fl","colour":"green","period":"4","range":"2"}},"osm_tags":{"seamark:beacon_lateral:category":"starboard","seamark:beacon_lateral:colour":"green","seamark:beacon_lateral:system":"iala-a","seamark:light:character":"Fl","seamark:light:colour":"green","seamark:light:period":"4","seamark:light:range":"2","seamark:name":"St. Brides Inner Wharf","seamark:type":"beacon_lateral"}}},{"type":"Feature","geometry":{"type":"Point","coordinates":[-54.0288333,46.466]},"properties":{"osm_id":1834890151,"osm_type":"node","seamark_type":"buoy_cardinal","display_class":"OTHER","min_zoom":12,"importance":1,"name":"Lamb Rock MLR","ref":null,"common":{"name":"Lamb Rock MLR","type":"buoy_cardinal"},"children":{"buoy_cardinal":{"category":"north","colour":"black;yellow","colour_pattern":"horizontal","shape":"spar"},"light":{"character":"Q","colour":"white"}},"osm_tags":{"man_made":"buoy","seamark:buoy_cardinal:category":"north","seamark:buoy_cardinal:colour":"black;yellow","seamark:buoy_cardinal:colour_pattern":"horizontal","seamark:buoy_cardinal:shape":"spar","seamark:light:character":"Q","seamark:light:colour":"white","seamark:name":"Lamb Rock MLR","seamark:type":"buoy_cardinal"}}},{"type":"Feature","geometry":{"type":"Point","coordinates":[-54.0544444,46.7833333]},"properties":{"osm_id":1837834368,"osm_type":"node","seamark_type":"buoy_special_purpose","display_class":"OTHER","min_zoom":12,"importance":1,"name":"Point Lance ML","ref":null,"common":{"name":"Point Lance ML","type":"buoy_special_purpose"},"children":{"buoy_special_purpose":{"colour":"yellow","shape":"spar"},"light":{"character":"Mo","colour":"white","period":"6"},"topmark":{"colour":"red;white","colour_pattern":"vertical","shape":"board"}},"osm_tags":{"man_made":"buoy","seamark:buoy_special_purpose:colour":"yellow","seamark:buoy_special_purpose:shape":"spar","seamark:light:character":"Mo","seamark:light:colour":"white","seamark:light:period":"6","seamark:name":"Point Lance ML","seamark:topmark:colour":"red;white","seamark:topmark:colour_pattern":"vertical","seamark:topmark:shape":"board","seamark:type":"buoy_special_purpose"}}},{"type":"Feature","geometry":{"type":"Point","coordinates":[-54.1780556,46.9186111]},"properties":{"osm_id":1838208206,"osm_type":"node","seamark_type":"buoy_lateral","display_class":"OTHER","min_zoom":12,"importance":1,"name":"Port Entrance PSB3","ref":null,"common":{"name":"Port Entrance PSB3","type":"buoy_lateral"},"children":{"buoy_lateral":{"category":"starboard","colour":"green","shape":"spar","system":"iala-a"},"light":{"character":"Fl","colour":"green","period":"4"}},"osm_tags":{"man_made":"buoy","seamark:buoy_lateral:category":"starboard","seamark:buoy_lateral:colour":"green","seamark:buoy_lateral:shape":"spar","seamark:buoy_lateral:system":"iala-a","seamark:light:character":"Fl","seamark:light:colour":"green","seamark:light:period":"4","seamark:name":"Port Entrance PSB3","seamark:type":"buoy_lateral"}}},{"type":"Feature","geometry":{"type":"Point","coordinates":[-54.6840267,46.984475]},"properties":{"osm_id":1838804851,"osm_type":"node","seamark_type":"buoy_special_purpose","display_class":"OTHER","min_zoom":12,"importance":1,"name":"SmartBay Buoy SMB-MO-01","ref":null,"common":{"name":"SmartBay Buoy SMB-MO-01","type":"buoy_special_purpose"},"children":{"buoy_special_purpose":{"colour":"orange","shape":"pillar"}},"osm_tags":{"man_made":"buoy","seamark:buoy_special_purpose:colour":"orange","seamark:buoy_special_purpose:shape":"pillar","seamark:name":"SmartBay Buoy SMB-MO-01","seamark:type":"buoy_special_purpose"}}},{"type":"Feature","geometry":{"type":"Point","coordinates":[-54.1777778,46.9180556]},"properties":{"osm_id":1838208195,"osm_type":"node","seamark_type":"light_minor","display_class":"OTHER","min_zoom":12,"importance":1,"name":"St Brides Breakwater","ref":null,"common":{"name":"St Brides Breakwater","reference":"14.6","type":"light_minor"},"children":{"light":{"1:character":"Fl","1:colour":"white","1:height":"7.9","1:period":"3","1:range":"3","1:sector_end":"245","1:sector_start":"330"}},"osm_tags":{"seamark:light:1:character":"Fl","seamark:light:1:colour":"white","seamark:light:1:height":"7.9","seamark:light:1:period":"3","seamark:light:1:range":"3","seamark:light:1:sector_end":"245","seamark:light:1:sector_start":"330","seamark:name":"St Brides Breakwater","seamark:reference":"14.6","seamark:type":"light_minor"}}},{"type":"Feature","geometry":{"type":"Point","coordinates":[-54.1786111,46.9154167]},"properties":{"osm_id":1838208182,"osm_type":"node","seamark_type":"platform","display_class":"OTHER","min_zoom":12,"importance":1,"name":"St. Brides Fog Signal","ref":null,"common":{"name":"St. Brides Fog Signal","type":"platform"},"children":{"fog_signal":{"category":"whistle","period":"30"}},"osm_tags":{"seamark:fog_signal:category":"whistle","seamark:fog_signal:period":"30","seamark:name":"St. Brides Fog Signal","seamark:type":"platform"}}},{"type":"Feature","geometry":{"type":"Point","coordinates":[-54.1844444,46.9144444]},"properties":{"osm_id":1838208163,"osm_type":"node","seamark_type":"buoy_lateral","display_class":"OTHER","min_zoom":12,"importance":1,"name":"St. Brides PSB2","ref":null,"common":{"name":"St. Brides PSB2","type":"buoy_lateral"},"children":{"buoy_lateral":{"category":"port","colour":"red","shape":"spar","system":"iala-a"},"light":{"character":"Fl","colour":"red","period":"4","reference":"H 0429","sequence":"0.5+(3.5)"}},"osm_tags":{"man_made":"buoy","seamark:buoy_lateral:category":"port","seamark:buoy_lateral:colour":"red","seamark:buoy_lateral:shape":"spar","seamark:buoy_lateral:system":"iala-a","seamark:light:character":"Fl","seamark:light:colour":"red","seamark:light:period":"4","seamark:light:reference":"H 0429","seamark:light:sequence":"0.5+(3.5)","seamark:name":"St. Brides PSB2","seamark:type":"buoy_lateral"}}},{"type":"Feature","geometry":{"type":"Point","coordinates":[-54.2193333,46.6986667]},"properties":{"osm_id":1837834367,"osm_type":"node","seamark_type":"buoy_lateral","display_class":"OTHER","min_zoom":12,"importance":1,"name":"St. Mary's Cays M16","ref":null,"common":{"name":"St. Mary's Cays M16","type":"buoy_lateral"},"children":{"buoy_lateral":{"category":"port","colour":"red","shape":"spar","system":"iala-a"},"fog_signal":{"category":"whistle"},"light":{"character":"Fl","colour":"red","period":"4"}},"osm_tags":{"man_made":"buoy","seamark:buoy_lateral:category":"port","seamark:buoy_lateral:colour":"red","seamark:buoy_lateral:shape":"spar","seamark:buoy_lateral:system":"iala-a","seamark:fog_signal:category":"whistle","seamark:light:character":"Fl","seamark:light:colour":"red","seamark:light:period":"4","seamark:name":"St. Mary's Cays M16","seamark:type":"buoy_lateral"}}}],"type":"FeatureCollection"}