{"type":"FeatureCollection","features":[{"type":"Feature","geometry":{"type":"Point","coordinates":[40.069243,47.4985168]},"properties":{"osm_id":13996135073,"osm_type":"node","seamark_type":"harbour","display_class":"OTHER","min_zoom":12,"importance":1,"name":null,"ref":null,"common":{"type":"harbour"},"children":{"harbour":{"category":"marina_no_facilities"}},"osm_tags":{"capacity":"2","fee":"no","leisure":"marina","seamark:harbour:category":"marina_no_facilities","seamark:type":"harbour"}}},{"type":"Feature","geometry":{"type":"Polygon","coordinates":[[[40.0692468,47.4985247],[40.0692793,47.4985173],[40.0692751,47.4985097],[40.069243,47.4985168],[40.0692468,47.4985247]]]},"properties":{"osm_id":1536328712,"osm_type":"way","seamark_type":"harbour","display_class":"OTHER","min_zoom":12,"importance":1,"name":null,"ref":null,"common":{"type":"harbour"},"children":{"harbour":{"category":"marina_no_facilities"}},"osm_tags":{"leisure":"marina","seamark:harbour:category":"marina_no_facilities","seamark:type":"harbour"}}},{"type":"Feature","geometry":{"type":"Polygon","coordinates":[[[40.8869222,47.6380859],[40.8873423,47.6383112],[40.8872219,47.6384131],[40.8868018,47.6381878],[40.8869222,47.6380859]]]},"properties":{"osm_id":601141800,"osm_type":"way","seamark_type":"rescue_station","display_class":"OTHER","min_zoom":12,"importance":1,"name":"Усть-Донецкое поисково-спасательное подразделение","ref":null,"common":{"type":"rescue_station"},"children":{},"osm_tags":{"addr:city":"Усть-Донецкий","addr:housenumber":"6А","addr:postcode":"346550","addr:street":"Береговая улица","amenity":"rescue_station","branch":"ГКУ РО «Ростовская областная поисково-спасательная служба во внутренних водах и территориальном море Российской Федерации»","building":"yes","emergency":"water_rescue","name":"Усть-Донецкое поисково-спасательное подразделение","official_name":"Усть-Донецкое поисково-спасательное подразделение государственного казенного учреждения Ростовской области «Ростовская областная поисково-спасательная служба во внутренних водах и территориальном море Российской Федерации»","operator":"Департамента по предупреждению и ликвидации чрезвычайных ситуаций Ростовской области","seamark:type":"rescue_station"}}}],"type":"FeatureCollection"}