{"type":"FeatureCollection","features":[{"type":"Feature","geometry":{"type":"Point","coordinates":[142.0464367,47.0622548]},"properties":{"osm_id":6499118105,"osm_type":"node","seamark_type":"beacon_lateral","display_class":"BEACON","min_zoom":9,"importance":4,"name":null,"ref":null,"common":{"type":"beacon_lateral"},"children":{"beacon_lateral":{"category":"port","colour":"red","shape":"stake","system":"iala-a"}},"osm_tags":{"man_made":"beacon","seamark:beacon_lateral:category":"port","seamark:beacon_lateral:colour":"red","seamark:beacon_lateral:shape":"stake","seamark:beacon_lateral:system":"iala-a","seamark:type":"beacon_lateral"}}},{"type":"Feature","geometry":{"type":"Point","coordinates":[142.0469108,47.0610955]},"properties":{"osm_id":6499118106,"osm_type":"node","seamark_type":"beacon_lateral","display_class":"BEACON","min_zoom":9,"importance":4,"name":null,"ref":null,"common":{"type":"beacon_lateral"},"children":{"beacon_lateral":{"category":"port","colour":"green","shape":"stake","system":"iala-a"}},"osm_tags":{"man_made":"beacon","seamark:beacon_lateral:category":"port","seamark:beacon_lateral:colour":"green","seamark:beacon_lateral:shape":"stake","seamark:beacon_lateral:system":"iala-a","seamark:type":"beacon_lateral"}}},{"type":"Feature","geometry":{"type":"Point","coordinates":[142.0421773,47.0534034]},"properties":{"osm_id":6499118109,"osm_type":"node","seamark_type":"beacon_lateral","display_class":"BEACON","min_zoom":9,"importance":4,"name":null,"ref":null,"common":{"construction":"concreted","type":"beacon_lateral"},"children":{"beacon_lateral":{"category":"port","colour":"red","shape":"tower","system":"iala-a"}},"osm_tags":{"man_made":"beacon","seamark:beacon_lateral:category":"port","seamark:beacon_lateral:colour":"red","seamark:beacon_lateral:shape":"tower","seamark:beacon_lateral:system":"iala-a","seamark:construction":"concreted","seamark:type":"beacon_lateral"}}},{"type":"Feature","geometry":{"type":"Point","coordinates":[142.0415852,47.051994]},"properties":{"osm_id":6499118110,"osm_type":"node","seamark_type":"beacon_lateral","display_class":"BEACON","min_zoom":9,"importance":4,"name":null,"ref":null,"common":{"type":"beacon_lateral"},"children":{"beacon_lateral":{"category":"port","colour":"green","shape":"stake","system":"iala-a"}},"osm_tags":{"man_made":"beacon","seamark:beacon_lateral:category":"port","seamark:beacon_lateral:colour":"green","seamark:beacon_lateral:shape":"stake","seamark:beacon_lateral:system":"iala-a","seamark:type":"beacon_lateral"}}},{"type":"Feature","geometry":{"type":"Point","coordinates":[142.0448193,47.0612937]},"properties":{"osm_id":9821706795,"osm_type":"node","seamark_type":"beacon_lateral","display_class":"BEACON","min_zoom":9,"importance":4,"name":null,"ref":null,"common":{"type":"beacon_lateral"},"children":{"beacon_lateral":{"category":"port","colour":"green","shape":"stake","system":"iala-a"}},"osm_tags":{"man_made":"beacon","seamark:beacon_lateral:category":"port","seamark:beacon_lateral:colour":"green","seamark:beacon_lateral:shape":"stake","seamark:beacon_lateral:system":"iala-a","seamark:type":"beacon_lateral"}}},{"type":"Feature","geometry":{"type":"Point","coordinates":[142.050162,47.0466934]},"properties":{"osm_id":1376428551,"osm_type":"node","seamark_type":"light_minor","display_class":"OTHER","min_zoom":12,"importance":1,"name":null,"ref":null,"common":{"type":"light_minor"},"children":{"light":{"category":"front","colour":"red"}},"osm_tags":{"man_made":"beacon","seamark:light:category":"front","seamark:light:colour":"red","seamark:type":"light_minor"}}},{"type":"Feature","geometry":{"type":"Point","coordinates":[142.0517505,47.0455398]},"properties":{"osm_id":1827587826,"osm_type":"node","seamark_type":"light_minor","display_class":"OTHER","min_zoom":12,"importance":1,"name":null,"ref":null,"common":{"type":"light_minor"},"children":{"light":{"category":"rear","colour":"red"}},"osm_tags":{"man_made":"tower","seamark:light:category":"rear","seamark:light:colour":"red","seamark:type":"light_minor","tower:construction":"freestanding"}}},{"type":"Feature","geometry":{"type":"Point","coordinates":[142.0433535,47.0512187]},"properties":{"osm_id":6499118103,"osm_type":"node","seamark_type":"buoy_cardinal","display_class":"OTHER","min_zoom":12,"importance":1,"name":null,"ref":null,"common":{"type":"buoy_cardinal"},"children":{"buoy_cardinal":{"category":"north","colour":"black;yellow","colour_pattern":"horizontal","shape":"spar"},"light":{"character":"Q","colour":"white"},"topmark":{"colour":"black","shape":"2 cones up"}},"osm_tags":{"man_made":"beacon","seamark:buoy_cardinal:category":"north","seamark:buoy_cardinal:colour":"black;yellow","seamark:buoy_cardinal:colour_pattern":"horizontal","seamark:buoy_cardinal:shape":"spar","seamark:light:character":"Q","seamark:light:colour":"white","seamark:topmark:colour":"black","seamark:topmark:shape":"2 cones up","seamark:type":"buoy_cardinal"}}},{"type":"Feature","geometry":{"type":"Point","coordinates":[142.0448206,47.052105]},"properties":{"osm_id":6499118104,"osm_type":"node","seamark_type":"buoy_cardinal","display_class":"OTHER","min_zoom":12,"importance":1,"name":null,"ref":null,"common":{"type":"buoy_cardinal"},"children":{"buoy_cardinal":{"category":"south","colour":"yellow;black","colour_pattern":"horizontal","shape":"spar"},"topmark":{"colour":"black","shape":"2 cones down"}},"osm_tags":{"man_made":"beacon","seamark:buoy_cardinal:category":"south","seamark:buoy_cardinal:colour":"yellow;black","seamark:buoy_cardinal:colour_pattern":"horizontal","seamark:buoy_cardinal:shape":"spar","seamark:topmark:colour":"black","seamark:topmark:shape":"2 cones down","seamark:type":"buoy_cardinal"}}},{"type":"Feature","geometry":{"type":"Point","coordinates":[142.055941,47.0595032]},"properties":{"osm_id":6499118107,"osm_type":"node","seamark_type":"light_minor","display_class":"OTHER","min_zoom":12,"importance":1,"name":null,"ref":null,"common":{"type":"light_minor"},"children":{"light":{"category":"rear","colour":"green"}},"osm_tags":{"man_made":"beacon","seamark:light:category":"rear","seamark:light:colour":"green","seamark:type":"light_minor"}}},{"type":"Feature","geometry":{"type":"Point","coordinates":[142.0537674,47.060011]},"properties":{"osm_id":6499118108,"osm_type":"node","seamark_type":"light_minor","display_class":"OTHER","min_zoom":12,"importance":1,"name":null,"ref":null,"common":{"type":"light_minor"},"children":{"light":{"category":"front","colour":"green"}},"osm_tags":{"man_made":"beacon","seamark:light:category":"front","seamark:light:colour":"green","seamark:type":"light_minor"}}},{"type":"Feature","geometry":{"type":"Point","coordinates":[142.0503527,47.0657509]},"properties":{"osm_id":9821703837,"osm_type":"node","seamark_type":"berth","display_class":"OTHER","min_zoom":12,"importance":1,"name":null,"ref":null,"common":{"type":"berth"},"children":{"berth":{"name":"6"}},"osm_tags":{"seamark:berth:name":"6","seamark:type":"berth"}}},{"type":"Feature","geometry":{"type":"Point","coordinates":[142.0503581,47.0648821]},"properties":{"osm_id":9821703838,"osm_type":"node","seamark_type":"berth","display_class":"OTHER","min_zoom":12,"importance":1,"name":null,"ref":null,"common":{"type":"berth"},"children":{"berth":{"name":"7"}},"osm_tags":{"seamark:berth:name":"7","seamark:type":"berth"}}},{"type":"Feature","geometry":{"type":"Point","coordinates":[142.0503473,47.0638773]},"properties":{"osm_id":9821703839,"osm_type":"node","seamark_type":"berth","display_class":"OTHER","min_zoom":12,"importance":1,"name":null,"ref":null,"common":{"type":"berth"},"children":{"berth":{"name":"8"}},"osm_tags":{"seamark:berth:name":"8","seamark:type":"berth"}}},{"type":"Feature","geometry":{"type":"Point","coordinates":[142.050291,47.0630404]},"properties":{"osm_id":9821703840,"osm_type":"node","seamark_type":"berth","display_class":"OTHER","min_zoom":12,"importance":1,"name":null,"ref":null,"common":{"type":"berth"},"children":{"berth":{"name":"9"}},"osm_tags":{"seamark:berth:name":"9","seamark:type":"berth"}}},{"type":"Feature","geometry":{"type":"Point","coordinates":[142.0503473,47.0666196]},"properties":{"osm_id":9821703841,"osm_type":"node","seamark_type":"berth","display_class":"OTHER","min_zoom":12,"importance":1,"name":null,"ref":null,"common":{"type":"berth"},"children":{"berth":{"name":"5"}},"osm_tags":{"seamark:berth:name":"5","seamark:type":"berth"}}},{"type":"Feature","geometry":{"type":"Point","coordinates":[142.0484215,47.0672737]},"properties":{"osm_id":9821703842,"osm_type":"node","seamark_type":"berth","display_class":"OTHER","min_zoom":12,"importance":1,"name":null,"ref":null,"common":{"type":"berth"},"children":{"berth":{"name":"5а"}},"osm_tags":{"seamark:berth:name":"5а","seamark:type":"berth"}}},{"type":"Feature","geometry":{"type":"Point","coordinates":[142.0478623,47.0656178]},"properties":{"osm_id":9821703843,"osm_type":"node","seamark_type":"berth","display_class":"OTHER","min_zoom":12,"importance":1,"name":null,"ref":null,"common":{"type":"berth"},"children":{"berth":{"name":"3"}},"osm_tags":{"seamark:berth:name":"3","seamark:type":"berth"}}},{"type":"Feature","geometry":{"type":"Point","coordinates":[142.0476651,47.0645612]},"properties":{"osm_id":9821703844,"osm_type":"node","seamark_type":"berth","display_class":"OTHER","min_zoom":12,"importance":1,"name":null,"ref":null,"common":{"type":"berth"},"children":{"berth":{"name":"2"}},"osm_tags":{"seamark:berth:name":"2","seamark:type":"berth"}}},{"type":"Feature","geometry":{"type":"Point","coordinates":[142.047468,47.0635045]},"properties":{"osm_id":9821703845,"osm_type":"node","seamark_type":"berth","display_class":"OTHER","min_zoom":12,"importance":1,"name":null,"ref":null,"common":{"type":"berth"},"children":{"berth":{"name":"1"}},"osm_tags":{"seamark:berth:name":"1","seamark:type":"berth"}}},{"type":"Feature","geometry":{"type":"Point","coordinates":[142.0480594,47.0666744]},"properties":{"osm_id":9821703846,"osm_type":"node","seamark_type":"berth","display_class":"OTHER","min_zoom":12,"importance":1,"name":null,"ref":null,"common":{"type":"berth"},"children":{"berth":{"name":"4"}},"osm_tags":{"seamark:berth:name":"4","seamark:type":"berth"}}},{"type":"Feature","geometry":{"type":"Point","coordinates":[142.0432878,47.0484655]},"properties":{"osm_id":9821703848,"osm_type":"node","seamark_type":"berth","display_class":"OTHER","min_zoom":12,"importance":1,"name":null,"ref":null,"common":{"type":"berth"},"children":{"berth":{"name":"7"}},"osm_tags":{"seamark:berth:name":"7","seamark:type":"berth"}}},{"type":"Feature","geometry":{"type":"Point","coordinates":[142.0415899,47.0477034]},"properties":{"osm_id":9821703849,"osm_type":"node","seamark_type":"berth","display_class":"OTHER","min_zoom":12,"importance":1,"name":null,"ref":null,"common":{"type":"berth"},"children":{"berth":{"name":"6"}},"osm_tags":{"seamark:berth:name":"6","seamark:type":"berth"}}},{"type":"Feature","geometry":{"type":"Point","coordinates":[142.0410079,47.0469796]},"properties":{"osm_id":9821703850,"osm_type":"node","seamark_type":"berth","display_class":"OTHER","min_zoom":12,"importance":1,"name":null,"ref":null,"common":{"type":"berth"},"children":{"berth":{"name":"5"}},"osm_tags":{"seamark:berth:name":"5","seamark:type":"berth"}}},{"type":"Feature","geometry":{"type":"Point","coordinates":[142.0433682,47.0471679]},"properties":{"osm_id":9821703851,"osm_type":"node","seamark_type":"berth","display_class":"OTHER","min_zoom":12,"importance":1,"name":null,"ref":null,"common":{"type":"berth"},"children":{"berth":{"name":"4"}},"osm_tags":{"seamark:berth:name":"4","seamark:type":"berth"}}},{"type":"Feature","geometry":{"type":"Point","coordinates":[142.044535,47.0476175]},"properties":{"osm_id":9821703852,"osm_type":"node","seamark_type":"berth","display_class":"OTHER","min_zoom":12,"importance":1,"name":null,"ref":null,"common":{"type":"berth"},"children":{"berth":{"name":"3"}},"osm_tags":{"seamark:berth:name":"3","seamark:type":"berth"}}},{"type":"Feature","geometry":{"type":"Point","coordinates":[142.0461336,47.0480707]},"properties":{"osm_id":9821703853,"osm_type":"node","seamark_type":"berth","display_class":"OTHER","min_zoom":12,"importance":1,"name":null,"ref":null,"common":{"type":"berth"},"children":{"berth":{"name":"1"}},"osm_tags":{"seamark:berth:name":"1","seamark:type":"berth"}}},{"type":"Feature","geometry":{"type":"Point","coordinates":[142.0420888,47.0500591]},"properties":{"osm_id":9821703854,"osm_type":"node","seamark_type":"berth","display_class":"OTHER","min_zoom":12,"importance":1,"name":null,"ref":null,"common":{"type":"berth"},"children":{"berth":{"name":"9"}},"osm_tags":{"seamark:berth:name":"9","seamark:type":"berth"}}},{"type":"Feature","geometry":{"type":"Point","coordinates":[142.0438778,47.0491691]},"properties":{"osm_id":9821703855,"osm_type":"node","seamark_type":"berth","display_class":"OTHER","min_zoom":12,"importance":1,"name":null,"ref":null,"common":{"type":"berth"},"children":{"berth":{"name":"8"}},"osm_tags":{"seamark:berth:name":"8","seamark:type":"berth"}}},{"type":"Feature","geometry":{"type":"Point","coordinates":[142.0465251,47.0614741]},"properties":{"osm_id":9821706022,"osm_type":"node","seamark_type":"buoy_cardinal","display_class":"OTHER","min_zoom":12,"importance":1,"name":null,"ref":null,"common":{"type":"buoy_cardinal"},"children":{"buoy_cardinal":{"category":"north","colour":"black;yellow","colour_pattern":"horizontal","shape":"spar"},"light":{"character":"Q","colour":"white"},"topmark":{"colour":"black","shape":"2 cones up"}},"osm_tags":{"man_made":"beacon","seamark:buoy_cardinal:category":"north","seamark:buoy_cardinal:colour":"black;yellow","seamark:buoy_cardinal:colour_pattern":"horizontal","seamark:buoy_cardinal:shape":"spar","seamark:light:character":"Q","seamark:light:colour":"white","seamark:topmark:colour":"black","seamark:topmark:shape":"2 cones up","seamark:type":"buoy_cardinal"}}},{"type":"Feature","geometry":{"type":"Point","coordinates":[142.0482002,47.0629537]},"properties":{"osm_id":9821706790,"osm_type":"node","seamark_type":"buoy_cardinal","display_class":"OTHER","min_zoom":12,"importance":1,"name":null,"ref":null,"common":{"type":"buoy_cardinal"},"children":{"buoy_cardinal":{"category":"east","colour":"black;yellow;black","colour_pattern":"horizontal","shape":"spar"},"light":{"character":"Q","colour":"white","group":"3"},"topmark":{"colour":"black","shape":"2 cones base together"}},"osm_tags":{"man_made":"beacon","seamark:buoy_cardinal:category":"east","seamark:buoy_cardinal:colour":"black;yellow;black","seamark:buoy_cardinal:colour_pattern":"horizontal","seamark:buoy_cardinal:shape":"spar","seamark:light:character":"Q","seamark:light:colour":"white","seamark:light:group":"3","seamark:topmark:colour":"black","seamark:topmark:shape":"2 cones base together","seamark:type":"buoy_cardinal"}}},{"type":"Feature","geometry":{"type":"Point","coordinates":[142.0438556,47.0618317]},"properties":{"osm_id":9821706793,"osm_type":"node","seamark_type":"buoy_cardinal","display_class":"OTHER","min_zoom":12,"importance":1,"name":null,"ref":null,"common":{"type":"buoy_cardinal"},"children":{"buoy_cardinal":{"category":"north","colour":"black;yellow","colour_pattern":"horizontal","shape":"spar"},"light":{"character":"Q","colour":"white"},"topmark":{"colour":"black","shape":"2 cones up"}},"osm_tags":{"man_made":"beacon","seamark:buoy_cardinal:category":"north","seamark:buoy_cardinal:colour":"black;yellow","seamark:buoy_cardinal:colour_pattern":"horizontal","seamark:buoy_cardinal:shape":"spar","seamark:light:character":"Q","seamark:light:colour":"white","seamark:topmark:colour":"black","seamark:topmark:shape":"2 cones up","seamark:type":"buoy_cardinal"}}},{"type":"Feature","geometry":{"type":"Point","coordinates":[142.053182,47.1453569]},"properties":{"osm_id":9946867775,"osm_type":"node","seamark_type":"wreck","display_class":"OTHER","min_zoom":12,"importance":1,"name":null,"ref":null,"common":{"type":"wreck"},"children":{},"osm_tags":{"historic":"wreck","seamark:type":"wreck"}}},{"type":"Feature","geometry":{"type":"Point","coordinates":[142.0516667,47.0283333]},"properties":{"osm_id":9962735277,"osm_type":"node","seamark_type":"radio_station","display_class":"OTHER","min_zoom":12,"importance":1,"name":null,"ref":null,"common":{"type":"radio_station"},"children":{},"osm_tags":{"description":"А1 ГМССБ обеспечивается работой базовой станции, расположенной на горе Татарская (47°01,70' N 142°03,10' E), радиус действия которой составляет 31 морскую милю","seamark:type":"radio_station"}}},{"type":"Feature","geometry":{"type":"Point","coordinates":[142.0233333,47.087]},"properties":{"osm_id":9962980196,"osm_type":"node","seamark_type":"anchorage","display_class":"OTHER","min_zoom":12,"importance":1,"name":null,"ref":null,"common":{"type":"anchorage"},"children":{"anchorage":{"name":"N Я-14"}},"osm_tags":{"description":"47°05'13,2\" N 142°01'24,0\" E","seamark:anchorage:name":"N Я-14","seamark:type":"anchorage"}}},{"type":"Feature","geometry":{"type":"Point","coordinates":[142.03,47.0866667]},"properties":{"osm_id":9962980197,"osm_type":"node","seamark_type":"anchorage","display_class":"OTHER","min_zoom":12,"importance":1,"name":null,"ref":null,"common":{"type":"anchorage"},"children":{"anchorage":{"name":"N Я-13"}},"osm_tags":{"description":"47°05'12,0\" N 142°01'48,0\" E","seamark:anchorage:name":"N Я-13","seamark:type":"anchorage"}}},{"type":"Feature","geometry":{"type":"Point","coordinates":[142.0243333,47.0805]},"properties":{"osm_id":9962980198,"osm_type":"node","seamark_type":"anchorage","display_class":"OTHER","min_zoom":12,"importance":1,"name":null,"ref":null,"common":{"type":"anchorage"},"children":{"anchorage":{"name":"N Я-12"}},"osm_tags":{"description":"47°04'49,8\" N 142°01'27,6\" E","seamark:anchorage:name":"N Я-12","seamark:type":"anchorage"}}},{"type":"Feature","geometry":{"type":"Point","coordinates":[142.03,47.0826667]},"properties":{"osm_id":9962980199,"osm_type":"node","seamark_type":"anchorage","display_class":"OTHER","min_zoom":12,"importance":1,"name":null,"ref":null,"common":{"type":"anchorage"},"children":{"anchorage":{"name":"N Я-11"}},"osm_tags":{"description":"47°04'57,6\" N 142°01'48,0\" E","seamark:anchorage:name":"N Я-11","seamark:type":"anchorage"}}},{"type":"Feature","geometry":{"type":"Point","coordinates":[142.0391667,47.0833333]},"properties":{"osm_id":9962980200,"osm_type":"node","seamark_type":"anchorage","display_class":"OTHER","min_zoom":12,"importance":1,"name":null,"ref":null,"common":{"type":"anchorage"},"children":{"anchorage":{"name":"N Я-10"}},"osm_tags":{"description":"47°05'00,0\" N 142°02'21,0\" E","seamark:anchorage:name":"N Я-10","seamark:type":"anchorage"}}},{"type":"Feature","geometry":{"type":"Point","coordinates":[142.0266667,47.0761667]},"properties":{"osm_id":9962980201,"osm_type":"node","seamark_type":"anchorage","display_class":"OTHER","min_zoom":12,"importance":1,"name":null,"ref":null,"common":{"type":"anchorage"},"children":{"anchorage":{"name":"N Я-9"}},"osm_tags":{"description":"47°04'34,2\" N 142°01'36,0\" E","seamark:anchorage:name":"N Я-9","seamark:type":"anchorage"}}},{"type":"Feature","geometry":{"type":"Point","coordinates":[142.0333333,47.0781667]},"properties":{"osm_id":9962980202,"osm_type":"node","seamark_type":"anchorage","display_class":"OTHER","min_zoom":12,"importance":1,"name":null,"ref":null,"common":{"type":"anchorage"},"children":{"anchorage":{"name":"N Я-8"}},"osm_tags":{"description":"47°04'41,4\" N 142°02'00,0\" E","seamark:anchorage:name":"N Я-8","seamark:type":"anchorage"}}},{"type":"Feature","geometry":{"type":"Point","coordinates":[142.0323333,47.0733333]},"properties":{"osm_id":9962980203,"osm_type":"node","seamark_type":"anchorage","display_class":"OTHER","min_zoom":12,"importance":1,"name":null,"ref":null,"common":{"type":"anchorage"},"children":{"anchorage":{"name":"N Я-7"}},"osm_tags":{"description":"47°04'24,0\" N 142°01'56,4\" E","seamark:anchorage:name":"N Я-7","seamark:type":"anchorage"}}},{"type":"Feature","geometry":{"type":"Point","coordinates":[142.01,47.0466667]},"properties":{"osm_id":9962980204,"osm_type":"node","seamark_type":"anchorage","display_class":"OTHER","min_zoom":12,"importance":1,"name":null,"ref":null,"common":{"type":"anchorage"},"children":{"anchorage":{"name":"N Я-6"}},"osm_tags":{"description":"47°02'48,0\" N 142°00'36,0\" E","seamark:anchorage:name":"N Я-6","seamark:type":"anchorage"}}},{"type":"Feature","geometry":{"type":"Point","coordinates":[142.0158333,47.0534722]},"properties":{"osm_id":9962980205,"osm_type":"node","seamark_type":"anchorage","display_class":"OTHER","min_zoom":12,"importance":1,"name":null,"ref":null,"common":{"type":"anchorage"},"children":{"anchorage":{"name":"N Я-5"}},"osm_tags":{"description":"47°03'12,5\" N 142°00'57,0\" E","seamark:anchorage:name":"N Я-5","seamark:type":"anchorage"}}},{"type":"Feature","geometry":{"type":"Point","coordinates":[142.0195833,47.0577778]},"properties":{"osm_id":9962980206,"osm_type":"node","seamark_type":"anchorage","display_class":"OTHER","min_zoom":12,"importance":1,"name":null,"ref":null,"common":{"type":"anchorage"},"children":{"anchorage":{"name":"N Я-4"}},"osm_tags":{"description":"47°03'28,0\" N 142°01'10,5\" E","seamark:anchorage:name":"N Я-4","seamark:type":"anchorage"}}},{"type":"Feature","geometry":{"type":"Point","coordinates":[142.0205556,47.0483333]},"properties":{"osm_id":9962980207,"osm_type":"node","seamark_type":"anchorage","display_class":"OTHER","min_zoom":12,"importance":1,"name":null,"ref":null,"common":{"type":"anchorage"},"children":{"anchorage":{"name":"N Я-3"}},"osm_tags":{"description":"47°02'54,0\" N 142°01'14,0\" E","seamark:anchorage:name":"N Я-3","seamark:type":"anchorage"}}},{"type":"Feature","geometry":{"type":"Point","coordinates":[142.0231944,47.0534722]},"properties":{"osm_id":9962980208,"osm_type":"node","seamark_type":"anchorage","display_class":"OTHER","min_zoom":12,"importance":1,"name":null,"ref":null,"common":{"type":"anchorage"},"children":{"anchorage":{"name":"N Я-2"}},"osm_tags":{"description":"47°03'12,5\" N 142°01'23,5\" E","seamark:anchorage:name":"N Я-2","seamark:type":"anchorage"}}},{"type":"Feature","geometry":{"type":"Point","coordinates":[142.0288889,47.05]},"properties":{"osm_id":9962980209,"osm_type":"node","seamark_type":"anchorage","display_class":"OTHER","min_zoom":12,"importance":1,"name":null,"ref":null,"common":{"type":"anchorage"},"children":{"anchorage":{"name":"N Я-1"}},"osm_tags":{"description":"47°03'00,0\" N 142°01'44,0\" E","seamark:anchorage:name":"N Я-1","seamark:type":"anchorage"}}},{"type":"Feature","geometry":{"type":"Point","coordinates":[142.0175,47.07]},"properties":{"osm_id":9963008580,"osm_type":"node","seamark_type":"pilot_boarding","display_class":"OTHER","min_zoom":12,"importance":1,"name":null,"ref":null,"common":{"type":"pilot_boarding"},"children":{},"osm_tags":{"description":"47°04,20' N 142°01,05' E","seamark:type":"pilot_boarding"}}},{"type":"Feature","geometry":{"type":"LineString","coordinates":[[142.0438317,47.0623321],[142.0466712,47.0616688],[142.0537674,47.060011],[142.055941,47.0595032]]},"properties":{"osm_id":1070138828,"osm_type":"way","seamark_type":"navigation_line","display_class":"OTHER","min_zoom":12,"importance":1,"name":null,"ref":null,"common":{"type":"navigation_line"},"children":{},"osm_tags":{"seamark:type":"navigation_line"}}},{"type":"Feature","geometry":{"type":"LineString","coordinates":[[142.0517505,47.0455398],[142.050162,47.0466934],[142.0418914,47.0526996]]},"properties":{"osm_id":1070138830,"osm_type":"way","seamark_type":"navigation_line","display_class":"OTHER","min_zoom":12,"importance":1,"name":null,"ref":null,"common":{"type":"navigation_line"},"children":{},"osm_tags":{"seamark:type":"navigation_line"}}},{"type":"Feature","geometry":{"type":"Polygon","coordinates":[[[142.0540528,47.0900944],[142.0096083,47.0900889],[142.0001722,47.0442556],[142.0356306,47.0442472],[142.0452694,47.0599611],[142.0457056,47.0599194],[142.0540528,47.0900944]]]},"properties":{"osm_id":1087383795,"osm_type":"way","seamark_type":"anchorage","display_class":"OTHER","min_zoom":12,"importance":1,"name":null,"ref":null,"common":{"type":"anchorage"},"children":{},"osm_tags":{"seamark:type":"anchorage"}}},{"type":"Feature","geometry":{"type":"LineString","coordinates":[[142.056889,47.1580581],[142.0571551,47.1600227]]},"properties":{"osm_id":1087383796,"osm_type":"way","seamark_type":"berth","display_class":"OTHER","min_zoom":12,"importance":1,"name":null,"ref":null,"common":{"type":"berth"},"children":{"berth":{"minimum_depth":"0,5","name":"N 4"}},"osm_tags":{"seamark:berth:minimum_depth":"0,5","seamark:berth:name":"N 4","seamark:type":"berth"}}},{"type":"Feature","geometry":{"type":"LineString","coordinates":[[142.057716,47.1579425],[142.0569105,47.157998]]},"properties":{"osm_id":1087383797,"osm_type":"way","seamark_type":"berth","display_class":"OTHER","min_zoom":12,"importance":1,"name":null,"ref":null,"common":{"type":"berth"},"children":{"berth":{"minimum_depth":"0,9","name":"N 3"}},"osm_tags":{"seamark:berth:minimum_depth":"0,9","seamark:berth:name":"N 3","seamark:type":"berth"}}},{"type":"Feature","geometry":{"type":"LineString","coordinates":[[142.0579383,47.1597203],[142.057716,47.1579425]]},"properties":{"osm_id":1087383798,"osm_type":"way","seamark_type":"berth","display_class":"OTHER","min_zoom":12,"importance":1,"name":null,"ref":null,"common":{"type":"berth"},"children":{"berth":{"minimum_depth":"2","name":"N 2"}},"osm_tags":{"seamark:berth:minimum_depth":"2","seamark:berth:name":"N 2","seamark:type":"berth"}}},{"type":"Feature","geometry":{"type":"LineString","coordinates":[[142.0579383,47.1597203],[142.0574938,47.1597758]]},"properties":{"osm_id":1087383799,"osm_type":"way","seamark_type":"berth","display_class":"OTHER","min_zoom":12,"importance":1,"name":null,"ref":null,"common":{"type":"berth"},"children":{"berth":{"minimum_depth":"1,5","name":"N 1"}},"osm_tags":{"seamark:berth:minimum_depth":"1,5","seamark:berth:name":"N 1","seamark:type":"berth"}}},{"type":"Feature","geometry":{"type":"LineString","coordinates":[[142.0502204,47.0638011],[142.0502204,47.06269]]},"properties":{"osm_id":1087383800,"osm_type":"way","seamark_type":"berth","display_class":"OTHER","min_zoom":12,"importance":1,"name":null,"ref":null,"common":{"type":"berth"},"children":{"berth":{"minimum_depth":"8,95","name":"N 8"}},"osm_tags":{"seamark:berth:minimum_depth":"8,95","seamark:berth:name":"N 8","seamark:type":"berth"}}},{"type":"Feature","geometry":{"type":"LineString","coordinates":[[142.0504982,47.0649122],[142.0502204,47.0638011]]},"properties":{"osm_id":1087383801,"osm_type":"way","seamark_type":"berth","display_class":"OTHER","min_zoom":12,"importance":1,"name":null,"ref":null,"common":{"type":"berth"},"children":{"berth":{"minimum_depth":"8,95","name":"N 7"}},"osm_tags":{"seamark:berth:minimum_depth":"8,95","seamark:berth:name":"N 7","seamark:type":"berth"}}},{"type":"Feature","geometry":{"type":"LineString","coordinates":[[142.0502204,47.0660233],[142.0504982,47.0649122]]},"properties":{"osm_id":1087383802,"osm_type":"way","seamark_type":"berth","display_class":"OTHER","min_zoom":12,"importance":1,"name":null,"ref":null,"common":{"type":"berth"},"children":{"berth":{"minimum_depth":"8,95","name":"N 6"}},"osm_tags":{"seamark:berth:minimum_depth":"8,95","seamark:berth:name":"N 6","seamark:type":"berth"}}},{"type":"Feature","geometry":{"type":"LineString","coordinates":[[142.0502204,47.0671344],[142.0502204,47.0660233]]},"properties":{"osm_id":1087383803,"osm_type":"way","seamark_type":"berth","display_class":"OTHER","min_zoom":12,"importance":1,"name":null,"ref":null,"common":{"type":"berth"},"children":{"berth":{"minimum_depth":"8,95","name":"N 5"}},"osm_tags":{"seamark:berth:minimum_depth":"8,95","seamark:berth:name":"N 5","seamark:type":"berth"}}},{"type":"Feature","geometry":{"type":"LineString","coordinates":[[142.0479982,47.0660233],[142.048276,47.0671344]]},"properties":{"osm_id":1087383804,"osm_type":"way","seamark_type":"berth","display_class":"OTHER","min_zoom":12,"importance":1,"name":null,"ref":null,"common":{"type":"berth"},"children":{"berth":{"minimum_depth":"8,95","name":"N 4"}},"osm_tags":{"seamark:berth:minimum_depth":"8,95","seamark:berth:name":"N 4","seamark:type":"berth"}}},{"type":"Feature","geometry":{"type":"LineString","coordinates":[[142.0477204,47.0649122],[142.0479982,47.0660233]]},"properties":{"osm_id":1087383805,"osm_type":"way","seamark_type":"berth","display_class":"OTHER","min_zoom":12,"importance":1,"name":null,"ref":null,"common":{"type":"berth"},"children":{"berth":{"minimum_depth":"8,95","name":"N 3"}},"osm_tags":{"seamark:berth:minimum_depth":"8,95","seamark:berth:name":"N 3","seamark:type":"berth"}}},{"type":"Feature","geometry":{"type":"LineString","coordinates":[[142.0477204,47.0638011],[142.0477204,47.0649122]]},"properties":{"osm_id":1087383806,"osm_type":"way","seamark_type":"berth","display_class":"OTHER","min_zoom":12,"importance":1,"name":null,"ref":null,"common":{"type":"berth"},"children":{"berth":{"minimum_depth":"8,95","name":"N 2"}},"osm_tags":{"seamark:berth:minimum_depth":"8,95","seamark:berth:name":"N 2","seamark:type":"berth"}}},{"type":"Feature","geometry":{"type":"LineString","coordinates":[[142.0474427,47.0629678],[142.0477204,47.0638011]]},"properties":{"osm_id":1087383807,"osm_type":"way","seamark_type":"berth","display_class":"OTHER","min_zoom":12,"importance":1,"name":null,"ref":null,"common":{"type":"berth"},"children":{"berth":{"minimum_depth":"8,95","name":"N 1"}},"osm_tags":{"seamark:berth:minimum_depth":"8,95","seamark:berth:name":"N 1","seamark:type":"berth"}}},{"type":"Feature","geometry":{"type":"LineString","coordinates":[[142.0440879,47.0488377],[142.0438101,47.0493933]]},"properties":{"osm_id":1087383808,"osm_type":"way","seamark_type":"berth","display_class":"OTHER","min_zoom":12,"importance":1,"name":null,"ref":null,"common":{"type":"berth"},"children":{"berth":{"minimum_depth":"9,5","name":"N 8"}},"osm_tags":{"seamark:berth:minimum_depth":"9,5","seamark:berth:name":"N 8","seamark:type":"berth"}}},{"type":"Feature","geometry":{"type":"LineString","coordinates":[[142.0424212,47.0480044],[142.0440879,47.0488377]]},"properties":{"osm_id":1087383809,"osm_type":"way","seamark_type":"berth","display_class":"OTHER","min_zoom":12,"importance":1,"name":null,"ref":null,"common":{"type":"berth"},"children":{"berth":{"minimum_depth":"6,8","name":"N 7"}},"osm_tags":{"seamark:berth:minimum_depth":"6,8","seamark:berth:name":"N 7","seamark:type":"berth"}}},{"type":"Feature","geometry":{"type":"LineString","coordinates":[[142.0407545,47.0471711],[142.0424212,47.0480044]]},"properties":{"osm_id":1087383810,"osm_type":"way","seamark_type":"berth","display_class":"OTHER","min_zoom":12,"importance":1,"name":null,"ref":null,"common":{"type":"berth"},"children":{"berth":{"minimum_depth":"6,7","name":"N 6"}},"osm_tags":{"seamark:berth:minimum_depth":"6,7","seamark:berth:name":"N 6","seamark:type":"berth"}}},{"type":"Feature","geometry":{"type":"LineString","coordinates":[[142.0407545,47.0471711],[142.0413101,47.0466155]]},"properties":{"osm_id":1087383811,"osm_type":"way","seamark_type":"berth","display_class":"OTHER","min_zoom":12,"importance":1,"name":null,"ref":null,"common":{"type":"berth"},"children":{"berth":{"minimum_depth":"2,9","name":"N 5"}},"osm_tags":{"seamark:berth:minimum_depth":"2,9","seamark:berth:name":"N 5","seamark:type":"berth"}}},{"type":"Feature","geometry":{"type":"LineString","coordinates":[[142.0440601,47.0474766],[142.0428656,47.0468933]]},"properties":{"osm_id":1087383812,"osm_type":"way","seamark_type":"berth","display_class":"OTHER","min_zoom":12,"importance":1,"name":null,"ref":null,"common":{"type":"berth"},"children":{"berth":{"minimum_depth":"8,5","name":"N 4"}},"osm_tags":{"seamark:berth:minimum_depth":"8,5","seamark:berth:name":"N 4","seamark:type":"berth"}}},{"type":"Feature","geometry":{"type":"LineString","coordinates":[[142.0449212,47.04781],[142.0440879,47.0474488]]},"properties":{"osm_id":1087383813,"osm_type":"way","seamark_type":"berth","display_class":"OTHER","min_zoom":12,"importance":1,"name":null,"ref":null,"common":{"type":"berth"},"children":{"berth":{"minimum_depth":"5,05","name":"N 3"}},"osm_tags":{"seamark:berth:minimum_depth":"5,05","seamark:berth:name":"N 3","seamark:type":"berth"}}},{"type":"Feature","geometry":{"type":"LineString","coordinates":[[142.0465879,47.0484766],[142.0453656,47.0476711]]},"properties":{"osm_id":1087383814,"osm_type":"way","seamark_type":"berth","display_class":"OTHER","min_zoom":12,"importance":1,"name":null,"ref":null,"common":{"type":"berth"},"children":{"berth":{"minimum_depth":"7,9","name":"N 1"}},"osm_tags":{"seamark:berth:minimum_depth":"7,9","seamark:berth:name":"N 1","seamark:type":"berth"}}},{"type":"Feature","geometry":{"type":"Polygon","coordinates":[[[142.0439586,47.0625001],[142.0439658,47.0624062],[142.0439874,47.0623133],[142.0440231,47.0622225],[142.0440726,47.0621347],[142.0441353,47.0620509],[142.0442104,47.061972],[142.0442973,47.061899],[142.0443949,47.0618325],[142.0445022,47.0617733],[142.044618,47.0617221],[142.0447409,47.0616794],[142.0448698,47.0616457],[142.0450031,47.0616214],[142.0451395,47.0616067],[142.0452773,47.0616018],[142.0454152,47.0616067],[142.0455515,47.0616214],[142.0456848,47.0616457],[142.0458137,47.0616794],[142.0459367,47.0617221],[142.0460524,47.0617733],[142.0461597,47.0618325],[142.0462573,47.061899],[142.0463442,47.0619721],[142.0464193,47.0620509],[142.046482,47.0621347],[142.0465315,47.0622225],[142.0465672,47.0623133],[142.0465888,47.0624062],[142.046596,47.0625001],[142.0465888,47.062594],[142.0465672,47.0626869],[142.0465314,47.0627777],[142.046482,47.0628655],[142.0464193,47.0629493],[142.0463441,47.0630281],[142.0462573,47.0631012],[142.0461596,47.0631677],[142.0460524,47.0632268],[142.0459366,47.063278],[142.0458136,47.0633207],[142.0456848,47.0633544],[142.0455514,47.0633788],[142.0454151,47.0633935],[142.0452772,47.0633984],[142.0451394,47.0633935],[142.0450031,47.0633787],[142.0448697,47.0633544],[142.0447409,47.0633207],[142.0446179,47.063278],[142.0445021,47.0632268],[142.0443949,47.0631676],[142.0442973,47.0631011],[142.0442104,47.0630281],[142.0441352,47.0629492],[142.0440726,47.0628654],[142.0440231,47.0627776],[142.0439874,47.0626868],[142.0439658,47.062594],[142.0439586,47.0625001]]]},"properties":{"osm_id":1087383815,"osm_type":"way","seamark_type":"restricted_area","display_class":"OTHER","min_zoom":12,"importance":1,"name":null,"ref":null,"common":{"type":"restricted_area"},"children":{"restricted_area":{"name":"Разворотный круг Северной гавани"}},"osm_tags":{"description":"в границах окружности диаметром 200 метров с центром в точке 47°03'45\" N 142°02'4\" E","seamark:restricted_area:name":"Разворотный круг Северной гавани","seamark:type":"restricted_area"}}},{"type":"Feature","geometry":{"type":"Polygon","coordinates":[[[142.0436957,47.0497221],[142.0437029,47.0496197],[142.0437243,47.0495181],[142.0437598,47.0494184],[142.0438091,47.0493215],[142.0438716,47.0492282],[142.0439469,47.0491393],[142.0440342,47.0490558],[142.0441328,47.0489783],[142.0442418,47.0489075],[142.0443602,47.0488441],[142.0444868,47.0487886],[142.0446206,47.0487416],[142.0447604,47.0487035],[142.0449049,47.0486746],[142.0450527,47.0486552],[142.0452026,47.0486454],[142.0453531,47.0486454],[142.045503,47.0486552],[142.0456509,47.0486746],[142.0457953,47.0487035],[142.0459351,47.0487417],[142.0460689,47.0487887],[142.0461955,47.0488442],[142.0463139,47.0489076],[142.0464228,47.0489784],[142.0465214,47.0490559],[142.0466087,47.0491395],[142.046684,47.0492283],[142.0467465,47.0493216],[142.0467958,47.0494186],[142.0468313,47.0495183],[142.0468527,47.0496198],[142.0468598,47.0497223],[142.0468527,47.0498247],[142.0468312,47.0499263],[142.0467957,47.050026],[142.0467465,47.0501229],[142.0466839,47.0502162],[142.0466086,47.0503051],[142.0465213,47.0503886],[142.0464227,47.0504661],[142.0463137,47.0505369],[142.0461954,47.0506003],[142.0460687,47.0506558],[142.0459349,47.0507028],[142.0457951,47.0507409],[142.0456506,47.0507698],[142.0455028,47.0507892],[142.0453529,47.0507989],[142.0452024,47.0507989],[142.0450525,47.0507892],[142.0449047,47.0507698],[142.0447602,47.0507409],[142.0446204,47.0507027],[142.0444866,47.0506557],[142.04436,47.0506002],[142.0442416,47.0505368],[142.0441327,47.050466],[142.0440341,47.0503885],[142.0439468,47.0503049],[142.0438715,47.0502161],[142.043809,47.0501228],[142.0437597,47.0500258],[142.0437243,47.0499261],[142.0437028,47.0498246],[142.0436957,47.0497221]]]},"properties":{"osm_id":1087383816,"osm_type":"way","seamark_type":"restricted_area","display_class":"OTHER","min_zoom":12,"importance":1,"name":null,"ref":null,"common":{"type":"restricted_area"},"children":{"restricted_area":{"name":"Разворотный круг Южной гавани"}},"osm_tags":{"description":"в границах окружности диаметром 240 метров с центром в точке 47°02'59\" N 142°02'43\" E","seamark:restricted_area:name":"Разворотный круг Южной гавани","seamark:type":"restricted_area"}}},{"type":"Feature","geometry":{"type":"Polygon","coordinates":[[[142.0341905,47.0312344],[142.0341791,47.0312384],[142.0341703,47.0312448],[142.034165,47.0312527],[142.0341637,47.0312614],[142.0341665,47.0312699],[142.0341733,47.0312773],[142.0341832,47.0312829],[142.0341951,47.031286],[142.0342079,47.0312863],[142.0342205,47.0312837],[142.0342311,47.0312784],[142.0342385,47.031271],[142.0342419,47.0312624],[142.034241,47.0312535],[142.0342359,47.0312453],[142.034227,47.0312387],[142.0342158,47.0312345],[142.0342031,47.031233],[142.0341905,47.0312344]]]},"properties":{"osm_id":306438645,"osm_type":"way","seamark_type":"landmark","display_class":"OTHER","min_zoom":12,"importance":1,"name":"Холмск","ref":null,"common":{"name":"Холмск","status":"watched","type":"landmark"},"children":{},"osm_tags":{"building":"yes","height":"28","man_made":"lighthouse","name":"Холмск","seamark:name":"Холмск","seamark:status":"watched","seamark:type":"landmark"}}}],"type":"FeatureCollection"}