{"type":"FeatureCollection","features":[{"type":"Feature","geometry":{"type":"Point","coordinates":[139.5383696,47.9713711]},"properties":{"osm_id":1271041789,"osm_type":"node","seamark_type":"light_major","display_class":"LIGHTHOUSE","min_zoom":7,"importance":5,"name":"Mys Krestovozdvizhenskiy","ref":null,"common":{"name":"Mys Krestovozdvizhenskiy","type":"light_major"},"children":{"light":{"character":"LFl","colour":"white","height":"27","period":"7.5","range":"10","reference":"M 7634","sequence":"3+(4.5)"}},"osm_tags":{"man_made":"lighthouse","name":"Крестовоздвиженский","seamark:light:character":"LFl","seamark:light:colour":"white","seamark:light:height":"27","seamark:light:period":"7.5","seamark:light:range":"10","seamark:light:reference":"M 7634","seamark:light:sequence":"3+(4.5)","seamark:name":"Mys Krestovozdvizhenskiy","seamark:type":"light_major","source":"US NGA Pub. 112. 2009-11-12."}}},{"type":"Feature","geometry":{"type":"Point","coordinates":[139.1942645,47.6576498]},"properties":{"osm_id":1271041795,"osm_type":"node","seamark_type":"light_major","display_class":"LIGHTHOUSE","min_zoom":7,"importance":5,"name":"Nel′ma","ref":null,"common":{"information":"Reserve light L.Fl.W. 12s 7M.","name":"Nel′ma","type":"light_major"},"children":{"light":{"1:character":"LFl","1:colour":"white","1:height":"80","1:period":"12","1:range":"17","1:sector_end":"20","1:sector_start":"198","1:sequence":"4.5+(7.5)","reference":"M 7630"}},"osm_tags":{"man_made":"lighthouse","name":"Nel'ma","name:ru":"Нельма","note":"Un-watched light. General warning mark. Beacon tower. Elevation 78.00m. Round tower with platform","seamark:information":"Reserve light L.Fl.W. 12s 7M.","seamark:light:1:character":"LFl","seamark:light:1:colour":"white","seamark:light:1:height":"80","seamark:light:1:period":"12","seamark:light:1:range":"17","seamark:light:1:sector_end":"20","seamark:light:1:sector_start":"198","seamark:light:1:sequence":"4.5+(7.5)","seamark:light:reference":"M 7630","seamark:name":"Nel′ma","seamark:type":"light_major","source":"US NGA Pub. 112. 2009-11-12."}}}],"type":"FeatureCollection"}