{"type":"FeatureCollection","features":[{"type":"Feature","geometry":{"type":"Point","coordinates":[-121.9190476,47.9884081]},"properties":{"osm_id":3210301580,"osm_type":"node","seamark_type":"buoy_lateral","display_class":"OTHER","min_zoom":12,"importance":1,"name":null,"ref":null,"common":{"type":"buoy_lateral"},"children":{},"osm_tags":{"man_made":"buoy","seamark:type":"buoy_lateral"}}},{"type":"Feature","geometry":{"type":"Point","coordinates":[-121.9193653,47.9881502]},"properties":{"osm_id":3210301581,"osm_type":"node","seamark_type":"buoy_lateral","display_class":"OTHER","min_zoom":12,"importance":1,"name":null,"ref":null,"common":{"type":"buoy_lateral"},"children":{},"osm_tags":{"man_made":"buoy","seamark:type":"buoy_lateral"}}},{"type":"Feature","geometry":{"type":"Point","coordinates":[-121.9192639,47.988096]},"properties":{"osm_id":3210301582,"osm_type":"node","seamark_type":"buoy_lateral","display_class":"OTHER","min_zoom":12,"importance":1,"name":null,"ref":null,"common":{"type":"buoy_lateral"},"children":{},"osm_tags":{"man_made":"buoy","seamark:type":"buoy_lateral"}}},{"type":"Feature","geometry":{"type":"Point","coordinates":[-121.9189885,47.9883255]},"properties":{"osm_id":3210301583,"osm_type":"node","seamark_type":"buoy_lateral","display_class":"OTHER","min_zoom":12,"importance":1,"name":null,"ref":null,"common":{"type":"buoy_lateral"},"children":{},"osm_tags":{"man_made":"buoy","seamark:type":"buoy_lateral"}}},{"type":"Feature","geometry":{"type":"LineString","coordinates":[[-121.9724395,47.3739904],[-121.9718296,47.3742843],[-121.9716175,47.3745252],[-121.9709845,47.3751418]]},"properties":{"osm_id":1078909012,"osm_type":"way","seamark_type":"cable_overhead","display_class":"OTHER","min_zoom":12,"importance":1,"name":null,"ref":null,"common":{"type":"cable_overhead"},"children":{"cable_overhead":{"category":"power"}},"osm_tags":{"power":"minor_line","seamark:cable_overhead:category":"power","seamark:type":"cable_overhead"}}},{"type":"Feature","geometry":{"type":"LineString","coordinates":[[-121.9700046,47.3741908],[-121.9688673,47.3742743]]},"properties":{"osm_id":1078909014,"osm_type":"way","seamark_type":"cable_overhead","display_class":"OTHER","min_zoom":12,"importance":1,"name":null,"ref":null,"common":{"type":"cable_overhead"},"children":{"cable_overhead":{"category":"power"}},"osm_tags":{"cables":"3","power":"line","seamark:cable_overhead:category":"power","seamark:type":"cable_overhead","source":"Bing","voltage":"115000","wires":"single"}}},{"type":"Feature","geometry":{"type":"LineString","coordinates":[[-121.964388,47.3745577],[-121.9593409,47.3748941]]},"properties":{"osm_id":1078909016,"osm_type":"way","seamark_type":"cable_overhead","display_class":"OTHER","min_zoom":12,"importance":1,"name":null,"ref":null,"common":{"type":"cable_overhead"},"children":{"cable_overhead":{"category":"power"}},"osm_tags":{"cables":"3","power":"line","seamark:cable_overhead:category":"power","seamark:type":"cable_overhead","source":"Bing","voltage":"115000","wires":"single"}}},{"type":"Feature","geometry":{"type":"LineString","coordinates":[[-121.9917402,47.3843721],[-121.9925709,47.3845124]]},"properties":{"osm_id":138359067,"osm_type":"way","seamark_type":"bridge","display_class":"OTHER","min_zoom":12,"importance":1,"name":"Cedar River Trail","ref":null,"common":{"type":"bridge"},"children":{},"osm_tags":{"abandoned:name":"Chicago, Milwaukee, St. Paul and Pacific Railroad","abandoned:railway":"rail","bridge":"yes","foot":"yes","highway":"cycleway","layer":"1","motor_vehicle":"no","name":"Cedar River Trail","old_railway_operator":"Milwaukee Road","railway":"abandoned","seamark:type":"bridge","tiger:cfcc":"A71","tiger:county":"King, WA","tiger:name_base":"Cedar River","tiger:name_type":"Trl","tiger:reviewed":"no"}}},{"type":"Feature","geometry":{"type":"LineString","coordinates":[[-121.9713076,47.3749413],[-121.9716214,47.3746378]]},"properties":{"osm_id":25926172,"osm_type":"way","seamark_type":"bridge","display_class":"OTHER","min_zoom":12,"importance":1,"name":"Landsburg Road Southeast","ref":null,"common":{"type":"bridge"},"children":{},"osm_tags":{"bridge":"yes","highway":"secondary","lanes":"2","layer":"1","maxspeed":"40 mph","name":"Landsburg Road Southeast","seamark:type":"bridge","surface":"concrete","tiger:cfcc":"A41","tiger:county":"King, WA","tiger:name_base":"Landsburg","tiger:name_direction_suffix":"SE","tiger:name_type":"Rd","tiger:reviewed":"no"}}}],"type":"FeatureCollection"}