{"type":"FeatureCollection","features":[{"type":"Feature","geometry":{"type":"Point","coordinates":[22.1391521,48.4267432]},"properties":{"osm_id":7044616176,"osm_type":"node","seamark_type":"mooring","display_class":"OTHER","min_zoom":12,"importance":1,"name":null,"ref":null,"common":{"type":"mooring"},"children":{},"osm_tags":{"seamark:type":"mooring"}}},{"type":"Feature","geometry":{"type":"Point","coordinates":[22.002513,48.2106061]},"properties":{"osm_id":8033200304,"osm_type":"node","seamark_type":"gate","display_class":"OTHER","min_zoom":12,"importance":1,"name":null,"ref":null,"common":{"type":"gate"},"children":{},"osm_tags":{"seamark:type":"gate","waterway":"sluice_gate"}}},{"type":"Feature","geometry":{"type":"Point","coordinates":[22.5213258,48.0648977]},"properties":{"osm_id":10913581113,"osm_type":"node","seamark_type":"distance_mark","display_class":"OTHER","min_zoom":12,"importance":1,"name":null,"ref":null,"common":{"type":"distance_mark"},"children":{"distance_mark":{"category":"board","distance":"706","units":"kilometres"}},"osm_tags":{"seamark:distance_mark:category":"board","seamark:distance_mark:distance":"706","seamark:distance_mark:units":"kilometres","seamark:type":"distance_mark"}}},{"type":"Feature","geometry":{"type":"Point","coordinates":[22.7385222,48.1190101]},"properties":{"osm_id":10915454794,"osm_type":"node","seamark_type":"distance_mark","display_class":"OTHER","min_zoom":12,"importance":1,"name":null,"ref":null,"common":{"type":"distance_mark"},"children":{"distance_mark":{"category":"not_installed","distance":"730","units":"kilometres"}},"osm_tags":{"seamark:distance_mark:category":"not_installed","seamark:distance_mark:distance":"730","seamark:distance_mark:units":"kilometres","seamark:type":"distance_mark"}}},{"type":"Feature","geometry":{"type":"Point","coordinates":[22.2475941,48.3150621]},"properties":{"osm_id":11003075737,"osm_type":"node","seamark_type":"distance_mark","display_class":"OTHER","min_zoom":12,"importance":1,"name":null,"ref":null,"common":{"type":"distance_mark"},"children":{"distance_mark":{"category":"not_installed","distance":"651","units":"kilometres"}},"osm_tags":{"seamark:distance_mark:category":"not_installed","seamark:distance_mark:distance":"651","seamark:distance_mark:units":"kilometres","seamark:type":"distance_mark"}}},{"type":"Feature","geometry":{"type":"Point","coordinates":[22.3996354,48.0384644]},"properties":{"osm_id":11013365377,"osm_type":"node","seamark_type":"distance_mark","display_class":"OTHER","min_zoom":12,"importance":1,"name":null,"ref":null,"common":{"type":"distance_mark"},"children":{"distance_mark":{"category":"not_installed","distance":"12","units":"kilometres"}},"osm_tags":{"seamark:distance_mark:category":"not_installed","seamark:distance_mark:distance":"12","seamark:distance_mark:units":"kilometres","seamark:type":"distance_mark"}}},{"type":"Feature","geometry":{"type":"Point","coordinates":[22.29857,48.1886754]},"properties":{"osm_id":11138477013,"osm_type":"node","seamark_type":"distance_mark","display_class":"OTHER","min_zoom":12,"importance":1,"name":null,"ref":null,"common":{"type":"distance_mark"},"children":{"distance_mark":{"category":"not_installed","distance":"675","units":"kilometres"}},"osm_tags":{"seamark:distance_mark:category":"not_installed","seamark:distance_mark:distance":"675","seamark:distance_mark:units":"kilometres","seamark:type":"distance_mark"}}},{"type":"Feature","geometry":{"type":"Point","coordinates":[22.239628,48.3075387]},"properties":{"osm_id":11211413021,"osm_type":"node","seamark_type":"distance_mark","display_class":"OTHER","min_zoom":12,"importance":1,"name":null,"ref":null,"common":{"type":"distance_mark"},"children":{"distance_mark":{"category":"not_installed","distance":"652","units":"kilometres"}},"osm_tags":{"seamark:distance_mark:category":"not_installed","seamark:distance_mark:distance":"652","seamark:distance_mark:units":"kilometres","seamark:type":"distance_mark"}}},{"type":"Feature","geometry":{"type":"Point","coordinates":[22.2461839,48.3832854]},"properties":{"osm_id":11264104765,"osm_type":"node","seamark_type":"distance_mark","display_class":"OTHER","min_zoom":12,"importance":1,"name":null,"ref":null,"common":{"type":"distance_mark"},"children":{"distance_mark":{"category":"not_installed","distance":"640","units":"kilometres"}},"osm_tags":{"seamark:distance_mark:category":"not_installed","seamark:distance_mark:distance":"640","seamark:distance_mark:units":"kilometres","seamark:type":"distance_mark"}}},{"type":"Feature","geometry":{"type":"Point","coordinates":[22.2828534,48.2262928]},"properties":{"osm_id":11353366146,"osm_type":"node","seamark_type":"distance_mark","display_class":"OTHER","min_zoom":12,"importance":1,"name":null,"ref":null,"common":{"type":"distance_mark"},"children":{"distance_mark":{"category":"not_installed","distance":"668","units":"kilometres"}},"osm_tags":{"seamark:distance_mark:category":"not_installed","seamark:distance_mark:distance":"668","seamark:distance_mark:units":"kilometres","seamark:type":"distance_mark"}}},{"type":"Feature","geometry":{"type":"Point","coordinates":[22.371618,48.1041334]},"properties":{"osm_id":11422211049,"osm_type":"node","seamark_type":"distance_mark","display_class":"OTHER","min_zoom":12,"importance":1,"name":null,"ref":null,"common":{"type":"distance_mark"},"children":{"distance_mark":{"category":"not_installed","distance":"689","units":"kilometres"}},"osm_tags":{"seamark:distance_mark:category":"not_installed","seamark:distance_mark:distance":"689","seamark:distance_mark:units":"kilometres","seamark:type":"distance_mark"}}},{"type":"Feature","geometry":{"type":"Point","coordinates":[22.3065566,48.1818971]},"properties":{"osm_id":11515733139,"osm_type":"node","seamark_type":"distance_mark","display_class":"OTHER","min_zoom":12,"importance":1,"name":null,"ref":null,"common":{"type":"distance_mark"},"children":{"distance_mark":{"category":"not_installed","distance":"676","units":"kilometres"}},"osm_tags":{"seamark:distance_mark:category":"not_installed","seamark:distance_mark:distance":"676","seamark:distance_mark:units":"kilometres","seamark:type":"distance_mark"}}},{"type":"Feature","geometry":{"type":"Point","coordinates":[22.4361324,48.0068334]},"properties":{"osm_id":11521541644,"osm_type":"node","seamark_type":"distance_mark","display_class":"OTHER","min_zoom":12,"importance":1,"name":null,"ref":null,"common":{"type":"distance_mark"},"children":{"distance_mark":{"category":"not_installed","distance":"17","units":"kilometres"}},"osm_tags":{"seamark:distance_mark:category":"not_installed","seamark:distance_mark:distance":"17","seamark:distance_mark:units":"kilometres","seamark:type":"distance_mark"}}},{"type":"Feature","geometry":{"type":"Point","coordinates":[22.8047574,48.1062981]},"properties":{"osm_id":11527531961,"osm_type":"node","seamark_type":"distance_mark","display_class":"OTHER","min_zoom":12,"importance":1,"name":null,"ref":null,"common":{"type":"distance_mark"},"children":{"distance_mark":{"category":"not_installed","distance":"740","units":"kilometres"}},"osm_tags":{"seamark:distance_mark:category":"not_installed","seamark:distance_mark:distance":"740","seamark:distance_mark:units":"kilometres","seamark:type":"distance_mark"}}},{"type":"Feature","geometry":{"type":"Point","coordinates":[22.2886748,48.2462762]},"properties":{"osm_id":11543935035,"osm_type":"node","seamark_type":"distance_mark","display_class":"OTHER","min_zoom":12,"importance":1,"name":null,"ref":null,"common":{"type":"distance_mark"},"children":{"distance_mark":{"category":"not_installed","distance":"665","units":"kilometres"}},"osm_tags":{"seamark:distance_mark:category":"not_installed","seamark:distance_mark:distance":"665","seamark:distance_mark:units":"kilometres","seamark:type":"distance_mark"}}},{"type":"Feature","geometry":{"type":"Point","coordinates":[22.4738264,48.0577085]},"properties":{"osm_id":11548968378,"osm_type":"node","seamark_type":"distance_mark","display_class":"OTHER","min_zoom":12,"importance":1,"name":null,"ref":null,"common":{"type":"distance_mark"},"children":{"distance_mark":{"category":"not_installed","distance":"700","units":"kilometres"}},"osm_tags":{"seamark:distance_mark:category":"not_installed","seamark:distance_mark:distance":"700","seamark:distance_mark:units":"kilometres","seamark:type":"distance_mark"}}},{"type":"Feature","geometry":{"type":"Point","coordinates":[22.2336734,48.2602294]},"properties":{"osm_id":11560279861,"osm_type":"node","seamark_type":"distance_mark","display_class":"OTHER","min_zoom":12,"importance":1,"name":null,"ref":null,"common":{"type":"distance_mark"},"children":{"distance_mark":{"category":"not_installed","distance":"659","units":"kilometres"}},"osm_tags":{"seamark:distance_mark:category":"not_installed","seamark:distance_mark:distance":"659","seamark:distance_mark:units":"kilometres","seamark:type":"distance_mark"}}},{"type":"Feature","geometry":{"type":"Point","coordinates":[22.5150873,48.0604361]},"properties":{"osm_id":11592081973,"osm_type":"node","seamark_type":"distance_mark","display_class":"OTHER","min_zoom":12,"importance":1,"name":null,"ref":null,"common":{"type":"distance_mark"},"children":{"distance_mark":{"category":"not_installed","distance":"705","units":"kilometres"}},"osm_tags":{"seamark:distance_mark:category":"not_installed","seamark:distance_mark:distance":"705","seamark:distance_mark:units":"kilometres","seamark:type":"distance_mark"}}},{"type":"Feature","geometry":{"type":"Point","coordinates":[22.0844149,48.3086496]},"properties":{"osm_id":11636618552,"osm_type":"node","seamark_type":"distance_mark","display_class":"OTHER","min_zoom":12,"importance":1,"name":null,"ref":null,"common":{"type":"distance_mark"},"children":{"distance_mark":{"category":"not_installed","distance":"612","units":"kilometres"}},"osm_tags":{"seamark:distance_mark:category":"not_installed","seamark:distance_mark:distance":"612","seamark:distance_mark:units":"kilometres","seamark:type":"distance_mark"}}},{"type":"Feature","geometry":{"type":"Point","coordinates":[22.0322101,48.303128]},"properties":{"osm_id":12079422781,"osm_type":"node","seamark_type":"distance_mark","display_class":"OTHER","min_zoom":12,"importance":1,"name":null,"ref":null,"common":{"type":"distance_mark"},"children":{"distance_mark":{"category":"not_installed","distance":"605","units":"kilometres"}},"osm_tags":{"seamark:distance_mark:category":"not_installed","seamark:distance_mark:distance":"605","seamark:distance_mark:units":"kilometres","seamark:type":"distance_mark"}}},{"type":"Feature","geometry":{"type":"Point","coordinates":[22.0010877,48.7982245]},"properties":{"osm_id":4947548352,"osm_type":"node","seamark_type":"harbour","display_class":"OTHER","min_zoom":12,"importance":1,"name":"Medvedia hora","ref":null,"common":{"type":"harbour"},"children":{"harbour":{"category":"marina_no_facilities"}},"osm_tags":{"leisure":"marina","name":"Medvedia hora","seamark:harbour:category":"marina_no_facilities","seamark:type":"harbour"}}}],"type":"FeatureCollection"}