{"type":"FeatureCollection","features":[{"type":"Feature","geometry":{"type":"Point","coordinates":[13.4000734,49.7104026]},"properties":{"osm_id":8870180101,"osm_type":"node","seamark_type":"gate","display_class":"OTHER","min_zoom":12,"importance":1,"name":null,"ref":null,"common":{"type":"gate"},"children":{},"osm_tags":{"seamark:type":"gate","waterway":"lock_gate"}}},{"type":"Feature","geometry":{"type":"LineString","coordinates":[[13.3997154,49.7104119],[13.3997177,49.7103235]]},"properties":{"osm_id":1244641158,"osm_type":"way","seamark_type":"gate","display_class":"OTHER","min_zoom":12,"importance":1,"name":null,"ref":null,"common":{"type":"gate"},"children":{},"osm_tags":{"seamark:type":"gate","waterway":"lock_gate"}}},{"type":"Feature","geometry":{"type":"LineString","coordinates":[[13.3919749,49.7091504],[13.392017,49.7091836]]},"properties":{"osm_id":1244641160,"osm_type":"way","seamark_type":"gate","display_class":"OTHER","min_zoom":12,"importance":1,"name":null,"ref":null,"common":{"type":"gate"},"children":{},"osm_tags":{"seamark:type":"gate","waterway":"lock_gate"}}},{"type":"Feature","geometry":{"type":"LineString","coordinates":[[13.3919354,49.7091818],[13.3919858,49.7092072]]},"properties":{"osm_id":1244641161,"osm_type":"way","seamark_type":"gate","display_class":"OTHER","min_zoom":12,"importance":1,"name":null,"ref":null,"common":{"type":"gate"},"children":{},"osm_tags":{"seamark:type":"gate","waterway":"lock_gate"}}},{"type":"Feature","geometry":{"type":"LineString","coordinates":[[13.5211457,49.8859684],[13.5210861,49.8859166],[13.5210119,49.8858521]]},"properties":{"osm_id":1271952603,"osm_type":"way","seamark_type":"gate","display_class":"OTHER","min_zoom":12,"importance":1,"name":null,"ref":null,"common":{"type":"gate"},"children":{},"osm_tags":{"seamark:type":"gate","waterway":"lock_gate"}}},{"type":"Feature","geometry":{"type":"LineString","coordinates":[[13.4179725,49.7722233],[13.4181583,49.7722089]]},"properties":{"osm_id":1292046193,"osm_type":"way","seamark_type":"gate","display_class":"OTHER","min_zoom":12,"importance":1,"name":null,"ref":null,"common":{"type":"gate"},"children":{},"osm_tags":{"seamark:type":"gate","waterway":"lock_gate"}}},{"type":"Feature","geometry":{"type":"LineString","coordinates":[[13.4179572,49.7721968],[13.4179511,49.772159]]},"properties":{"osm_id":1292046195,"osm_type":"way","seamark_type":"gate","display_class":"OTHER","min_zoom":12,"importance":1,"name":null,"ref":null,"common":{"type":"gate"},"children":{},"osm_tags":{"seamark:type":"gate","waterway":"lock_gate"}}},{"type":"Feature","geometry":{"type":"Polygon","coordinates":[[[13.4179384,49.7721599],[13.4179246,49.7721483],[13.4179481,49.7721408],[13.4179612,49.7721398],[13.4179638,49.772158],[13.4179511,49.772159],[13.4179384,49.7721599]]]},"properties":{"osm_id":1292072485,"osm_type":"way","seamark_type":"gate","display_class":"OTHER","min_zoom":12,"importance":1,"name":null,"ref":null,"common":{"type":"gate"},"children":{},"osm_tags":{"area":"yes","seamark:type":"gate","waterway":"lock_gate"}}},{"type":"Feature","geometry":{"type":"LineString","coordinates":[[13.4179481,49.7721408],[13.4179448,49.7721204]]},"properties":{"osm_id":1292072486,"osm_type":"way","seamark_type":"gate","display_class":"OTHER","min_zoom":12,"importance":1,"name":null,"ref":null,"common":{"type":"gate"},"children":{},"osm_tags":{"seamark:type":"gate","waterway":"lock_gate"}}},{"type":"Feature","geometry":{"type":"Point","coordinates":[13.0430328,49.7670339]},"properties":{"osm_id":4680080228,"osm_type":"node","seamark_type":"harbour","display_class":"OTHER","min_zoom":12,"importance":1,"name":"Butov","ref":null,"common":{"type":"harbour"},"children":{"harbour":{"category":"marina"}},"osm_tags":{"amenity":"ferry_terminal","cargo":"passenger transport","leisure":"marina","name":"Butov","seamark:harbour:category":"marina","seamark:type":"harbour","source":"shipping station"}}},{"type":"Feature","geometry":{"type":"Polygon","coordinates":[[[13.3953633,49.7725165],[13.3948688,49.7726937],[13.3953966,49.7732092],[13.3974578,49.7723287],[13.3968384,49.771724],[13.3967359,49.7720404],[13.3967282,49.7721459],[13.3968299,49.7722896],[13.3967744,49.7723239],[13.3966877,49.7722802],[13.3965418,49.7722065],[13.3965048,49.7722055],[13.395921,49.7724846],[13.3959241,49.7725095],[13.3960827,49.7726572],[13.3960981,49.7726921],[13.3960666,49.772705],[13.3960535,49.772695],[13.3960026,49.7726886],[13.3957746,49.7725075],[13.3953633,49.7725165]]]},"properties":{"osm_id":1381992463,"osm_type":"way","seamark_type":"harbour","display_class":"OTHER","min_zoom":12,"importance":1,"name":"JK Plzeň","ref":null,"common":{"type":"harbour"},"children":{"harbour":{"category":"marina_no_facilities"}},"osm_tags":{"alt_name":"Jachtklub Plzeň","leisure":"marina","man_made":"quay","name":"JK Plzeň","seamark:harbour:category":"marina_no_facilities","seamark:type":"harbour","website":"https://www.jkplzen.cz"}}},{"type":"Feature","geometry":{"type":"Point","coordinates":[13.1617379,49.7886841]},"properties":{"osm_id":12951409828,"osm_type":"node","seamark_type":"rescue_station","display_class":"OTHER","min_zoom":12,"importance":1,"name":"Molo Vodní záchranné služby","ref":null,"common":{"type":"rescue_station"},"children":{"rescue_station":{"category":"lifeboat_on_mooring"}},"osm_tags":{"emergency":"water_rescue","name":"Molo Vodní záchranné služby","operator":"Vodní záchranná služba ČČK Plzeň, pobočný spolek","phone":"+420 776 499 112","seamark:rescue_station:category":"lifeboat_on_mooring","seamark:type":"rescue_station","website":"https://vzs-plzen.cz/spp-hracholusky/"}}},{"type":"Feature","geometry":{"type":"Polygon","coordinates":[[[13.3907793,49.7765528],[13.3907191,49.77653],[13.3905702,49.7764515],[13.3907932,49.7763734],[13.3911334,49.7761652],[13.3912351,49.776314],[13.3907793,49.7765528]]]},"properties":{"osm_id":1387298931,"osm_type":"way","seamark_type":"harbour","display_class":"OTHER","min_zoom":12,"importance":1,"name":"Ostende","ref":null,"common":{"type":"harbour"},"children":{"harbour":{"category":"marina_no_facilities"}},"osm_tags":{"leisure":"marina","man_made":"quay","name":"Ostende","seamark:harbour:category":"marina_no_facilities","seamark:type":"harbour"}}},{"type":"Feature","geometry":{"type":"Point","coordinates":[13.0512832,49.7652749]},"properties":{"osm_id":4680080227,"osm_type":"node","seamark_type":"harbour","display_class":"OTHER","min_zoom":12,"importance":1,"name":"Vranov","ref":null,"common":{"type":"harbour"},"children":{"harbour":{"category":"marina"}},"osm_tags":{"amenity":"ferry_terminal","cargo":"passenger transport","leisure":"marina","name":"Vranov","seamark:harbour:category":"marina","seamark:type":"harbour","source":"shipping station"}}},{"type":"Feature","geometry":{"type":"Point","coordinates":[13.0609471,49.7677709]},"properties":{"osm_id":4680080226,"osm_type":"node","seamark_type":"harbour","display_class":"OTHER","min_zoom":12,"importance":1,"name":"Škoda","ref":null,"common":{"type":"harbour"},"children":{"harbour":{"category":"marina"}},"osm_tags":{"amenity":"ferry_terminal","cargo":"passenger transport","leisure":"marina","name":"Škoda","seamark:harbour:category":"marina","seamark:type":"harbour","source":"shipping station"}}}],"type":"FeatureCollection"}