{"type":"FeatureCollection","features":[{"type":"Feature","geometry":{"type":"Point","coordinates":[36.2272897,49.988154]},"properties":{"osm_id":4364318120,"osm_type":"node","seamark_type":"harbour","display_class":"OTHER","min_zoom":12,"importance":1,"name":"Човнова станція \"Ластівка\"","ref":null,"common":{"type":"harbour"},"children":{"harbour":{"category":"marina"}},"osm_tags":{"leisure":"marina","name":"Човнова станція \"Ластівка\"","name:en":"Lastivka boat station","name:ru":"Лодочная станция \"Ласточка\"","name:uk":"Човнова станція \"Ластівка\"","seamark:harbour:category":"marina","seamark:type":"harbour"}}},{"type":"Feature","geometry":{"type":"Point","coordinates":[36.1478089,49.9602212]},"properties":{"osm_id":1032225843,"osm_type":"node","seamark_type":"harbour","display_class":"OTHER","min_zoom":12,"importance":1,"name":"Човнова станція Баварія","ref":null,"common":{"type":"harbour"},"children":{"harbour":{"category":"marina"}},"osm_tags":{"leisure":"marina","name":"Човнова станція Баварія","name:ru":"Лодочная станция Бавария","name:uk":"Човнова станція Баварія","seamark:harbour:category":"marina","seamark:type":"harbour"}}}],"type":"FeatureCollection"}