{"type":"FeatureCollection","features":[{"type":"Feature","geometry":{"type":"Point","coordinates":[34.4812741,49.6131658]},"properties":{"osm_id":13143805894,"osm_type":"node","seamark_type":"harbour","display_class":"OTHER","min_zoom":12,"importance":1,"name":null,"ref":null,"common":{"type":"harbour"},"children":{"harbour":{"category":"marina_no_facilities"}},"osm_tags":{"leisure":"marina","seamark:harbour:category":"marina_no_facilities","seamark:type":"harbour"}}},{"type":"Feature","geometry":{"type":"Polygon","coordinates":[[[34.5896083,49.5786319],[34.5895143,49.5786162],[34.5895574,49.5785077],[34.5895749,49.5784635],[34.5896753,49.5784803],[34.5896083,49.5786319]]]},"properties":{"osm_id":715344132,"osm_type":"way","seamark_type":"harbour","display_class":"OTHER","min_zoom":12,"importance":1,"name":null,"ref":null,"common":{"type":"harbour"},"children":{"harbour":{"category":"marina"}},"osm_tags":{"leisure":"marina","sanitary_dump_station":"no","seamark:harbour:category":"marina","seamark:type":"harbour"}}}],"type":"FeatureCollection"}