{"type":"FeatureCollection","features":[{"type":"Feature","geometry":{"type":"Point","coordinates":[-58.1383333,49.4816667]},"properties":{"osm_id":9355710046,"osm_type":"node","seamark_type":"light_minor","display_class":"OTHER","min_zoom":12,"importance":1,"name":null,"ref":null,"common":{"type":"light_minor"},"children":{"light":{"character":"Fl","colour":"white","period":"4","range":"6"}},"osm_tags":{"seamark:light:character":"Fl","seamark:light:colour":"white","seamark:light:period":"4","seamark:light:range":"6","seamark:type":"light_minor"}}},{"type":"Feature","geometry":{"type":"Point","coordinates":[-58.423953,49.0887117]},"properties":{"osm_id":13591376084,"osm_type":"node","seamark_type":"wreck","display_class":"OTHER","min_zoom":12,"importance":1,"name":"MSC Baltics III","ref":null,"common":{"type":"wreck"},"children":{"wreck":{"category":"hull_showing"}},"osm_tags":{"access":"yes","fixme":"Add area once imagery gets updated. Should be here per images, released by Canadian Coast Guard and Copernicus sat imagery.","historic":"wreck","name":"MSC Baltics III","seamark:type":"wreck","seamark:wreck:category":"hull_showing","wreck:date_sunk":"2025-02-15","wreck:visible_at_high_tide":"yes","wreck:visible_at_low_tide":"yes"}}}],"type":"FeatureCollection"}