{"type":"FeatureCollection","features":[{"type":"Feature","geometry":{"type":"Point","coordinates":[-119.5884391,49.5058808]},"properties":{"osm_id":5116163543,"osm_type":"node","seamark_type":"beacon_lateral","display_class":"BEACON","min_zoom":9,"importance":4,"name":null,"ref":null,"common":{"type":"beacon_lateral"},"children":{},"osm_tags":{"beacon_lateral:category":"port","seamark:type":"beacon_lateral"}}},{"type":"Feature","geometry":{"type":"Point","coordinates":[-119.5054276,49.8990946]},"properties":{"osm_id":13978640562,"osm_type":"node","seamark_type":"beacon_special_purpose","display_class":"BEACON","min_zoom":9,"importance":4,"name":"Manhattan Point","ref":"56","common":{"type":"beacon_special_purpose"},"children":{"beacon_special_purpose":{"shape":"pile"}},"osm_tags":{"man_made":"beacon","name":"Manhattan Point","ref":"56","seamark:beacon_special_purpose:shape":"pile","seamark:type":"beacon_special_purpose"}}},{"type":"Feature","geometry":{"type":"Point","coordinates":[-119.6589301,49.804481]},"properties":{"osm_id":1163148869,"osm_type":"node","seamark_type":"gate","display_class":"OTHER","min_zoom":12,"importance":1,"name":null,"ref":null,"common":{"type":"gate"},"children":{},"osm_tags":{"seamark:type":"gate","waterway":"lock_gate"}}},{"type":"Feature","geometry":{"type":"Point","coordinates":[-119.6529887,49.6024435]},"properties":{"osm_id":5786355697,"osm_type":"node","seamark_type":"harbour","display_class":"OTHER","min_zoom":12,"importance":1,"name":null,"ref":null,"common":{"type":"harbour"},"children":{"harbour":{"category":"marina"}},"osm_tags":{"leisure":"marina","seamark:harbour:category":"marina","seamark:type":"harbour","source":"NRCan-CanVec-10.0"}}},{"type":"Feature","geometry":{"type":"Point","coordinates":[-119.5254113,49.8765033]},"properties":{"osm_id":5793112762,"osm_type":"node","seamark_type":"harbour","display_class":"OTHER","min_zoom":12,"importance":1,"name":null,"ref":null,"common":{"type":"harbour"},"children":{"harbour":{"category":"marina"}},"osm_tags":{"leisure":"marina","seamark:harbour:category":"marina","seamark:type":"harbour","source":"NRCan-CanVec-10.0"}}},{"type":"Feature","geometry":{"type":"Point","coordinates":[-119.6465458,49.8069656]},"properties":{"osm_id":9054603902,"osm_type":"node","seamark_type":"gate","display_class":"OTHER","min_zoom":12,"importance":1,"name":null,"ref":null,"common":{"type":"gate"},"children":{},"osm_tags":{"seamark:type":"gate","waterway":"lock_gate"}}},{"type":"Feature","geometry":{"type":"Point","coordinates":[-119.6497494,49.8065165]},"properties":{"osm_id":9408886228,"osm_type":"node","seamark_type":"gate","display_class":"OTHER","min_zoom":12,"importance":1,"name":null,"ref":null,"common":{"type":"gate"},"children":{},"osm_tags":{"seamark:type":"gate","waterway":"lock_gate"}}},{"type":"Feature","geometry":{"type":"Point","coordinates":[-119.4996613,49.8914809]},"properties":{"osm_id":11901048002,"osm_type":"node","seamark_type":"gate","display_class":"OTHER","min_zoom":12,"importance":1,"name":null,"ref":null,"common":{"type":"gate"},"children":{},"osm_tags":{"seamark:type":"gate","waterway":"lock_gate"}}},{"type":"Feature","geometry":{"type":"Point","coordinates":[-119.4998316,49.8913957]},"properties":{"osm_id":11901048005,"osm_type":"node","seamark_type":"gate","display_class":"OTHER","min_zoom":12,"importance":1,"name":null,"ref":null,"common":{"type":"gate"},"children":{},"osm_tags":{"seamark:type":"gate","waterway":"lock_gate"}}},{"type":"Feature","geometry":{"type":"Point","coordinates":[-119.5302366,49.9670451]},"properties":{"osm_id":13278580797,"osm_type":"node","seamark_type":"gate","display_class":"OTHER","min_zoom":12,"importance":1,"name":null,"ref":null,"common":{"type":"gate"},"children":{},"osm_tags":{"seamark:type":"gate","waterway":"lock_gate"}}},{"type":"Feature","geometry":{"type":"Point","coordinates":[-119.4454657,49.8120442]},"properties":{"osm_id":13749950416,"osm_type":"node","seamark_type":"gate","display_class":"OTHER","min_zoom":12,"importance":1,"name":null,"ref":null,"common":{"type":"gate"},"children":{},"osm_tags":{"seamark:type":"gate","waterway":"lock_gate"}}},{"type":"Feature","geometry":{"type":"Polygon","coordinates":[[[-119.6534997,49.6023025],[-119.6526455,49.602337],[-119.6525951,49.6023364],[-119.6526273,49.6027692],[-119.6525678,49.6027751],[-119.6525706,49.602816],[-119.6525419,49.6028578],[-119.6523798,49.6028634],[-119.6523181,49.6028783],[-119.6522621,49.6029369],[-119.6522829,49.6030607],[-119.6523397,49.6031948],[-119.652356,49.6033053],[-119.6523397,49.6033631],[-119.6515861,49.6033331],[-119.6515818,49.6032978],[-119.6515488,49.6032671],[-119.6512886,49.6032113],[-119.65118,49.603188],[-119.6511097,49.6031797],[-119.6510251,49.6031797],[-119.6508486,49.6031955],[-119.650606,49.6031955],[-119.6504382,49.603188],[-119.6501052,49.6031992],[-119.6501382,49.6029684],[-119.650197,49.6029945],[-119.6502774,49.602988],[-119.6503577,49.6029396],[-119.6503233,49.6028206],[-119.6502501,49.6023574],[-119.6502357,49.602097],[-119.6502515,49.6020729],[-119.6502917,49.6020543],[-119.6511659,49.602029],[-119.6519858,49.6020764],[-119.6521239,49.6021054],[-119.6521328,49.6020217],[-119.6529274,49.6019978],[-119.6535225,49.6019901],[-119.6534997,49.6023025]]]},"properties":{"osm_id":976841033,"osm_type":"way","seamark_type":"harbour","display_class":"OTHER","min_zoom":12,"importance":1,"name":null,"ref":null,"common":{"type":"harbour"},"children":{"harbour":{"category":"marina"}},"osm_tags":{"leisure":"marina","seamark:harbour:category":"marina","seamark:type":"harbour"}}},{"type":"Feature","geometry":{"type":"Polygon","coordinates":[[[-119.5992626,49.5927098],[-119.5992803,49.5921009],[-119.5988633,49.5919259],[-119.5986306,49.5919575],[-119.5985877,49.5925126],[-119.5991764,49.5926846],[-119.5992626,49.5927098]]]},"properties":{"osm_id":976841034,"osm_type":"way","seamark_type":"harbour","display_class":"OTHER","min_zoom":12,"importance":1,"name":null,"ref":null,"common":{"type":"harbour"},"children":{"harbour":{"category":"marina"}},"osm_tags":{"leisure":"marina","seamark:harbour:category":"marina","seamark:type":"harbour"}}},{"type":"Feature","geometry":{"type":"Polygon","coordinates":[[[-119.5943538,49.5038871],[-119.5942975,49.5039009],[-119.5942282,49.5039321],[-119.5941702,49.5039691],[-119.5942645,49.5043064],[-119.5947072,49.5043205],[-119.595277,49.5042562],[-119.5952073,49.5040046],[-119.5952629,49.5039983],[-119.5952359,49.5039042],[-119.595085,49.5038994],[-119.5950196,49.5038799],[-119.594432,49.5038792],[-119.5943538,49.5038871]]]},"properties":{"osm_id":976841036,"osm_type":"way","seamark_type":"harbour","display_class":"OTHER","min_zoom":12,"importance":1,"name":null,"ref":null,"common":{"type":"harbour"},"children":{"harbour":{"category":"marina"}},"osm_tags":{"leisure":"marina","seamark:harbour:category":"marina","seamark:type":"harbour"}}},{"type":"Feature","geometry":{"type":"Polygon","coordinates":[[[-119.7364285,49.7727302],[-119.7366412,49.7728135],[-119.7369445,49.7725251],[-119.7366598,49.7723918],[-119.7364303,49.7725971],[-119.7364285,49.7727302]]]},"properties":{"osm_id":1011835230,"osm_type":"way","seamark_type":"harbour","display_class":"OTHER","min_zoom":12,"importance":1,"name":null,"ref":null,"common":{"type":"harbour"},"children":{"harbour":{"category":"marina"}},"osm_tags":{"leisure":"marina","seamark:harbour:category":"marina","seamark:type":"harbour"}}},{"type":"Feature","geometry":{"type":"Polygon","coordinates":[[[-119.7381404,49.7714266],[-119.7385038,49.7711667],[-119.7383155,49.7710804],[-119.7383542,49.7710439],[-119.7384794,49.7710979],[-119.7386054,49.7709805],[-119.7386801,49.7710142],[-119.7389849,49.7707356],[-119.7389124,49.7707063],[-119.7381722,49.7706588],[-119.7379508,49.7708689],[-119.7379573,49.7710273],[-119.7380004,49.7710172],[-119.7380487,49.7710303],[-119.7380689,49.7710552],[-119.7379659,49.7713405],[-119.7380358,49.7713753],[-119.7381404,49.7714266]]]},"properties":{"osm_id":1011835232,"osm_type":"way","seamark_type":"harbour","display_class":"OTHER","min_zoom":12,"importance":1,"name":null,"ref":null,"common":{"type":"harbour"},"children":{"harbour":{"category":"marina"}},"osm_tags":{"leisure":"marina","seamark:harbour:category":"marina","seamark:type":"harbour"}}},{"type":"Feature","geometry":{"type":"Polygon","coordinates":[[[-119.6500149,49.5960832],[-119.6496879,49.5964571],[-119.6496628,49.5964857],[-119.6489266,49.5967865],[-119.6481943,49.5961432],[-119.648773,49.5956856],[-119.6489269,49.5955633],[-119.6490828,49.595448],[-119.6500149,49.5960832]]]},"properties":{"osm_id":1107272324,"osm_type":"way","seamark_type":"harbour","display_class":"OTHER","min_zoom":12,"importance":1,"name":null,"ref":null,"common":{"type":"harbour"},"children":{"harbour":{"category":"marina"}},"osm_tags":{"leisure":"marina","seamark:harbour:category":"marina","seamark:type":"harbour"}}},{"type":"Feature","geometry":{"type":"Polygon","coordinates":[[[-119.535231,49.8923246],[-119.533882,49.8917093],[-119.5322043,49.8932357],[-119.5335537,49.8938511],[-119.535231,49.8923246]]]},"properties":{"osm_id":1536653050,"osm_type":"way","seamark_type":"harbour","display_class":"OTHER","min_zoom":12,"importance":1,"name":null,"ref":null,"common":{"type":"harbour"},"children":{"harbour":{"category":"marina"}},"osm_tags":{"leisure":"marina","seamark:harbour:category":"marina","seamark:type":"harbour"}}},{"type":"Feature","geometry":{"type":"Polygon","coordinates":[[[-119.4942262,49.844],[-119.493816,49.844162],[-119.4937474,49.8443905],[-119.4936788,49.844619],[-119.4943047,49.845214],[-119.4951337,49.8448513],[-119.4942262,49.844]]]},"properties":{"osm_id":1536653051,"osm_type":"way","seamark_type":"harbour","display_class":"OTHER","min_zoom":12,"importance":1,"name":null,"ref":null,"common":{"type":"harbour"},"children":{"harbour":{"category":"marina"}},"osm_tags":{"leisure":"marina","seamark:harbour:category":"marina","seamark:type":"harbour"}}},{"type":"Feature","geometry":{"type":"Polygon","coordinates":[[[-119.6222325,49.8142449],[-119.6209629,49.8142483],[-119.6204848,49.8153796],[-119.6220037,49.8155996],[-119.6221243,49.8153296],[-119.6222994,49.8153567],[-119.6223571,49.8149029],[-119.6223686,49.8148761],[-119.6224164,49.8147651],[-119.6224309,49.8145262],[-119.6222125,49.8145292],[-119.6221989,49.8144904],[-119.6222325,49.8142449]]]},"properties":{"osm_id":1536653052,"osm_type":"way","seamark_type":"harbour","display_class":"OTHER","min_zoom":12,"importance":1,"name":null,"ref":null,"common":{"type":"harbour"},"children":{"harbour":{"category":"marina"}},"osm_tags":{"leisure":"marina","seamark:harbour:category":"marina","seamark:type":"harbour"}}},{"type":"Feature","geometry":{"type":"Polygon","coordinates":[[[-119.6223402,49.8114311],[-119.6222826,49.8114306],[-119.6221309,49.8112049],[-119.6210848,49.810992],[-119.6213924,49.8102734],[-119.6226259,49.810547],[-119.622513,49.8106519],[-119.6223247,49.8110151],[-119.6223402,49.8114311]]]},"properties":{"osm_id":1536653053,"osm_type":"way","seamark_type":"harbour","display_class":"OTHER","min_zoom":12,"importance":1,"name":null,"ref":null,"common":{"type":"harbour"},"children":{"harbour":{"category":"marina"}},"osm_tags":{"leisure":"marina","seamark:harbour:category":"marina","seamark:type":"harbour"}}},{"type":"Feature","geometry":{"type":"Polygon","coordinates":[[[-119.7334191,49.7775915],[-119.7332864,49.7775621],[-119.732923,49.7774746],[-119.732501,49.7781981],[-119.7322917,49.7785449],[-119.7326794,49.7785698],[-119.7327502,49.7785406],[-119.732902,49.7784779],[-119.7334191,49.7775915]]]},"properties":{"osm_id":1536653054,"osm_type":"way","seamark_type":"harbour","display_class":"OTHER","min_zoom":12,"importance":1,"name":null,"ref":null,"common":{"type":"harbour"},"children":{"harbour":{"category":"marina"}},"osm_tags":{"leisure":"marina","seamark:harbour:category":"marina","seamark:type":"harbour"}}},{"type":"Feature","geometry":{"type":"Polygon","coordinates":[[[-119.5574434,49.8691851],[-119.5567983,49.8687751],[-119.5575411,49.8682895],[-119.5578402,49.8684795],[-119.5578431,49.8685275],[-119.5577766,49.8685676],[-119.5578272,49.8685982],[-119.5578302,49.8686325],[-119.5575903,49.8687892],[-119.5578229,49.868937],[-119.5574434,49.8691851]]]},"properties":{"osm_id":1288783817,"osm_type":"way","seamark_type":"harbour","display_class":"OTHER","min_zoom":12,"importance":1,"name":"Dockside Marine Centre","ref":null,"common":{"type":"harbour"},"children":{"harbour":{"category":"marina"}},"osm_tags":{"addr:housenumber":"1040","addr:street":"Stevens Road","leisure":"marina","name":"Dockside Marine Centre","phone":"+1 250 769 2229","seamark:harbour:category":"marina","seamark:type":"harbour","website":"https://www.docksidemarine.com/tow-stow-dry-marina/"}}},{"type":"Feature","geometry":{"type":"Polygon","coordinates":[[[-119.490455,49.8459106],[-119.4899911,49.845599],[-119.4887667,49.8470411],[-119.4887339,49.8471012],[-119.4884796,49.8475679],[-119.4882049,49.8476836],[-119.4891914,49.8481916],[-119.490159,49.8481199],[-119.4919516,49.8469183],[-119.490455,49.8459106]]]},"properties":{"osm_id":1536653049,"osm_type":"way","seamark_type":"harbour","display_class":"OTHER","min_zoom":12,"importance":1,"name":"Eldorado Marina","ref":null,"common":{"type":"harbour"},"children":{"harbour":{"category":"marina"}},"osm_tags":{"leisure":"marina","name":"Eldorado Marina","seamark:harbour:category":"marina","seamark:type":"harbour"}}},{"type":"Feature","geometry":{"type":"Polygon","coordinates":[[[-119.5012861,49.8868521],[-119.4994753,49.8864031],[-119.4994372,49.8864233],[-119.4994309,49.8864385],[-119.4994193,49.8864566],[-119.4994087,49.8864717],[-119.4993952,49.8864696],[-119.4993235,49.886566],[-119.49923,49.8866296],[-119.4990107,49.8867316],[-119.4990241,49.8867925],[-119.4989099,49.8868671],[-119.4986686,49.8870656],[-119.4986285,49.8870856],[-119.498594,49.8871029],[-119.498633,49.8871384],[-119.4984884,49.8873627],[-119.4985833,49.8874102],[-119.4985838,49.8874428],[-119.4984157,49.8876739],[-119.4983743,49.8876939],[-119.4988418,49.8876614],[-119.4990434,49.8873819],[-119.4995034,49.8874956],[-119.4997428,49.8872277],[-119.5010132,49.8872561],[-119.5012861,49.8868521]]]},"properties":{"osm_id":1536653048,"osm_type":"way","seamark_type":"harbour","display_class":"OTHER","min_zoom":12,"importance":1,"name":"Kelowna Downtown Marina","ref":null,"common":{"type":"harbour"},"children":{"harbour":{"category":"marina"}},"osm_tags":{"leisure":"marina","name":"Kelowna Downtown Marina","seamark:harbour:category":"marina","seamark:type":"harbour"}}},{"type":"Feature","geometry":{"type":"Polygon","coordinates":[[[-119.4967608,49.8902808],[-119.4969425,49.8902808],[-119.4980002,49.8902808],[-119.4980288,49.8902808],[-119.4987115,49.8902808],[-119.5011845,49.8904313],[-119.5018179,49.8901711],[-119.5020961,49.8877011],[-119.5014541,49.8874796],[-119.4988418,49.8876614],[-119.4983743,49.8876939],[-119.4982824,49.8877112],[-119.4981728,49.8877125],[-119.4978342,49.8876496],[-119.4977595,49.8878009],[-119.4976701,49.8880316],[-119.4976677,49.8880891],[-119.497683,49.8881394],[-119.4976744,49.8882011],[-119.4976438,49.8882522],[-119.4975697,49.8883117],[-119.4975464,49.8883968],[-119.497531,49.888496],[-119.4975311,49.8887471],[-119.4975072,49.888883],[-119.4975181,49.8889114],[-119.4975726,49.8890068],[-119.4976135,49.8891026],[-119.4976081,49.8892224],[-119.4967866,49.8892107],[-119.4967848,49.8892225],[-119.4967677,49.8892234],[-119.4967683,49.8893742],[-119.4967685,49.8894178],[-119.4967686,49.8894382],[-119.4967687,49.8894634],[-119.4967434,49.8894885],[-119.4967433,49.8896641],[-119.4967439,49.8897151],[-119.4967444,49.8898641],[-119.4967608,49.8901089],[-119.4967608,49.89021],[-119.4967608,49.8902808]]]},"properties":{"osm_id":363209313,"osm_type":"way","seamark_type":"harbour","display_class":"OTHER","min_zoom":12,"importance":1,"name":"Kelowna Yacht Club","ref":null,"common":{"type":"harbour"},"children":{"harbour":{"category":"marina"}},"osm_tags":{"leisure":"marina","name":"Kelowna Yacht Club","seamark:harbour:category":"marina","seamark:type":"harbour"}}},{"type":"Feature","geometry":{"type":"Polygon","coordinates":[[[-119.5884255,49.5058521],[-119.5875917,49.5055274],[-119.5874963,49.5055295],[-119.5874223,49.5054986],[-119.5874318,49.5054103],[-119.5874286,49.5053255],[-119.5873133,49.5050095],[-119.5872982,49.5048905],[-119.5872827,49.504838],[-119.5872242,49.5047959],[-119.5871921,49.5046685],[-119.5871954,49.5046343],[-119.5872675,49.5045476],[-119.5873512,49.5044574],[-119.5873102,49.5044416],[-119.5872708,49.5044207],[-119.587245,49.5043999],[-119.5872129,49.5043592],[-119.5872049,49.5043373],[-119.5872052,49.5043134],[-119.5870752,49.5043084],[-119.5870956,49.5043665],[-119.586934,49.5043924],[-119.5869139,49.5043465],[-119.5868678,49.5043536],[-119.5861022,49.5044888],[-119.5859164,49.5045147],[-119.5851405,49.5046527],[-119.5848097,49.5047148],[-119.5844855,49.5047839],[-119.5843028,49.5048274],[-119.5841941,49.5048583],[-119.5841287,49.5048858],[-119.5840151,49.5049356],[-119.5837324,49.5050774],[-119.5835312,49.5051911],[-119.5834471,49.5052363],[-119.5833906,49.5052772],[-119.5833092,49.5053328],[-119.5832218,49.505395],[-119.5831963,49.5054407],[-119.5832091,49.5054725],[-119.5834934,49.5060303],[-119.5836545,49.5063302],[-119.5838738,49.5067674],[-119.583947,49.5067986],[-119.583982,49.5068],[-119.5868457,49.5061336],[-119.5869471,49.5060788],[-119.5870157,49.5061006],[-119.5880532,49.5060055],[-119.5884255,49.5058521]]]},"properties":{"osm_id":975911417,"osm_type":"way","seamark_type":"harbour","display_class":"OTHER","min_zoom":12,"importance":1,"name":"Penticton Marina","ref":null,"common":{"type":"harbour"},"children":{"harbour":{"category":"marina"}},"osm_tags":{"leisure":"marina","name":"Penticton Marina","seamark:harbour:category":"marina","seamark:type":"harbour"}}},{"type":"Feature","geometry":{"type":"Polygon","coordinates":[[[-119.5277457,49.8750217],[-119.5272262,49.8744732],[-119.5264067,49.8743873],[-119.5238046,49.8755163],[-119.5227187,49.875754],[-119.5226321,49.8760663],[-119.5226009,49.8761831],[-119.5233948,49.8768862],[-119.5229312,49.8775209],[-119.5231795,49.877586],[-119.5235378,49.8775797],[-119.5241864,49.8774768],[-119.5250063,49.8770543],[-119.5248083,49.876767],[-119.5246864,49.8765898],[-119.5246421,49.8765252],[-119.5257032,49.8760459],[-119.5256066,49.8759145],[-119.5277457,49.8750217]]]},"properties":{"osm_id":979385968,"osm_type":"way","seamark_type":"harbour","display_class":"OTHER","min_zoom":12,"importance":1,"name":"Shelter Bay Marina","ref":null,"common":{"type":"harbour"},"children":{"harbour":{"category":"marina"}},"osm_tags":{"leisure":"marina","name":"Shelter Bay Marina","seamark:harbour:category":"marina","seamark:type":"harbour"}}},{"type":"Feature","geometry":{"type":"Polygon","coordinates":[[[-119.5803575,49.4519092],[-119.5806767,49.4514237],[-119.580775,49.4514236],[-119.5807763,49.4512725],[-119.5808696,49.4512726],[-119.5808725,49.4512129],[-119.5809711,49.451145],[-119.5810051,49.4511127],[-119.5811052,49.4509977],[-119.5811439,49.450984],[-119.5822965,49.450966],[-119.582336,49.4514684],[-119.5823602,49.4514913],[-119.5811927,49.4519718],[-119.5811622,49.4519702],[-119.5810794,49.451966],[-119.5803575,49.4519092]]]},"properties":{"osm_id":131563723,"osm_type":"way","seamark_type":"harbour","display_class":"OTHER","min_zoom":12,"importance":1,"name":"Skaha Marina","ref":null,"common":{"type":"harbour"},"children":{"harbour":{"category":"marina"}},"osm_tags":{"leisure":"marina","name":"Skaha Marina","seamark:harbour:category":"marina","seamark:type":"harbour"}}},{"type":"Feature","geometry":{"type":"Point","coordinates":[-119.4580963,49.0285192]},"properties":{"osm_id":3692702264,"osm_type":"node","seamark_type":"harbour","display_class":"OTHER","min_zoom":12,"importance":1,"name":"Starlite Marina & Beach Shop","ref":null,"common":{"type":"harbour"},"children":{"harbour":{"category":"marina"}},"osm_tags":{"leisure":"marina","name":"Starlite Marina & Beach Shop","seamark:harbour:category":"marina","seamark:type":"harbour"}}}],"type":"FeatureCollection"}