{"type":"FeatureCollection","features":[{"type":"Feature","geometry":{"type":"Point","coordinates":[143.8096667,50.304]},"properties":{"osm_id":9962733581,"osm_type":"node","seamark_type":"pile","display_class":"OTHER","min_zoom":12,"importance":1,"name":null,"ref":null,"common":{"type":"pile"},"children":{"pile":{"name":"N 5"}},"osm_tags":{"description":"50°18,24' N 143°48,58' E","seamark:pile:name":"N 5","seamark:type":"pile"}}},{"type":"Feature","geometry":{"type":"Point","coordinates":[143.8101667,50.3041667]},"properties":{"osm_id":9962733582,"osm_type":"node","seamark_type":"pile","display_class":"OTHER","min_zoom":12,"importance":1,"name":null,"ref":null,"common":{"type":"pile"},"children":{"pile":{"name":"N 4"}},"osm_tags":{"description":"50°18,25' N 143°48,61' E","seamark:pile:name":"N 4","seamark:type":"pile"}}},{"type":"Feature","geometry":{"type":"Point","coordinates":[143.8101667,50.3053333]},"properties":{"osm_id":9962733583,"osm_type":"node","seamark_type":"pile","display_class":"OTHER","min_zoom":12,"importance":1,"name":null,"ref":null,"common":{"type":"pile"},"children":{"pile":{"name":"N 3"}},"osm_tags":{"description":"50°18,32' N 143°48,61' E","seamark:pile:name":"N 3","seamark:type":"pile"}}},{"type":"Feature","geometry":{"type":"Point","coordinates":[143.8096667,50.306]},"properties":{"osm_id":9962733584,"osm_type":"node","seamark_type":"pile","display_class":"OTHER","min_zoom":12,"importance":1,"name":null,"ref":null,"common":{"type":"pile"},"children":{"pile":{"name":"N 2"}},"osm_tags":{"description":"50°18,36' N 143°48,58' E","seamark:pile:name":"N 2","seamark:type":"pile"}}},{"type":"Feature","geometry":{"type":"Point","coordinates":[143.8088333,50.3053333]},"properties":{"osm_id":9962733585,"osm_type":"node","seamark_type":"pile","display_class":"OTHER","min_zoom":12,"importance":1,"name":null,"ref":null,"common":{"type":"pile"},"children":{"pile":{"name":"N 1"}},"osm_tags":{"description":"50°18,32' N 143°48,53' E","seamark:pile:name":"N 1","seamark:type":"pile"}}},{"type":"Feature","geometry":{"type":"Point","coordinates":[143.8086667,50.3043333]},"properties":{"osm_id":9962733588,"osm_type":"node","seamark_type":"buoy_lateral","display_class":"OTHER","min_zoom":12,"importance":1,"name":null,"ref":null,"common":{"type":"buoy_lateral"},"children":{},"osm_tags":{"description":"50°18,26' N 143°48,52' E","seamark:type":"buoy_lateral"}}},{"type":"Feature","geometry":{"type":"LineString","coordinates":[[143.795,50.305],[143.8088333,50.3048333]]},"properties":{"osm_id":1087351524,"osm_type":"way","seamark_type":"pipeline_submarine","display_class":"OTHER","min_zoom":12,"importance":1,"name":null,"ref":null,"common":{"type":"pipeline_submarine"},"children":{},"osm_tags":{"seamark:type":"pipeline_submarine"}}}],"type":"FeatureCollection"}