{"type":"FeatureCollection","features":[{"type":"Feature","geometry":{"type":"Polygon","coordinates":[[[26.1264746,50.1142725],[26.1264161,50.1143095],[26.1265743,50.1144153],[26.1266521,50.1143689],[26.1264912,50.1142596],[26.1264746,50.1142725]]]},"properties":{"osm_id":979707122,"osm_type":"way","seamark_type":"harbour","display_class":"OTHER","min_zoom":12,"importance":1,"name":null,"ref":null,"common":{"type":"harbour"},"children":{"harbour":{"category":"marina"}},"osm_tags":{"leisure":"marina","seamark:harbour:category":"marina","seamark:type":"harbour"}}}],"type":"FeatureCollection"}