{"type":"FeatureCollection","features":[{"type":"Feature","geometry":{"type":"Polygon","coordinates":[[[-116.019762,50.515247],[-116.0197108,50.5151583],[-116.0196421,50.5151743],[-116.0196612,50.5152074],[-116.0196059,50.5152203],[-116.019638,50.5152759],[-116.019762,50.515247]]]},"properties":{"osm_id":1515750234,"osm_type":"way","seamark_type":"harbour","display_class":"OTHER","min_zoom":12,"importance":1,"name":"Pete's Marina","ref":null,"common":{"type":"harbour"},"children":{"harbour":{"category":"marina"}},"osm_tags":{"leisure":"marina","name":"Pete's Marina","seamark:harbour:category":"marina","seamark:type":"harbour"}}}],"type":"FeatureCollection"}