{"type":"FeatureCollection","features":[{"type":"Feature","geometry":{"type":"Point","coordinates":[-64.206674,50.220538]},"properties":{"osm_id":1920674788,"osm_type":"node","seamark_type":"light_major","display_class":"LIGHTHOUSE","min_zoom":7,"importance":5,"name":"Iles aux Perroquets","ref":null,"common":{"information":"Obscured by Mingan Island between 269° and 292° .Seasonal.Operates at night only.","name":"Iles aux Perroquets","type":"light_major"},"children":{"light":{"character":"Fl","colour":"white","height":"24","period":"5","range":"15","reference":"H 1958"}},"osm_tags":{"fixme":"could be a beacon with a light","man_made":"lighthouse","name":"Phare de l'Île-aux-Perroquets","seamark:information":"Obscured by Mingan Island between 269° and 292° .Seasonal.Operates at night only.","seamark:light:character":"Fl","seamark:light:colour":"white","seamark:light:height":"24","seamark:light:period":"5","seamark:light:range":"15","seamark:light:reference":"H 1958","seamark:name":"Iles aux Perroquets","seamark:type":"light_major","source":"US NGA Pub. 110. 2012-05-10.","wikidata":"Q16605095","wikipedia":"fr:Phare de l'Île-aux-Perroquets"}}}],"type":"FeatureCollection"}