{"type":"FeatureCollection","features":[{"type":"Feature","geometry":{"type":"Point","coordinates":[-122.5371973,50.0919732]},"properties":{"osm_id":13425851117,"osm_type":"node","seamark_type":"sea_area","display_class":"OTHER","min_zoom":12,"importance":1,"name":"Tenas Narrows","ref":null,"common":{"name":"Tenas Narrows","type":"sea_area"},"children":{"sea_area":{"category":"narrows"}},"osm_tags":{"name":"Tenas Narrows","place":"locality","seamark:name":"Tenas Narrows","seamark:sea_area:category":"narrows","seamark:type":"sea_area"}}}],"type":"FeatureCollection"}