{"type":"FeatureCollection","features":[{"type":"Feature","geometry":{"type":"Point","coordinates":[-7.9842263,51.8256104]},"properties":{"osm_id":322520718,"osm_type":"node","seamark_type":"light_major","display_class":"LIGHTHOUSE","min_zoom":7,"importance":5,"name":"Ballycotton","ref":null,"common":{"name":"Ballycotton","type":"light_major"},"children":{"fog_signal":{"category":"horn","group":"4","period":"90"},"light":{"1:character":"Fl","1:colour":"white","1:height":"59","1:period":"10","1:range":"21","1:sector_end":"48","1:sector_start":"238","1:sequence":"0.6+(9.4)","2:character":"Fl","2:colour":"red","2:height":"59","2:period":"10","2:range":"17","2:sector_end":"238","2:sector_start":"48","2:sequence":"0.6+(9.4)","reference":"A 5774"},"radio_station":{"category":"ais","mmsi":"992501093"}},"osm_tags":{"man_made":"lighthouse","name":"Ballycotton Lighthouse","seamark:fog_signal:category":"horn","seamark:fog_signal:group":"4","seamark:fog_signal:period":"90","seamark:light:1:character":"Fl","seamark:light:1:colour":"white","seamark:light:1:height":"59","seamark:light:1:period":"10","seamark:light:1:range":"21","seamark:light:1:sector_end":"48","seamark:light:1:sector_start":"238","seamark:light:1:sequence":"0.6+(9.4)","seamark:light:2:character":"Fl","seamark:light:2:colour":"red","seamark:light:2:height":"59","seamark:light:2:period":"10","seamark:light:2:range":"17","seamark:light:2:sector_end":"238","seamark:light:2:sector_start":"48","seamark:light:2:sequence":"0.6+(9.4)","seamark:light:reference":"A 5774","seamark:name":"Ballycotton","seamark:radio_station:category":"ais","seamark:radio_station:mmsi":"992501093","seamark:type":"light_major","source":"Commissioners of Irish Lights","wikidata":"Q25991243"}}},{"type":"Feature","geometry":{"type":"Point","coordinates":[-7.5864951,51.9928567]},"properties":{"osm_id":322520727,"osm_type":"node","seamark_type":"light_major","display_class":"LIGHTHOUSE","min_zoom":7,"importance":5,"name":"Mine Head","ref":null,"common":{"name":"Mine Head","source":"US Pub.114.(2020)","type":"light_major"},"children":{"light":{"1:character":"Fl","1:colour":"white","1:group":"4","1:height":"87","1:period":"30","1:range":"12","1:sector_end":"52","1:sector_start":"228","1:sequence":"0.1+(3.7),0.1+(3.7),0.1+(3.7),0.1+(18.5)","reference":"A 5778"},"radio_station":{"category":"ais","mmsi":"992501085"}},"osm_tags":{"man_made":"lighthouse","name":"Mionn Ard","name:en":"Mine Head Lighthouse","name:ga":"Mionn Ard","seamark:light:1:character":"Fl","seamark:light:1:colour":"white","seamark:light:1:group":"4","seamark:light:1:height":"87","seamark:light:1:period":"30","seamark:light:1:range":"12","seamark:light:1:sector_end":"52","seamark:light:1:sector_start":"228","seamark:light:1:sequence":"0.1+(3.7),0.1+(3.7),0.1+(3.7),0.1+(18.5)","seamark:light:reference":"A 5778","seamark:name":"Mine Head","seamark:radio_station:category":"ais","seamark:radio_station:mmsi":"992501085","seamark:source":"US Pub.114.(2020)","seamark:type":"light_major","source":"Commissioners of Irish Lights","wikidata":"Q13592550","wikipedia":"en:Mine Head Lighthouse"}}},{"type":"Feature","geometry":{"type":"Point","coordinates":[-7.8421133,51.9427974]},"properties":{"osm_id":322520679,"osm_type":"node","seamark_type":"light_major","display_class":"LIGHTHOUSE","min_zoom":7,"importance":5,"name":"Youghal","ref":null,"common":{"name":"Youghal","type":"light_major"},"children":{"light":{"1:character":"Fl","1:colour":"white","1:height":"24","1:period":"2.5","1:range":"17","1:sector_end":"273","1:sector_start":"183","1:sequence":"0.5+(2)","2:character":"Fl","2:colour":"red","2:height":"24","2:period":"2.5","2:range":"14","2:sector_end":"295","2:sector_start":"273","2:sequence":"0.5+(2)","3:character":"Fl","3:colour":"white","3:height":"24","3:period":"2.5","3:range":"17","3:sector_end":"307","3:sector_start":"295","3:sequence":"0.5+(2)","4:character":"Fl","4:colour":"red","4:height":"24","4:period":"2.5","4:range":"14","4:sector_end":"351","4:sector_start":"307","4:sequence":"0.5+(2)","5:character":"Fl","5:colour":"white","5:height":"24","5:period":"2.5","5:range":"17","5:sector_end":"3","5:sector_start":"351","5:sequence":"0.5+(2)","reference":"A 5776"}},"osm_tags":{"man_made":"lighthouse","name":"Youghal Lighthouse","seamark:light:1:character":"Fl","seamark:light:1:colour":"white","seamark:light:1:height":"24","seamark:light:1:period":"2.5","seamark:light:1:range":"17","seamark:light:1:sector_end":"273","seamark:light:1:sector_start":"183","seamark:light:1:sequence":"0.5+(2)","seamark:light:2:character":"Fl","seamark:light:2:colour":"red","seamark:light:2:height":"24","seamark:light:2:period":"2.5","seamark:light:2:range":"14","seamark:light:2:sector_end":"295","seamark:light:2:sector_start":"273","seamark:light:2:sequence":"0.5+(2)","seamark:light:3:character":"Fl","seamark:light:3:colour":"white","seamark:light:3:height":"24","seamark:light:3:period":"2.5","seamark:light:3:range":"17","seamark:light:3:sector_end":"307","seamark:light:3:sector_start":"295","seamark:light:3:sequence":"0.5+(2)","seamark:light:4:character":"Fl","seamark:light:4:colour":"red","seamark:light:4:height":"24","seamark:light:4:period":"2.5","seamark:light:4:range":"14","seamark:light:4:sector_end":"351","seamark:light:4:sector_start":"307","seamark:light:4:sequence":"0.5+(2)","seamark:light:5:character":"Fl","seamark:light:5:colour":"white","seamark:light:5:height":"24","seamark:light:5:period":"2.5","seamark:light:5:range":"17","seamark:light:5:sector_end":"3","seamark:light:5:sector_start":"351","seamark:light:5:sequence":"0.5+(2)","seamark:light:reference":"A 5776","seamark:name":"Youghal","seamark:type":"light_major","source":"Commissioners of Irish Lights","wikidata":"Q5856537"}}},{"type":"Feature","geometry":{"type":"Point","coordinates":[-7.8526568,51.8821894]},"properties":{"osm_id":1594847541,"osm_type":"node","seamark_type":"beacon_special_purpose","display_class":"BEACON","min_zoom":9,"importance":4,"name":"Capel Island","ref":null,"common":{"name":"Capel Island","reference":"CIL00300","type":"beacon_special_purpose"},"children":{"beacon_special_purpose":{"shape":"tower"}},"osm_tags":{"ruins":"tower","seamark:beacon_special_purpose:shape":"tower","seamark:name":"Capel Island","seamark:reference":"CIL00300","seamark:type":"beacon_special_purpose","source":"Commisioners of Irish Lights"}}},{"type":"Feature","geometry":{"type":"Point","coordinates":[-7.6183333,51.085]},"properties":{"osm_id":9364289479,"osm_type":"node","seamark_type":"wreck","display_class":"OTHER","min_zoom":12,"importance":1,"name":null,"ref":null,"common":{"type":"wreck"},"children":{"wreck":{"category":"non-dangerous","depth":"94"}},"osm_tags":{"depth":"94","seamark:type":"wreck","seamark:wreck:category":"non-dangerous","seamark:wreck:depth":"94"}}},{"type":"Feature","geometry":{"type":"Point","coordinates":[-7.6666667,51.0783333]},"properties":{"osm_id":9364289480,"osm_type":"node","seamark_type":"wreck","display_class":"OTHER","min_zoom":12,"importance":1,"name":null,"ref":null,"common":{"type":"wreck"},"children":{"wreck":{"category":"non-dangerous","depth":"92"}},"osm_tags":{"depth":"92","seamark:type":"wreck","seamark:wreck:category":"non-dangerous","seamark:wreck:depth":"92"}}},{"type":"Feature","geometry":{"type":"Point","coordinates":[-7.8633333,51.1366667]},"properties":{"osm_id":9364289483,"osm_type":"node","seamark_type":"wreck","display_class":"OTHER","min_zoom":12,"importance":1,"name":null,"ref":null,"common":{"type":"wreck"},"children":{"wreck":{"category":"non-dangerous","depth":"88"}},"osm_tags":{"depth":"88","seamark:type":"wreck","seamark:wreck:category":"non-dangerous","seamark:wreck:depth":"88"}}},{"type":"Feature","geometry":{"type":"Point","coordinates":[-7.9816667,51.1783333]},"properties":{"osm_id":9364289484,"osm_type":"node","seamark_type":"wreck","display_class":"OTHER","min_zoom":12,"importance":1,"name":null,"ref":null,"common":{"type":"wreck"},"children":{"wreck":{"category":"non-dangerous","depth":"89"}},"osm_tags":{"depth":"89","seamark:type":"wreck","seamark:wreck:category":"non-dangerous","seamark:wreck:depth":"89"}}},{"type":"Feature","geometry":{"type":"Point","coordinates":[-7.834217,51.914249]},"properties":{"osm_id":1594847543,"osm_type":"node","seamark_type":"buoy_cardinal","display_class":"OTHER","min_zoom":12,"importance":1,"name":"Bar Rocks","ref":null,"common":{"name":"Bar Rocks","reference":"CIL00320","type":"buoy_cardinal"},"children":{"buoy_cardinal":{"category":"south","colour":"yellow;black","colour_pattern":"horizontal"},"light":{"character":"Q+LFl","colour":"white","group":"6","period":"15"}},"osm_tags":{"seamark:buoy_cardinal:category":"south","seamark:buoy_cardinal:colour":"yellow;black","seamark:buoy_cardinal:colour_pattern":"horizontal","seamark:light:character":"Q+LFl","seamark:light:colour":"white","seamark:light:group":"6","seamark:light:period":"15","seamark:name":"Bar Rocks","seamark:reference":"CIL00320","seamark:type":"buoy_cardinal","source":"Commisioners of Irish Lights"}}},{"type":"Feature","geometry":{"type":"Point","coordinates":[-7.808816,51.922234]},"properties":{"osm_id":1594847548,"osm_type":"node","seamark_type":"buoy_cardinal","display_class":"OTHER","min_zoom":12,"importance":1,"name":"Blackball","ref":null,"common":{"name":"Blackball","reference":"CIL00330","type":"buoy_cardinal"},"children":{"buoy_cardinal":{"category":"east","colour":"black;yellow;black","colour_pattern":"horizontal"},"light":{"character":"Q","colour":"white","group":"3","period":"10"}},"osm_tags":{"seamark:buoy_cardinal:category":"east","seamark:buoy_cardinal:colour":"black;yellow;black","seamark:buoy_cardinal:colour_pattern":"horizontal","seamark:light:character":"Q","seamark:light:colour":"white","seamark:light:group":"3","seamark:light:period":"10","seamark:name":"Blackball","seamark:reference":"CIL00330","seamark:type":"buoy_cardinal","source":"Commisioners of Irish Lights"}}},{"type":"Feature","geometry":{"type":"Point","coordinates":[-7.946667,51.369722]},"properties":{"osm_id":4378096816,"osm_type":"node","seamark_type":"platform","display_class":"OTHER","min_zoom":12,"importance":1,"name":"KINSALE ALPHA NE","ref":null,"common":{"name":"KINSALE ALPHA NE","type":"platform"},"children":{"platform":{"category":"gas"},"radio_station":{"category":"ais","mmsi":"992501309"}},"osm_tags":{"aeroway":"helipad","man_made":"offshore_platform","name":"KINSALE ALPHA NE","note":"location based on AIS","operator":"Marathon","seamark:name":"KINSALE ALPHA NE","seamark:platform:category":"gas","seamark:radio_station:category":"ais","seamark:radio_station:mmsi":"992501309","seamark:type":"platform","website":"https://www.kinsale-energy.ie/living-offshore.html"}}},{"type":"Feature","geometry":{"type":"LineString","coordinates":[[-7.8440699,51.9514605],[-7.8438388,51.9515641],[-7.8435946,51.9516681]]},"properties":{"osm_id":482684892,"osm_type":"way","seamark_type":"small_craft_facility","display_class":"OTHER","min_zoom":12,"importance":1,"name":"RNLI Slipway","ref":null,"common":{"type":"small_craft_facility"},"children":{"small_craft_facility":{"category":"slipway"}},"osm_tags":{"highway":"service","leisure":"slipway","name":"RNLI Slipway","seamark:small_craft_facility:category":"slipway","seamark:type":"small_craft_facility","service":"slipway"}}},{"type":"Feature","geometry":{"type":"Point","coordinates":[-7.7091408,51.9432141]},"properties":{"osm_id":7859305873,"osm_type":"node","seamark_type":"wreck","display_class":"OTHER","min_zoom":12,"importance":1,"name":"Samson Wreck","ref":null,"common":{"type":"wreck"},"children":{"wreck":{"category":"hull_showing"}},"osm_tags":{"access":"private","description":"Heavily-damaged wreck of crane barge that broke free of its tug and ran aground.","historic":"wreck","name":"Samson Wreck","seamark:type":"wreck","seamark:wreck:category":"hull_showing","wikidata":"Q7410353","wikimedia_commons":"Category:Samson (ship, 1960)","wikipedia":"en:Samson (crane barge)","wreck:date_sunk":"1987","wreck:visible_at_high_tide":"yes","wreck:visible_at_low_tide":"yes"}}},{"type":"Feature","geometry":{"type":"Polygon","coordinates":[[[-7.8422537,51.9485876],[-7.8420499,51.9486123],[-7.84203,51.948545],[-7.8422509,51.9485178],[-7.8423769,51.9485159],[-7.8423796,51.9485857],[-7.8422537,51.9485876]]]},"properties":{"osm_id":854035493,"osm_type":"way","seamark_type":"rescue_station","display_class":"OTHER","min_zoom":12,"importance":1,"name":"Youghal Coast Guard Station","ref":null,"common":{"type":"rescue_station"},"children":{},"osm_tags":{"addr:city":"Youghal","addr:street":"O'Briens Place","building":"yes","emergency":"water_rescue","name":"Youghal Coast Guard Station","name:en":"Irish Coast Guard","name:ga":"Garda Costa na hÉireann","operator":"Irish Coast Guard","operator:website":"https://www.gov.ie/en/policy-information/eda64a-the-irish-coast-guard/","operator:wikidata":"Q4352932","operator:wikipedia":"Irish Coast Guard","seamark:type":"rescue_station"}}},{"type":"Feature","geometry":{"type":"Polygon","coordinates":[[[-7.844274,51.9513961],[-7.8441847,51.9514358],[-7.8443279,51.9515582],[-7.8442333,51.9516002],[-7.8440699,51.9514605],[-7.8440422,51.9514368],[-7.8441553,51.9513865],[-7.8442261,51.9513551],[-7.844254,51.9513789],[-7.844274,51.9513961]]]},"properties":{"osm_id":482684608,"osm_type":"way","seamark_type":"rescue_station","display_class":"OTHER","min_zoom":12,"importance":1,"name":"Youghal Lifeboat Station","ref":null,"common":{"name":"Youghal Lifeboat Station","type":"rescue_station"},"children":{"rescue_station":{"category":"lifeboat"}},"osm_tags":{"addr:city":"Youghal","addr:housename":"Lifeboat Station","addr:street":"The Mall","building":"yes","building:levels":"2","emergency":"water_rescue","image":"https://rnli.org/-/media/rnli/images/findmynearest/lifeboatstation/youghal-credit-rnli-youghal-16x9.ashx?as=1&h=563&la=en&w=1000&hash=A20F5BF4C0D4AE98BD09210DB408492CE44C1093","name":"Youghal Lifeboat Station","operator":"Royal National Lifeboat Institution","operator:short":"RNLI","operator:wikidata":"Q2166873","operator:wikipedia":"en:Royal National Lifeboat Institution","phone":"+353 24 92229","seamark:name":"Youghal Lifeboat Station","seamark:rescue_station:category":"lifeboat","seamark:type":"rescue_station","website":"https://rnli.org/find-my-nearest/lifeboat-stations/youghal-lifeboat-station"}}}],"type":"FeatureCollection"}