{"type":"FeatureCollection","features":[{"type":"Feature","geometry":{"type":"Point","coordinates":[23.215123,52.8528695]},"properties":{"osm_id":627390173,"osm_type":"node","seamark_type":"bridge","display_class":"OTHER","min_zoom":12,"importance":1,"name":null,"ref":null,"common":{"type":"bridge"},"children":{"bridge":{"category":"fixed"}},"osm_tags":{"obstacle":"bridge","seamark:bridge:category":"fixed","seamark:type":"bridge"}}},{"type":"Feature","geometry":{"type":"Point","coordinates":[23.7832733,52.9291346]},"properties":{"osm_id":1410769023,"osm_type":"node","seamark_type":"harbour","display_class":"OTHER","min_zoom":12,"importance":1,"name":null,"ref":null,"common":{"type":"harbour"},"children":{"harbour":{"category":"marina"}},"osm_tags":{"leisure":"marina","seamark:harbour:category":"marina","seamark:type":"harbour","shop":"canoe_hire"}}},{"type":"Feature","geometry":{"type":"Point","coordinates":[23.952294,52.1407467]},"properties":{"osm_id":3344541950,"osm_type":"node","seamark_type":"gate","display_class":"OTHER","min_zoom":12,"importance":1,"name":null,"ref":null,"common":{"type":"gate"},"children":{},"osm_tags":{"seamark:type":"gate","waterway":"lock_gate"}}},{"type":"Feature","geometry":{"type":"Point","coordinates":[23.9541112,52.1413671]},"properties":{"osm_id":3344541951,"osm_type":"node","seamark_type":"gate","display_class":"OTHER","min_zoom":12,"importance":1,"name":null,"ref":null,"common":{"type":"gate"},"children":{},"osm_tags":{"seamark:type":"gate","waterway":"lock_gate"}}},{"type":"Feature","geometry":{"type":"Point","coordinates":[23.7449527,52.0892305]},"properties":{"osm_id":4983397981,"osm_type":"node","seamark_type":"gate","display_class":"OTHER","min_zoom":12,"importance":1,"name":null,"ref":null,"common":{"type":"gate"},"children":{},"osm_tags":{"seamark:type":"gate","waterway":"lock_gate"}}},{"type":"Feature","geometry":{"type":"Point","coordinates":[23.8574996,52.6985964]},"properties":{"osm_id":8986547348,"osm_type":"node","seamark_type":"harbour","display_class":"OTHER","min_zoom":12,"importance":1,"name":null,"ref":null,"common":{"type":"harbour"},"children":{"harbour":{"category":"marina"}},"osm_tags":{"leisure":"marina","seamark:harbour:category":"marina","seamark:type":"harbour"}}},{"type":"Feature","geometry":{"type":"Polygon","coordinates":[[[23.7697141,52.9481667],[23.7700282,52.9481901],[23.7700735,52.9479386],[23.7701066,52.9479083],[23.7701495,52.9478715],[23.7702491,52.9477898],[23.7706533,52.9477759],[23.7707688,52.9482803],[23.7697141,52.9481667]]]},"properties":{"osm_id":518942669,"osm_type":"way","seamark_type":"harbour","display_class":"OTHER","min_zoom":12,"importance":1,"name":null,"ref":null,"common":{"type":"harbour"},"children":{"harbour":{"category":"marina"}},"osm_tags":{"leisure":"marina","seamark:harbour:category":"marina","seamark:type":"harbour"}}},{"type":"Feature","geometry":{"type":"Polygon","coordinates":[[[23.7609923,52.9438538],[23.7610133,52.9438456],[23.7610376,52.9438421],[23.7610624,52.9438438],[23.7610849,52.9438505],[23.7611006,52.9439006],[23.761312,52.9442706],[23.7618998,52.9441599],[23.7618447,52.9440627],[23.7619295,52.944045],[23.7619867,52.9441433],[23.7622503,52.9440862],[23.7621842,52.9439802],[23.7621986,52.9439526],[23.7622474,52.9439305],[23.7618774,52.9433789],[23.7618034,52.9433162],[23.7617014,52.9432701],[23.761581,52.9432447],[23.7607468,52.9431591],[23.7609923,52.9438538]]]},"properties":{"osm_id":518945896,"osm_type":"way","seamark_type":"harbour","display_class":"OTHER","min_zoom":12,"importance":1,"name":null,"ref":null,"common":{"type":"harbour"},"children":{"harbour":{"category":"marina"}},"osm_tags":{"leisure":"marina","seamark:harbour:category":"marina","seamark:type":"harbour"}}},{"type":"Feature","geometry":{"type":"LineString","coordinates":[[23.3571807,52.4094506],[23.3571914,52.4094781],[23.3571994,52.4094978]]},"properties":{"osm_id":1112892896,"osm_type":"way","seamark_type":"gate","display_class":"OTHER","min_zoom":12,"importance":1,"name":null,"ref":null,"common":{"type":"gate"},"children":{},"osm_tags":{"seamark:type":"gate","waterway":"lock_gate"}}},{"type":"Feature","geometry":{"type":"Point","coordinates":[23.7431046,52.0887443]},"properties":{"osm_id":4983397982,"osm_type":"node","seamark_type":"gate","display_class":"OTHER","min_zoom":12,"importance":1,"name":"Рачны шлюз","ref":null,"common":{"type":"gate"},"children":{},"osm_tags":{"name":"Рачны шлюз","name:be":"Рачны шлюз","name:ru":"Речной шлюз","seamark:type":"gate","waterway":"lock_gate"}}}],"type":"FeatureCollection"}