{"type":"FeatureCollection","features":[{"type":"Feature","geometry":{"type":"Polygon","coordinates":[[[71.8918792,52.3488303],[71.8919428,52.3488738],[71.892062,52.3488088],[71.8919535,52.3487344],[71.89188,52.3487745],[71.8918792,52.3488303]]]},"properties":{"osm_id":240865853,"osm_type":"way","seamark_type":"small_craft_facility","display_class":"OTHER","min_zoom":12,"importance":1,"name":"Есиль","ref":null,"common":{"type":"small_craft_facility"},"children":{"small_craft_facility":{"category":"fuel_station"}},"osm_tags":{"addr:housenumber":"141/3","addr:place":"7-ші шағын аудан","building":"yes","building:levels":"1","name":"Есиль","seamark:small_craft_facility:category":"fuel_station","seamark:type":"small_craft_facility","waterway":"fuel"}}}],"type":"FeatureCollection"}