{"type":"FeatureCollection","features":[{"type":"Feature","geometry":{"type":"Point","coordinates":[20.9878711,52.2966484]},"properties":{"osm_id":1670347670,"osm_type":"node","seamark_type":"gate","display_class":"OTHER","min_zoom":12,"importance":1,"name":null,"ref":null,"common":{"type":"gate"},"children":{},"osm_tags":{"seamark:type":"gate","waterway":"lock_gate"}}},{"type":"Feature","geometry":{"type":"Point","coordinates":[20.989181,52.2969125]},"properties":{"osm_id":1670347675,"osm_type":"node","seamark_type":"gate","display_class":"OTHER","min_zoom":12,"importance":1,"name":null,"ref":null,"common":{"type":"gate"},"children":{},"osm_tags":{"seamark:type":"gate","waterway":"lock_gate"}}},{"type":"Feature","geometry":{"type":"Point","coordinates":[20.6969551,52.4362125]},"properties":{"osm_id":3786408757,"osm_type":"node","seamark_type":"harbour","display_class":"OTHER","min_zoom":12,"importance":1,"name":null,"ref":null,"common":{"type":"harbour"},"children":{"harbour":{"category":"marina"}},"osm_tags":{"leisure":"marina","seamark:harbour:category":"marina","seamark:type":"harbour"}}},{"type":"Feature","geometry":{"type":"Point","coordinates":[20.5515001,52.0030818]},"properties":{"osm_id":4215978146,"osm_type":"node","seamark_type":"harbour","display_class":"OTHER","min_zoom":12,"importance":1,"name":null,"ref":null,"common":{"type":"harbour"},"children":{"harbour":{"category":"marina"}},"osm_tags":{"leisure":"marina","seamark:harbour:category":"marina","seamark:type":"harbour"}}},{"type":"Feature","geometry":{"type":"Point","coordinates":[20.6930984,52.4273092]},"properties":{"osm_id":4518034829,"osm_type":"node","seamark_type":"notice","display_class":"OTHER","min_zoom":12,"importance":1,"name":null,"ref":null,"common":{"type":"notice"},"children":{"notice":{"category":"channel_two_way","function":"recommendation"}},"osm_tags":{"seamark:notice:category":"channel_two_way","seamark:notice:function":"recommendation","seamark:type":"notice"}}},{"type":"Feature","geometry":{"type":"Point","coordinates":[20.6932268,52.4274358]},"properties":{"osm_id":4518034830,"osm_type":"node","seamark_type":"notice","display_class":"OTHER","min_zoom":12,"importance":1,"name":null,"ref":null,"common":{"type":"notice"},"children":{"notice":{"category":"no_passage_right","function":"prohibition"}},"osm_tags":{"seamark:notice:category":"no_passage_right","seamark:notice:function":"prohibition","seamark:type":"notice"}}},{"type":"Feature","geometry":{"type":"Point","coordinates":[20.6929462,52.4271591]},"properties":{"osm_id":4518034831,"osm_type":"node","seamark_type":"notice","display_class":"OTHER","min_zoom":12,"importance":1,"name":null,"ref":null,"common":{"type":"notice"},"children":{"notice":{"category":"no_passage_left","function":"prohibition"}},"osm_tags":{"seamark:notice:category":"no_passage_left","seamark:notice:function":"prohibition","seamark:type":"notice"}}},{"type":"Feature","geometry":{"type":"Point","coordinates":[20.6933707,52.4273821]},"properties":{"osm_id":4518034832,"osm_type":"node","seamark_type":"notice","display_class":"OTHER","min_zoom":12,"importance":1,"name":null,"ref":null,"common":{"type":"notice"},"children":{"notice":{"category":"no_passage_right","function":"prohibition"}},"osm_tags":{"seamark:notice:category":"no_passage_right","seamark:notice:function":"prohibition","seamark:type":"notice"}}},{"type":"Feature","geometry":{"type":"Point","coordinates":[20.6930913,52.4271062]},"properties":{"osm_id":4518034833,"osm_type":"node","seamark_type":"notice","display_class":"OTHER","min_zoom":12,"importance":1,"name":null,"ref":null,"common":{"type":"notice"},"children":{"notice":{"category":"no_passage_left","function":"prohibition"}},"osm_tags":{"seamark:notice:category":"no_passage_left","seamark:notice:function":"prohibition","seamark:type":"notice"}}},{"type":"Feature","geometry":{"type":"Point","coordinates":[20.6932362,52.4272492]},"properties":{"osm_id":4518034834,"osm_type":"node","seamark_type":"notice","display_class":"OTHER","min_zoom":12,"importance":1,"name":null,"ref":null,"common":{"type":"notice"},"children":{"notice":{"category":"channel_two_way","function":"recommendation"}},"osm_tags":{"seamark:notice:category":"channel_two_way","seamark:notice:function":"recommendation","seamark:type":"notice"}}},{"type":"Feature","geometry":{"type":"Point","coordinates":[20.8985487,52.3802398]},"properties":{"osm_id":4523473350,"osm_type":"node","seamark_type":"distance_mark","display_class":"OTHER","min_zoom":12,"importance":1,"name":null,"ref":null,"common":{"type":"distance_mark"},"children":{"distance_mark":{"category":"board","distance":"532","units":"kilometres"}},"osm_tags":{"distance":"532","highway":"milestone","river:waterway_distance":"532","seamark:distance_mark:category":"board","seamark:distance_mark:distance":"532","seamark:distance_mark:units":"kilometres","seamark:type":"distance_mark"}}},{"type":"Feature","geometry":{"type":"Point","coordinates":[20.9988493,52.3120081]},"properties":{"osm_id":4680869180,"osm_type":"node","seamark_type":"bridge","display_class":"OTHER","min_zoom":12,"importance":1,"name":null,"ref":null,"common":{"type":"bridge"},"children":{"bridge":{"category":"fixed","clearance_height":"5.2"}},"osm_tags":{"seamark:bridge:category":"fixed","seamark:bridge:clearance_height":"5.2","seamark:type":"bridge"}}},{"type":"Feature","geometry":{"type":"Point","coordinates":[20.2742531,52.2865198]},"properties":{"osm_id":4716826527,"osm_type":"node","seamark_type":"harbour","display_class":"OTHER","min_zoom":12,"importance":1,"name":null,"ref":null,"common":{"type":"harbour"},"children":{"harbour":{"category":"marina"}},"osm_tags":{"operator":"Motoprzystań","seamark:harbour:category":"marina","seamark:type":"harbour"}}},{"type":"Feature","geometry":{"type":"Point","coordinates":[20.6553654,52.4281672]},"properties":{"osm_id":5314781900,"osm_type":"node","seamark_type":"notice","display_class":"OTHER","min_zoom":12,"importance":1,"name":null,"ref":null,"common":{"type":"notice"},"children":{"notice":{"category":"channel_two_way","function":"information"}},"osm_tags":{"seamark:notice:category":"channel_two_way","seamark:notice:function":"information","seamark:type":"notice"}}},{"type":"Feature","geometry":{"type":"Point","coordinates":[20.655192,52.4283673]},"properties":{"osm_id":5314781901,"osm_type":"node","seamark_type":"notice","display_class":"OTHER","min_zoom":12,"importance":1,"name":null,"ref":null,"common":{"type":"notice"},"children":{"notice":{"category":"no_passage_right","function":"information"}},"osm_tags":{"seamark:notice:category":"no_passage_right","seamark:notice:function":"information","seamark:type":"notice"}}},{"type":"Feature","geometry":{"type":"Point","coordinates":[20.6555459,52.4279741]},"properties":{"osm_id":5314781902,"osm_type":"node","seamark_type":"notice","display_class":"OTHER","min_zoom":12,"importance":1,"name":null,"ref":null,"common":{"type":"notice"},"children":{"notice":{"category":"no_passage_left","function":"information"}},"osm_tags":{"seamark:notice:category":"no_passage_left","seamark:notice:function":"information","seamark:type":"notice"}}},{"type":"Feature","geometry":{"type":"Point","coordinates":[20.9513954,52.3064464]},"properties":{"osm_id":5314781903,"osm_type":"node","seamark_type":"notice","display_class":"OTHER","min_zoom":12,"importance":1,"name":null,"ref":null,"common":{"type":"notice"},"children":{"notice":{"category":"no_passage_left","function":"information"}},"osm_tags":{"seamark:notice:category":"no_passage_left","seamark:notice:function":"information","seamark:type":"notice"}}},{"type":"Feature","geometry":{"type":"Point","coordinates":[20.952035,52.3067331]},"properties":{"osm_id":5314781904,"osm_type":"node","seamark_type":"notice","display_class":"OTHER","min_zoom":12,"importance":1,"name":null,"ref":null,"common":{"type":"notice"},"children":{"notice":{"category":"no_passage_right","function":"information"}},"osm_tags":{"seamark:notice:category":"no_passage_right","seamark:notice:function":"information","seamark:type":"notice"}}},{"type":"Feature","geometry":{"type":"Point","coordinates":[20.9517568,52.3066022]},"properties":{"osm_id":5314781905,"osm_type":"node","seamark_type":"notice","display_class":"OTHER","min_zoom":12,"importance":1,"name":null,"ref":null,"common":{"type":"notice"},"children":{"notice":{"category":"channel_two_way","function":"information"}},"osm_tags":{"seamark:notice:category":"channel_two_way","seamark:notice:function":"information","seamark:type":"notice"}}},{"type":"Feature","geometry":{"type":"Point","coordinates":[20.9958189,52.2872766]},"properties":{"osm_id":5314781907,"osm_type":"node","seamark_type":"notice","display_class":"OTHER","min_zoom":12,"importance":1,"name":null,"ref":null,"common":{"type":"notice"},"children":{"notice":{"category":"no_passage_left","function":"information"}},"osm_tags":{"seamark:notice:category":"no_passage_left","seamark:notice:function":"information","seamark:type":"notice"}}},{"type":"Feature","geometry":{"type":"Point","coordinates":[20.9960472,52.2873904]},"properties":{"osm_id":5314781908,"osm_type":"node","seamark_type":"notice","display_class":"OTHER","min_zoom":12,"importance":1,"name":null,"ref":null,"common":{"type":"notice"},"children":{"notice":{"category":"channel_two_way","function":"information"}},"osm_tags":{"seamark:notice:category":"channel_two_way","seamark:notice:function":"information","seamark:type":"notice"}}},{"type":"Feature","geometry":{"type":"Point","coordinates":[20.9963301,52.2875082]},"properties":{"osm_id":5314781909,"osm_type":"node","seamark_type":"notice","display_class":"OTHER","min_zoom":12,"importance":1,"name":null,"ref":null,"common":{"type":"notice"},"children":{"notice":{"category":"no_passage_right","function":"information"}},"osm_tags":{"seamark:notice:category":"no_passage_right","seamark:notice:function":"information","seamark:type":"notice"}}},{"type":"Feature","geometry":{"type":"Point","coordinates":[20.4383812,52.7047117]},"properties":{"osm_id":7670843090,"osm_type":"node","seamark_type":"gate","display_class":"OTHER","min_zoom":12,"importance":1,"name":null,"ref":null,"common":{"type":"gate"},"children":{},"osm_tags":{"seamark:type":"gate","waterway":"lock_gate"}}},{"type":"Feature","geometry":{"type":"Point","coordinates":[20.9280699,52.3201568]},"properties":{"osm_id":11085520712,"osm_type":"node","seamark_type":"harbour","display_class":"OTHER","min_zoom":12,"importance":1,"name":null,"ref":null,"common":{"type":"harbour"},"children":{"harbour":{"category":"marina"}},"osm_tags":{"leisure":"marina","seamark:harbour:category":"marina","seamark:type":"harbour"}}},{"type":"Feature","geometry":{"type":"Point","coordinates":[20.9224623,52.3496833]},"properties":{"osm_id":12467098274,"osm_type":"node","seamark_type":"distance_mark","display_class":"OTHER","min_zoom":12,"importance":1,"name":null,"ref":null,"common":{"type":"distance_mark"},"children":{"distance_mark":{"category":"board","distance":"528","units":"kilometres"}},"osm_tags":{"distance":"528","river:waterway_distance":"528","seamark:distance_mark:category":"board","seamark:distance_mark:distance":"528","seamark:distance_mark:units":"kilometres","seamark:type":"distance_mark","waterway":"milestone"}}},{"type":"Feature","geometry":{"type":"Point","coordinates":[20.7418128,52.4114937]},"properties":{"osm_id":12662464128,"osm_type":"node","seamark_type":"distance_mark","display_class":"OTHER","min_zoom":12,"importance":1,"name":null,"ref":null,"common":{"type":"distance_mark"},"children":{"distance_mark":{"category":"board","distance":"544","units":"kilometres"}},"osm_tags":{"distance":"544","river:waterway_distance":"544","seamark:distance_mark:category":"board","seamark:distance_mark:distance":"544","seamark:distance_mark:units":"kilometres","seamark:type":"distance_mark","waterway":"milestone"}}},{"type":"Feature","geometry":{"type":"Point","coordinates":[20.6170993,52.4207649]},"properties":{"osm_id":12663303531,"osm_type":"node","seamark_type":"distance_mark","display_class":"OTHER","min_zoom":12,"importance":1,"name":null,"ref":null,"common":{"type":"distance_mark"},"children":{"distance_mark":{"category":"board","distance":"555","units":"kilometres"}},"osm_tags":{"distance":"555","river:waterway_distance":"555","seamark:distance_mark:category":"board","seamark:distance_mark:distance":"555","seamark:distance_mark:units":"kilometres","seamark:type":"distance_mark","waterway":"milestone"}}},{"type":"Feature","geometry":{"type":"Point","coordinates":[20.6659232,52.4319456]},"properties":{"osm_id":12717181372,"osm_type":"node","seamark_type":"distance_mark","display_class":"OTHER","min_zoom":12,"importance":1,"name":null,"ref":null,"common":{"type":"distance_mark"},"children":{"distance_mark":{"category":"board","distance":"551","units":"kilometres"}},"osm_tags":{"distance":"551","river:waterway_distance":"551","seamark:distance_mark:category":"board","seamark:distance_mark:distance":"551","seamark:distance_mark:units":"kilometres","seamark:type":"distance_mark","waterway":"milestone"}}},{"type":"Feature","geometry":{"type":"Point","coordinates":[20.6944984,52.4281141]},"properties":{"osm_id":12728226540,"osm_type":"node","seamark_type":"distance_mark","display_class":"OTHER","min_zoom":12,"importance":1,"name":null,"ref":null,"common":{"type":"distance_mark"},"children":{"distance_mark":{"category":"board","distance":"549","units":"kilometres"}},"osm_tags":{"distance":"549","river:waterway_distance":"549","seamark:distance_mark:category":"board","seamark:distance_mark:distance":"549","seamark:distance_mark:units":"kilometres","seamark:type":"distance_mark","waterway":"milestone"}}},{"type":"Feature","geometry":{"type":"Point","coordinates":[20.9278768,52.3199537]},"properties":{"osm_id":12798525479,"osm_type":"node","seamark_type":"distance_mark","display_class":"OTHER","min_zoom":12,"importance":1,"name":null,"ref":null,"common":{"type":"distance_mark"},"children":{"distance_mark":{"category":"board","distance":"525","units":"kilometres"}},"osm_tags":{"distance":"525","river:waterway_distance":"525","seamark:distance_mark:category":"board","seamark:distance_mark:distance":"525","seamark:distance_mark:units":"kilometres","seamark:type":"distance_mark","waterway":"milestone"}}},{"type":"Feature","geometry":{"type":"Point","coordinates":[20.9240659,52.3252994]},"properties":{"osm_id":13411030693,"osm_type":"node","seamark_type":"harbour","display_class":"OTHER","min_zoom":12,"importance":1,"name":null,"ref":null,"common":{"type":"harbour"},"children":{},"osm_tags":{"leisure":"marina","seamark:type":"harbour"}}},{"type":"Feature","geometry":{"type":"Polygon","coordinates":[[[20.2015905,52.2091887],[20.199722,52.2088846],[20.1988096,52.2087516],[20.198656,52.2093265],[20.1985994,52.2094974],[20.1989035,52.2094765],[20.1993943,52.2094798],[20.1996438,52.20946],[20.1997081,52.2094492],[20.2000836,52.2093861],[20.2003277,52.2093581],[20.2005691,52.2093532],[20.2008266,52.2093713],[20.2012128,52.2094157],[20.2015133,52.2094354],[20.2016724,52.2094354],[20.2018888,52.2094354],[20.2025808,52.2093894],[20.2029053,52.2093959],[20.2037368,52.2094584],[20.2041606,52.2094995],[20.2044395,52.2095093],[20.2045629,52.2094995],[20.2047131,52.2094452],[20.2048231,52.2093631],[20.2049679,52.2092217],[20.2044236,52.2087851],[20.2043779,52.2087483],[20.203564,52.208877],[20.2031777,52.2089381],[20.2021945,52.2090935],[20.2015905,52.2091887]]]},"properties":{"osm_id":1077766464,"osm_type":"way","seamark_type":"harbour","display_class":"OTHER","min_zoom":12,"importance":1,"name":null,"ref":null,"common":{"type":"harbour"},"children":{"harbour":{"category":"marina"}},"osm_tags":{"fixme":"Nie jestem pewien tego otagowania. Wzorowałem się na podobnych obiektach","leisure":"marina","seamark:harbour:category":"marina","seamark:type":"harbour"}}},{"type":"Feature","geometry":{"type":"Polygon","coordinates":[[[20.7174766,52.4333918],[20.718192,52.4333772],[20.718178,52.4337244],[20.7181679,52.4339743],[20.7183744,52.4339743],[20.7183696,52.434387],[20.7167228,52.4343958],[20.7168044,52.4339772],[20.7173613,52.4339714],[20.7174766,52.4333918]]]},"properties":{"osm_id":503434937,"osm_type":"way","seamark_type":"harbour","display_class":"OTHER","min_zoom":12,"importance":1,"name":"Koło Polskiego Związku Wędkarskiego nr 15","ref":null,"common":{"type":"harbour"},"children":{"harbour":{"category":"marina"}},"osm_tags":{"leisure":"marina","name":"Koło Polskiego Związku Wędkarskiego nr 15","seamark:harbour:category":"marina","seamark:type":"harbour"}}},{"type":"Feature","geometry":{"type":"Polygon","coordinates":[[[20.6932118,52.4355591],[20.6926206,52.4353565],[20.6922948,52.4351437],[20.6921107,52.4350235],[20.6918202,52.4348417],[20.6912297,52.4344723],[20.6916193,52.4340404],[20.6921186,52.4338487],[20.6922494,52.4337985],[20.6927265,52.4336115],[20.6928059,52.4336793],[20.6931751,52.4335361],[20.6930117,52.433362],[20.693597,52.4331203],[20.6939028,52.4329909],[20.6939572,52.4329311],[20.6948178,52.432817],[20.6948749,52.4328077],[20.6948032,52.433014],[20.6947651,52.4331236],[20.6947679,52.4337734],[20.6947699,52.4339385],[20.6947724,52.434136],[20.6947737,52.4343521],[20.6947799,52.4345053],[20.6948117,52.43469],[20.694835,52.4348597],[20.694882,52.4350577],[20.6949154,52.4352234],[20.6949941,52.4354165],[20.6950657,52.4355786],[20.6952024,52.4358661],[20.6952504,52.435929],[20.6953386,52.4361052],[20.6954279,52.4363097],[20.6946401,52.4362151],[20.6941254,52.4361323],[20.6939055,52.4360646],[20.6935997,52.4359441],[20.6932135,52.4358043],[20.6930152,52.4357325],[20.6931799,52.4356823],[20.6932118,52.4355591]]]},"properties":{"osm_id":474424365,"osm_type":"way","seamark_type":"harbour","display_class":"OTHER","min_zoom":12,"importance":1,"name":"Marina Modlin","ref":null,"common":{"type":"harbour"},"children":{"harbour":{"category":"marina"}},"osm_tags":{"leisure":"marina","name":"Marina Modlin","seamark:harbour:category":"marina","seamark:type":"harbour"}}},{"type":"Feature","geometry":{"type":"Point","coordinates":[20.951544,52.3067743]},"properties":{"osm_id":5314781906,"osm_type":"node","seamark_type":"bridge","display_class":"OTHER","min_zoom":12,"importance":1,"name":"Most Gdański","ref":null,"common":{"name":"Most Gdański","type":"bridge"},"children":{"bridge":{"category":"fixed","clearance_height":"8.1","clearance_width":"36"}},"osm_tags":{"seamark:bridge:category":"fixed","seamark:bridge:clearance_height":"8.1","seamark:bridge:clearance_width":"36","seamark:name":"Most Gdański","seamark:type":"bridge"}}},{"type":"Feature","geometry":{"type":"Point","coordinates":[20.9955047,52.2874182]},"properties":{"osm_id":5314781910,"osm_type":"node","seamark_type":"bridge","display_class":"OTHER","min_zoom":12,"importance":1,"name":"Most Gdański","ref":null,"common":{"name":"Most Gdański","type":"bridge"},"children":{"bridge":{"category":"fixed","clearance_height":"8.4","clearance_width":"36"}},"osm_tags":{"seamark:bridge:category":"fixed","seamark:bridge:clearance_height":"8.4","seamark:bridge:clearance_width":"36","seamark:name":"Most Gdański","seamark:type":"bridge"}}},{"type":"Feature","geometry":{"type":"Point","coordinates":[20.963854,52.4815044]},"properties":{"osm_id":10941992356,"osm_type":"node","seamark_type":"harbour","display_class":"OTHER","min_zoom":12,"importance":1,"name":"Przystań Hotelu Warszawianka","ref":null,"common":{"type":"harbour"},"children":{"harbour":{"category":"marina"}},"osm_tags":{"leisure":"marina","name":"Przystań Hotelu Warszawianka","operator":"Hotel Warszawianka","seamark:harbour:category":"marina","seamark:type":"harbour"}}},{"type":"Feature","geometry":{"type":"Point","coordinates":[20.1951117,52.3854829]},"properties":{"osm_id":3041822453,"osm_type":"node","seamark_type":"small_craft_facility","display_class":"OTHER","min_zoom":12,"importance":1,"name":"Przystań w Wyszogrodzie","ref":null,"common":{"type":"small_craft_facility"},"children":{"small_craft_facility":{"category":"slipway"}},"osm_tags":{"leisure":"slipway","name":"Przystań w Wyszogrodzie","seamark:small_craft_facility:category":"slipway","seamark:type":"small_craft_facility"}}}],"type":"FeatureCollection"}