{"type":"FeatureCollection","features":[{"type":"Feature","geometry":{"type":"Polygon","coordinates":[[[-7.5530401,52.0781202],[-7.5530409,52.0781319],[-7.5530353,52.0781431],[-7.5530239,52.0781525],[-7.553008,52.078159],[-7.5529896,52.0781618],[-7.5529706,52.0781608],[-7.5529533,52.0781558],[-7.5529404,52.0781482],[-7.552932,52.0781385],[-7.5529291,52.0781277],[-7.5529317,52.0781169],[-7.5529398,52.0781071],[-7.5529525,52.0780994],[-7.5529685,52.0780945],[-7.5529862,52.0780929],[-7.5530037,52.0780948],[-7.5530204,52.0781005],[-7.553033,52.0781093],[-7.5530401,52.0781202]]]},"properties":{"osm_id":761770779,"osm_type":"way","seamark_type":"light_major","display_class":"LIGHTHOUSE","min_zoom":7,"importance":5,"name":null,"ref":null,"common":{"type":"light_major"},"children":{},"osm_tags":{"building":"yes","man_made":"lighthouse","seamark:type":"light_major"}}},{"type":"Feature","geometry":{"type":"Polygon","coordinates":[[[-7.2976403,52.2999398],[-7.2976278,52.2999525],[-7.2976226,52.299967],[-7.297625,52.2999818],[-7.297635,52.2999953],[-7.2976514,52.3000063],[-7.2976726,52.3000135],[-7.2976965,52.3000163],[-7.2977205,52.3000143],[-7.2977437,52.3000072],[-7.2977616,52.2999958],[-7.2977722,52.2999813],[-7.2977743,52.2999655],[-7.2977676,52.2999502],[-7.2977529,52.2999372],[-7.2977319,52.2999279],[-7.297707,52.2999235],[-7.2976812,52.2999244],[-7.2976587,52.2999301],[-7.2976403,52.2999398]]]},"properties":{"osm_id":818892544,"osm_type":"way","seamark_type":"light_major","display_class":"LIGHTHOUSE","min_zoom":7,"importance":5,"name":null,"ref":null,"common":{"type":"light_major"},"children":{},"osm_tags":{"building":"yes","man_made":"lighthouse","seamark:type":"light_major"}}},{"type":"Feature","geometry":{"type":"Point","coordinates":[-7.5529837,52.0781281]},"properties":{"osm_id":322520693,"osm_type":"node","seamark_type":"light_minor","display_class":"LIGHTHOUSE","min_zoom":7,"importance":5,"name":"Ballinacourty Point.","ref":null,"common":{"name":"Ballinacourty Point.","type":"light_minor"},"children":{"light":{"1:character":"Fl","1:colour":"green","1:group":"2","1:height":"16","1:period":"10","1:range":"8","1:sector_end":"274","1:sector_start":"245","1:sequence":"0.5+(1),0.5+(8)","2:character":"Fl","2:colour":"white","2:group":"2","2:height":"16","2:period":"10","2:range":"10","2:sector_end":"302","2:sector_start":"274","2:sequence":"0.5+(1),0.5+(8)","3:character":"Fl","3:colour":"red","3:group":"2","3:height":"16","3:period":"10","3:range":"8","3:sector_end":"325","3:sector_start":"302","3:sequence":"0.5+(1),0.5+(8)","4:character":"Fl","4:colour":"white","4:group":"2","4:height":"16","4:period":"10","4:range":"10","4:sector_end":"117","4:sector_start":"325","4:sequence":"0.5+(1),0.5+(8)","reference":"A 5782"}},"osm_tags":{"man_made":"lighthouse","name":"Ballinacourty Point Lighthouse","seamark:light:1:character":"Fl","seamark:light:1:colour":"green","seamark:light:1:group":"2","seamark:light:1:height":"16","seamark:light:1:period":"10","seamark:light:1:range":"8","seamark:light:1:sector_end":"274","seamark:light:1:sector_start":"245","seamark:light:1:sequence":"0.5+(1),0.5+(8)","seamark:light:2:character":"Fl","seamark:light:2:colour":"white","seamark:light:2:group":"2","seamark:light:2:height":"16","seamark:light:2:period":"10","seamark:light:2:range":"10","seamark:light:2:sector_end":"302","seamark:light:2:sector_start":"274","seamark:light:2:sequence":"0.5+(1),0.5+(8)","seamark:light:3:character":"Fl","seamark:light:3:colour":"red","seamark:light:3:group":"2","seamark:light:3:height":"16","seamark:light:3:period":"10","seamark:light:3:range":"8","seamark:light:3:sector_end":"325","seamark:light:3:sector_start":"302","seamark:light:3:sequence":"0.5+(1),0.5+(8)","seamark:light:4:character":"Fl","seamark:light:4:colour":"white","seamark:light:4:group":"2","seamark:light:4:height":"16","seamark:light:4:period":"10","seamark:light:4:range":"10","seamark:light:4:sector_end":"117","seamark:light:4:sector_start":"325","seamark:light:4:sequence":"0.5+(1),0.5+(8)","seamark:light:reference":"A 5782","seamark:name":"Ballinacourty Point.","seamark:type":"light_minor","source":"Commissioners of Irish Lights","wikidata":"Q28333614"}}},{"type":"Feature","geometry":{"type":"Point","coordinates":[-7.0859833,52.25075]},"properties":{"osm_id":1561084514,"osm_type":"node","seamark_type":"light_minor","display_class":"OTHER","min_zoom":12,"importance":1,"name":null,"ref":null,"common":{"type":"light_minor"},"children":{"light":{"1:character":"Fl","1:colour":"red","1:height":"6","1:period":"6","1:range":"2","1:sector_end":"161","1:sector_start":"111","1:sequence":"0.3+(5.7)","2:character":"Fl","2:colour":"green","2:height":"6","2:period":"6","2:range":"2","2:sector_end":"234","2:sector_start":"161","2:sequence":"0.3+(5.7)","3:character":"Fl","3:colour":"white","3:height":"6","3:period":"6","3:range":"2","3:sector_end":"111","3:sector_start":"234","3:sequence":"0.3+(5.7)","reference":"A 5826"}},"osm_tags":{"seamark:light:1:character":"Fl","seamark:light:1:colour":"red","seamark:light:1:height":"6","seamark:light:1:period":"6","seamark:light:1:range":"2","seamark:light:1:sector_end":"161","seamark:light:1:sector_start":"111","seamark:light:1:sequence":"0.3+(5.7)","seamark:light:2:character":"Fl","seamark:light:2:colour":"green","seamark:light:2:height":"6","seamark:light:2:period":"6","seamark:light:2:range":"2","seamark:light:2:sector_end":"234","seamark:light:2:sector_start":"161","seamark:light:2:sequence":"0.3+(5.7)","seamark:light:3:character":"Fl","seamark:light:3:colour":"white","seamark:light:3:height":"6","seamark:light:3:period":"6","seamark:light:3:range":"2","seamark:light:3:sector_end":"111","seamark:light:3:sector_start":"234","seamark:light:3:sequence":"0.3+(5.7)","seamark:light:reference":"A 5826","seamark:type":"light_minor","source":"US NGA Pub. 114. 2011-05-26."}}},{"type":"Feature","geometry":{"type":"Point","coordinates":[-7.03095,52.2546167]},"properties":{"osm_id":1561084540,"osm_type":"node","seamark_type":"light_minor","display_class":"OTHER","min_zoom":12,"importance":1,"name":null,"ref":null,"common":{"type":"light_minor"},"children":{"light":{"category":"upper","character":"Q","colour":"white","height":"15","reference":"A 5820"}},"osm_tags":{"seamark:light:category":"upper","seamark:light:character":"Q","seamark:light:colour":"white","seamark:light:height":"15","seamark:light:reference":"A 5820","seamark:type":"light_minor","source":"US NGA Pub. 114. 2011-05-26."}}},{"type":"Feature","geometry":{"type":"Point","coordinates":[-7.0396667,52.25535]},"properties":{"osm_id":1561084541,"osm_type":"node","seamark_type":"light_minor","display_class":"OTHER","min_zoom":12,"importance":1,"name":null,"ref":null,"common":{"type":"light_minor"},"children":{"light":{"category":"lower","character":"Oc","colour":"red","height":"8","period":"6","range":"5","reference":"A 5818"}},"osm_tags":{"seamark:light:category":"lower","seamark:light:character":"Oc","seamark:light:colour":"red","seamark:light:height":"8","seamark:light:period":"6","seamark:light:range":"5","seamark:light:reference":"A 5818","seamark:type":"light_minor","source":"US NGA Pub. 114. 2011-05-26."}}},{"type":"Feature","geometry":{"type":"Point","coordinates":[-7.0256167,52.2715333]},"properties":{"osm_id":1561084554,"osm_type":"node","seamark_type":"light_minor","display_class":"OTHER","min_zoom":12,"importance":1,"name":null,"ref":null,"common":{"type":"light_minor"},"children":{"light":{"category":"upper","character":"Q","colour":"white","height":"12","reference":"A 5814.1"}},"osm_tags":{"seamark:light:category":"upper","seamark:light:character":"Q","seamark:light:colour":"white","seamark:light:height":"12","seamark:light:reference":"A 5814.1","seamark:type":"light_minor","source":"US NGA Pub. 114. 2011-05-26."}}},{"type":"Feature","geometry":{"type":"Point","coordinates":[-7.0152,52.2732]},"properties":{"osm_id":1561084555,"osm_type":"node","seamark_type":"light_minor","display_class":"OTHER","min_zoom":12,"importance":1,"name":null,"ref":null,"common":{"type":"light_minor"},"children":{"light":{"1:category":"lower","1:character":"Fl","1:colour":"white","1:height":"5","1:period":"2.5","1:range":"3","1:sector_end":"20","1:sector_start":"222","1:sequence":"0.3+(2.2)","2:category":"lower","2:character":"Fl","2:colour":"red","2:height":"5","2:period":"2.5","2:range":"3","2:sector_end":"57","2:sector_start":"20","2:sequence":"0.3+(2.2)","3:category":"lower","3:character":"Fl","3:colour":"white","3:height":"5","3:period":"2.5","3:range":"3","3:sector_end":"107","3:sector_start":"57","3:sequence":"0.3+(2.2)","reference":"A 5814"}},"osm_tags":{"seamark:light:1:category":"lower","seamark:light:1:character":"Fl","seamark:light:1:colour":"white","seamark:light:1:height":"5","seamark:light:1:period":"2.5","seamark:light:1:range":"3","seamark:light:1:sector_end":"20","seamark:light:1:sector_start":"222","seamark:light:1:sequence":"0.3+(2.2)","seamark:light:2:category":"lower","seamark:light:2:character":"Fl","seamark:light:2:colour":"red","seamark:light:2:height":"5","seamark:light:2:period":"2.5","seamark:light:2:range":"3","seamark:light:2:sector_end":"57","seamark:light:2:sector_start":"20","seamark:light:2:sequence":"0.3+(2.2)","seamark:light:3:category":"lower","seamark:light:3:character":"Fl","seamark:light:3:colour":"white","seamark:light:3:height":"5","seamark:light:3:period":"2.5","seamark:light:3:range":"3","seamark:light:3:sector_end":"107","seamark:light:3:sector_start":"57","seamark:light:3:sequence":"0.3+(2.2)","seamark:light:reference":"A 5814","seamark:type":"light_minor","source":"US NGA Pub. 114. 2011-05-26."}}},{"type":"Feature","geometry":{"type":"Point","coordinates":[-7.6181387,52.0900616]},"properties":{"osm_id":1779037855,"osm_type":"node","seamark_type":"harbour","display_class":"OTHER","min_zoom":12,"importance":1,"name":null,"ref":null,"common":{"type":"harbour"},"children":{"harbour":{"category":"marina"}},"osm_tags":{"leisure":"marina","seamark:harbour:category":"marina","seamark:type":"harbour"}}},{"type":"Feature","geometry":{"type":"Point","coordinates":[-7.1044157,52.26081]},"properties":{"osm_id":1835385455,"osm_type":"node","seamark_type":"harbour","display_class":"OTHER","min_zoom":12,"importance":1,"name":null,"ref":null,"common":{"type":"harbour"},"children":{"harbour":{"category":"marina"}},"osm_tags":{"leisure":"marina","seamark:harbour:category":"marina","seamark:type":"harbour"}}},{"type":"Feature","geometry":{"type":"Point","coordinates":[-7.1067438,52.2616243]},"properties":{"osm_id":1835385469,"osm_type":"node","seamark_type":"harbour","display_class":"OTHER","min_zoom":12,"importance":1,"name":null,"ref":null,"common":{"type":"harbour"},"children":{"harbour":{"category":"marina"}},"osm_tags":{"leisure":"marina","seamark:harbour:category":"marina","seamark:type":"harbour"}}},{"type":"Feature","geometry":{"type":"Point","coordinates":[-7.1592775,52.1534174]},"properties":{"osm_id":2804821842,"osm_type":"node","seamark_type":"small_craft_facility","display_class":"OTHER","min_zoom":12,"importance":1,"name":null,"ref":null,"common":{"type":"small_craft_facility"},"children":{"small_craft_facility":{"category":"slipway"}},"osm_tags":{"leisure":"slipway","seamark:small_craft_facility:category":"slipway","seamark:type":"small_craft_facility"}}},{"type":"Feature","geometry":{"type":"Point","coordinates":[-7.0049378,52.2736895]},"properties":{"osm_id":9129472592,"osm_type":"node","seamark_type":"buoy_lateral","display_class":"OTHER","min_zoom":12,"importance":1,"name":null,"ref":null,"common":{"type":"buoy_lateral"},"children":{},"osm_tags":{"seamark:type":"buoy_lateral","source":"Bing"}}},{"type":"Feature","geometry":{"type":"Point","coordinates":[-7.0172733,52.2708644]},"properties":{"osm_id":9129472593,"osm_type":"node","seamark_type":"buoy_lateral","display_class":"OTHER","min_zoom":12,"importance":1,"name":null,"ref":null,"common":{"type":"buoy_lateral"},"children":{},"osm_tags":{"seamark:type":"buoy_lateral","source":"Bing"}}},{"type":"Feature","geometry":{"type":"Point","coordinates":[-7.0222234,52.2700897]},"properties":{"osm_id":9129472594,"osm_type":"node","seamark_type":"buoy_lateral","display_class":"OTHER","min_zoom":12,"importance":1,"name":null,"ref":null,"common":{"type":"buoy_lateral"},"children":{},"osm_tags":{"seamark:type":"buoy_lateral","source":"Bing"}}},{"type":"Feature","geometry":{"type":"Point","coordinates":[-7.0294859,52.2656927]},"properties":{"osm_id":9129472595,"osm_type":"node","seamark_type":"buoy_lateral","display_class":"OTHER","min_zoom":12,"importance":1,"name":null,"ref":null,"common":{"type":"buoy_lateral"},"children":{"buoy_lateral":{"colour":"red"}},"osm_tags":{"seamark:buoy_lateral:colour":"red","seamark:type":"buoy_lateral","source":"Bing"}}},{"type":"Feature","geometry":{"type":"Point","coordinates":[-7.0336735,52.2617675]},"properties":{"osm_id":9129472596,"osm_type":"node","seamark_type":"buoy_lateral","display_class":"OTHER","min_zoom":12,"importance":1,"name":null,"ref":null,"common":{"type":"buoy_lateral"},"children":{"buoy_lateral":{"colour":"red"}},"osm_tags":{"seamark:buoy_lateral:colour":"red","seamark:type":"buoy_lateral","source":"Bing"}}},{"type":"Feature","geometry":{"type":"Point","coordinates":[-7.0347066,52.2595731]},"properties":{"osm_id":9129472597,"osm_type":"node","seamark_type":"buoy_lateral","display_class":"OTHER","min_zoom":12,"importance":1,"name":null,"ref":null,"common":{"type":"buoy_lateral"},"children":{"buoy_lateral":{"colour":"red"}},"osm_tags":{"seamark:buoy_lateral:colour":"red","seamark:type":"buoy_lateral"}}},{"type":"Feature","geometry":{"type":"Point","coordinates":[-7.0390329,52.2568628]},"properties":{"osm_id":9129472598,"osm_type":"node","seamark_type":"buoy_lateral","display_class":"OTHER","min_zoom":12,"importance":1,"name":null,"ref":null,"common":{"type":"buoy_lateral"},"children":{"buoy_lateral":{"colour":"green"}},"osm_tags":{"seamark:buoy_lateral:colour":"green","seamark:type":"buoy_lateral","source":"Bing"}}},{"type":"Feature","geometry":{"type":"Point","coordinates":[-7.0420194,52.2562605]},"properties":{"osm_id":9129472599,"osm_type":"node","seamark_type":"buoy_lateral","display_class":"OTHER","min_zoom":12,"importance":1,"name":null,"ref":null,"common":{"type":"buoy_lateral"},"children":{"buoy_lateral":{"colour":"green"}},"osm_tags":{"seamark:buoy_lateral:colour":"green","seamark:type":"buoy_lateral"}}},{"type":"Feature","geometry":{"type":"Point","coordinates":[-7.034737,52.2582827]},"properties":{"osm_id":9129472600,"osm_type":"node","seamark_type":"buoy_lateral","display_class":"OTHER","min_zoom":12,"importance":1,"name":null,"ref":null,"common":{"type":"buoy_lateral"},"children":{"buoy_lateral":{"colour":"red"}},"osm_tags":{"seamark:buoy_lateral:colour":"red","seamark:type":"buoy_lateral","source":"Bing"}}},{"type":"Feature","geometry":{"type":"Point","coordinates":[-7.0516202,52.2558271]},"properties":{"osm_id":9129472602,"osm_type":"node","seamark_type":"buoy_lateral","display_class":"OTHER","min_zoom":12,"importance":1,"name":null,"ref":null,"common":{"type":"buoy_lateral"},"children":{"buoy_lateral":{"colour":"red"}},"osm_tags":{"seamark:buoy_lateral:colour":"red","seamark:type":"buoy_lateral","source":"Bing"}}},{"type":"Feature","geometry":{"type":"Point","coordinates":[-7.0540342,52.2568203]},"properties":{"osm_id":9129472603,"osm_type":"node","seamark_type":"buoy_lateral","display_class":"OTHER","min_zoom":12,"importance":1,"name":null,"ref":null,"common":{"type":"buoy_lateral"},"children":{"buoy_lateral":{"colour":"green"}},"osm_tags":{"seamark:buoy_lateral:colour":"green","seamark:type":"buoy_lateral","source":"Bing"}}},{"type":"Feature","geometry":{"type":"Point","coordinates":[-7.0583008,52.2566348]},"properties":{"osm_id":9129472605,"osm_type":"node","seamark_type":"buoy_lateral","display_class":"OTHER","min_zoom":12,"importance":1,"name":null,"ref":null,"common":{"type":"buoy_lateral"},"children":{"buoy_lateral":{"colour":"red"}},"osm_tags":{"seamark:buoy_lateral:colour":"red","seamark:type":"buoy_lateral"}}},{"type":"Feature","geometry":{"type":"Point","coordinates":[-7.0628981,52.257528]},"properties":{"osm_id":9129472606,"osm_type":"node","seamark_type":"buoy_lateral","display_class":"OTHER","min_zoom":12,"importance":1,"name":null,"ref":null,"common":{"type":"buoy_lateral"},"children":{"buoy_lateral":{"colour":"green"}},"osm_tags":{"seamark:buoy_lateral:colour":"green","seamark:type":"buoy_lateral"}}},{"type":"Feature","geometry":{"type":"Point","coordinates":[-7.062823,52.2569238]},"properties":{"osm_id":9129472607,"osm_type":"node","seamark_type":"buoy_lateral","display_class":"OTHER","min_zoom":12,"importance":1,"name":null,"ref":null,"common":{"type":"buoy_lateral"},"children":{"buoy_lateral":{"colour":"red"}},"osm_tags":{"seamark:buoy_lateral:colour":"red","seamark:type":"buoy_lateral"}}},{"type":"Feature","geometry":{"type":"Point","coordinates":[-7.0057919,52.2830191]},"properties":{"osm_id":9129532571,"osm_type":"node","seamark_type":"buoy_lateral","display_class":"OTHER","min_zoom":12,"importance":1,"name":null,"ref":null,"common":{"type":"buoy_lateral"},"children":{"buoy_lateral":{"colour":"green"}},"osm_tags":{"seamark:buoy_lateral:colour":"green","seamark:type":"buoy_lateral","source":"Bing"}}},{"type":"Feature","geometry":{"type":"Point","coordinates":[-7.0109204,52.2877566]},"properties":{"osm_id":9129532572,"osm_type":"node","seamark_type":"buoy_lateral","display_class":"OTHER","min_zoom":12,"importance":1,"name":null,"ref":null,"common":{"type":"buoy_lateral"},"children":{"buoy_lateral":{"colour":"red"}},"osm_tags":{"seamark:buoy_lateral:colour":"red","seamark:type":"buoy_lateral","source":"Bing"}}},{"type":"Feature","geometry":{"type":"Point","coordinates":[-7.0186419,52.2970771]},"properties":{"osm_id":9129532573,"osm_type":"node","seamark_type":"buoy_lateral","display_class":"OTHER","min_zoom":12,"importance":1,"name":null,"ref":null,"common":{"type":"buoy_lateral"},"children":{"buoy_lateral":{"colour":"red"}},"osm_tags":{"seamark:buoy_lateral:colour":"red","seamark:type":"buoy_lateral","source":"Bing"}}},{"type":"Feature","geometry":{"type":"Point","coordinates":[-7.0169762,52.2964206]},"properties":{"osm_id":9129532574,"osm_type":"node","seamark_type":"buoy_lateral","display_class":"OTHER","min_zoom":12,"importance":1,"name":null,"ref":null,"common":{"type":"buoy_lateral"},"children":{"buoy_lateral":{"colour":"green"}},"osm_tags":{"seamark:buoy_lateral:colour":"green","seamark:type":"buoy_lateral","source":"Bing"}}},{"type":"Feature","geometry":{"type":"Point","coordinates":[-7.0161191,52.2982145]},"properties":{"osm_id":9129532575,"osm_type":"node","seamark_type":"buoy_lateral","display_class":"OTHER","min_zoom":12,"importance":1,"name":null,"ref":null,"common":{"type":"buoy_lateral"},"children":{"buoy_lateral":{"colour":"red"}},"osm_tags":{"seamark:buoy_lateral:colour":"red","seamark:type":"buoy_lateral","source":"Bing"}}},{"type":"Feature","geometry":{"type":"Point","coordinates":[-7.0120032,52.2998803]},"properties":{"osm_id":9129532576,"osm_type":"node","seamark_type":"buoy_lateral","display_class":"OTHER","min_zoom":12,"importance":1,"name":null,"ref":null,"common":{"type":"buoy_lateral"},"children":{"buoy_lateral":{"colour":"red"}},"osm_tags":{"seamark:buoy_lateral:colour":"red","seamark:type":"buoy_lateral","source":"Bing"}}},{"type":"Feature","geometry":{"type":"Point","coordinates":[-7.0106097,52.2996454]},"properties":{"osm_id":9129532577,"osm_type":"node","seamark_type":"buoy_lateral","display_class":"OTHER","min_zoom":12,"importance":1,"name":null,"ref":null,"common":{"type":"buoy_lateral"},"children":{"buoy_lateral":{"colour":"green"}},"osm_tags":{"seamark:buoy_lateral:colour":"green","seamark:type":"buoy_lateral","source":"Bing"}}},{"type":"Feature","geometry":{"type":"Point","coordinates":[-7.0075401,52.3027226]},"properties":{"osm_id":9129532578,"osm_type":"node","seamark_type":"buoy_lateral","display_class":"OTHER","min_zoom":12,"importance":1,"name":null,"ref":null,"common":{"type":"buoy_lateral"},"children":{"buoy_lateral":{"colour":"green"}},"osm_tags":{"seamark:buoy_lateral:colour":"green","seamark:type":"buoy_lateral","source":"Bing"}}},{"type":"Feature","geometry":{"type":"Point","coordinates":[-7.0089129,52.3059266]},"properties":{"osm_id":9129532579,"osm_type":"node","seamark_type":"buoy_lateral","display_class":"OTHER","min_zoom":12,"importance":1,"name":null,"ref":null,"common":{"type":"buoy_lateral"},"children":{"buoy_lateral":{"colour":"red"}},"osm_tags":{"seamark:buoy_lateral:colour":"red","seamark:type":"buoy_lateral","source":"Bing"}}},{"type":"Feature","geometry":{"type":"Point","coordinates":[-7.0073874,52.3104059]},"properties":{"osm_id":9129532580,"osm_type":"node","seamark_type":"buoy_lateral","display_class":"OTHER","min_zoom":12,"importance":1,"name":null,"ref":null,"common":{"type":"buoy_lateral"},"children":{"buoy_lateral":{"colour":"green"}},"osm_tags":{"seamark:buoy_lateral:colour":"green","seamark:type":"buoy_lateral","source":"Bing"}}},{"type":"Feature","geometry":{"type":"Point","coordinates":[-7.0048141,52.314091]},"properties":{"osm_id":9129532581,"osm_type":"node","seamark_type":"buoy_lateral","display_class":"OTHER","min_zoom":12,"importance":1,"name":null,"ref":null,"common":{"type":"buoy_lateral"},"children":{"buoy_lateral":{"colour":"red"}},"osm_tags":{"seamark:buoy_lateral:colour":"red","seamark:type":"buoy_lateral","source":"Bing"}}},{"type":"Feature","geometry":{"type":"Point","coordinates":[-7.0345204,52.2593678]},"properties":{"osm_id":11035951160,"osm_type":"node","seamark_type":"buoy_lateral","display_class":"OTHER","min_zoom":12,"importance":1,"name":null,"ref":null,"common":{"type":"buoy_lateral"},"children":{"buoy_lateral":{"colour":"yellow"}},"osm_tags":{"seamark:buoy_lateral:colour":"yellow","seamark:type":"buoy_lateral","source":"Bing"}}},{"type":"Feature","geometry":{"type":"Point","coordinates":[-7.0358795,52.2575659]},"properties":{"osm_id":11035951161,"osm_type":"node","seamark_type":"buoy_lateral","display_class":"OTHER","min_zoom":12,"importance":1,"name":null,"ref":null,"common":{"type":"buoy_lateral"},"children":{},"osm_tags":{"seamark:type":"buoy_lateral","source":"Bing"}}},{"type":"Feature","geometry":{"type":"Point","coordinates":[-7.2468365,52.6509837]},"properties":{"osm_id":11044121584,"osm_type":"node","seamark_type":"mooring","display_class":"OTHER","min_zoom":12,"importance":1,"name":null,"ref":null,"common":{"type":"mooring"},"children":{"mooring":{"category":"chain"}},"osm_tags":{"seamark:mooring:category":"chain","seamark:type":"mooring"}}},{"type":"Feature","geometry":{"type":"Polygon","coordinates":[[[-7.171153,52.1373115],[-7.1711463,52.1373036],[-7.1711433,52.137294],[-7.1711478,52.1372804],[-7.1711648,52.1372678],[-7.1711771,52.1372639],[-7.1711918,52.1372622],[-7.1712095,52.1372636],[-7.1712217,52.1372672],[-7.1712345,52.1372746],[-7.1712424,52.1372843],[-7.171244,52.1372978],[-7.1712377,52.1373088],[-7.1712309,52.1373145],[-7.1712078,52.1373231],[-7.1711901,52.1373242],[-7.1711736,52.1373217],[-7.171153,52.1373115]]]},"properties":{"osm_id":46694892,"osm_type":"way","seamark_type":"landmark","display_class":"OTHER","min_zoom":12,"importance":1,"name":null,"ref":null,"common":{"type":"landmark"},"children":{"landmark":{"category":"tower"}},"osm_tags":{"building":"tower","building:colour":"white","description":"one of three white towers","seamark:landmark:category":"tower","seamark:type":"landmark","source":"GPS"}}},{"type":"Feature","geometry":{"type":"LineString","coordinates":[[-7.5441313,52.0545876],[-7.5442866,52.0546878],[-7.544411,52.054768],[-7.5445256,52.0548458]]},"properties":{"osm_id":892431082,"osm_type":"way","seamark_type":"small_craft_facility","display_class":"OTHER","min_zoom":12,"importance":1,"name":null,"ref":null,"common":{"type":"small_craft_facility"},"children":{"small_craft_facility":{"category":"slipway"}},"osm_tags":{"highway":"service","leisure":"slipway","seamark:small_craft_facility:category":"slipway","seamark:type":"small_craft_facility","service":"slipway"}}},{"type":"Feature","geometry":{"type":"Polygon","coordinates":[[[-7.1068386,52.1282345],[-7.106826,52.1282184],[-7.1068299,52.1282057],[-7.1068456,52.1281952],[-7.1068722,52.1281922],[-7.1068933,52.1281986],[-7.1069053,52.1282126],[-7.106903,52.1282254],[-7.1068911,52.1282355],[-7.1068633,52.128241],[-7.1068386,52.1282345]]]},"properties":{"osm_id":46694639,"osm_type":"way","seamark_type":"landmark","display_class":"OTHER","min_zoom":12,"importance":1,"name":"Brownstown Signal Beacon","ref":null,"common":{"type":"landmark"},"children":{"landmark":{"category":"tower"}},"osm_tags":{"alt_name":"Brownstown Signal Tower","building":"tower","building:colour":"white","description":"one of two white towers","name":"Brownstown Signal Beacon","seamark:landmark:category":"tower","seamark:type":"landmark","source":"GPS"}}},{"type":"Feature","geometry":{"type":"Polygon","coordinates":[[[-7.1079036,52.1282308],[-7.1078909,52.1282147],[-7.1078948,52.128202],[-7.1079105,52.1281916],[-7.1079371,52.1281885],[-7.1079583,52.1281949],[-7.1079702,52.1282089],[-7.107968,52.1282218],[-7.107956,52.1282318],[-7.1079282,52.1282373],[-7.1079036,52.1282308]]]},"properties":{"osm_id":46694640,"osm_type":"way","seamark_type":"landmark","display_class":"OTHER","min_zoom":12,"importance":1,"name":"Brownstown Signal Beacon","ref":null,"common":{"type":"landmark"},"children":{"landmark":{"category":"tower"}},"osm_tags":{"building":"tower","building:colour":"white","description":"one of two white towers","name":"Brownstown Signal Beacon","seamark:landmark:category":"tower","seamark:type":"landmark","source":"GPS"}}},{"type":"Feature","geometry":{"type":"Polygon","coordinates":[[[-7.3599854,52.1393677],[-7.3600178,52.1391371],[-7.3596544,52.1391255],[-7.3597823,52.139219],[-7.3599854,52.1393677]]]},"properties":{"osm_id":1498801248,"osm_type":"way","seamark_type":"coastguard_station","display_class":"OTHER","min_zoom":12,"importance":1,"name":"Bunmahon Coast Guard Station","ref":null,"common":{"type":"coastguard_station"},"children":{},"osm_tags":{"alt_name":"Irish Coast Guard Bunmahon","building":"yes","emergency":"water_rescue","name":"Bunmahon Coast Guard Station","operator":"Irish Coast Guard","seamark:type":"coastguard_station"}}},{"type":"Feature","geometry":{"type":"Point","coordinates":[-7.8509354,52.0312518]},"properties":{"osm_id":5678393006,"osm_type":"node","seamark_type":"harbour","display_class":"OTHER","min_zoom":12,"importance":1,"name":"Coolbagh Quay","ref":null,"common":{"type":"harbour"},"children":{"harbour":{"category":"marina_no_facilities"}},"osm_tags":{"addr:city":"Clashmore","addr:street":"Coolbagh","capacity":"10","leisure":"marina","name":"Coolbagh Quay","operator":"Waterford City and County Council","seamark:harbour:category":"marina_no_facilities","seamark:type":"harbour"}}},{"type":"Feature","geometry":{"type":"Point","coordinates":[-7.537517,52.060184]},"properties":{"osm_id":1594847556,"osm_type":"node","seamark_type":"buoy_cardinal","display_class":"OTHER","min_zoom":12,"importance":1,"name":"Helvick","ref":null,"common":{"name":"Helvick","reference":"CIL00360","type":"buoy_cardinal"},"children":{"buoy_cardinal":{"category":"east","colour":"black;yellow;black","colour_pattern":"horizontal"},"light":{"character":"Q","colour":"white","group":"3","period":"10"}},"osm_tags":{"seamark:buoy_cardinal:category":"east","seamark:buoy_cardinal:colour":"black;yellow;black","seamark:buoy_cardinal:colour_pattern":"horizontal","seamark:light:character":"Q","seamark:light:colour":"white","seamark:light:group":"3","seamark:light:period":"10","seamark:name":"Helvick","seamark:reference":"CIL00360","seamark:type":"buoy_cardinal","source":"Commisioners of Irish Lights"}}},{"type":"Feature","geometry":{"type":"Polygon","coordinates":[[[-7.5443223,52.0545242],[-7.544285,52.0544872],[-7.5441431,52.0545412],[-7.5442569,52.0546543],[-7.5444103,52.054596],[-7.5443836,52.0545695],[-7.5444109,52.0545591],[-7.5443688,52.0545172],[-7.5443223,52.0545242]]]},"properties":{"osm_id":45842558,"osm_type":"way","seamark_type":"rescue_station","display_class":"OTHER","min_zoom":12,"importance":1,"name":"Helvick Head Lifeboat Station","ref":null,"common":{"name":"Helvick Head Lifeboat Station","type":"rescue_station"},"children":{"rescue_station":{"category":"lifeboat"}},"osm_tags":{"building":"boathouse","description":"Lifeboat Station","emergency":"water_rescue","name":"Helvick Head Lifeboat Station","name:en":"Helvick Head Lifeboat Station","name:ga":"Ceann Heilbhic Lifeboat Station","operator":"Royal National Lifeboat Institution","operator:short":"RNLI","operator:wikidata":"Q2166873","operator:wikipedia":"en:Royal National Lifeboat Institution","seamark:name":"Helvick Head Lifeboat Station","seamark:rescue_station:category":"lifeboat","seamark:type":"rescue_station","website":"https://rnli.org/find-my-nearest/lifeboat-stations/helvick-head-lifeboat-station"}}},{"type":"Feature","geometry":{"type":"Polygon","coordinates":[[[-7.1727585,52.1374068],[-7.1727477,52.1373978],[-7.1727431,52.1373872],[-7.1727437,52.1373795],[-7.1727485,52.1373709],[-7.1727549,52.1373651],[-7.172765,52.1373596],[-7.1727782,52.1373559],[-7.1727921,52.1373547],[-7.172808,52.1373563],[-7.1728224,52.1373611],[-7.1728331,52.1373683],[-7.1728394,52.137377],[-7.172841,52.1373834],[-7.1728403,52.1373904],[-7.172832,52.1374023],[-7.1728147,52.1374115],[-7.1728045,52.137414],[-7.1727899,52.1374149],[-7.1727738,52.1374128],[-7.1727585,52.1374068]]]},"properties":{"osm_id":46694889,"osm_type":"way","seamark_type":"landmark","display_class":"OTHER","min_zoom":12,"importance":1,"name":"Metal Man Signal Tower","ref":null,"common":{"type":"landmark"},"children":{"landmark":{"category":"tower"}},"osm_tags":{"building":"tower","building:colour":"white","description":"one of three white towers","designation":"Signal Tower","name":"Metal Man Signal Tower","seamark:landmark:category":"tower","seamark:type":"landmark","source":"GPS"}}},{"type":"Feature","geometry":{"type":"Polygon","coordinates":[[[-7.1718293,52.137618],[-7.1718147,52.137603],[-7.1718157,52.1375849],[-7.171832,52.1375705],[-7.1718485,52.137565],[-7.1718657,52.1375635],[-7.1718953,52.1375699],[-7.171908,52.1375785],[-7.1719145,52.1375885],[-7.1719149,52.1376003],[-7.1719049,52.1376142],[-7.1718881,52.1376229],[-7.171877,52.1376255],[-7.171863,52.1376265],[-7.1718448,52.1376241],[-7.1718293,52.137618]]]},"properties":{"osm_id":46694890,"osm_type":"way","seamark_type":"landmark","display_class":"OTHER","min_zoom":12,"importance":1,"name":"The Metal Man","ref":null,"common":{"type":"landmark"},"children":{"landmark":{"category":"tower"}},"osm_tags":{"alt_name":"Metal Man Tower","building":"tower","building:colour":"white","description":"one of three white towers","historic":"monument","name":"The Metal Man","note":"metal figure of a man on one of three white pillars, on Gt. Newtown Head, at the west side of Tramore Bay","seamark:landmark:category":"tower","seamark:type":"landmark","source":"GPS","tourism":"attraction","wikidata":"Q32824163"}}},{"type":"Feature","geometry":{"type":"Polygon","coordinates":[[[-7.1606005,52.1541824],[-7.1604593,52.1540793],[-7.1605553,52.1540298],[-7.1606965,52.1541328],[-7.1606005,52.1541824]]]},"properties":{"osm_id":45464520,"osm_type":"way","seamark_type":"rescue_station","display_class":"OTHER","min_zoom":12,"importance":1,"name":"Tramore Lifeboat Station","ref":null,"common":{"name":"Tramore Lifeboat Station","type":"rescue_station"},"children":{"rescue_station":{"category":"lifeboat"}},"osm_tags":{"building":"yes","emergency":"water_rescue","name":"Tramore Lifeboat Station","not:operator:wikidata":"Q2166873","operator":"Royal National Lifeboat Institution","operator:short":"RNLI","seamark:name":"Tramore Lifeboat Station","seamark:rescue_station:category":"lifeboat","seamark:type":"rescue_station","website":"https://rnli.org/find-my-nearest/lifeboat-stations/tramore-lifeboat-station"}}}],"type":"FeatureCollection"}