{"type":"FeatureCollection","features":[{"type":"Feature","geometry":{"type":"Point","coordinates":[-126.9280745,52.3492404]},"properties":{"osm_id":6662916834,"osm_type":"node","seamark_type":"light_major","display_class":"LIGHTHOUSE","min_zoom":7,"importance":5,"name":"Flagpole Point Lighhouse","ref":null,"common":{"type":"light_major"},"children":{},"osm_tags":{"man_made":"lighthouse","name":"Flagpole Point Lighhouse","seamark:type":"light_major"}}},{"type":"Feature","geometry":{"type":"Point","coordinates":[-126.7948146,52.3750124]},"properties":{"osm_id":11833186638,"osm_type":"node","seamark_type":"small_craft_facility","display_class":"OTHER","min_zoom":12,"importance":1,"name":null,"ref":null,"common":{"type":"small_craft_facility"},"children":{"small_craft_facility":{"category":"fuel_station"}},"osm_tags":{"seamark:small_craft_facility:category":"fuel_station","seamark:type":"small_craft_facility","waterway":"fuel"}}}],"type":"FeatureCollection"}