{"type":"FeatureCollection","features":[{"type":"Feature","geometry":{"type":"Point","coordinates":[-169.7013192,52.890267]},"properties":{"osm_id":4725010949,"osm_type":"node","seamark_type":"rock","display_class":"OTHER","min_zoom":12,"importance":1,"name":null,"ref":null,"common":{"type":"rock"},"children":{"rock":{"water_level":"awash"}},"osm_tags":{"natural":"rock","seamark:rock:water_level":"awash","seamark:type":"rock","source:position":"Bing"}}},{"type":"Feature","geometry":{"type":"Point","coordinates":[-169.6926396,52.8939113]},"properties":{"osm_id":4725010950,"osm_type":"node","seamark_type":"rock","display_class":"OTHER","min_zoom":12,"importance":1,"name":null,"ref":null,"common":{"type":"rock"},"children":{"rock":{"water_level":"awash"}},"osm_tags":{"natural":"rock","seamark:rock:water_level":"awash","seamark:type":"rock","source:position":"Bing"}}}],"type":"FeatureCollection"}