{"type":"FeatureCollection","features":[{"type":"Feature","geometry":{"type":"Point","coordinates":[-3.2522183,52.5411439]},"properties":{"osm_id":1134305996,"osm_type":"node","seamark_type":"gate","display_class":"OTHER","min_zoom":12,"importance":1,"name":null,"ref":null,"common":{"type":"gate"},"children":{},"osm_tags":{"height":"2.31","seamark:type":"gate","waterway":"lock_gate"}}},{"type":"Feature","geometry":{"type":"Point","coordinates":[-3.2526437,52.5408989]},"properties":{"osm_id":3603231653,"osm_type":"node","seamark_type":"gate","display_class":"OTHER","min_zoom":12,"importance":1,"name":null,"ref":null,"common":{"type":"gate"},"children":{},"osm_tags":{"height":"2.31","seamark:type":"gate","waterway":"lock_gate"}}},{"type":"Feature","geometry":{"type":"Point","coordinates":[-3.0870647,52.9722103]},"properties":{"osm_id":4090259806,"osm_type":"node","seamark_type":"gate","display_class":"OTHER","min_zoom":12,"importance":1,"name":null,"ref":null,"common":{"type":"gate"},"children":{},"osm_tags":{"seamark:type":"gate","waterway":"lock_gate"}}},{"type":"Feature","geometry":{"type":"Point","coordinates":[-3.9352982,52.7487308]},"properties":{"osm_id":6747873057,"osm_type":"node","seamark_type":"bridge","display_class":"OTHER","min_zoom":12,"importance":1,"name":null,"ref":null,"common":{"type":"bridge"},"children":{},"osm_tags":{"seamark:type":"bridge"}}},{"type":"Feature","geometry":{"type":"Point","coordinates":[-3.1716967,52.8042613]},"properties":{"osm_id":6747874759,"osm_type":"node","seamark_type":"bridge","display_class":"OTHER","min_zoom":12,"importance":1,"name":null,"ref":null,"common":{"type":"bridge"},"children":{},"osm_tags":{"seamark:type":"bridge"}}},{"type":"Feature","geometry":{"type":"Point","coordinates":[-3.1297531,52.6684914]},"properties":{"osm_id":8569377363,"osm_type":"node","seamark_type":"mooring","display_class":"OTHER","min_zoom":12,"importance":1,"name":null,"ref":null,"common":{"type":"mooring"},"children":{},"osm_tags":{"seamark:type":"mooring"}}},{"type":"Feature","geometry":{"type":"Polygon","coordinates":[[[-3.9035172,52.6676589],[-3.9035923,52.6676068],[-3.9036459,52.6676459],[-3.9035279,52.6677174],[-3.9034474,52.6676654],[-3.9034957,52.6676296],[-3.9035172,52.6676589]]]},"properties":{"osm_id":205371543,"osm_type":"way","seamark_type":"harbour","display_class":"OTHER","min_zoom":12,"importance":1,"name":null,"ref":null,"common":{"type":"harbour"},"children":{"harbour":{"category":"marina"}},"osm_tags":{"leisure":"marina","seamark:harbour:category":"marina","seamark:type":"harbour"}}},{"type":"Feature","geometry":{"type":"LineString","coordinates":[[-3.0867372,52.9721558],[-3.0870551,52.9722072],[-3.0870647,52.9722103],[-3.0870731,52.9722219],[-3.0871768,52.9722706]]},"properties":{"osm_id":406991283,"osm_type":"way","seamark_type":"dry_dock","display_class":"OTHER","min_zoom":12,"importance":1,"name":null,"ref":null,"common":{"type":"dry_dock"},"children":{},"osm_tags":{"seamark:type":"dry_dock","waterway":"canal"}}},{"type":"Feature","geometry":{"type":"Point","coordinates":[-3.0964349,52.7087586]},"properties":{"osm_id":8579008237,"osm_type":"node","seamark_type":"gate","display_class":"OTHER","min_zoom":12,"importance":1,"name":"Bank Lock","ref":null,"common":{"type":"gate"},"children":{},"osm_tags":{"height":"2.69","name":"Bank Lock","seamark:type":"gate","waterway":"lock_gate"}}},{"type":"Feature","geometry":{"type":"Point","coordinates":[-3.0963413,52.7089798]},"properties":{"osm_id":8579008238,"osm_type":"node","seamark_type":"gate","display_class":"OTHER","min_zoom":12,"importance":1,"name":"Bank Lock","ref":null,"common":{"type":"gate"},"children":{},"osm_tags":{"height":"2.69","name":"Bank Lock","seamark:type":"gate","waterway":"lock_gate"}}},{"type":"Feature","geometry":{"type":"Point","coordinates":[-3.1592341,52.6397328]},"properties":{"osm_id":20956662,"osm_type":"node","seamark_type":"gate","display_class":"OTHER","min_zoom":12,"importance":1,"name":"Belan Bottom Lock","ref":null,"common":{"type":"gate"},"children":{},"osm_tags":{"height":"1.65","lock":"yes","name":"Belan Bottom Lock","seamark:type":"gate","waterway":"lock_gate"}}},{"type":"Feature","geometry":{"type":"Point","coordinates":[-3.1595319,52.6395928]},"properties":{"osm_id":3603295218,"osm_type":"node","seamark_type":"gate","display_class":"OTHER","min_zoom":12,"importance":1,"name":"Belan Bottom Lock","ref":null,"common":{"type":"gate"},"children":{},"osm_tags":{"height":"1.65","name":"Belan Bottom Lock","seamark:type":"gate","waterway":"lock_gate"}}},{"type":"Feature","geometry":{"type":"Point","coordinates":[-3.16085,52.6388686]},"properties":{"osm_id":3603295217,"osm_type":"node","seamark_type":"gate","display_class":"OTHER","min_zoom":12,"importance":1,"name":"Belan Top Lock","ref":null,"common":{"type":"gate"},"children":{},"osm_tags":{"height":"2.16","name":"Belan Top Lock","seamark:type":"gate","waterway":"lock_gate"}}},{"type":"Feature","geometry":{"type":"Point","coordinates":[-3.160587,52.6390289]},"properties":{"osm_id":8567051023,"osm_type":"node","seamark_type":"gate","display_class":"OTHER","min_zoom":12,"importance":1,"name":"Belan Top Lock","ref":null,"common":{"type":"gate"},"children":{},"osm_tags":{"height":"2.16","lock":"yes","name":"Belan Top Lock","seamark:type":"gate","waterway":"lock_gate"}}},{"type":"Feature","geometry":{"type":"Point","coordinates":[-3.1924425,52.6031139]},"properties":{"osm_id":3603269293,"osm_type":"node","seamark_type":"gate","display_class":"OTHER","min_zoom":12,"importance":1,"name":"Berriew Lock","ref":null,"common":{"type":"gate"},"children":{},"osm_tags":{"height":"2.52","name":"Berriew Lock","seamark:type":"gate","waterway":"lock_gate"}}},{"type":"Feature","geometry":{"type":"Point","coordinates":[-3.1922562,52.60341]},"properties":{"osm_id":3603269294,"osm_type":"node","seamark_type":"gate","display_class":"OTHER","min_zoom":12,"importance":1,"name":"Berriew Lock","ref":null,"common":{"type":"gate"},"children":{},"osm_tags":{"height":"2.52","name":"Berriew Lock","seamark:type":"gate","waterway":"lock_gate"}}},{"type":"Feature","geometry":{"type":"Point","coordinates":[-3.1828344,52.6129846]},"properties":{"osm_id":1134305757,"osm_type":"node","seamark_type":"gate","display_class":"OTHER","min_zoom":12,"importance":1,"name":"Brithdir Lock","ref":null,"common":{"type":"gate"},"children":{},"osm_tags":{"height":"2.74","name":"Brithdir Lock","seamark:type":"gate","waterway":"lock_gate"}}},{"type":"Feature","geometry":{"type":"Point","coordinates":[-3.1832327,52.6128501]},"properties":{"osm_id":3603282358,"osm_type":"node","seamark_type":"gate","display_class":"OTHER","min_zoom":12,"importance":1,"name":"Brithdir Lock","ref":null,"common":{"type":"gate"},"children":{},"osm_tags":{"height":"2.74","name":"Brithdir Lock","seamark:type":"gate","waterway":"lock_gate"}}},{"type":"Feature","geometry":{"type":"Point","coordinates":[-3.2359151,52.5506988]},"properties":{"osm_id":3603201915,"osm_type":"node","seamark_type":"gate","display_class":"OTHER","min_zoom":12,"importance":1,"name":"Brynderwen Lock Gate","ref":null,"common":{"type":"gate"},"children":{},"osm_tags":{"height":"2.62","name":"Brynderwen Lock Gate","seamark:type":"gate","waterway":"lock_gate"}}},{"type":"Feature","geometry":{"type":"Point","coordinates":[-3.2361653,52.5504282]},"properties":{"osm_id":3603201916,"osm_type":"node","seamark_type":"gate","display_class":"OTHER","min_zoom":12,"importance":1,"name":"Brynderwen Lock Gate","ref":null,"common":{"type":"gate"},"children":{},"osm_tags":{"height":"2.62","name":"Brynderwen Lock Gate","seamark:type":"gate","waterway":"lock_gate"}}},{"type":"Feature","geometry":{"type":"Point","coordinates":[-3.1086343,52.7244798]},"properties":{"osm_id":8586206199,"osm_type":"node","seamark_type":"gate","display_class":"OTHER","min_zoom":12,"importance":1,"name":"Burgedin Bottom Lock","ref":null,"common":{"type":"gate"},"children":{},"osm_tags":{"height":"2.48","name":"Burgedin Bottom Lock","seamark:type":"gate","waterway":"lock_gate"}}},{"type":"Feature","geometry":{"type":"Point","coordinates":[-3.1088471,52.7242918]},"properties":{"osm_id":8586206200,"osm_type":"node","seamark_type":"gate","display_class":"OTHER","min_zoom":12,"importance":1,"name":"Burgedin Bottom Lock","ref":null,"common":{"type":"gate"},"children":{},"osm_tags":{"height":"2.48","name":"Burgedin Bottom Lock","seamark:type":"gate","waterway":"lock_gate"}}},{"type":"Feature","geometry":{"type":"Point","coordinates":[-3.1074325,52.7253207]},"properties":{"osm_id":8586206201,"osm_type":"node","seamark_type":"gate","display_class":"OTHER","min_zoom":12,"importance":1,"name":"Burgedin Top Lock","ref":null,"common":{"type":"gate"},"children":{},"osm_tags":{"height":"2.46","name":"Burgedin Top Lock","seamark:type":"gate","waterway":"lock_gate"}}},{"type":"Feature","geometry":{"type":"Point","coordinates":[-3.1076927,52.7251648]},"properties":{"osm_id":8586206202,"osm_type":"node","seamark_type":"gate","display_class":"OTHER","min_zoom":12,"importance":1,"name":"Burgedin Top Lock","ref":null,"common":{"type":"gate"},"children":{},"osm_tags":{"height":"2.46","name":"Burgedin Top Lock","seamark:type":"gate","waterway":"lock_gate"}}},{"type":"Feature","geometry":{"type":"Point","coordinates":[-3.2466854,52.5425191]},"properties":{"osm_id":3603228207,"osm_type":"node","seamark_type":"gate","display_class":"OTHER","min_zoom":12,"importance":1,"name":"Byles Lock","ref":null,"common":{"type":"gate"},"children":{},"osm_tags":{"height":"2.19","name":"Byles Lock","seamark:type":"gate","waterway":"lock_gate"}}},{"type":"Feature","geometry":{"type":"Point","coordinates":[-3.2470149,52.5424529]},"properties":{"osm_id":3603228208,"osm_type":"node","seamark_type":"gate","display_class":"OTHER","min_zoom":12,"importance":1,"name":"Byles Lock","ref":null,"common":{"type":"gate"},"children":{},"osm_tags":{"height":"2.19","name":"Byles Lock","seamark:type":"gate","waterway":"lock_gate"}}},{"type":"Feature","geometry":{"type":"Point","coordinates":[-3.0997255,52.7046646]},"properties":{"osm_id":8579008259,"osm_type":"node","seamark_type":"gate","display_class":"OTHER","min_zoom":12,"importance":1,"name":"Cabin Lock","ref":null,"common":{"type":"gate"},"children":{},"osm_tags":{"height":"2.67","name":"Cabin Lock","seamark:type":"gate","waterway":"lock_gate"}}},{"type":"Feature","geometry":{"type":"Point","coordinates":[-3.0997541,52.7044319]},"properties":{"osm_id":8579008260,"osm_type":"node","seamark_type":"gate","display_class":"OTHER","min_zoom":12,"importance":1,"name":"Cabin Lock","ref":null,"common":{"type":"gate"},"children":{},"osm_tags":{"height":"2.67","name":"Cabin Lock","seamark:type":"gate","waterway":"lock_gate"}}},{"type":"Feature","geometry":{"type":"Point","coordinates":[-3.1077217,52.7744101]},"properties":{"osm_id":2661926656,"osm_type":"node","seamark_type":"gate","display_class":"OTHER","min_zoom":12,"importance":1,"name":"Carreghofa Bottom Lock","ref":null,"common":{"type":"gate"},"children":{},"osm_tags":{"height":"2.44","name":"Carreghofa Bottom Lock","seamark:type":"gate","waterway":"lock_gate"}}},{"type":"Feature","geometry":{"type":"Point","coordinates":[-3.1074486,52.7745899]},"properties":{"osm_id":2661926658,"osm_type":"node","seamark_type":"gate","display_class":"OTHER","min_zoom":12,"importance":1,"name":"Carreghofa Bottom Lock","ref":null,"common":{"type":"gate"},"children":{},"osm_tags":{"height":"2.44","name":"Carreghofa Bottom Lock","seamark:type":"gate","waterway":"lock_gate"}}},{"type":"Feature","geometry":{"type":"Point","coordinates":[-3.106585,52.77491]},"properties":{"osm_id":2661926710,"osm_type":"node","seamark_type":"gate","display_class":"OTHER","min_zoom":12,"importance":1,"name":"Carreghofa Top Lock","ref":null,"common":{"type":"gate"},"children":{},"osm_tags":{"height":"2.44","name":"Carreghofa Top Lock","seamark:type":"gate","waterway":"lock_gate"}}},{"type":"Feature","geometry":{"type":"Point","coordinates":[-3.1069302,52.7748014]},"properties":{"osm_id":8587034784,"osm_type":"node","seamark_type":"gate","display_class":"OTHER","min_zoom":12,"importance":1,"name":"Carreghofa Top Lock","ref":null,"common":{"type":"gate"},"children":{},"osm_tags":{"height":"2.44","name":"Carreghofa Top Lock","seamark:type":"gate","waterway":"lock_gate"}}},{"type":"Feature","geometry":{"type":"Polygon","coordinates":[[[-3.0655243,52.9479238],[-3.0659408,52.9485807],[-3.0662873,52.9486733],[-3.0667147,52.9487868],[-3.0666779,52.9488236],[-3.0663685,52.9489479],[-3.0664313,52.9489979],[-3.0665127,52.9490627],[-3.0659939,52.9496602],[-3.0656959,52.9495667],[-3.0653413,52.9499468],[-3.0649947,52.9502507],[-3.0645789,52.9507177],[-3.0642142,52.951188],[-3.0636371,52.9511116],[-3.063608,52.9511071],[-3.0635569,52.9508775],[-3.0635002,52.9506228],[-3.0634334,52.9502518],[-3.0634348,52.9501246],[-3.0635163,52.9499191],[-3.0636342,52.9497546],[-3.0643669,52.9491527],[-3.0646013,52.9489397],[-3.0647469,52.9487564],[-3.0648391,52.9485539],[-3.0648779,52.9483882],[-3.0648991,52.9481624],[-3.0648909,52.9478213],[-3.0650435,52.9478556],[-3.0655243,52.9479238]]]},"properties":{"osm_id":1301463147,"osm_type":"way","seamark_type":"harbour","display_class":"OTHER","min_zoom":12,"importance":1,"name":"Chirk Marina","ref":null,"common":{"type":"harbour"},"children":{"harbour":{"category":"marina"}},"osm_tags":{"addr:city":"Wrexham","addr:postcode":"LL14 5AD","addr:unit":"Chirk Marina","addr:village":"Chirk","contact:website":"https://www.marineserviceschirk.co.uk/","leisure":"marina","name":"Chirk Marina","seamark:harbour:category":"marina","seamark:type":"harbour"}}},{"type":"Feature","geometry":{"type":"Point","coordinates":[-3.1000099,52.702195]},"properties":{"osm_id":8579008246,"osm_type":"node","seamark_type":"gate","display_class":"OTHER","min_zoom":12,"importance":1,"name":"Crowther Hall Lock","ref":null,"common":{"type":"gate"},"children":{},"osm_tags":{"height":"2.72","name":"Crowther Hall Lock","seamark:type":"gate","waterway":"lock_gate"}}},{"type":"Feature","geometry":{"type":"Point","coordinates":[-3.099912,52.7024196]},"properties":{"osm_id":8579008247,"osm_type":"node","seamark_type":"gate","display_class":"OTHER","min_zoom":12,"importance":1,"name":"Crowther Hall Lock","ref":null,"common":{"type":"gate"},"children":{},"osm_tags":{"height":"2.72","name":"Crowther Hall Lock","seamark:type":"gate","waterway":"lock_gate"}}},{"type":"Feature","geometry":{"type":"Polygon","coordinates":[[[-3.1735026,52.973297],[-3.1734478,52.9733129],[-3.1734508,52.9733546],[-3.1735735,52.9734249],[-3.1737048,52.9735027],[-3.1738203,52.9736479],[-3.1739744,52.9737869],[-3.173907,52.9738121],[-3.1738365,52.9738398],[-3.1737644,52.9738686],[-3.173693,52.9738973],[-3.173625,52.9739261],[-3.1735525,52.9739548],[-3.1734877,52.9739804],[-3.1732605,52.973798],[-3.1731861,52.9737907],[-3.1730681,52.9738515],[-3.1730426,52.973839],[-3.1730079,52.9738219],[-3.1729846,52.9737996],[-3.1729455,52.9737519],[-3.1729146,52.973696],[-3.1728882,52.9736431],[-3.1728745,52.9735792],[-3.1728654,52.9735101],[-3.1728556,52.9734425],[-3.1728455,52.9733737],[-3.1728363,52.9733105],[-3.1730476,52.9731847],[-3.173058,52.9731423],[-3.1730476,52.9731048],[-3.1735026,52.973297]]]},"properties":{"osm_id":93945123,"osm_type":"way","seamark_type":"harbour","display_class":"OTHER","min_zoom":12,"importance":1,"name":"Llangollen Moorings","ref":null,"common":{"type":"harbour"},"children":{"harbour":{"category":"marina"}},"osm_tags":{"canal":"basin","leisure":"marina","name":"Llangollen Moorings","natural":"water","power_supply":"yes","seamark:harbour:category":"marina","seamark:type":"harbour","source":"Bing","water":"canal"}}},{"type":"Feature","geometry":{"type":"Point","coordinates":[-3.1023528,52.6969261]},"properties":{"osm_id":8574987964,"osm_type":"node","seamark_type":"gate","display_class":"OTHER","min_zoom":12,"importance":1,"name":"Pool Quay Lock","ref":null,"common":{"type":"gate"},"children":{},"osm_tags":{"height":"2.72","name":"Pool Quay Lock","seamark:type":"gate","waterway":"lock_gate"}}},{"type":"Feature","geometry":{"type":"Point","coordinates":[-3.1022015,52.697103]},"properties":{"osm_id":8574987965,"osm_type":"node","seamark_type":"gate","display_class":"OTHER","min_zoom":12,"importance":1,"name":"Pool Quay Lock","ref":null,"common":{"type":"gate"},"children":{},"osm_tags":{"height":"2.72","name":"Pool Quay Lock","seamark:type":"gate","waterway":"lock_gate"}}},{"type":"Feature","geometry":{"type":"Point","coordinates":[-3.1456999,52.6579971]},"properties":{"osm_id":417647653,"osm_type":"node","seamark_type":"gate","display_class":"OTHER","min_zoom":12,"importance":1,"name":"Welshpool Lock","ref":null,"common":{"type":"gate"},"children":{},"osm_tags":{"height":"1.73","name":"Welshpool Lock","seamark:type":"gate","waterway":"lock_gate"}}},{"type":"Feature","geometry":{"type":"Point","coordinates":[-3.145907,52.6578008]},"properties":{"osm_id":3603437998,"osm_type":"node","seamark_type":"gate","display_class":"OTHER","min_zoom":12,"importance":1,"name":"Welshpool Lock","ref":null,"common":{"type":"gate"},"children":{},"osm_tags":{"height":"1.73","name":"Welshpool Lock","seamark:type":"gate","waterway":"lock_gate"}}}],"type":"FeatureCollection"}