{"type":"FeatureCollection","features":[{"type":"Feature","geometry":{"type":"Point","coordinates":[140.3262931,53.9556373]},"properties":{"osm_id":13453089385,"osm_type":"node","seamark_type":"light_major","display_class":"LIGHTHOUSE","min_zoom":7,"importance":5,"name":"LITKE","ref":null,"common":{"name":"LITKE","type":"light_major"},"children":{"light":{"1:character":"Fl","1:colour":"white","1:group":"1","1:height":"35","1:period":"7.5","1:range":"17","1:sector_end":"356","1:sector_start":"125","1:sequence":"1.5+(6)"}},"osm_tags":{"man_made":"lighthouse","name":"LITKE","note":"Shown 15/6-1/12. Reserve Lt 8M Int.number: M7986","seamark:light:1:character":"Fl","seamark:light:1:colour":"white","seamark:light:1:group":"1","seamark:light:1:height":"35","seamark:light:1:period":"7.5","seamark:light:1:range":"17","seamark:light:1:sector_end":"356","seamark:light:1:sector_start":"125","seamark:light:1:sequence":"1.5+(6)","seamark:name":"LITKE","seamark:type":"light_major"}}},{"type":"Feature","geometry":{"type":"Point","coordinates":[140.6957104,53.1151075]},"properties":{"osm_id":9968395772,"osm_type":"node","seamark_type":"anchorage","display_class":"OTHER","min_zoom":12,"importance":1,"name":null,"ref":null,"common":{"type":"anchorage"},"children":{"anchorage":{"name":"N 13"}},"osm_tags":{"description":"53°06,88' N 140°41,65' E /пулково42","seamark:anchorage:name":"N 13","seamark:type":"anchorage"}}},{"type":"Feature","geometry":{"type":"Point","coordinates":[140.6998773,53.1162742]},"properties":{"osm_id":9968395773,"osm_type":"node","seamark_type":"anchorage","display_class":"OTHER","min_zoom":12,"importance":1,"name":null,"ref":null,"common":{"type":"anchorage"},"children":{"anchorage":{"name":"N 12"}},"osm_tags":{"description":"53°06,95' N 140°41,90' E /пулково42","seamark:anchorage:name":"N 12","seamark:type":"anchorage"}}},{"type":"Feature","geometry":{"type":"Point","coordinates":[140.7220445,53.1142739]},"properties":{"osm_id":9968395778,"osm_type":"node","seamark_type":"anchorage","display_class":"OTHER","min_zoom":12,"importance":1,"name":null,"ref":null,"common":{"type":"anchorage"},"children":{"anchorage":{"name":"N 11"}},"osm_tags":{"description":"53°06,83' N 140°43,23' E /пулково42","seamark:anchorage:name":"N 11","seamark:type":"anchorage"}}},{"type":"Feature","geometry":{"type":"Point","coordinates":[140.7287114,53.1157739]},"properties":{"osm_id":9968395779,"osm_type":"node","seamark_type":"anchorage","display_class":"OTHER","min_zoom":12,"importance":1,"name":null,"ref":null,"common":{"type":"anchorage"},"children":{"anchorage":{"name":"N 10"}},"osm_tags":{"description":"53°06,92' N 140°43,63' E /пулково42","seamark:anchorage:name":"N 10","seamark:type":"anchorage"}}},{"type":"Feature","geometry":{"type":"Point","coordinates":[140.7260446,53.1137739]},"properties":{"osm_id":9968395780,"osm_type":"node","seamark_type":"anchorage","display_class":"OTHER","min_zoom":12,"importance":1,"name":null,"ref":null,"common":{"type":"anchorage"},"children":{"anchorage":{"name":"N 9"}},"osm_tags":{"description":"53°06,80' N 140°43,47' E /пулково42","seamark:anchorage:name":"N 9","seamark:type":"anchorage"}}},{"type":"Feature","geometry":{"type":"Point","coordinates":[140.7337116,53.1157738]},"properties":{"osm_id":9968395781,"osm_type":"node","seamark_type":"anchorage","display_class":"OTHER","min_zoom":12,"importance":1,"name":null,"ref":null,"common":{"type":"anchorage"},"children":{"anchorage":{"name":"N 8"}},"osm_tags":{"description":"53°06,92' N 140°43,93' E /пулково42","seamark:anchorage:name":"N 8","seamark:type":"anchorage"}}},{"type":"Feature","geometry":{"type":"Point","coordinates":[140.7315448,53.1126071]},"properties":{"osm_id":9968395782,"osm_type":"node","seamark_type":"anchorage","display_class":"OTHER","min_zoom":12,"importance":1,"name":null,"ref":null,"common":{"type":"anchorage"},"children":{"anchorage":{"name":"N 7"}},"osm_tags":{"description":"53°06,73' N 140°43,80' E /пулково42","seamark:anchorage:name":"N 7","seamark:type":"anchorage"}}},{"type":"Feature","geometry":{"type":"Point","coordinates":[140.7378784,53.1154404]},"properties":{"osm_id":9968395783,"osm_type":"node","seamark_type":"anchorage","display_class":"OTHER","min_zoom":12,"importance":1,"name":null,"ref":null,"common":{"type":"anchorage"},"children":{"anchorage":{"name":"N 6"}},"osm_tags":{"description":"53°06,90' N 140°44,18' E /пулково42","seamark:anchorage:name":"N 6","seamark:type":"anchorage"}}},{"type":"Feature","geometry":{"type":"Point","coordinates":[140.7357116,53.1134404]},"properties":{"osm_id":9968395784,"osm_type":"node","seamark_type":"anchorage","display_class":"OTHER","min_zoom":12,"importance":1,"name":null,"ref":null,"common":{"type":"anchorage"},"children":{"anchorage":{"name":"N 5"}},"osm_tags":{"description":"53°06,78' N 140°44,05' E /пулково42","seamark:anchorage:name":"N 5","seamark:type":"anchorage"}}},{"type":"Feature","geometry":{"type":"Point","coordinates":[140.7402117,53.1134404]},"properties":{"osm_id":9968395785,"osm_type":"node","seamark_type":"anchorage","display_class":"OTHER","min_zoom":12,"importance":1,"name":null,"ref":null,"common":{"type":"anchorage"},"children":{"anchorage":{"name":"N 4"}},"osm_tags":{"description":"53°06,78' N 140°44,32' E /пулково42","seamark:anchorage:name":"N 4","seamark:type":"anchorage"}}},{"type":"Feature","geometry":{"type":"Point","coordinates":[140.7378783,53.111607]},"properties":{"osm_id":9968395786,"osm_type":"node","seamark_type":"anchorage","display_class":"OTHER","min_zoom":12,"importance":1,"name":null,"ref":null,"common":{"type":"anchorage"},"children":{"anchorage":{"name":"N 3"}},"osm_tags":{"description":"53°06,67' N 140°44,18' E /пулково42","seamark:anchorage:name":"N 3","seamark:type":"anchorage"}}},{"type":"Feature","geometry":{"type":"Point","coordinates":[140.7437118,53.1117736]},"properties":{"osm_id":9968395792,"osm_type":"node","seamark_type":"anchorage","display_class":"OTHER","min_zoom":12,"importance":1,"name":null,"ref":null,"common":{"type":"anchorage"},"children":{"anchorage":{"name":"N 2"}},"osm_tags":{"description":"53°06,68' N 140°44,53' E /пулково42","seamark:anchorage:name":"N 2","seamark:type":"anchorage"}}},{"type":"Feature","geometry":{"type":"Point","coordinates":[140.7470451,53.1099402]},"properties":{"osm_id":9968395793,"osm_type":"node","seamark_type":"anchorage","display_class":"OTHER","min_zoom":12,"importance":1,"name":null,"ref":null,"common":{"type":"anchorage"},"children":{"anchorage":{"name":"N 1"}},"osm_tags":{"description":"53°06,57' N 140°44,73' E /пулково42","seamark:anchorage:name":"N 1","seamark:type":"anchorage"}}},{"type":"Feature","geometry":{"type":"Point","coordinates":[140.7277116,53.1209406]},"properties":{"osm_id":9968413517,"osm_type":"node","seamark_type":"pilot_boarding","display_class":"OTHER","min_zoom":12,"importance":1,"name":null,"ref":null,"common":{"type":"pilot_boarding"},"children":{},"osm_tags":{"description":"53°07,23' N 140°43,57' E /пулково42","seamark:type":"pilot_boarding"}}},{"type":"Feature","geometry":{"type":"LineString","coordinates":[[140.7022658,53.1382415],[140.7071164,53.1351821],[140.7194842,53.1273804]]},"properties":{"osm_id":1087979395,"osm_type":"way","seamark_type":"navigation_line","display_class":"OTHER","min_zoom":12,"importance":1,"name":null,"ref":null,"common":{"type":"navigation_line"},"children":{},"osm_tags":{"seamark:type":"navigation_line"}}},{"type":"Feature","geometry":{"type":"Polygon","coordinates":[[[140.7007106,53.1137741],[140.6952104,53.1132742],[140.6952105,53.1162742],[140.7007107,53.1179409],[140.7007106,53.1137741]]]},"properties":{"osm_id":1087979396,"osm_type":"way","seamark_type":"anchorage","display_class":"OTHER","min_zoom":12,"importance":1,"name":null,"ref":null,"common":{"type":"anchorage"},"children":{"anchorage":{"name":"N 233"}},"osm_tags":{"seamark:anchorage:name":"N 233","seamark:type":"anchorage"}}},{"type":"Feature","geometry":{"type":"Polygon","coordinates":[[[140.7368784,53.1176071],[140.7415451,53.1149404],[140.7412116,53.1092736],[140.7207111,53.1132739],[140.7207112,53.115774],[140.7368784,53.1176071]]]},"properties":{"osm_id":1087979397,"osm_type":"way","seamark_type":"anchorage","display_class":"OTHER","min_zoom":12,"importance":1,"name":null,"ref":null,"common":{"type":"anchorage"},"children":{"anchorage":{"name":"N 232"}},"osm_tags":{"seamark:anchorage:name":"N 232","seamark:type":"anchorage"}}},{"type":"Feature","geometry":{"type":"Polygon","coordinates":[[[140.7415451,53.1149404],[140.7515452,53.1087735],[140.7412116,53.1092736],[140.7415451,53.1149404]]]},"properties":{"osm_id":1087979398,"osm_type":"way","seamark_type":"anchorage","display_class":"OTHER","min_zoom":12,"importance":1,"name":null,"ref":null,"common":{"type":"anchorage"},"children":{"anchorage":{"name":"N 231"}},"osm_tags":{"seamark:anchorage:name":"N 231","seamark:type":"anchorage"}}},{"type":"Feature","geometry":{"type":"Polygon","coordinates":[[[140.7015442,53.1226076],[140.7348786,53.1271074],[140.7348783,53.1174405],[140.7015439,53.1132741],[140.7015442,53.1226076]]]},"properties":{"osm_id":1087979399,"osm_type":"way","seamark_type":"restricted_area","display_class":"OTHER","min_zoom":12,"importance":1,"name":null,"ref":null,"common":{"type":"restricted_area"},"children":{"restricted_area":{"category":"deviation_range"}},"osm_tags":{"seamark:restricted_area:category":"deviation_range","seamark:type":"restricted_area"}}},{"type":"Feature","geometry":{"type":"Polygon","coordinates":[[[140.7248784,53.1279408],[140.7285451,53.1271074],[140.7273784,53.1279408],[140.7252117,53.1291075],[140.7248784,53.1279408]]]},"properties":{"osm_id":1087979400,"osm_type":"way","seamark_type":"fairway","display_class":"OTHER","min_zoom":12,"importance":1,"name":null,"ref":null,"common":{"type":"fairway"},"children":{},"osm_tags":{"seamark:type":"fairway"}}},{"type":"Feature","geometry":{"type":"Polygon","coordinates":[[[140.7243783,53.1251074],[140.7227115,53.1251074],[140.7143781,53.1301076],[140.7152115,53.130441],[140.7243783,53.1251074]]]},"properties":{"osm_id":1087979401,"osm_type":"way","seamark_type":"fairway","display_class":"OTHER","min_zoom":12,"importance":1,"name":null,"ref":null,"common":{"type":"fairway"},"children":{"fairway":{"orientation":"134,7"}},"osm_tags":{"seamark:fairway:orientation":"134,7","seamark:type":"fairway"}}},{"type":"Feature","geometry":{"type":"Polygon","coordinates":[[[140.689877,53.1187743],[140.6895436,53.1154409],[140.7232115,53.121774],[140.7357118,53.1216072],[140.7312118,53.1249407],[140.7227115,53.1251074],[140.689877,53.1187743]]]},"properties":{"osm_id":1087979402,"osm_type":"way","seamark_type":"fairway","display_class":"OTHER","min_zoom":12,"importance":1,"name":null,"ref":null,"common":{"type":"fairway"},"children":{},"osm_tags":{"seamark:type":"fairway"}}}],"type":"FeatureCollection"}