{"type":"FeatureCollection","features":[{"type":"Feature","geometry":{"type":"Point","coordinates":[-166.6154691,53.8319316]},"properties":{"osm_id":12330049067,"osm_type":"node","seamark_type":"beacon_lateral","display_class":"BEACON","min_zoom":9,"importance":4,"name":null,"ref":null,"common":{"type":"beacon_lateral"},"children":{},"osm_tags":{"seamark:type":"beacon_lateral"}}},{"type":"Feature","geometry":{"type":"Point","coordinates":[-166.5087649,53.9239482]},"properties":{"osm_id":12399010021,"osm_type":"node","seamark_type":"beacon_isolated_danger","display_class":"BEACON","min_zoom":9,"importance":4,"name":null,"ref":"Ulakta Head Light","common":{"type":"beacon_isolated_danger"},"children":{},"osm_tags":{"ref":"Ulakta Head Light","seamark:type":"beacon_isolated_danger"}}},{"type":"Feature","geometry":{"type":"Point","coordinates":[-166.5369393,53.8961848]},"properties":{"osm_id":6003403278,"osm_type":"node","seamark_type":"small_craft_facility","display_class":"OTHER","min_zoom":12,"importance":1,"name":null,"ref":null,"common":{"type":"small_craft_facility"},"children":{"small_craft_facility":{"category":"slipway"}},"osm_tags":{"leisure":"slipway","seamark:small_craft_facility:category":"slipway","seamark:type":"small_craft_facility"}}},{"type":"Feature","geometry":{"type":"Point","coordinates":[-166.53611,53.8785875]},"properties":{"osm_id":6137340289,"osm_type":"node","seamark_type":"rock","display_class":"OTHER","min_zoom":12,"importance":1,"name":null,"ref":null,"common":{"type":"rock"},"children":{"rock":{"water_level":"dry"}},"osm_tags":{"natural":"rock","seamark:rock:water_level":"dry","seamark:type":"rock"}}},{"type":"Feature","geometry":{"type":"Point","coordinates":[-166.5344819,53.8783281]},"properties":{"osm_id":6137340290,"osm_type":"node","seamark_type":"rock","display_class":"OTHER","min_zoom":12,"importance":1,"name":null,"ref":null,"common":{"type":"rock"},"children":{"rock":{"water_level":"dry"}},"osm_tags":{"natural":"rock","seamark:rock:water_level":"dry","seamark:type":"rock"}}},{"type":"Feature","geometry":{"type":"Point","coordinates":[-166.5352544,53.8784483]},"properties":{"osm_id":6137340291,"osm_type":"node","seamark_type":"rock","display_class":"OTHER","min_zoom":12,"importance":1,"name":null,"ref":null,"common":{"type":"rock"},"children":{"rock":{"water_level":"dry"}},"osm_tags":{"natural":"rock","seamark:rock:water_level":"dry","seamark:type":"rock"}}},{"type":"Feature","geometry":{"type":"Point","coordinates":[-166.535469,53.8785321]},"properties":{"osm_id":6137340292,"osm_type":"node","seamark_type":"rock","display_class":"OTHER","min_zoom":12,"importance":1,"name":null,"ref":null,"common":{"type":"rock"},"children":{"rock":{"water_level":"dry"}},"osm_tags":{"natural":"rock","seamark:rock:water_level":"dry","seamark:type":"rock"}}},{"type":"Feature","geometry":{"type":"Point","coordinates":[-166.5362005,53.8785971]},"properties":{"osm_id":6137340293,"osm_type":"node","seamark_type":"rock","display_class":"OTHER","min_zoom":12,"importance":1,"name":null,"ref":null,"common":{"type":"rock"},"children":{"rock":{"water_level":"dry"}},"osm_tags":{"natural":"rock","seamark:rock:water_level":"dry","seamark:type":"rock"}}},{"type":"Feature","geometry":{"type":"Point","coordinates":[-166.5478438,53.8762359]},"properties":{"osm_id":12293215545,"osm_type":"node","seamark_type":"buoy_lateral","display_class":"OTHER","min_zoom":12,"importance":1,"name":null,"ref":null,"common":{"type":"buoy_lateral"},"children":{},"osm_tags":{"man_made":"buoy","seamark:type":"buoy_lateral"}}},{"type":"Feature","geometry":{"type":"Point","coordinates":[-166.5488671,53.8757843]},"properties":{"osm_id":12293215546,"osm_type":"node","seamark_type":"buoy_lateral","display_class":"OTHER","min_zoom":12,"importance":1,"name":null,"ref":null,"common":{"type":"buoy_lateral"},"children":{},"osm_tags":{"man_made":"buoy","seamark:type":"buoy_lateral"}}},{"type":"Feature","geometry":{"type":"Point","coordinates":[-166.5339453,53.8773145]},"properties":{"osm_id":12293250664,"osm_type":"node","seamark_type":"buoy_lateral","display_class":"OTHER","min_zoom":12,"importance":1,"name":null,"ref":null,"common":{"type":"buoy_lateral"},"children":{"buoy_lateral":{"colour":"red"}},"osm_tags":{"man_made":"buoy","seamark:buoy_lateral:colour":"red","seamark:type":"buoy_lateral"}}},{"type":"Feature","geometry":{"type":"Point","coordinates":[-166.5347125,53.8765389]},"properties":{"osm_id":12293250665,"osm_type":"node","seamark_type":"buoy_lateral","display_class":"OTHER","min_zoom":12,"importance":1,"name":null,"ref":null,"common":{"type":"buoy_lateral"},"children":{"buoy_lateral":{"colour":"green"}},"osm_tags":{"man_made":"buoy","seamark:buoy_lateral:colour":"green","seamark:type":"buoy_lateral"}}},{"type":"Feature","geometry":{"type":"Point","coordinates":[-166.5359994,53.8781406]},"properties":{"osm_id":12293250666,"osm_type":"node","seamark_type":"buoy_lateral","display_class":"OTHER","min_zoom":12,"importance":1,"name":null,"ref":null,"common":{"type":"buoy_lateral"},"children":{"buoy_lateral":{"colour":"red"}},"osm_tags":{"man_made":"buoy","seamark:buoy_lateral:colour":"red","seamark:type":"buoy_lateral"}}},{"type":"Feature","geometry":{"type":"Point","coordinates":[-166.55577,53.8630303]},"properties":{"osm_id":12293250746,"osm_type":"node","seamark_type":"buoy_lateral","display_class":"OTHER","min_zoom":12,"importance":1,"name":null,"ref":null,"common":{"type":"buoy_lateral"},"children":{"buoy_lateral":{"colour":"green"}},"osm_tags":{"man_made":"buoy","seamark:buoy_lateral:colour":"green","seamark:type":"buoy_lateral"}}},{"type":"Feature","geometry":{"type":"Point","coordinates":[-166.5593365,53.8601583]},"properties":{"osm_id":12293250747,"osm_type":"node","seamark_type":"buoy_lateral","display_class":"OTHER","min_zoom":12,"importance":1,"name":null,"ref":null,"common":{"type":"buoy_lateral"},"children":{"buoy_lateral":{"colour":"red"}},"osm_tags":{"man_made":"buoy","seamark:buoy_lateral:colour":"red","seamark:type":"buoy_lateral"}}},{"type":"Feature","geometry":{"type":"Point","coordinates":[-166.549749,53.8754462]},"properties":{"osm_id":12293257235,"osm_type":"node","seamark_type":"buoy_lateral","display_class":"OTHER","min_zoom":12,"importance":1,"name":null,"ref":null,"common":{"type":"buoy_lateral"},"children":{},"osm_tags":{"man_made":"buoy","seamark:type":"buoy_lateral"}}},{"type":"Feature","geometry":{"type":"Point","coordinates":[-166.5469761,53.8753287]},"properties":{"osm_id":12293257236,"osm_type":"node","seamark_type":"buoy_lateral","display_class":"OTHER","min_zoom":12,"importance":1,"name":null,"ref":null,"common":{"type":"buoy_lateral"},"children":{},"osm_tags":{"man_made":"buoy","seamark:type":"buoy_lateral"}}},{"type":"Feature","geometry":{"type":"Point","coordinates":[-166.5717901,53.8519702]},"properties":{"osm_id":12293291516,"osm_type":"node","seamark_type":"buoy_lateral","display_class":"OTHER","min_zoom":12,"importance":1,"name":null,"ref":null,"common":{"type":"buoy_lateral"},"children":{},"osm_tags":{"man_made":"buoy","seamark:type":"buoy_lateral"}}},{"type":"Feature","geometry":{"type":"Point","coordinates":[-166.5188994,53.89915]},"properties":{"osm_id":12295003472,"osm_type":"node","seamark_type":"buoy_lateral","display_class":"OTHER","min_zoom":12,"importance":1,"name":null,"ref":null,"common":{"type":"buoy_lateral"},"children":{},"osm_tags":{"man_made":"buoy","seamark:type":"buoy_lateral"}}},{"type":"Feature","geometry":{"type":"Point","coordinates":[-166.5876704,53.9477511]},"properties":{"osm_id":12295262465,"osm_type":"node","seamark_type":"buoy_lateral","display_class":"OTHER","min_zoom":12,"importance":1,"name":null,"ref":null,"common":{"type":"buoy_lateral"},"children":{"buoy_lateral":{"colour":"red"}},"osm_tags":{"man_made":"buoy","seamark:buoy_lateral:colour":"red","seamark:type":"buoy_lateral"}}},{"type":"Feature","geometry":{"type":"Point","coordinates":[-166.5243168,53.8767279]},"properties":{"osm_id":12295859527,"osm_type":"node","seamark_type":"buoy_lateral","display_class":"OTHER","min_zoom":12,"importance":1,"name":null,"ref":null,"common":{"type":"buoy_lateral"},"children":{},"osm_tags":{"man_made":"buoy","seamark:type":"buoy_lateral"}}},{"type":"Feature","geometry":{"type":"Point","coordinates":[-166.5833034,53.8437554]},"properties":{"osm_id":12298723696,"osm_type":"node","seamark_type":"buoy_lateral","display_class":"OTHER","min_zoom":12,"importance":1,"name":null,"ref":null,"common":{"type":"buoy_lateral"},"children":{},"osm_tags":{"man_made":"buoy","seamark:type":"buoy_lateral"}}},{"type":"Feature","geometry":{"type":"Point","coordinates":[-166.5947503,53.8464049]},"properties":{"osm_id":12298750145,"osm_type":"node","seamark_type":"buoy_lateral","display_class":"OTHER","min_zoom":12,"importance":1,"name":null,"ref":null,"common":{"type":"buoy_lateral"},"children":{},"osm_tags":{"man_made":"buoy","seamark:type":"buoy_lateral"}}},{"type":"Feature","geometry":{"type":"Point","coordinates":[-166.5924865,53.8435009]},"properties":{"osm_id":12298750146,"osm_type":"node","seamark_type":"buoy_lateral","display_class":"OTHER","min_zoom":12,"importance":1,"name":null,"ref":null,"common":{"type":"buoy_lateral"},"children":{"buoy_lateral":{"colour":"red"}},"osm_tags":{"man_made":"buoy","seamark:buoy_lateral:colour":"red","seamark:type":"buoy_lateral"}}},{"type":"Feature","geometry":{"type":"Point","coordinates":[-166.5893053,53.8396142]},"properties":{"osm_id":12298750147,"osm_type":"node","seamark_type":"buoy_lateral","display_class":"OTHER","min_zoom":12,"importance":1,"name":null,"ref":null,"common":{"type":"buoy_lateral"},"children":{"buoy_lateral":{"colour":"red"}},"osm_tags":{"man_made":"buoy","seamark:buoy_lateral:colour":"red","seamark:type":"buoy_lateral"}}},{"type":"Feature","geometry":{"type":"Point","coordinates":[-166.6116452,53.8932537]},"properties":{"osm_id":12298750148,"osm_type":"node","seamark_type":"buoy_lateral","display_class":"OTHER","min_zoom":12,"importance":1,"name":null,"ref":null,"common":{"type":"buoy_lateral"},"children":{},"osm_tags":{"man_made":"buoy","seamark:type":"buoy_lateral"}}},{"type":"Feature","geometry":{"type":"Point","coordinates":[-166.6146732,53.948855]},"properties":{"osm_id":12298750151,"osm_type":"node","seamark_type":"buoy_lateral","display_class":"OTHER","min_zoom":12,"importance":1,"name":null,"ref":null,"common":{"type":"buoy_lateral"},"children":{},"osm_tags":{"man_made":"buoy","seamark:type":"buoy_lateral"}}},{"type":"Feature","geometry":{"type":"Point","coordinates":[-166.61838,53.9503861]},"properties":{"osm_id":12298750152,"osm_type":"node","seamark_type":"buoy_lateral","display_class":"OTHER","min_zoom":12,"importance":1,"name":null,"ref":null,"common":{"type":"buoy_lateral"},"children":{},"osm_tags":{"man_made":"buoy","seamark:type":"buoy_lateral"}}},{"type":"Feature","geometry":{"type":"Point","coordinates":[-166.5255541,53.8854435]},"properties":{"osm_id":12306601000,"osm_type":"node","seamark_type":"buoy_lateral","display_class":"OTHER","min_zoom":12,"importance":1,"name":null,"ref":null,"common":{"type":"buoy_lateral"},"children":{"buoy_lateral":{"colour":"red"}},"osm_tags":{"man_made":"buoy","seamark:buoy_lateral:colour":"red","seamark:type":"buoy_lateral"}}},{"type":"Feature","geometry":{"type":"Point","coordinates":[-166.5222556,53.890458]},"properties":{"osm_id":12306602601,"osm_type":"node","seamark_type":"buoy_lateral","display_class":"OTHER","min_zoom":12,"importance":1,"name":null,"ref":null,"common":{"type":"buoy_lateral"},"children":{},"osm_tags":{"man_made":"buoy","seamark:type":"buoy_lateral"}}},{"type":"Feature","geometry":{"type":"Point","coordinates":[-166.5170178,53.9022968]},"properties":{"osm_id":12306602604,"osm_type":"node","seamark_type":"buoy_lateral","display_class":"OTHER","min_zoom":12,"importance":1,"name":null,"ref":null,"common":{"type":"buoy_lateral"},"children":{},"osm_tags":{"man_made":"buoy","seamark:type":"buoy_lateral"}}},{"type":"Feature","geometry":{"type":"Point","coordinates":[-166.5154882,53.9070066]},"properties":{"osm_id":12306602605,"osm_type":"node","seamark_type":"buoy_lateral","display_class":"OTHER","min_zoom":12,"importance":1,"name":null,"ref":null,"common":{"type":"buoy_lateral"},"children":{},"osm_tags":{"man_made":"buoy","seamark:type":"buoy_lateral"}}},{"type":"Feature","geometry":{"type":"Point","coordinates":[-166.5810303,53.9065002]},"properties":{"osm_id":12306602608,"osm_type":"node","seamark_type":"buoy_lateral","display_class":"OTHER","min_zoom":12,"importance":1,"name":null,"ref":null,"common":{"type":"buoy_lateral"},"children":{},"osm_tags":{"man_made":"buoy","seamark:type":"buoy_lateral"}}},{"type":"Feature","geometry":{"type":"Point","coordinates":[-166.5101942,53.9066861]},"properties":{"osm_id":12319833879,"osm_type":"node","seamark_type":"mooring","display_class":"OTHER","min_zoom":12,"importance":1,"name":null,"ref":null,"common":{"type":"mooring"},"children":{},"osm_tags":{"seamark:type":"mooring"}}},{"type":"Feature","geometry":{"type":"Point","coordinates":[-166.5095904,53.9076217]},"properties":{"osm_id":12319833880,"osm_type":"node","seamark_type":"mooring","display_class":"OTHER","min_zoom":12,"importance":1,"name":null,"ref":null,"common":{"type":"mooring"},"children":{},"osm_tags":{"seamark:type":"mooring"}}},{"type":"Feature","geometry":{"type":"Point","coordinates":[-166.506315,53.911746]},"properties":{"osm_id":12319833885,"osm_type":"node","seamark_type":"mooring","display_class":"OTHER","min_zoom":12,"importance":1,"name":null,"ref":null,"common":{"type":"mooring"},"children":{},"osm_tags":{"seamark:type":"mooring"}}},{"type":"Feature","geometry":{"type":"Point","coordinates":[-166.514918,53.9076738]},"properties":{"osm_id":12319833886,"osm_type":"node","seamark_type":"mooring","display_class":"OTHER","min_zoom":12,"importance":1,"name":null,"ref":null,"common":{"type":"mooring"},"children":{},"osm_tags":{"seamark:type":"mooring"}}},{"type":"Feature","geometry":{"type":"Point","coordinates":[-166.515617,53.9078766]},"properties":{"osm_id":12319833887,"osm_type":"node","seamark_type":"mooring","display_class":"OTHER","min_zoom":12,"importance":1,"name":null,"ref":null,"common":{"type":"mooring"},"children":{},"osm_tags":{"seamark:type":"mooring"}}},{"type":"Feature","geometry":{"type":"Point","coordinates":[-166.5159174,53.9076925]},"properties":{"osm_id":12319833888,"osm_type":"node","seamark_type":"mooring","display_class":"OTHER","min_zoom":12,"importance":1,"name":null,"ref":null,"common":{"type":"mooring"},"children":{},"osm_tags":{"seamark:type":"mooring"}}},{"type":"Feature","geometry":{"type":"Point","coordinates":[-166.516191,53.9075282]},"properties":{"osm_id":12319833889,"osm_type":"node","seamark_type":"mooring","display_class":"OTHER","min_zoom":12,"importance":1,"name":null,"ref":null,"common":{"type":"mooring"},"children":{},"osm_tags":{"seamark:type":"mooring"}}},{"type":"Feature","geometry":{"type":"Point","coordinates":[-166.5203928,53.9061079]},"properties":{"osm_id":12319833894,"osm_type":"node","seamark_type":"mooring","display_class":"OTHER","min_zoom":12,"importance":1,"name":null,"ref":null,"common":{"type":"mooring"},"children":{},"osm_tags":{"seamark:type":"mooring"}}},{"type":"Feature","geometry":{"type":"Point","coordinates":[-166.5317721,53.9001539]},"properties":{"osm_id":12319833897,"osm_type":"node","seamark_type":"mooring","display_class":"OTHER","min_zoom":12,"importance":1,"name":null,"ref":null,"common":{"type":"mooring"},"children":{},"osm_tags":{"seamark:type":"mooring"}}},{"type":"Feature","geometry":{"type":"Point","coordinates":[-166.57151,53.8517643]},"properties":{"osm_id":12319862285,"osm_type":"node","seamark_type":"buoy_lateral","display_class":"OTHER","min_zoom":12,"importance":1,"name":null,"ref":null,"common":{"type":"buoy_lateral"},"children":{},"osm_tags":{"man_made":"buoy","seamark:type":"buoy_lateral"}}},{"type":"Feature","geometry":{"type":"Point","coordinates":[-166.579551,53.8461021]},"properties":{"osm_id":12319862298,"osm_type":"node","seamark_type":"mooring","display_class":"OTHER","min_zoom":12,"importance":1,"name":null,"ref":null,"common":{"type":"mooring"},"children":{},"osm_tags":{"seamark:type":"mooring"}}},{"type":"Feature","geometry":{"type":"Point","coordinates":[-166.5796065,53.8457559]},"properties":{"osm_id":12319862299,"osm_type":"node","seamark_type":"mooring","display_class":"OTHER","min_zoom":12,"importance":1,"name":null,"ref":null,"common":{"type":"mooring"},"children":{},"osm_tags":{"seamark:type":"mooring"}}},{"type":"Feature","geometry":{"type":"Point","coordinates":[-166.579507,53.8456358]},"properties":{"osm_id":12319862300,"osm_type":"node","seamark_type":"mooring","display_class":"OTHER","min_zoom":12,"importance":1,"name":null,"ref":null,"common":{"type":"mooring"},"children":{},"osm_tags":{"seamark:type":"mooring"}}},{"type":"Feature","geometry":{"type":"Point","coordinates":[-166.5799008,53.8433601]},"properties":{"osm_id":12319862301,"osm_type":"node","seamark_type":"mooring","display_class":"OTHER","min_zoom":12,"importance":1,"name":null,"ref":null,"common":{"type":"mooring"},"children":{},"osm_tags":{"seamark:type":"mooring"}}},{"type":"Feature","geometry":{"type":"Point","coordinates":[-166.5811819,53.8432563]},"properties":{"osm_id":12319862302,"osm_type":"node","seamark_type":"mooring","display_class":"OTHER","min_zoom":12,"importance":1,"name":null,"ref":null,"common":{"type":"mooring"},"children":{},"osm_tags":{"seamark:type":"mooring"}}},{"type":"Feature","geometry":{"type":"Point","coordinates":[-166.5833813,53.8431094]},"properties":{"osm_id":12319862303,"osm_type":"node","seamark_type":"mooring","display_class":"OTHER","min_zoom":12,"importance":1,"name":null,"ref":null,"common":{"type":"mooring"},"children":{},"osm_tags":{"seamark:type":"mooring"}}},{"type":"Feature","geometry":{"type":"Point","coordinates":[-166.583621,53.8429753]},"properties":{"osm_id":12319862304,"osm_type":"node","seamark_type":"mooring","display_class":"OTHER","min_zoom":12,"importance":1,"name":null,"ref":null,"common":{"type":"mooring"},"children":{},"osm_tags":{"seamark:type":"mooring"}}},{"type":"Feature","geometry":{"type":"Point","coordinates":[-166.5830996,53.8430323]},"properties":{"osm_id":12319862305,"osm_type":"node","seamark_type":"mooring","display_class":"OTHER","min_zoom":12,"importance":1,"name":null,"ref":null,"common":{"type":"mooring"},"children":{},"osm_tags":{"seamark:type":"mooring"}}},{"type":"Feature","geometry":{"type":"Point","coordinates":[-166.5826326,53.8430818]},"properties":{"osm_id":12319862306,"osm_type":"node","seamark_type":"mooring","display_class":"OTHER","min_zoom":12,"importance":1,"name":null,"ref":null,"common":{"type":"mooring"},"children":{},"osm_tags":{"seamark:type":"mooring"}}},{"type":"Feature","geometry":{"type":"Point","coordinates":[-166.5824415,53.8431914]},"properties":{"osm_id":12319862307,"osm_type":"node","seamark_type":"mooring","display_class":"OTHER","min_zoom":12,"importance":1,"name":null,"ref":null,"common":{"type":"mooring"},"children":{},"osm_tags":{"seamark:type":"mooring"}}},{"type":"Feature","geometry":{"type":"Point","coordinates":[-166.5832405,53.8418869]},"properties":{"osm_id":12319862309,"osm_type":"node","seamark_type":"mooring","display_class":"OTHER","min_zoom":12,"importance":1,"name":null,"ref":null,"common":{"type":"mooring"},"children":{},"osm_tags":{"seamark:type":"mooring"}}},{"type":"Feature","geometry":{"type":"Point","coordinates":[-166.5830772,53.8413554]},"properties":{"osm_id":12319862310,"osm_type":"node","seamark_type":"mooring","display_class":"OTHER","min_zoom":12,"importance":1,"name":null,"ref":null,"common":{"type":"mooring"},"children":{},"osm_tags":{"seamark:type":"mooring"}}},{"type":"Feature","geometry":{"type":"Point","coordinates":[-166.5960751,53.8300172]},"properties":{"osm_id":12319862358,"osm_type":"node","seamark_type":"mooring","display_class":"OTHER","min_zoom":12,"importance":1,"name":null,"ref":null,"common":{"type":"mooring"},"children":{},"osm_tags":{"seamark:type":"mooring"}}},{"type":"Feature","geometry":{"type":"Point","coordinates":[-166.5958502,53.8301857]},"properties":{"osm_id":12319862359,"osm_type":"node","seamark_type":"mooring","display_class":"OTHER","min_zoom":12,"importance":1,"name":null,"ref":null,"common":{"type":"mooring"},"children":{},"osm_tags":{"seamark:type":"mooring"}}},{"type":"Feature","geometry":{"type":"Point","coordinates":[-166.5955616,53.8304194]},"properties":{"osm_id":12319862361,"osm_type":"node","seamark_type":"mooring","display_class":"OTHER","min_zoom":12,"importance":1,"name":null,"ref":null,"common":{"type":"mooring"},"children":{},"osm_tags":{"seamark:type":"mooring"}}},{"type":"Feature","geometry":{"type":"Point","coordinates":[-166.5963708,53.8297897]},"properties":{"osm_id":12319862362,"osm_type":"node","seamark_type":"mooring","display_class":"OTHER","min_zoom":12,"importance":1,"name":null,"ref":null,"common":{"type":"mooring"},"children":{},"osm_tags":{"seamark:type":"mooring"}}},{"type":"Feature","geometry":{"type":"Point","coordinates":[-166.5724765,53.8520959]},"properties":{"osm_id":12319864656,"osm_type":"node","seamark_type":"mooring","display_class":"OTHER","min_zoom":12,"importance":1,"name":null,"ref":null,"common":{"type":"mooring"},"children":{},"osm_tags":{"seamark:type":"mooring"}}},{"type":"Feature","geometry":{"type":"Point","coordinates":[-166.574553,53.8509679]},"properties":{"osm_id":12319864657,"osm_type":"node","seamark_type":"mooring","display_class":"OTHER","min_zoom":12,"importance":1,"name":null,"ref":null,"common":{"type":"mooring"},"children":{},"osm_tags":{"seamark:type":"mooring"}}},{"type":"Feature","geometry":{"type":"Point","coordinates":[-166.5742614,53.8508347]},"properties":{"osm_id":12319864658,"osm_type":"node","seamark_type":"buoy_lateral","display_class":"OTHER","min_zoom":12,"importance":1,"name":null,"ref":null,"common":{"type":"buoy_lateral"},"children":{},"osm_tags":{"man_made":"buoy","seamark:type":"buoy_lateral"}}},{"type":"Feature","geometry":{"type":"Point","coordinates":[-166.5570666,53.8571873]},"properties":{"osm_id":12319864659,"osm_type":"node","seamark_type":"mooring","display_class":"OTHER","min_zoom":12,"importance":1,"name":null,"ref":null,"common":{"type":"mooring"},"children":{},"osm_tags":{"seamark:type":"mooring"}}},{"type":"Feature","geometry":{"type":"Point","coordinates":[-166.5566236,53.8573086]},"properties":{"osm_id":12319864660,"osm_type":"node","seamark_type":"mooring","display_class":"OTHER","min_zoom":12,"importance":1,"name":null,"ref":null,"common":{"type":"mooring"},"children":{},"osm_tags":{"seamark:type":"mooring"}}},{"type":"Feature","geometry":{"type":"Point","coordinates":[-166.5523133,53.8585382]},"properties":{"osm_id":12319864675,"osm_type":"node","seamark_type":"mooring","display_class":"OTHER","min_zoom":12,"importance":1,"name":null,"ref":null,"common":{"type":"mooring"},"children":{},"osm_tags":{"seamark:type":"mooring"}}},{"type":"Feature","geometry":{"type":"Point","coordinates":[-166.5482692,53.8766986]},"properties":{"osm_id":12319864681,"osm_type":"node","seamark_type":"mooring","display_class":"OTHER","min_zoom":12,"importance":1,"name":null,"ref":null,"common":{"type":"mooring"},"children":{},"osm_tags":{"seamark:type":"mooring"}}},{"type":"Feature","geometry":{"type":"Point","coordinates":[-166.5485476,53.8769232]},"properties":{"osm_id":12319864682,"osm_type":"node","seamark_type":"mooring","display_class":"OTHER","min_zoom":12,"importance":1,"name":null,"ref":null,"common":{"type":"mooring"},"children":{},"osm_tags":{"seamark:type":"mooring"}}},{"type":"Feature","geometry":{"type":"Point","coordinates":[-166.5312266,53.9003545]},"properties":{"osm_id":12319877401,"osm_type":"node","seamark_type":"mooring","display_class":"OTHER","min_zoom":12,"importance":1,"name":null,"ref":null,"common":{"type":"mooring"},"children":{},"osm_tags":{"seamark:type":"mooring"}}},{"type":"Feature","geometry":{"type":"Point","coordinates":[-166.533833,53.8908579]},"properties":{"osm_id":12319877404,"osm_type":"node","seamark_type":"mooring","display_class":"OTHER","min_zoom":12,"importance":1,"name":null,"ref":null,"common":{"type":"mooring"},"children":{},"osm_tags":{"seamark:type":"mooring"}}},{"type":"Feature","geometry":{"type":"Point","coordinates":[-166.5292155,53.8847311]},"properties":{"osm_id":12319877405,"osm_type":"node","seamark_type":"mooring","display_class":"OTHER","min_zoom":12,"importance":1,"name":null,"ref":null,"common":{"type":"mooring"},"children":{},"osm_tags":{"seamark:type":"mooring"}}},{"type":"Feature","geometry":{"type":"Point","coordinates":[-166.5295424,53.8844833]},"properties":{"osm_id":12319877406,"osm_type":"node","seamark_type":"mooring","display_class":"OTHER","min_zoom":12,"importance":1,"name":null,"ref":null,"common":{"type":"mooring"},"children":{},"osm_tags":{"seamark:type":"mooring"}}},{"type":"Feature","geometry":{"type":"Point","coordinates":[-166.5318687,53.8829902]},"properties":{"osm_id":12319877407,"osm_type":"node","seamark_type":"mooring","display_class":"OTHER","min_zoom":12,"importance":1,"name":null,"ref":null,"common":{"type":"mooring"},"children":{},"osm_tags":{"seamark:type":"mooring"}}},{"type":"Feature","geometry":{"type":"Point","coordinates":[-166.533152,53.8825866]},"properties":{"osm_id":12319877408,"osm_type":"node","seamark_type":"mooring","display_class":"OTHER","min_zoom":12,"importance":1,"name":null,"ref":null,"common":{"type":"mooring"},"children":{},"osm_tags":{"seamark:type":"mooring"}}},{"type":"Feature","geometry":{"type":"Point","coordinates":[-166.5329043,53.8823675]},"properties":{"osm_id":12319877409,"osm_type":"node","seamark_type":"buoy_lateral","display_class":"OTHER","min_zoom":12,"importance":1,"name":null,"ref":null,"common":{"type":"buoy_lateral"},"children":{},"osm_tags":{"man_made":"buoy","seamark:type":"buoy_lateral"}}},{"type":"Feature","geometry":{"type":"Point","coordinates":[-166.5332202,53.8825517]},"properties":{"osm_id":12319933620,"osm_type":"node","seamark_type":"mooring","display_class":"OTHER","min_zoom":12,"importance":1,"name":null,"ref":null,"common":{"type":"mooring"},"children":{},"osm_tags":{"seamark:type":"mooring"}}},{"type":"Feature","geometry":{"type":"Point","coordinates":[-166.5330955,53.8825952]},"properties":{"osm_id":12319933621,"osm_type":"node","seamark_type":"mooring","display_class":"OTHER","min_zoom":12,"importance":1,"name":null,"ref":null,"common":{"type":"mooring"},"children":{},"osm_tags":{"seamark:type":"mooring"}}},{"type":"Feature","geometry":{"type":"Point","coordinates":[-166.5331404,53.8825284]},"properties":{"osm_id":12319933622,"osm_type":"node","seamark_type":"mooring","display_class":"OTHER","min_zoom":12,"importance":1,"name":null,"ref":null,"common":{"type":"mooring"},"children":{},"osm_tags":{"seamark:type":"mooring"}}},{"type":"Feature","geometry":{"type":"Point","coordinates":[-166.5291255,53.8843867]},"properties":{"osm_id":12319933623,"osm_type":"node","seamark_type":"buoy_lateral","display_class":"OTHER","min_zoom":12,"importance":1,"name":null,"ref":null,"common":{"type":"buoy_lateral"},"children":{},"osm_tags":{"man_made":"buoy","seamark:type":"buoy_lateral"}}},{"type":"Feature","geometry":{"type":"Point","coordinates":[-166.5350377,53.8920435]},"properties":{"osm_id":12319933625,"osm_type":"node","seamark_type":"mooring","display_class":"OTHER","min_zoom":12,"importance":1,"name":null,"ref":null,"common":{"type":"mooring"},"children":{},"osm_tags":{"seamark:type":"mooring"}}},{"type":"Feature","geometry":{"type":"Point","coordinates":[-166.5124691,53.9037221]},"properties":{"osm_id":12319933626,"osm_type":"node","seamark_type":"mooring","display_class":"OTHER","min_zoom":12,"importance":1,"name":null,"ref":null,"common":{"type":"mooring"},"children":{},"osm_tags":{"seamark:type":"mooring"}}},{"type":"Feature","geometry":{"type":"Point","coordinates":[-166.5950488,53.8355957]},"properties":{"osm_id":12393037705,"osm_type":"node","seamark_type":"mooring","display_class":"OTHER","min_zoom":12,"importance":1,"name":null,"ref":null,"common":{"type":"mooring"},"children":{},"osm_tags":{"seamark:type":"mooring"}}},{"type":"Feature","geometry":{"type":"Polygon","coordinates":[[[-166.5444846,53.8953426],[-166.5450518,53.8952942],[-166.5450418,53.8951613],[-166.5443723,53.8951382],[-166.5444846,53.8953426]]]},"properties":{"osm_id":887846704,"osm_type":"way","seamark_type":"obstruction","display_class":"OTHER","min_zoom":12,"importance":1,"name":null,"ref":null,"common":{"type":"obstruction"},"children":{"obstruction":{"category":"foul_area","water_level":"submerged"}},"osm_tags":{"natural":"reef","reef":"pilings","seamark:obstruction:category":"foul_area","seamark:obstruction:water_level":"submerged","seamark:type":"obstruction"}}},{"type":"Feature","geometry":{"type":"Polygon","coordinates":[[[-166.5320354,53.9005238],[-166.5319922,53.9004882],[-166.5319385,53.9005108],[-166.5319816,53.9005464],[-166.5320354,53.9005238]]]},"properties":{"osm_id":1279310585,"osm_type":"way","seamark_type":"mooring","display_class":"OTHER","min_zoom":12,"importance":1,"name":null,"ref":null,"common":{"type":"mooring"},"children":{"mooring":{"category":"dolphin"}},"osm_tags":{"area":"yes","floating":"no","man_made":"pier","seamark:mooring:category":"dolphin","seamark:type":"mooring"}}},{"type":"Feature","geometry":{"type":"Polygon","coordinates":[[[-166.5486956,53.9076974],[-166.5487174,53.907364],[-166.5487584,53.907325],[-166.5488294,53.9072916],[-166.5489011,53.9073427],[-166.5489333,53.9073988],[-166.5488774,53.9077113],[-166.5486956,53.9076974]]]},"properties":{"osm_id":1279310590,"osm_type":"way","seamark_type":"wreck","display_class":"OTHER","min_zoom":12,"importance":1,"name":null,"ref":null,"common":{"type":"wreck"},"children":{"wreck":{"category":"non-dangerous","water_level":"dry"}},"osm_tags":{"building":"ship","historic":"wreck","seamark:type":"wreck","seamark:wreck:category":"non-dangerous","seamark:wreck:water_level":"dry"}}},{"type":"Feature","geometry":{"type":"Polygon","coordinates":[[[-166.5082474,53.9129129],[-166.5079642,53.9126835],[-166.5090897,53.9121561],[-166.5093941,53.9123698],[-166.5088862,53.9125439],[-166.5086172,53.9126835],[-166.5082474,53.9129129]]]},"properties":{"osm_id":1328293906,"osm_type":"way","seamark_type":"small_craft_facility","display_class":"OTHER","min_zoom":12,"importance":1,"name":null,"ref":null,"common":{"type":"small_craft_facility"},"children":{"small_craft_facility":{"category":"fuel_station"}},"osm_tags":{"seamark:small_craft_facility:category":"fuel_station","seamark:type":"small_craft_facility","waterway":"fuel"}}},{"type":"Feature","geometry":{"type":"Polygon","coordinates":[[[-166.5293556,53.9023975],[-166.5295751,53.9025466],[-166.5297481,53.9024695],[-166.5300564,53.9022953],[-166.5302103,53.9021702],[-166.5304386,53.9020545],[-166.5305997,53.9020222],[-166.5307589,53.9019471],[-166.5308775,53.9018627],[-166.530927,53.9018147],[-166.530943,53.9017459],[-166.5307571,53.9016323],[-166.5301696,53.9019523],[-166.52966,53.9022224],[-166.5293556,53.9023975]]]},"properties":{"osm_id":1328294172,"osm_type":"way","seamark_type":"small_craft_facility","display_class":"OTHER","min_zoom":12,"importance":1,"name":null,"ref":null,"common":{"type":"small_craft_facility"},"children":{"small_craft_facility":{"category":"fuel_station"}},"osm_tags":{"seamark:small_craft_facility:category":"fuel_station","seamark:type":"small_craft_facility","waterway":"fuel"}}},{"type":"Feature","geometry":{"type":"Polygon","coordinates":[[[-166.5468827,53.8873103],[-166.546786,53.887401],[-166.5466504,53.8873507],[-166.5467471,53.8872601],[-166.5468827,53.8873103]]]},"properties":{"osm_id":1328652851,"osm_type":"way","seamark_type":"small_craft_facility","display_class":"OTHER","min_zoom":12,"importance":1,"name":null,"ref":null,"common":{"type":"small_craft_facility"},"children":{"small_craft_facility":{"category":"fuel_station"}},"osm_tags":{"building":"yes","seamark:small_craft_facility:category":"fuel_station","seamark:type":"small_craft_facility","waterway":"fuel"}}},{"type":"Feature","geometry":{"type":"Polygon","coordinates":[[[-166.5702502,53.8512391],[-166.5688645,53.8516689],[-166.5684105,53.8511597],[-166.5692135,53.8509105],[-166.5693988,53.8511183],[-166.5699813,53.8509375],[-166.5702502,53.8512391]]]},"properties":{"osm_id":1328728692,"osm_type":"way","seamark_type":"small_craft_facility","display_class":"OTHER","min_zoom":12,"importance":1,"name":null,"ref":null,"common":{"type":"small_craft_facility"},"children":{"small_craft_facility":{"category":"fuel_station"}},"osm_tags":{"seamark:small_craft_facility:category":"fuel_station","seamark:type":"small_craft_facility","waterway":"fuel"}}},{"type":"Feature","geometry":{"type":"Polygon","coordinates":[[[-166.612503,53.8299428],[-166.6125029,53.8301996],[-166.6126606,53.8301996],[-166.6126606,53.8299428],[-166.612503,53.8299428]]]},"properties":{"osm_id":1329295344,"osm_type":"way","seamark_type":"wreck","display_class":"OTHER","min_zoom":12,"importance":1,"name":null,"ref":null,"common":{"type":"wreck"},"children":{"wreck":{"category":"hull_showing"}},"osm_tags":{"access":"yes","area":"yes","historic":"wreck","seamark:type":"wreck","seamark:wreck:category":"hull_showing","wreck:visible_at_low_tide":"yes"}}},{"type":"Feature","geometry":{"type":"Polygon","coordinates":[[[-166.5438897,53.8713555],[-166.5438694,53.8713291],[-166.5438877,53.8713249],[-166.5438694,53.8713075],[-166.5439284,53.871283],[-166.5439477,53.8713081],[-166.5440747,53.8712632],[-166.5440869,53.8712866],[-166.5440676,53.8713058],[-166.5440361,53.8713189],[-166.5438897,53.8713555]]]},"properties":{"osm_id":1331259926,"osm_type":"way","seamark_type":"wreck","display_class":"OTHER","min_zoom":12,"importance":1,"name":null,"ref":null,"common":{"type":"wreck"},"children":{"wreck":{"category":"hull_showing"}},"osm_tags":{"access":"yes","historic":"wreck","seamark:type":"wreck","seamark:wreck:category":"hull_showing","wreck:visible_at_high_tide":"yes","wreck:visible_at_low_tide":"yes"}}},{"type":"Feature","geometry":{"type":"Polygon","coordinates":[[[-166.5083543,53.9238732],[-166.5084093,53.9239028],[-166.5084321,53.9239344],[-166.5084294,53.9239526],[-166.5084247,53.9239664],[-166.5084086,53.9239715],[-166.5083704,53.9239767],[-166.5083482,53.9239656],[-166.5083409,53.9239554],[-166.5083402,53.9239273],[-166.5083362,53.9239107],[-166.5083268,53.9238973],[-166.5083194,53.923889],[-166.508306,53.9238823],[-166.5083543,53.9238732]]]},"properties":{"osm_id":1331527765,"osm_type":"way","seamark_type":"wreck","display_class":"OTHER","min_zoom":12,"importance":1,"name":null,"ref":null,"common":{"type":"wreck"},"children":{},"osm_tags":{"historic":"wreck","seamark:type":"wreck"}}},{"type":"Feature","geometry":{"type":"Polygon","coordinates":[[[-166.6117096,53.8313769],[-166.6118311,53.8310576],[-166.6116657,53.8310356],[-166.6116488,53.8310799],[-166.6115839,53.8310713],[-166.6114792,53.8313464],[-166.6117096,53.8313769]]]},"properties":{"osm_id":1332783516,"osm_type":"way","seamark_type":"wreck","display_class":"OTHER","min_zoom":12,"importance":1,"name":null,"ref":null,"common":{"type":"wreck"},"children":{"wreck":{"category":"hull_showing"}},"osm_tags":{"access":"yes","historic":"wreck","seamark:type":"wreck","seamark:wreck:category":"hull_showing","wreck:visible_at_low_tide":"yes"}}},{"type":"Feature","geometry":{"type":"Polygon","coordinates":[[[-166.5533281,53.867074],[-166.553586,53.8675162],[-166.550829,53.8693102],[-166.5502543,53.869754],[-166.5518914,53.8706975],[-166.5524625,53.871254],[-166.5525856,53.8710887],[-166.5526292,53.8708777],[-166.5526405,53.8705888],[-166.5526889,53.8704782],[-166.5528264,53.8704108],[-166.5530987,53.870349],[-166.5537212,53.8702419],[-166.5550068,53.8698995],[-166.555162,53.8698415],[-166.5552885,53.8696912],[-166.5563926,53.8690327],[-166.5566218,53.868883],[-166.5566745,53.8688194],[-166.5566597,53.8685785],[-166.5564124,53.868341],[-166.5559011,53.8681229],[-166.5559269,53.8681016],[-166.5564454,53.8683203],[-166.5565594,53.8682604],[-166.556005,53.867861],[-166.5559984,53.8678141],[-166.5560847,53.867743],[-166.555862,53.8676066],[-166.555839,53.8676457],[-166.5557369,53.8676653],[-166.5556782,53.8676503],[-166.5543641,53.866934],[-166.554188,53.8668889],[-166.5540298,53.8668814],[-166.5538741,53.8668799],[-166.5537542,53.8668979],[-166.5536598,53.8669491],[-166.5535348,53.8670499],[-166.553471,53.867095],[-166.553397,53.8670935],[-166.5533281,53.867074]]]},"properties":{"osm_id":888168081,"osm_type":"way","seamark_type":"harbour","display_class":"OTHER","min_zoom":12,"importance":1,"name":"Carl E. Moses Boat Harbor (CEM)","ref":null,"common":{"type":"harbour"},"children":{"harbour":{"category":"marina"}},"osm_tags":{"description":"The Carl E. Moses Boat Harbor (CEM) facility consists of 52 slips and 345 LF. Long-term slips and transient moorage spaces are available for vessels up to 150 feet.","leisure":"marina","name":"Carl E. Moses Boat Harbor (CEM)","operator":"City of Unalaska, International Port of Dutch Harbor","power_supply":"yes","sanitary_dump_station":"yes","seamark:harbour:category":"marina","seamark:type":"harbour"}}},{"type":"Feature","geometry":{"type":"Point","coordinates":[-166.50837,53.923934]},"properties":{"osm_id":12289579907,"osm_type":"node","seamark_type":"wreck","display_class":"OTHER","min_zoom":12,"importance":1,"name":"F/V Dauntless","ref":null,"common":{"type":"wreck"},"children":{},"osm_tags":{"historic":"wreck","name":"F/V Dauntless","seamark:type":"wreck"}}},{"type":"Feature","geometry":{"type":"Polygon","coordinates":[[[-166.5441235,53.8715029],[-166.5440706,53.8714652],[-166.5440198,53.871434],[-166.5439782,53.8714214],[-166.5439395,53.8714148],[-166.5439436,53.8714334],[-166.5439517,53.8714526],[-166.5439914,53.8714837],[-166.5440168,53.8714951],[-166.5440463,53.8715077],[-166.5440849,53.8715215],[-166.5441235,53.8715029]]]},"properties":{"osm_id":1331259925,"osm_type":"way","seamark_type":"wreck","display_class":"OTHER","min_zoom":12,"importance":1,"name":"Nirvana ship wreck","ref":null,"common":{"type":"wreck"},"children":{"wreck":{"category":"hull_showing"}},"osm_tags":{"access":"yes","area":"yes","historic":"wreck","name":"Nirvana ship wreck","name:pl":"Nirvana wrak statku","seamark:type":"wreck","seamark:wreck:category":"hull_showing","tourism":"attraction","wreck:visible_at_high_tide":"yes","wreck:visible_at_low_tide":"yes"}}},{"type":"Feature","geometry":{"type":"Polygon","coordinates":[[[-166.5255908,53.9039254],[-166.5255092,53.9038932],[-166.525412,53.9038418],[-166.525384,53.9038008],[-166.5253683,53.9037603],[-166.5253703,53.9037119],[-166.5253809,53.9036798],[-166.5253438,53.9036722],[-166.5253191,53.9036618],[-166.5253089,53.9036455],[-166.5252981,53.9036198],[-166.5252575,53.9036153],[-166.5245785,53.9039159],[-166.524485,53.903832],[-166.5279447,53.9023003],[-166.5308353,53.9005446],[-166.5309166,53.900511],[-166.5310142,53.900511],[-166.5311138,53.9005194],[-166.5312276,53.9005374],[-166.5312825,53.9005661],[-166.5313943,53.9006128],[-166.5315475,53.900686],[-166.5316951,53.9007853],[-166.5317968,53.9008955],[-166.5306823,53.9014985],[-166.5300647,53.9018986],[-166.5290892,53.9023015],[-166.5281135,53.9028081],[-166.5271987,53.9032584],[-166.5263734,53.9036237],[-166.5255908,53.9039254]]]},"properties":{"osm_id":1328293631,"osm_type":"way","seamark_type":"harbour","display_class":"OTHER","min_zoom":12,"importance":1,"name":"Port of Dutch Harbor","ref":null,"common":{"type":"harbour"},"children":{"harbour":{"category":"marina"}},"osm_tags":{"leisure":"marina","name":"Port of Dutch Harbor","seamark:harbour:category":"marina","seamark:type":"harbour"}}},{"type":"Feature","geometry":{"type":"Polygon","coordinates":[[[-166.5497815,53.8762873],[-166.5498072,53.8752744],[-166.5503165,53.8754155],[-166.55079,53.8755774],[-166.5510189,53.8756302],[-166.5519549,53.8760191],[-166.5523476,53.8761483],[-166.5528658,53.8762405],[-166.5530584,53.8762211],[-166.5535601,53.8763502],[-166.5541181,53.8765568],[-166.5543737,53.8766838],[-166.5549254,53.8768647],[-166.5551626,53.876927],[-166.5563903,53.8772745],[-166.5564993,53.8775057],[-166.5565649,53.8776255],[-166.5565963,53.8777454],[-166.5565958,53.8778163],[-166.5564765,53.8777902],[-166.556365,53.8777533],[-166.5561,53.8776218],[-166.5558599,53.8775647],[-166.5556853,53.8775506],[-166.5555505,53.8775939],[-166.5552692,53.8778035],[-166.5551557,53.8778425],[-166.5550336,53.8779111],[-166.554779,53.877927],[-166.5545448,53.878045],[-166.554287,53.8781104],[-166.5541316,53.8781888],[-166.5539606,53.8784203],[-166.5538965,53.8784255],[-166.5537154,53.8784694],[-166.5535631,53.8784237],[-166.5534892,53.8784003],[-166.5532917,53.87832],[-166.5529922,53.8781693],[-166.5528408,53.8780878],[-166.552716,53.8780203],[-166.5526958,53.8778672],[-166.5528051,53.8776761],[-166.5528529,53.8775277],[-166.5528679,53.8774284],[-166.5527936,53.8772165],[-166.5524255,53.8769686],[-166.5522708,53.8768108],[-166.5520917,53.8766473],[-166.5517238,53.8768592],[-166.5515806,53.8768204],[-166.5514848,53.8767956],[-166.5513595,53.8767604],[-166.5513535,53.8767572],[-166.5512428,53.8766661],[-166.5510338,53.8765926],[-166.5508575,53.8765699],[-166.5506756,53.8764956],[-166.5505441,53.8764176],[-166.5503399,53.8763934],[-166.5502242,53.8763809],[-166.5502149,53.8763743],[-166.5500994,53.8762924],[-166.5499101,53.8763341],[-166.5497815,53.8762873]]]},"properties":{"osm_id":888243068,"osm_type":"way","seamark_type":"harbour","display_class":"OTHER","min_zoom":12,"importance":1,"name":"Robert Storrs Small Boat Harbor","ref":null,"common":{"type":"harbour"},"children":{"harbour":{"category":"marina"}},"osm_tags":{"description":"The Robert Storrs Small Boat Harbor consists of 1,232 linear feet of floats, comprising 71 slips. Long-term slips and transient moorage spaces are available for vessels up to 60 feet. Potable water, shore-power, and refuse removal are available.","leisure":"marina","name":"Robert Storrs Small Boat Harbor","operator":"City of Unalaska, International Port of Dutch Harbor","seamark:harbour:category":"marina","seamark:type":"harbour"}}},{"type":"Feature","geometry":{"type":"Polygon","coordinates":[[[-166.610478,53.8305239],[-166.6104756,53.8304536],[-166.6103822,53.8304247],[-166.6101137,53.8304054],[-166.6099246,53.8303985],[-166.6098078,53.8303999],[-166.6096887,53.8304247],[-166.6096654,53.8304523],[-166.6096747,53.830495],[-166.6097261,53.8304991],[-166.6099456,53.8305156],[-166.6101184,53.8305198],[-166.6102538,53.8305294],[-166.6103565,53.8305405],[-166.6103775,53.8305405],[-166.610478,53.8305239]]]},"properties":{"osm_id":1329295343,"osm_type":"way","seamark_type":"wreck","display_class":"OTHER","min_zoom":12,"importance":1,"name":"SS Northwestern","ref":null,"common":{"type":"wreck"},"children":{"wreck":{"category":"hull_showing"}},"osm_tags":{"access":"yes","area":"yes","heritage":"2","heritage:operator":"nrhp","historic":"heritage","name":"SS Northwestern","nrhp:inscription_date":"1994-12-09","ref:nrhp":"94001065","seamark:type":"wreck","seamark:wreck:category":"hull_showing","wikidata":"Q17510986","wikimedia_commons":"Category:Northwestern (ship, 1890)","wikipedia":"en:SS Northwestern","wreck:date_sunk":"1946","wreck:visible_at_high_tide":"yes","wreck:visible_at_low_tide":"yes"}}}],"type":"FeatureCollection"}