{"type":"FeatureCollection","features":[{"type":"Feature","geometry":{"type":"Point","coordinates":[-133.0126667,53.5441389]},"properties":{"osm_id":13859486786,"osm_type":"node","seamark_type":"light_minor","display_class":"OTHER","min_zoom":12,"importance":1,"name":"Hippa Island","ref":null,"common":{"name":"Hippa Island","type":"light_minor"},"children":{"light":{"1:character":"Fl","1:colour":"white","1:height":"22.7","1:period":"4","1:range":"5","1:sector_end":"170","1:sector_start":"325","reference":"G 5858"}},"osm_tags":{"seamark:light:1:character":"Fl","seamark:light:1:colour":"white","seamark:light:1:height":"22.7","seamark:light:1:period":"4","seamark:light:1:range":"5","seamark:light:1:sector_end":"170","seamark:light:1:sector_start":"325","seamark:light:reference":"G 5858","seamark:name":"Hippa Island","seamark:type":"light_minor","source":"https://www.notmar.gc.ca/publications/list-lights/pac/pac7686-en.php"}}}],"type":"FeatureCollection"}