{"type":"FeatureCollection","features":[{"type":"Feature","geometry":{"type":"Point","coordinates":[-132.1082455,53.2510757]},"properties":{"osm_id":3037892048,"osm_type":"node","seamark_type":"rock","display_class":"OTHER","min_zoom":12,"importance":1,"name":null,"ref":null,"common":{"type":"rock"},"children":{},"osm_tags":{"seamark:type":"rock","source":"NRCan-CanVec-10.0"}}},{"type":"Feature","geometry":{"type":"Point","coordinates":[-132.0676479,53.2512468]},"properties":{"osm_id":3037892559,"osm_type":"node","seamark_type":"rock","display_class":"OTHER","min_zoom":12,"importance":1,"name":null,"ref":null,"common":{"type":"rock"},"children":{},"osm_tags":{"seamark:type":"rock","source":"NRCan-CanVec-10.0"}}},{"type":"Feature","geometry":{"type":"Point","coordinates":[-132.0857518,53.2515018]},"properties":{"osm_id":3037893696,"osm_type":"node","seamark_type":"rock","display_class":"OTHER","min_zoom":12,"importance":1,"name":null,"ref":null,"common":{"type":"rock"},"children":{},"osm_tags":{"seamark:type":"rock","source":"NRCan-CanVec-10.0"}}},{"type":"Feature","geometry":{"type":"Point","coordinates":[-132.0756376,53.2521059]},"properties":{"osm_id":3037896935,"osm_type":"node","seamark_type":"rock","display_class":"OTHER","min_zoom":12,"importance":1,"name":null,"ref":null,"common":{"type":"rock"},"children":{},"osm_tags":{"seamark:type":"rock","source":"NRCan-CanVec-10.0"}}},{"type":"Feature","geometry":{"type":"Point","coordinates":[-132.4167226,53.310075]},"properties":{"osm_id":3038021330,"osm_type":"node","seamark_type":"rock","display_class":"OTHER","min_zoom":12,"importance":1,"name":null,"ref":null,"common":{"type":"rock"},"children":{},"osm_tags":{"seamark:type":"rock","source":"NRCan-CanVec-10.0"}}},{"type":"Feature","geometry":{"type":"Point","coordinates":[-132.415486,53.3112485]},"properties":{"osm_id":3038022465,"osm_type":"node","seamark_type":"rock","display_class":"OTHER","min_zoom":12,"importance":1,"name":null,"ref":null,"common":{"type":"rock"},"children":{},"osm_tags":{"seamark:type":"rock","source":"NRCan-CanVec-10.0"}}},{"type":"Feature","geometry":{"type":"Point","coordinates":[-132.4368105,53.3138303]},"properties":{"osm_id":3038025183,"osm_type":"node","seamark_type":"rock","display_class":"OTHER","min_zoom":12,"importance":1,"name":null,"ref":null,"common":{"type":"rock"},"children":{},"osm_tags":{"seamark:type":"rock","source":"NRCan-CanVec-10.0"}}},{"type":"Feature","geometry":{"type":"Point","coordinates":[-132.4375121,53.3144597]},"properties":{"osm_id":3038025674,"osm_type":"node","seamark_type":"rock","display_class":"OTHER","min_zoom":12,"importance":1,"name":null,"ref":null,"common":{"type":"rock"},"children":{},"osm_tags":{"seamark:type":"rock","source":"NRCan-CanVec-10.0"}}},{"type":"Feature","geometry":{"type":"Point","coordinates":[-132.4209801,53.3210439]},"properties":{"osm_id":3038037264,"osm_type":"node","seamark_type":"rock","display_class":"OTHER","min_zoom":12,"importance":1,"name":null,"ref":null,"common":{"type":"rock"},"children":{},"osm_tags":{"seamark:type":"rock","source":"NRCan-CanVec-10.0"}}},{"type":"Feature","geometry":{"type":"Point","coordinates":[-132.4413299,53.3229751]},"properties":{"osm_id":3038041004,"osm_type":"node","seamark_type":"rock","display_class":"OTHER","min_zoom":12,"importance":1,"name":null,"ref":null,"common":{"type":"rock"},"children":{},"osm_tags":{"seamark:type":"rock","source":"NRCan-CanVec-10.0"}}},{"type":"Feature","geometry":{"type":"Point","coordinates":[-132.4421667,53.3234628]},"properties":{"osm_id":3038041454,"osm_type":"node","seamark_type":"rock","display_class":"OTHER","min_zoom":12,"importance":1,"name":null,"ref":null,"common":{"type":"rock"},"children":{},"osm_tags":{"seamark:type":"rock","source":"NRCan-CanVec-10.0"}}},{"type":"Feature","geometry":{"type":"Point","coordinates":[-132.4326859,53.3247634]},"properties":{"osm_id":3038043877,"osm_type":"node","seamark_type":"rock","display_class":"OTHER","min_zoom":12,"importance":1,"name":null,"ref":null,"common":{"type":"rock"},"children":{},"osm_tags":{"seamark:type":"rock","source":"NRCan-CanVec-10.0"}}},{"type":"Feature","geometry":{"type":"Point","coordinates":[-132.4693932,53.3266097]},"properties":{"osm_id":3038045031,"osm_type":"node","seamark_type":"rock","display_class":"OTHER","min_zoom":12,"importance":1,"name":null,"ref":null,"common":{"type":"rock"},"children":{},"osm_tags":{"seamark:type":"rock","source":"NRCan-CanVec-10.0"}}},{"type":"Feature","geometry":{"type":"Point","coordinates":[-132.4694128,53.3257903]},"properties":{"osm_id":3038045346,"osm_type":"node","seamark_type":"rock","display_class":"OTHER","min_zoom":12,"importance":1,"name":null,"ref":null,"common":{"type":"rock"},"children":{},"osm_tags":{"seamark:type":"rock","source":"NRCan-CanVec-10.0"}}},{"type":"Feature","geometry":{"type":"Point","coordinates":[-132.4474835,53.3263586]},"properties":{"osm_id":3038045837,"osm_type":"node","seamark_type":"rock","display_class":"OTHER","min_zoom":12,"importance":1,"name":null,"ref":null,"common":{"type":"rock"},"children":{},"osm_tags":{"seamark:type":"rock","source":"NRCan-CanVec-10.0"}}},{"type":"Feature","geometry":{"type":"Point","coordinates":[-132.4712747,53.3344326]},"properties":{"osm_id":3038053435,"osm_type":"node","seamark_type":"rock","display_class":"OTHER","min_zoom":12,"importance":1,"name":null,"ref":null,"common":{"type":"rock"},"children":{},"osm_tags":{"seamark:type":"rock","source":"NRCan-CanVec-10.0"}}},{"type":"Feature","geometry":{"type":"Point","coordinates":[-132.4485799,53.3349435]},"properties":{"osm_id":3038053724,"osm_type":"node","seamark_type":"rock","display_class":"OTHER","min_zoom":12,"importance":1,"name":null,"ref":null,"common":{"type":"rock"},"children":{},"osm_tags":{"seamark:type":"rock","source":"NRCan-CanVec-10.0"}}},{"type":"Feature","geometry":{"type":"Point","coordinates":[-132.4506036,53.3350007]},"properties":{"osm_id":3038053753,"osm_type":"node","seamark_type":"rock","display_class":"OTHER","min_zoom":12,"importance":1,"name":null,"ref":null,"common":{"type":"rock"},"children":{},"osm_tags":{"seamark:type":"rock","source":"NRCan-CanVec-10.0"}}},{"type":"Feature","geometry":{"type":"Point","coordinates":[-132.4481753,53.335763]},"properties":{"osm_id":3038054255,"osm_type":"node","seamark_type":"rock","display_class":"OTHER","min_zoom":12,"importance":1,"name":null,"ref":null,"common":{"type":"rock"},"children":{},"osm_tags":{"seamark:type":"rock","source":"NRCan-CanVec-10.0"}}},{"type":"Feature","geometry":{"type":"Point","coordinates":[-132.4591544,53.3375581]},"properties":{"osm_id":3038055703,"osm_type":"node","seamark_type":"rock","display_class":"OTHER","min_zoom":12,"importance":1,"name":null,"ref":null,"common":{"type":"rock"},"children":{},"osm_tags":{"seamark:type":"rock","source":"NRCan-CanVec-10.0"}}},{"type":"Feature","geometry":{"type":"Point","coordinates":[-132.4287111,53.3414347]},"properties":{"osm_id":3038059570,"osm_type":"node","seamark_type":"rock","display_class":"OTHER","min_zoom":12,"importance":1,"name":null,"ref":null,"common":{"type":"rock"},"children":{},"osm_tags":{"seamark:type":"rock","source":"NRCan-CanVec-10.0"}}},{"type":"Feature","geometry":{"type":"Point","coordinates":[-132.4296159,53.3421147]},"properties":{"osm_id":3038061168,"osm_type":"node","seamark_type":"rock","display_class":"OTHER","min_zoom":12,"importance":1,"name":null,"ref":null,"common":{"type":"rock"},"children":{},"osm_tags":{"seamark:type":"rock","source":"NRCan-CanVec-10.0"}}},{"type":"Feature","geometry":{"type":"Point","coordinates":[-132.4302628,53.3426456]},"properties":{"osm_id":3038061898,"osm_type":"node","seamark_type":"rock","display_class":"OTHER","min_zoom":12,"importance":1,"name":null,"ref":null,"common":{"type":"rock"},"children":{},"osm_tags":{"seamark:type":"rock","source":"NRCan-CanVec-10.0"}}},{"type":"Feature","geometry":{"type":"Point","coordinates":[-132.4450708,53.3509606]},"properties":{"osm_id":3038078580,"osm_type":"node","seamark_type":"rock","display_class":"OTHER","min_zoom":12,"importance":1,"name":null,"ref":null,"common":{"type":"rock"},"children":{},"osm_tags":{"seamark:type":"rock","source":"NRCan-CanVec-10.0"}}},{"type":"Feature","geometry":{"type":"Point","coordinates":[-132.7110314,53.2515121]},"properties":{"osm_id":3038516322,"osm_type":"node","seamark_type":"rock","display_class":"OTHER","min_zoom":12,"importance":1,"name":null,"ref":null,"common":{"type":"rock"},"children":{},"osm_tags":{"seamark:type":"rock","source":"NRCan-CanVec-10.0"}}},{"type":"Feature","geometry":{"type":"Point","coordinates":[-132.6580688,53.2556512]},"properties":{"osm_id":3038519366,"osm_type":"node","seamark_type":"rock","display_class":"OTHER","min_zoom":12,"importance":1,"name":null,"ref":null,"common":{"type":"rock"},"children":{},"osm_tags":{"seamark:type":"rock","source":"NRCan-CanVec-10.0"}}},{"type":"Feature","geometry":{"type":"Point","coordinates":[-132.6584283,53.2564291]},"properties":{"osm_id":3038520563,"osm_type":"node","seamark_type":"rock","display_class":"OTHER","min_zoom":12,"importance":1,"name":null,"ref":null,"common":{"type":"rock"},"children":{},"osm_tags":{"seamark:type":"rock","source":"NRCan-CanVec-10.0"}}},{"type":"Feature","geometry":{"type":"Point","coordinates":[-132.6968314,53.2572592]},"properties":{"osm_id":3038521348,"osm_type":"node","seamark_type":"rock","display_class":"OTHER","min_zoom":12,"importance":1,"name":null,"ref":null,"common":{"type":"rock"},"children":{},"osm_tags":{"seamark:type":"rock","source":"NRCan-CanVec-10.0"}}},{"type":"Feature","geometry":{"type":"Point","coordinates":[-132.6739771,53.2575507]},"properties":{"osm_id":3038521642,"osm_type":"node","seamark_type":"rock","display_class":"OTHER","min_zoom":12,"importance":1,"name":null,"ref":null,"common":{"type":"rock"},"children":{},"osm_tags":{"seamark:type":"rock","source":"NRCan-CanVec-10.0"}}},{"type":"Feature","geometry":{"type":"Point","coordinates":[-132.6920449,53.2582358]},"properties":{"osm_id":3038522242,"osm_type":"node","seamark_type":"rock","display_class":"OTHER","min_zoom":12,"importance":1,"name":null,"ref":null,"common":{"type":"rock"},"children":{},"osm_tags":{"seamark:type":"rock","source":"NRCan-CanVec-10.0"}}},{"type":"Feature","geometry":{"type":"Point","coordinates":[-132.6756196,53.2584591]},"properties":{"osm_id":3038522472,"osm_type":"node","seamark_type":"rock","display_class":"OTHER","min_zoom":12,"importance":1,"name":null,"ref":null,"common":{"type":"rock"},"children":{},"osm_tags":{"seamark:type":"rock","source":"NRCan-CanVec-10.0"}}},{"type":"Feature","geometry":{"type":"Point","coordinates":[-132.6781538,53.2584804]},"properties":{"osm_id":3038522491,"osm_type":"node","seamark_type":"rock","display_class":"OTHER","min_zoom":12,"importance":1,"name":null,"ref":null,"common":{"type":"rock"},"children":{},"osm_tags":{"seamark:type":"rock","source":"NRCan-CanVec-10.0"}}},{"type":"Feature","geometry":{"type":"Point","coordinates":[-132.6823852,53.2588055]},"properties":{"osm_id":3038522807,"osm_type":"node","seamark_type":"rock","display_class":"OTHER","min_zoom":12,"importance":1,"name":null,"ref":null,"common":{"type":"rock"},"children":{},"osm_tags":{"seamark:type":"rock","source":"NRCan-CanVec-10.0"}}},{"type":"Feature","geometry":{"type":"Point","coordinates":[-132.5878023,53.2605088]},"properties":{"osm_id":3038524968,"osm_type":"node","seamark_type":"rock","display_class":"OTHER","min_zoom":12,"importance":1,"name":null,"ref":null,"common":{"type":"rock"},"children":{},"osm_tags":{"seamark:type":"rock","source":"NRCan-CanVec-10.0"}}},{"type":"Feature","geometry":{"type":"Point","coordinates":[-132.7175905,53.2778387]},"properties":{"osm_id":3038548849,"osm_type":"node","seamark_type":"rock","display_class":"OTHER","min_zoom":12,"importance":1,"name":null,"ref":null,"common":{"type":"rock"},"children":{},"osm_tags":{"seamark:type":"rock","source":"NRCan-CanVec-10.0"}}},{"type":"Feature","geometry":{"type":"Point","coordinates":[-132.7191381,53.2797861]},"properties":{"osm_id":3038552522,"osm_type":"node","seamark_type":"rock","display_class":"OTHER","min_zoom":12,"importance":1,"name":null,"ref":null,"common":{"type":"rock"},"children":{},"osm_tags":{"seamark:type":"rock","source":"NRCan-CanVec-10.0"}}},{"type":"Feature","geometry":{"type":"Point","coordinates":[-132.7124522,53.2850476]},"properties":{"osm_id":3038560698,"osm_type":"node","seamark_type":"rock","display_class":"OTHER","min_zoom":12,"importance":1,"name":null,"ref":null,"common":{"type":"rock"},"children":{},"osm_tags":{"seamark:type":"rock","source":"NRCan-CanVec-10.0"}}},{"type":"Feature","geometry":{"type":"Point","coordinates":[-132.6582341,53.3025848]},"properties":{"osm_id":3038580110,"osm_type":"node","seamark_type":"rock","display_class":"OTHER","min_zoom":12,"importance":1,"name":null,"ref":null,"common":{"type":"rock"},"children":{},"osm_tags":{"seamark:type":"rock","source":"NRCan-CanVec-10.0"}}},{"type":"Feature","geometry":{"type":"Point","coordinates":[-132.7773492,53.3131277]},"properties":{"osm_id":3038585594,"osm_type":"node","seamark_type":"rock","display_class":"OTHER","min_zoom":12,"importance":1,"name":null,"ref":null,"common":{"type":"rock"},"children":{},"osm_tags":{"seamark:type":"rock","source":"NRCan-CanVec-10.0"}}},{"type":"Feature","geometry":{"type":"Point","coordinates":[-132.7935216,53.3147937]},"properties":{"osm_id":3038586883,"osm_type":"node","seamark_type":"rock","display_class":"OTHER","min_zoom":12,"importance":1,"name":null,"ref":null,"common":{"type":"rock"},"children":{},"osm_tags":{"seamark:type":"rock","source":"NRCan-CanVec-10.0"}}},{"type":"Feature","geometry":{"type":"Point","coordinates":[-132.6426051,53.3149211]},"properties":{"osm_id":3038586935,"osm_type":"node","seamark_type":"rock","display_class":"OTHER","min_zoom":12,"importance":1,"name":null,"ref":null,"common":{"type":"rock"},"children":{},"osm_tags":{"seamark:type":"rock","source":"NRCan-CanVec-10.0"}}},{"type":"Feature","geometry":{"type":"Point","coordinates":[-132.7614292,53.3152186]},"properties":{"osm_id":3038587033,"osm_type":"node","seamark_type":"rock","display_class":"OTHER","min_zoom":12,"importance":1,"name":null,"ref":null,"common":{"type":"rock"},"children":{},"osm_tags":{"seamark:type":"rock","source":"NRCan-CanVec-10.0"}}},{"type":"Feature","geometry":{"type":"Point","coordinates":[-132.5634749,53.3153577]},"properties":{"osm_id":3038587074,"osm_type":"node","seamark_type":"rock","display_class":"OTHER","min_zoom":12,"importance":1,"name":null,"ref":null,"common":{"type":"rock"},"children":{},"osm_tags":{"seamark:type":"rock","source":"NRCan-CanVec-10.0"}}},{"type":"Feature","geometry":{"type":"Point","coordinates":[-132.7446486,53.3162024]},"properties":{"osm_id":3038587389,"osm_type":"node","seamark_type":"rock","display_class":"OTHER","min_zoom":12,"importance":1,"name":null,"ref":null,"common":{"type":"rock"},"children":{},"osm_tags":{"seamark:type":"rock","source":"NRCan-CanVec-10.0"}}},{"type":"Feature","geometry":{"type":"Point","coordinates":[-132.7414298,53.3179753]},"properties":{"osm_id":3038588363,"osm_type":"node","seamark_type":"rock","display_class":"OTHER","min_zoom":12,"importance":1,"name":null,"ref":null,"common":{"type":"rock"},"children":{},"osm_tags":{"seamark:type":"rock","source":"NRCan-CanVec-10.0"}}},{"type":"Feature","geometry":{"type":"Point","coordinates":[-132.6246279,53.3189914]},"properties":{"osm_id":3038588992,"osm_type":"node","seamark_type":"rock","display_class":"OTHER","min_zoom":12,"importance":1,"name":null,"ref":null,"common":{"type":"rock"},"children":{},"osm_tags":{"seamark:type":"rock","source":"NRCan-CanVec-10.0"}}},{"type":"Feature","geometry":{"type":"Point","coordinates":[-132.6233526,53.3189992]},"properties":{"osm_id":3038588995,"osm_type":"node","seamark_type":"rock","display_class":"OTHER","min_zoom":12,"importance":1,"name":null,"ref":null,"common":{"type":"rock"},"children":{},"osm_tags":{"seamark:type":"rock","source":"NRCan-CanVec-10.0"}}},{"type":"Feature","geometry":{"type":"Point","coordinates":[-132.6189059,53.3190413]},"properties":{"osm_id":3038589009,"osm_type":"node","seamark_type":"rock","display_class":"OTHER","min_zoom":12,"importance":1,"name":null,"ref":null,"common":{"type":"rock"},"children":{},"osm_tags":{"seamark:type":"rock","source":"NRCan-CanVec-10.0"}}},{"type":"Feature","geometry":{"type":"Point","coordinates":[-132.7944472,53.3193598]},"properties":{"osm_id":3038589101,"osm_type":"node","seamark_type":"rock","display_class":"OTHER","min_zoom":12,"importance":1,"name":null,"ref":null,"common":{"type":"rock"},"children":{},"osm_tags":{"seamark:type":"rock","source":"NRCan-CanVec-10.0"}}},{"type":"Feature","geometry":{"type":"Point","coordinates":[-132.6068226,53.3196167]},"properties":{"osm_id":3038589192,"osm_type":"node","seamark_type":"rock","display_class":"OTHER","min_zoom":12,"importance":1,"name":null,"ref":null,"common":{"type":"rock"},"children":{},"osm_tags":{"seamark:type":"rock","source":"NRCan-CanVec-10.0"}}},{"type":"Feature","geometry":{"type":"Point","coordinates":[-132.5686945,53.3202326]},"properties":{"osm_id":3038589420,"osm_type":"node","seamark_type":"rock","display_class":"OTHER","min_zoom":12,"importance":1,"name":null,"ref":null,"common":{"type":"rock"},"children":{},"osm_tags":{"seamark:type":"rock","source":"NRCan-CanVec-10.0"}}},{"type":"Feature","geometry":{"type":"Point","coordinates":[-132.5721021,53.3219821]},"properties":{"osm_id":3038589943,"osm_type":"node","seamark_type":"rock","display_class":"OTHER","min_zoom":12,"importance":1,"name":null,"ref":null,"common":{"type":"rock"},"children":{},"osm_tags":{"seamark:type":"rock","source":"NRCan-CanVec-10.0"}}},{"type":"Feature","geometry":{"type":"Point","coordinates":[-132.6611739,53.3232222]},"properties":{"osm_id":3038590279,"osm_type":"node","seamark_type":"rock","display_class":"OTHER","min_zoom":12,"importance":1,"name":null,"ref":null,"common":{"type":"rock"},"children":{},"osm_tags":{"seamark:type":"rock","source":"NRCan-CanVec-10.0"}}},{"type":"Feature","geometry":{"type":"Point","coordinates":[-132.5777183,53.3235913]},"properties":{"osm_id":3038590452,"osm_type":"node","seamark_type":"rock","display_class":"OTHER","min_zoom":12,"importance":1,"name":null,"ref":null,"common":{"type":"rock"},"children":{},"osm_tags":{"seamark:type":"rock","source":"NRCan-CanVec-10.0"}}},{"type":"Feature","geometry":{"type":"Point","coordinates":[-132.5775691,53.3242111]},"properties":{"osm_id":3038590709,"osm_type":"node","seamark_type":"rock","display_class":"OTHER","min_zoom":12,"importance":1,"name":null,"ref":null,"common":{"type":"rock"},"children":{},"osm_tags":{"seamark:type":"rock","source":"NRCan-CanVec-10.0"}}},{"type":"Feature","geometry":{"type":"Point","coordinates":[-132.6455336,53.325113]},"properties":{"osm_id":3038591237,"osm_type":"node","seamark_type":"rock","display_class":"OTHER","min_zoom":12,"importance":1,"name":null,"ref":null,"common":{"type":"rock"},"children":{},"osm_tags":{"seamark:type":"rock","source":"NRCan-CanVec-10.0"}}},{"type":"Feature","geometry":{"type":"Point","coordinates":[-132.5096724,53.3413748]},"properties":{"osm_id":3038616466,"osm_type":"node","seamark_type":"rock","display_class":"OTHER","min_zoom":12,"importance":1,"name":null,"ref":null,"common":{"type":"rock"},"children":{},"osm_tags":{"seamark:type":"rock","source":"NRCan-CanVec-10.0"}}},{"type":"Feature","geometry":{"type":"Point","coordinates":[-132.735989,53.3465765]},"properties":{"osm_id":3038623972,"osm_type":"node","seamark_type":"rock","display_class":"OTHER","min_zoom":12,"importance":1,"name":null,"ref":null,"common":{"type":"rock"},"children":{},"osm_tags":{"seamark:type":"rock","source":"NRCan-CanVec-10.0"}}},{"type":"Feature","geometry":{"type":"Point","coordinates":[-132.6008468,53.3878782]},"properties":{"osm_id":3038653095,"osm_type":"node","seamark_type":"rock","display_class":"OTHER","min_zoom":12,"importance":1,"name":null,"ref":null,"common":{"type":"rock"},"children":{},"osm_tags":{"seamark:type":"rock","source":"NRCan-CanVec-10.0"}}},{"type":"Feature","geometry":{"type":"Point","coordinates":[-132.7485146,53.388555]},"properties":{"osm_id":3038653120,"osm_type":"node","seamark_type":"rock","display_class":"OTHER","min_zoom":12,"importance":1,"name":null,"ref":null,"common":{"type":"rock"},"children":{},"osm_tags":{"seamark:type":"rock","source":"NRCan-CanVec-10.0"}}},{"type":"Feature","geometry":{"type":"Point","coordinates":[-132.5935208,53.3915314]},"properties":{"osm_id":3038653277,"osm_type":"node","seamark_type":"rock","display_class":"OTHER","min_zoom":12,"importance":1,"name":null,"ref":null,"common":{"type":"rock"},"children":{},"osm_tags":{"seamark:type":"rock","source":"NRCan-CanVec-10.0"}}},{"type":"Feature","geometry":{"type":"Point","coordinates":[-132.6015726,53.3923208]},"properties":{"osm_id":3038653309,"osm_type":"node","seamark_type":"rock","display_class":"OTHER","min_zoom":12,"importance":1,"name":null,"ref":null,"common":{"type":"rock"},"children":{},"osm_tags":{"seamark:type":"rock","source":"NRCan-CanVec-10.0"}}},{"type":"Feature","geometry":{"type":"Point","coordinates":[-132.602006,53.3942776]},"properties":{"osm_id":3038653496,"osm_type":"node","seamark_type":"rock","display_class":"OTHER","min_zoom":12,"importance":1,"name":null,"ref":null,"common":{"type":"rock"},"children":{},"osm_tags":{"seamark:type":"rock","source":"NRCan-CanVec-10.0"}}},{"type":"Feature","geometry":{"type":"Point","coordinates":[-132.523605,53.4018105]},"properties":{"osm_id":3038654003,"osm_type":"node","seamark_type":"rock","display_class":"OTHER","min_zoom":12,"importance":1,"name":null,"ref":null,"common":{"type":"rock"},"children":{},"osm_tags":{"seamark:type":"rock","source":"NRCan-CanVec-10.0"}}},{"type":"Feature","geometry":{"type":"Point","coordinates":[-132.538441,53.4081663]},"properties":{"osm_id":3038655998,"osm_type":"node","seamark_type":"rock","display_class":"OTHER","min_zoom":12,"importance":1,"name":null,"ref":null,"common":{"type":"rock"},"children":{},"osm_tags":{"seamark:type":"rock","source":"NRCan-CanVec-10.0"}}},{"type":"Feature","geometry":{"type":"Point","coordinates":[-132.5713211,53.4162658]},"properties":{"osm_id":3038657260,"osm_type":"node","seamark_type":"rock","display_class":"OTHER","min_zoom":12,"importance":1,"name":null,"ref":null,"common":{"type":"rock"},"children":{},"osm_tags":{"seamark:type":"rock","source":"NRCan-CanVec-10.0"}}},{"type":"Feature","geometry":{"type":"Point","coordinates":[-132.649057,53.4191051]},"properties":{"osm_id":3038659119,"osm_type":"node","seamark_type":"rock","display_class":"OTHER","min_zoom":12,"importance":1,"name":null,"ref":null,"common":{"type":"rock"},"children":{},"osm_tags":{"seamark:type":"rock","source":"NRCan-CanVec-10.0"}}},{"type":"Feature","geometry":{"type":"Point","coordinates":[-132.6038442,53.4215053]},"properties":{"osm_id":3038660249,"osm_type":"node","seamark_type":"rock","display_class":"OTHER","min_zoom":12,"importance":1,"name":null,"ref":null,"common":{"type":"rock"},"children":{},"osm_tags":{"seamark:type":"rock","source":"NRCan-CanVec-10.0"}}},{"type":"Feature","geometry":{"type":"Point","coordinates":[-132.6419591,53.4229004]},"properties":{"osm_id":3038661093,"osm_type":"node","seamark_type":"rock","display_class":"OTHER","min_zoom":12,"importance":1,"name":null,"ref":null,"common":{"type":"rock"},"children":{},"osm_tags":{"seamark:type":"rock","source":"NRCan-CanVec-10.0"}}},{"type":"Feature","geometry":{"type":"Point","coordinates":[-132.6719106,53.4294]},"properties":{"osm_id":3038666476,"osm_type":"node","seamark_type":"rock","display_class":"OTHER","min_zoom":12,"importance":1,"name":null,"ref":null,"common":{"type":"rock"},"children":{},"osm_tags":{"seamark:type":"rock","source":"NRCan-CanVec-10.0"}}},{"type":"Feature","geometry":{"type":"Point","coordinates":[-132.6757783,53.4341886]},"properties":{"osm_id":3038673600,"osm_type":"node","seamark_type":"rock","display_class":"OTHER","min_zoom":12,"importance":1,"name":null,"ref":null,"common":{"type":"rock"},"children":{},"osm_tags":{"seamark:type":"rock","source":"NRCan-CanVec-10.0"}}},{"type":"Feature","geometry":{"type":"Point","coordinates":[-132.6750536,53.4347216]},"properties":{"osm_id":3038674053,"osm_type":"node","seamark_type":"rock","display_class":"OTHER","min_zoom":12,"importance":1,"name":null,"ref":null,"common":{"type":"rock"},"children":{},"osm_tags":{"seamark:type":"rock","source":"NRCan-CanVec-10.0"}}},{"type":"Feature","geometry":{"type":"Point","coordinates":[-132.6644122,53.445603]},"properties":{"osm_id":3038689786,"osm_type":"node","seamark_type":"rock","display_class":"OTHER","min_zoom":12,"importance":1,"name":null,"ref":null,"common":{"type":"rock"},"children":{},"osm_tags":{"seamark:type":"rock","source":"NRCan-CanVec-10.0"}}},{"type":"Feature","geometry":{"type":"Point","coordinates":[-132.6635208,53.4527212]},"properties":{"osm_id":3038701224,"osm_type":"node","seamark_type":"rock","display_class":"OTHER","min_zoom":12,"importance":1,"name":null,"ref":null,"common":{"type":"rock"},"children":{},"osm_tags":{"seamark:type":"rock","source":"NRCan-CanVec-10.0"}}},{"type":"Feature","geometry":{"type":"Point","coordinates":[-132.6629192,53.4545896]},"properties":{"osm_id":3038704012,"osm_type":"node","seamark_type":"rock","display_class":"OTHER","min_zoom":12,"importance":1,"name":null,"ref":null,"common":{"type":"rock"},"children":{},"osm_tags":{"seamark:type":"rock","source":"NRCan-CanVec-10.0"}}},{"type":"Feature","geometry":{"type":"Point","coordinates":[-132.7857659,53.4602649]},"properties":{"osm_id":3038711662,"osm_type":"node","seamark_type":"rock","display_class":"OTHER","min_zoom":12,"importance":1,"name":null,"ref":null,"common":{"type":"rock"},"children":{},"osm_tags":{"seamark:type":"rock","source":"NRCan-CanVec-10.0"}}},{"type":"Feature","geometry":{"type":"Point","coordinates":[-132.7887855,53.4608308]},"properties":{"osm_id":3038712221,"osm_type":"node","seamark_type":"rock","display_class":"OTHER","min_zoom":12,"importance":1,"name":null,"ref":null,"common":{"type":"rock"},"children":{},"osm_tags":{"seamark:type":"rock","source":"NRCan-CanVec-10.0"}}},{"type":"Feature","geometry":{"type":"Point","coordinates":[-132.7867604,53.4634413]},"properties":{"osm_id":3038715611,"osm_type":"node","seamark_type":"rock","display_class":"OTHER","min_zoom":12,"importance":1,"name":null,"ref":null,"common":{"type":"rock"},"children":{},"osm_tags":{"seamark:type":"rock","source":"NRCan-CanVec-10.0"}}},{"type":"Feature","geometry":{"type":"Point","coordinates":[-132.7831102,53.4659361]},"properties":{"osm_id":3038717821,"osm_type":"node","seamark_type":"rock","display_class":"OTHER","min_zoom":12,"importance":1,"name":null,"ref":null,"common":{"type":"rock"},"children":{},"osm_tags":{"seamark:type":"rock","source":"NRCan-CanVec-10.0"}}},{"type":"Feature","geometry":{"type":"Point","coordinates":[-132.7817422,53.467335]},"properties":{"osm_id":3038719217,"osm_type":"node","seamark_type":"rock","display_class":"OTHER","min_zoom":12,"importance":1,"name":null,"ref":null,"common":{"type":"rock"},"children":{},"osm_tags":{"seamark:type":"rock","source":"NRCan-CanVec-10.0"}}},{"type":"Feature","geometry":{"type":"Point","coordinates":[-132.6711952,53.4675034]},"properties":{"osm_id":3038719496,"osm_type":"node","seamark_type":"rock","display_class":"OTHER","min_zoom":12,"importance":1,"name":null,"ref":null,"common":{"type":"rock"},"children":{},"osm_tags":{"seamark:type":"rock","source":"NRCan-CanVec-10.0"}}},{"type":"Feature","geometry":{"type":"Point","coordinates":[-132.7974615,53.4676141]},"properties":{"osm_id":3038719859,"osm_type":"node","seamark_type":"rock","display_class":"OTHER","min_zoom":12,"importance":1,"name":null,"ref":null,"common":{"type":"rock"},"children":{},"osm_tags":{"seamark:type":"rock","source":"NRCan-CanVec-10.0"}}},{"type":"Feature","geometry":{"type":"Point","coordinates":[-132.7833923,53.4678477]},"properties":{"osm_id":3038720028,"osm_type":"node","seamark_type":"rock","display_class":"OTHER","min_zoom":12,"importance":1,"name":null,"ref":null,"common":{"type":"rock"},"children":{},"osm_tags":{"seamark:type":"rock","source":"NRCan-CanVec-10.0"}}},{"type":"Feature","geometry":{"type":"Point","coordinates":[-132.8200363,53.4678666]},"properties":{"osm_id":3038720045,"osm_type":"node","seamark_type":"rock","display_class":"OTHER","min_zoom":12,"importance":1,"name":null,"ref":null,"common":{"type":"rock"},"children":{},"osm_tags":{"seamark:type":"rock","source":"NRCan-CanVec-10.0"}}},{"type":"Feature","geometry":{"type":"Point","coordinates":[-132.7868583,53.4680578]},"properties":{"osm_id":3038720154,"osm_type":"node","seamark_type":"rock","display_class":"OTHER","min_zoom":12,"importance":1,"name":null,"ref":null,"common":{"type":"rock"},"children":{},"osm_tags":{"seamark:type":"rock","source":"NRCan-CanVec-10.0"}}},{"type":"Feature","geometry":{"type":"Point","coordinates":[-132.7882866,53.4709164]},"properties":{"osm_id":3038722697,"osm_type":"node","seamark_type":"rock","display_class":"OTHER","min_zoom":12,"importance":1,"name":null,"ref":null,"common":{"type":"rock"},"children":{},"osm_tags":{"seamark:type":"rock","source":"NRCan-CanVec-10.0"}}},{"type":"Feature","geometry":{"type":"Point","coordinates":[-132.7927533,53.47069]},"properties":{"osm_id":3038723145,"osm_type":"node","seamark_type":"rock","display_class":"OTHER","min_zoom":12,"importance":1,"name":null,"ref":null,"common":{"type":"rock"},"children":{},"osm_tags":{"seamark:type":"rock","source":"NRCan-CanVec-10.0"}}},{"type":"Feature","geometry":{"type":"Point","coordinates":[-132.8201072,53.4731233]},"properties":{"osm_id":3038725901,"osm_type":"node","seamark_type":"rock","display_class":"OTHER","min_zoom":12,"importance":1,"name":null,"ref":null,"common":{"type":"rock"},"children":{},"osm_tags":{"seamark:type":"rock","source":"NRCan-CanVec-10.0"}}},{"type":"Feature","geometry":{"type":"Point","coordinates":[-132.7788269,53.4768525]},"properties":{"osm_id":3038731975,"osm_type":"node","seamark_type":"rock","display_class":"OTHER","min_zoom":12,"importance":1,"name":null,"ref":null,"common":{"type":"rock"},"children":{},"osm_tags":{"seamark:type":"rock","source":"NRCan-CanVec-10.0"}}},{"type":"Feature","geometry":{"type":"Point","coordinates":[-132.7499974,53.4771811]},"properties":{"osm_id":3038732590,"osm_type":"node","seamark_type":"rock","display_class":"OTHER","min_zoom":12,"importance":1,"name":null,"ref":null,"common":{"type":"rock"},"children":{},"osm_tags":{"seamark:type":"rock","source":"NRCan-CanVec-10.0"}}},{"type":"Feature","geometry":{"type":"Point","coordinates":[-132.8124826,53.479326]},"properties":{"osm_id":3038736412,"osm_type":"node","seamark_type":"rock","display_class":"OTHER","min_zoom":12,"importance":1,"name":null,"ref":null,"common":{"type":"rock"},"children":{},"osm_tags":{"seamark:type":"rock","source":"NRCan-CanVec-10.0"}}},{"type":"Feature","geometry":{"type":"Point","coordinates":[-132.7974628,53.481121]},"properties":{"osm_id":3038738229,"osm_type":"node","seamark_type":"rock","display_class":"OTHER","min_zoom":12,"importance":1,"name":null,"ref":null,"common":{"type":"rock"},"children":{},"osm_tags":{"seamark:type":"rock","source":"NRCan-CanVec-10.0"}}},{"type":"Feature","geometry":{"type":"Point","coordinates":[-132.7862653,53.482298]},"properties":{"osm_id":3038740716,"osm_type":"node","seamark_type":"rock","display_class":"OTHER","min_zoom":12,"importance":1,"name":null,"ref":null,"common":{"type":"rock"},"children":{},"osm_tags":{"seamark:type":"rock","source":"NRCan-CanVec-10.0"}}},{"type":"Feature","geometry":{"type":"Point","coordinates":[-132.736055,53.4845069]},"properties":{"osm_id":3038743575,"osm_type":"node","seamark_type":"rock","display_class":"OTHER","min_zoom":12,"importance":1,"name":null,"ref":null,"common":{"type":"rock"},"children":{},"osm_tags":{"seamark:type":"rock","source":"NRCan-CanVec-10.0"}}},{"type":"Feature","geometry":{"type":"Point","coordinates":[-132.8881469,53.4866219]},"properties":{"osm_id":3038746880,"osm_type":"node","seamark_type":"rock","display_class":"OTHER","min_zoom":12,"importance":1,"name":null,"ref":null,"common":{"type":"rock"},"children":{},"osm_tags":{"seamark:type":"rock","source":"NRCan-CanVec-10.0"}}},{"type":"Feature","geometry":{"type":"Point","coordinates":[-132.7319694,53.4911886]},"properties":{"osm_id":3038753701,"osm_type":"node","seamark_type":"rock","display_class":"OTHER","min_zoom":12,"importance":1,"name":null,"ref":null,"common":{"type":"rock"},"children":{},"osm_tags":{"seamark:type":"rock","source":"NRCan-CanVec-10.0"}}},{"type":"Feature","geometry":{"type":"Point","coordinates":[-132.7391294,53.4948775]},"properties":{"osm_id":3038760183,"osm_type":"node","seamark_type":"rock","display_class":"OTHER","min_zoom":12,"importance":1,"name":null,"ref":null,"common":{"type":"rock"},"children":{},"osm_tags":{"seamark:type":"rock","source":"NRCan-CanVec-10.0"}}},{"type":"Feature","geometry":{"type":"Point","coordinates":[-132.8964828,53.4957598]},"properties":{"osm_id":3038761816,"osm_type":"node","seamark_type":"rock","display_class":"OTHER","min_zoom":12,"importance":1,"name":null,"ref":null,"common":{"type":"rock"},"children":{},"osm_tags":{"seamark:type":"rock","source":"NRCan-CanVec-10.0"}}},{"type":"Feature","geometry":{"type":"Point","coordinates":[-132.8977626,53.4959588]},"properties":{"osm_id":3038762503,"osm_type":"node","seamark_type":"rock","display_class":"OTHER","min_zoom":12,"importance":1,"name":null,"ref":null,"common":{"type":"rock"},"children":{},"osm_tags":{"seamark:type":"rock","source":"NRCan-CanVec-10.0"}}},{"type":"Feature","geometry":{"type":"Point","coordinates":[-132.8954939,53.4973608]},"properties":{"osm_id":3038764231,"osm_type":"node","seamark_type":"rock","display_class":"OTHER","min_zoom":12,"importance":1,"name":null,"ref":null,"common":{"type":"rock"},"children":{},"osm_tags":{"seamark:type":"rock","source":"NRCan-CanVec-10.0"}}},{"type":"Feature","geometry":{"type":"Point","coordinates":[-132.8966544,53.4975199]},"properties":{"osm_id":3038764374,"osm_type":"node","seamark_type":"rock","display_class":"OTHER","min_zoom":12,"importance":1,"name":null,"ref":null,"common":{"type":"rock"},"children":{},"osm_tags":{"seamark:type":"rock","source":"NRCan-CanVec-10.0"}}},{"type":"Feature","geometry":{"type":"Point","coordinates":[-132.3942538,53.1254626]},"properties":{"osm_id":3040367399,"osm_type":"node","seamark_type":"rock","display_class":"OTHER","min_zoom":12,"importance":1,"name":null,"ref":null,"common":{"type":"rock"},"children":{},"osm_tags":{"seamark:type":"rock","source":"NRCan-CanVec-10.0"}}},{"type":"Feature","geometry":{"type":"Point","coordinates":[-132.4609453,53.1347945]},"properties":{"osm_id":3040383365,"osm_type":"node","seamark_type":"rock","display_class":"OTHER","min_zoom":12,"importance":1,"name":null,"ref":null,"common":{"type":"rock"},"children":{},"osm_tags":{"seamark:type":"rock","source":"NRCan-CanVec-10.0"}}},{"type":"Feature","geometry":{"type":"Point","coordinates":[-132.3571253,53.1385739]},"properties":{"osm_id":3040388622,"osm_type":"node","seamark_type":"rock","display_class":"OTHER","min_zoom":12,"importance":1,"name":null,"ref":null,"common":{"type":"rock"},"children":{},"osm_tags":{"seamark:type":"rock","source":"NRCan-CanVec-10.0"}}},{"type":"Feature","geometry":{"type":"Point","coordinates":[-132.4948136,53.1409773]},"properties":{"osm_id":3040399109,"osm_type":"node","seamark_type":"rock","display_class":"OTHER","min_zoom":12,"importance":1,"name":null,"ref":null,"common":{"type":"rock"},"children":{},"osm_tags":{"seamark:type":"rock","source":"NRCan-CanVec-10.0"}}},{"type":"Feature","geometry":{"type":"Point","coordinates":[-132.235964,53.1427717]},"properties":{"osm_id":3040405979,"osm_type":"node","seamark_type":"rock","display_class":"OTHER","min_zoom":12,"importance":1,"name":null,"ref":null,"common":{"type":"rock"},"children":{},"osm_tags":{"seamark:type":"rock","source":"NRCan-CanVec-10.0"}}},{"type":"Feature","geometry":{"type":"Point","coordinates":[-132.3665606,53.1441353]},"properties":{"osm_id":3040410396,"osm_type":"node","seamark_type":"rock","display_class":"OTHER","min_zoom":12,"importance":1,"name":null,"ref":null,"common":{"type":"rock"},"children":{},"osm_tags":{"seamark:type":"rock","source":"NRCan-CanVec-10.0"}}},{"type":"Feature","geometry":{"type":"Point","coordinates":[-132.4997268,53.1456235]},"properties":{"osm_id":3040414532,"osm_type":"node","seamark_type":"rock","display_class":"OTHER","min_zoom":12,"importance":1,"name":null,"ref":null,"common":{"type":"rock"},"children":{},"osm_tags":{"seamark:type":"rock","source":"NRCan-CanVec-10.0"}}},{"type":"Feature","geometry":{"type":"Point","coordinates":[-132.499553,53.146713]},"properties":{"osm_id":3040418847,"osm_type":"node","seamark_type":"rock","display_class":"OTHER","min_zoom":12,"importance":1,"name":null,"ref":null,"common":{"type":"rock"},"children":{},"osm_tags":{"seamark:type":"rock","source":"NRCan-CanVec-10.0"}}},{"type":"Feature","geometry":{"type":"Point","coordinates":[-132.2074205,53.1479555]},"properties":{"osm_id":3040422768,"osm_type":"node","seamark_type":"rock","display_class":"OTHER","min_zoom":12,"importance":1,"name":null,"ref":null,"common":{"type":"rock"},"children":{},"osm_tags":{"seamark:type":"rock","source":"NRCan-CanVec-10.0"}}},{"type":"Feature","geometry":{"type":"Point","coordinates":[-132.4923486,53.149007]},"properties":{"osm_id":3040426139,"osm_type":"node","seamark_type":"rock","display_class":"OTHER","min_zoom":12,"importance":1,"name":null,"ref":null,"common":{"type":"rock"},"children":{},"osm_tags":{"seamark:type":"rock","source":"NRCan-CanVec-10.0"}}},{"type":"Feature","geometry":{"type":"Point","coordinates":[-132.3549139,53.1495854]},"properties":{"osm_id":3040430075,"osm_type":"node","seamark_type":"rock","display_class":"OTHER","min_zoom":12,"importance":1,"name":null,"ref":null,"common":{"type":"rock"},"children":{},"osm_tags":{"seamark:type":"rock","source":"NRCan-CanVec-10.0"}}},{"type":"Feature","geometry":{"type":"Point","coordinates":[-132.5854557,53.149598]},"properties":{"osm_id":3040430092,"osm_type":"node","seamark_type":"rock","display_class":"OTHER","min_zoom":12,"importance":1,"name":null,"ref":null,"common":{"type":"rock"},"children":{},"osm_tags":{"seamark:type":"rock","source":"NRCan-CanVec-10.0"}}},{"type":"Feature","geometry":{"type":"Point","coordinates":[-132.3537912,53.1496405]},"properties":{"osm_id":3040430936,"osm_type":"node","seamark_type":"rock","display_class":"OTHER","min_zoom":12,"importance":1,"name":null,"ref":null,"common":{"type":"rock"},"children":{},"osm_tags":{"seamark:type":"rock","source":"NRCan-CanVec-10.0"}}},{"type":"Feature","geometry":{"type":"Point","coordinates":[-132.1893751,53.1496625]},"properties":{"osm_id":3040430956,"osm_type":"node","seamark_type":"rock","display_class":"OTHER","min_zoom":12,"importance":1,"name":null,"ref":null,"common":{"type":"rock"},"children":{},"osm_tags":{"seamark:type":"rock","source":"NRCan-CanVec-10.0"}}},{"type":"Feature","geometry":{"type":"Point","coordinates":[-132.1991074,53.1506091]},"properties":{"osm_id":3040437462,"osm_type":"node","seamark_type":"rock","display_class":"OTHER","min_zoom":12,"importance":1,"name":null,"ref":null,"common":{"type":"rock"},"children":{},"osm_tags":{"seamark:type":"rock","source":"NRCan-CanVec-10.0"}}},{"type":"Feature","geometry":{"type":"Point","coordinates":[-132.1973595,53.1511846]},"properties":{"osm_id":3040441922,"osm_type":"node","seamark_type":"rock","display_class":"OTHER","min_zoom":12,"importance":1,"name":null,"ref":null,"common":{"type":"rock"},"children":{},"osm_tags":{"seamark:type":"rock","source":"NRCan-CanVec-10.0"}}},{"type":"Feature","geometry":{"type":"Point","coordinates":[-132.5909,53.1512212]},"properties":{"osm_id":3040442373,"osm_type":"node","seamark_type":"rock","display_class":"OTHER","min_zoom":12,"importance":1,"name":null,"ref":null,"common":{"type":"rock"},"children":{},"osm_tags":{"seamark:type":"rock","source":"NRCan-CanVec-10.0"}}},{"type":"Feature","geometry":{"type":"Point","coordinates":[-132.2012276,53.1520058]},"properties":{"osm_id":3040447204,"osm_type":"node","seamark_type":"rock","display_class":"OTHER","min_zoom":12,"importance":1,"name":null,"ref":null,"common":{"type":"rock"},"children":{},"osm_tags":{"seamark:type":"rock","source":"NRCan-CanVec-10.0"}}},{"type":"Feature","geometry":{"type":"Point","coordinates":[-132.2892502,53.152499]},"properties":{"osm_id":3040451925,"osm_type":"node","seamark_type":"rock","display_class":"OTHER","min_zoom":12,"importance":1,"name":null,"ref":null,"common":{"type":"rock"},"children":{},"osm_tags":{"seamark:type":"rock","source":"NRCan-CanVec-10.0"}}},{"type":"Feature","geometry":{"type":"Point","coordinates":[-132.2863696,53.1526097]},"properties":{"osm_id":3040453140,"osm_type":"node","seamark_type":"rock","display_class":"OTHER","min_zoom":12,"importance":1,"name":null,"ref":null,"common":{"type":"rock"},"children":{},"osm_tags":{"seamark:type":"rock","source":"NRCan-CanVec-10.0"}}},{"type":"Feature","geometry":{"type":"Point","coordinates":[-132.1863951,53.1554928]},"properties":{"osm_id":3040464106,"osm_type":"node","seamark_type":"rock","display_class":"OTHER","min_zoom":12,"importance":1,"name":null,"ref":null,"common":{"type":"rock"},"children":{},"osm_tags":{"seamark:type":"rock","source":"NRCan-CanVec-10.0"}}},{"type":"Feature","geometry":{"type":"Point","coordinates":[-132.4885813,53.1562113]},"properties":{"osm_id":3040466638,"osm_type":"node","seamark_type":"rock","display_class":"OTHER","min_zoom":12,"importance":1,"name":null,"ref":null,"common":{"type":"rock"},"children":{},"osm_tags":{"seamark:type":"rock","source":"NRCan-CanVec-10.0"}}},{"type":"Feature","geometry":{"type":"Point","coordinates":[-132.5228149,53.1574993]},"properties":{"osm_id":3040472471,"osm_type":"node","seamark_type":"rock","display_class":"OTHER","min_zoom":12,"importance":1,"name":null,"ref":null,"common":{"type":"rock"},"children":{},"osm_tags":{"seamark:type":"rock","source":"NRCan-CanVec-10.0"}}},{"type":"Feature","geometry":{"type":"Point","coordinates":[-132.1828958,53.1578465]},"properties":{"osm_id":3040474753,"osm_type":"node","seamark_type":"rock","display_class":"OTHER","min_zoom":12,"importance":1,"name":null,"ref":null,"common":{"type":"rock"},"children":{},"osm_tags":{"seamark:type":"rock","source":"NRCan-CanVec-10.0"}}},{"type":"Feature","geometry":{"type":"Point","coordinates":[-132.4881652,53.1580998]},"properties":{"osm_id":3040475652,"osm_type":"node","seamark_type":"rock","display_class":"OTHER","min_zoom":12,"importance":1,"name":null,"ref":null,"common":{"type":"rock"},"children":{},"osm_tags":{"seamark:type":"rock","source":"NRCan-CanVec-10.0"}}},{"type":"Feature","geometry":{"type":"Point","coordinates":[-132.0574827,53.1642176]},"properties":{"osm_id":3040509467,"osm_type":"node","seamark_type":"rock","display_class":"OTHER","min_zoom":12,"importance":1,"name":null,"ref":null,"common":{"type":"rock"},"children":{},"osm_tags":{"seamark:type":"rock","source":"NRCan-CanVec-10.0"}}},{"type":"Feature","geometry":{"type":"Point","coordinates":[-132.4924525,53.1695112]},"properties":{"osm_id":3040527685,"osm_type":"node","seamark_type":"rock","display_class":"OTHER","min_zoom":12,"importance":1,"name":null,"ref":null,"common":{"type":"rock"},"children":{},"osm_tags":{"seamark:type":"rock","source":"NRCan-CanVec-10.0"}}},{"type":"Feature","geometry":{"type":"Point","coordinates":[-132.1261616,53.1696478]},"properties":{"osm_id":3040527836,"osm_type":"node","seamark_type":"rock","display_class":"OTHER","min_zoom":12,"importance":1,"name":null,"ref":null,"common":{"type":"rock"},"children":{},"osm_tags":{"seamark:type":"rock","source":"NRCan-CanVec-10.0"}}},{"type":"Feature","geometry":{"type":"Point","coordinates":[-132.4875365,53.1738327]},"properties":{"osm_id":3040535613,"osm_type":"node","seamark_type":"rock","display_class":"OTHER","min_zoom":12,"importance":1,"name":null,"ref":null,"common":{"type":"rock"},"children":{},"osm_tags":{"seamark:type":"rock","source":"NRCan-CanVec-10.0"}}},{"type":"Feature","geometry":{"type":"Point","coordinates":[-132.028484,53.1864957]},"properties":{"osm_id":3040564820,"osm_type":"node","seamark_type":"rock","display_class":"OTHER","min_zoom":12,"importance":1,"name":null,"ref":null,"common":{"type":"rock"},"children":{},"osm_tags":{"seamark:type":"rock","source":"NRCan-CanVec-10.0"}}},{"type":"Feature","geometry":{"type":"Point","coordinates":[-132.0265182,53.1865419]},"properties":{"osm_id":3040564871,"osm_type":"node","seamark_type":"rock","display_class":"OTHER","min_zoom":12,"importance":1,"name":null,"ref":null,"common":{"type":"rock"},"children":{},"osm_tags":{"seamark:type":"rock","source":"NRCan-CanVec-10.0"}}},{"type":"Feature","geometry":{"type":"Point","coordinates":[-132.0304861,53.1913892]},"properties":{"osm_id":3040576866,"osm_type":"node","seamark_type":"rock","display_class":"OTHER","min_zoom":12,"importance":1,"name":null,"ref":null,"common":{"type":"rock"},"children":{},"osm_tags":{"seamark:type":"rock","source":"NRCan-CanVec-10.0"}}},{"type":"Feature","geometry":{"type":"Point","coordinates":[-132.5506353,53.1924958]},"properties":{"osm_id":3040581455,"osm_type":"node","seamark_type":"rock","display_class":"OTHER","min_zoom":12,"importance":1,"name":null,"ref":null,"common":{"type":"rock"},"children":{},"osm_tags":{"seamark:type":"rock","source":"NRCan-CanVec-10.0"}}},{"type":"Feature","geometry":{"type":"Point","coordinates":[-132.2559051,53.1930139]},"properties":{"osm_id":3040583776,"osm_type":"node","seamark_type":"rock","display_class":"OTHER","min_zoom":12,"importance":1,"name":null,"ref":null,"common":{"type":"rock"},"children":{},"osm_tags":{"seamark:type":"rock","source":"NRCan-CanVec-10.0"}}},{"type":"Feature","geometry":{"type":"Point","coordinates":[-132.5497245,53.1931695]},"properties":{"osm_id":3040584753,"osm_type":"node","seamark_type":"rock","display_class":"OTHER","min_zoom":12,"importance":1,"name":null,"ref":null,"common":{"type":"rock"},"children":{},"osm_tags":{"seamark:type":"rock","source":"NRCan-CanVec-10.0"}}},{"type":"Feature","geometry":{"type":"Point","coordinates":[-132.5514213,53.1932985]},"properties":{"osm_id":3040585224,"osm_type":"node","seamark_type":"rock","display_class":"OTHER","min_zoom":12,"importance":1,"name":null,"ref":null,"common":{"type":"rock"},"children":{},"osm_tags":{"seamark:type":"rock","source":"NRCan-CanVec-10.0"}}},{"type":"Feature","geometry":{"type":"Point","coordinates":[-132.2613706,53.1959334]},"properties":{"osm_id":3040598514,"osm_type":"node","seamark_type":"rock","display_class":"OTHER","min_zoom":12,"importance":1,"name":null,"ref":null,"common":{"type":"rock"},"children":{},"osm_tags":{"seamark:type":"rock","source":"NRCan-CanVec-10.0"}}},{"type":"Feature","geometry":{"type":"Point","coordinates":[-132.0163384,53.1973629]},"properties":{"osm_id":3040602909,"osm_type":"node","seamark_type":"rock","display_class":"OTHER","min_zoom":12,"importance":1,"name":null,"ref":null,"common":{"type":"rock"},"children":{},"osm_tags":{"seamark:type":"rock","source":"NRCan-CanVec-10.0"}}},{"type":"Feature","geometry":{"type":"Point","coordinates":[-132.2634402,53.1974932]},"properties":{"osm_id":3040603513,"osm_type":"node","seamark_type":"rock","display_class":"OTHER","min_zoom":12,"importance":1,"name":null,"ref":null,"common":{"type":"rock"},"children":{},"osm_tags":{"seamark:type":"rock","source":"NRCan-CanVec-10.0"}}},{"type":"Feature","geometry":{"type":"Point","coordinates":[-132.264053,53.1980148]},"properties":{"osm_id":3040605374,"osm_type":"node","seamark_type":"rock","display_class":"OTHER","min_zoom":12,"importance":1,"name":null,"ref":null,"common":{"type":"rock"},"children":{},"osm_tags":{"seamark:type":"rock","source":"NRCan-CanVec-10.0"}}},{"type":"Feature","geometry":{"type":"Point","coordinates":[-132.0155297,53.1994935]},"properties":{"osm_id":3040609098,"osm_type":"node","seamark_type":"rock","display_class":"OTHER","min_zoom":12,"importance":1,"name":null,"ref":null,"common":{"type":"rock"},"children":{},"osm_tags":{"seamark:type":"rock","source":"NRCan-CanVec-10.0"}}},{"type":"Feature","geometry":{"type":"Point","coordinates":[-132.0437229,53.199567]},"properties":{"osm_id":3040609315,"osm_type":"node","seamark_type":"rock","display_class":"OTHER","min_zoom":12,"importance":1,"name":null,"ref":null,"common":{"type":"rock"},"children":{},"osm_tags":{"seamark:type":"rock","source":"NRCan-CanVec-10.0"}}},{"type":"Feature","geometry":{"type":"Point","coordinates":[-132.0095832,53.1997043]},"properties":{"osm_id":3040610033,"osm_type":"node","seamark_type":"rock","display_class":"OTHER","min_zoom":12,"importance":1,"name":null,"ref":null,"common":{"type":"rock"},"children":{},"osm_tags":{"seamark:type":"rock","source":"NRCan-CanVec-10.0"}}},{"type":"Feature","geometry":{"type":"Point","coordinates":[-132.0124073,53.2001925]},"properties":{"osm_id":3040611666,"osm_type":"node","seamark_type":"rock","display_class":"OTHER","min_zoom":12,"importance":1,"name":null,"ref":null,"common":{"type":"rock"},"children":{},"osm_tags":{"seamark:type":"rock","source":"NRCan-CanVec-10.0"}}},{"type":"Feature","geometry":{"type":"Point","coordinates":[-132.225562,53.2002182]},"properties":{"osm_id":3040611706,"osm_type":"node","seamark_type":"rock","display_class":"OTHER","min_zoom":12,"importance":1,"name":null,"ref":null,"common":{"type":"rock"},"children":{},"osm_tags":{"seamark:type":"rock","source":"NRCan-CanVec-10.0"}}},{"type":"Feature","geometry":{"type":"Point","coordinates":[-132.2834243,53.201299]},"properties":{"osm_id":3040616065,"osm_type":"node","seamark_type":"rock","display_class":"OTHER","min_zoom":12,"importance":1,"name":null,"ref":null,"common":{"type":"rock"},"children":{},"osm_tags":{"seamark:type":"rock","source":"NRCan-CanVec-10.0"}}},{"type":"Feature","geometry":{"type":"Point","coordinates":[-132.2848372,53.2018517]},"properties":{"osm_id":3040617783,"osm_type":"node","seamark_type":"rock","display_class":"OTHER","min_zoom":12,"importance":1,"name":null,"ref":null,"common":{"type":"rock"},"children":{},"osm_tags":{"seamark:type":"rock","source":"NRCan-CanVec-10.0"}}},{"type":"Feature","geometry":{"type":"Point","coordinates":[-132.672823,53.2039616]},"properties":{"osm_id":3040625679,"osm_type":"node","seamark_type":"rock","display_class":"OTHER","min_zoom":12,"importance":1,"name":null,"ref":null,"common":{"type":"rock"},"children":{},"osm_tags":{"seamark:type":"rock","source":"NRCan-CanVec-10.0"}}},{"type":"Feature","geometry":{"type":"Point","coordinates":[-132.0057106,53.2049431]},"properties":{"osm_id":3040629868,"osm_type":"node","seamark_type":"rock","display_class":"OTHER","min_zoom":12,"importance":1,"name":null,"ref":null,"common":{"type":"rock"},"children":{},"osm_tags":{"seamark:type":"rock","source":"NRCan-CanVec-10.0"}}},{"type":"Feature","geometry":{"type":"Point","coordinates":[-132.6774087,53.2063715]},"properties":{"osm_id":3040634005,"osm_type":"node","seamark_type":"rock","display_class":"OTHER","min_zoom":12,"importance":1,"name":null,"ref":null,"common":{"type":"rock"},"children":{},"osm_tags":{"seamark:type":"rock","source":"NRCan-CanVec-10.0"}}},{"type":"Feature","geometry":{"type":"Point","coordinates":[-132.2270768,53.2068869]},"properties":{"osm_id":3040635138,"osm_type":"node","seamark_type":"rock","display_class":"OTHER","min_zoom":12,"importance":1,"name":null,"ref":null,"common":{"type":"rock"},"children":{},"osm_tags":{"seamark:type":"rock","source":"NRCan-CanVec-10.0"}}},{"type":"Feature","geometry":{"type":"Point","coordinates":[-132.2265377,53.207834]},"properties":{"osm_id":3040636262,"osm_type":"node","seamark_type":"rock","display_class":"OTHER","min_zoom":12,"importance":1,"name":null,"ref":null,"common":{"type":"rock"},"children":{},"osm_tags":{"seamark:type":"rock","source":"NRCan-CanVec-10.0"}}},{"type":"Feature","geometry":{"type":"Point","coordinates":[-132.2117663,53.208691]},"properties":{"osm_id":3040637506,"osm_type":"node","seamark_type":"rock","display_class":"OTHER","min_zoom":12,"importance":1,"name":null,"ref":null,"common":{"type":"rock"},"children":{},"osm_tags":{"seamark:type":"rock","source":"NRCan-CanVec-10.0"}}},{"type":"Feature","geometry":{"type":"Point","coordinates":[-132.1501593,53.2089551]},"properties":{"osm_id":3040637799,"osm_type":"node","seamark_type":"rock","display_class":"OTHER","min_zoom":12,"importance":1,"name":null,"ref":null,"common":{"type":"rock"},"children":{},"osm_tags":{"seamark:type":"rock","source":"NRCan-CanVec-10.0"}}},{"type":"Feature","geometry":{"type":"Point","coordinates":[-132.2253543,53.210623]},"properties":{"osm_id":3040641069,"osm_type":"node","seamark_type":"rock","display_class":"OTHER","min_zoom":12,"importance":1,"name":null,"ref":null,"common":{"type":"rock"},"children":{},"osm_tags":{"seamark:type":"rock","source":"NRCan-CanVec-10.0"}}},{"type":"Feature","geometry":{"type":"Point","coordinates":[-132.21543,53.2112356]},"properties":{"osm_id":3040641983,"osm_type":"node","seamark_type":"rock","display_class":"OTHER","min_zoom":12,"importance":1,"name":null,"ref":null,"common":{"type":"rock"},"children":{},"osm_tags":{"seamark:type":"rock","source":"NRCan-CanVec-10.0"}}},{"type":"Feature","geometry":{"type":"Point","coordinates":[-132.1349741,53.2150992]},"properties":{"osm_id":3040648888,"osm_type":"node","seamark_type":"rock","display_class":"OTHER","min_zoom":12,"importance":1,"name":null,"ref":null,"common":{"type":"rock"},"children":{},"osm_tags":{"seamark:type":"rock","source":"NRCan-CanVec-10.0"}}},{"type":"Feature","geometry":{"type":"Point","coordinates":[-132.6080493,53.2153376]},"properties":{"osm_id":3040649159,"osm_type":"node","seamark_type":"rock","display_class":"OTHER","min_zoom":12,"importance":1,"name":null,"ref":null,"common":{"type":"rock"},"children":{},"osm_tags":{"seamark:type":"rock","source":"NRCan-CanVec-10.0"}}},{"type":"Feature","geometry":{"type":"Point","coordinates":[-132.1973633,53.2201012]},"properties":{"osm_id":3040660499,"osm_type":"node","seamark_type":"rock","display_class":"OTHER","min_zoom":12,"importance":1,"name":null,"ref":null,"common":{"type":"rock"},"children":{},"osm_tags":{"seamark:type":"rock","source":"NRCan-CanVec-10.0"}}},{"type":"Feature","geometry":{"type":"Point","coordinates":[-132.0976296,53.2209526]},"properties":{"osm_id":3040661775,"osm_type":"node","seamark_type":"rock","display_class":"OTHER","min_zoom":12,"importance":1,"name":null,"ref":null,"common":{"type":"rock"},"children":{},"osm_tags":{"seamark:type":"rock","source":"NRCan-CanVec-10.0"}}},{"type":"Feature","geometry":{"type":"Point","coordinates":[-132.174224,53.221149]},"properties":{"osm_id":3040662034,"osm_type":"node","seamark_type":"rock","display_class":"OTHER","min_zoom":12,"importance":1,"name":null,"ref":null,"common":{"type":"rock"},"children":{},"osm_tags":{"seamark:type":"rock","source":"NRCan-CanVec-10.0"}}},{"type":"Feature","geometry":{"type":"Point","coordinates":[-132.1084872,53.2211626]},"properties":{"osm_id":3040662054,"osm_type":"node","seamark_type":"rock","display_class":"OTHER","min_zoom":12,"importance":1,"name":null,"ref":null,"common":{"type":"rock"},"children":{},"osm_tags":{"seamark:type":"rock","source":"NRCan-CanVec-10.0"}}},{"type":"Feature","geometry":{"type":"Point","coordinates":[-132.1667594,53.2226041]},"properties":{"osm_id":3040664822,"osm_type":"node","seamark_type":"rock","display_class":"OTHER","min_zoom":12,"importance":1,"name":null,"ref":null,"common":{"type":"rock"},"children":{},"osm_tags":{"seamark:type":"rock","source":"NRCan-CanVec-10.0"}}},{"type":"Feature","geometry":{"type":"Point","coordinates":[-132.1707458,53.2244533]},"properties":{"osm_id":3040669078,"osm_type":"node","seamark_type":"rock","display_class":"OTHER","min_zoom":12,"importance":1,"name":null,"ref":null,"common":{"type":"rock"},"children":{},"osm_tags":{"seamark:type":"rock","source":"NRCan-CanVec-10.0"}}},{"type":"Feature","geometry":{"type":"Point","coordinates":[-132.0844431,53.2247644]},"properties":{"osm_id":3040669582,"osm_type":"node","seamark_type":"rock","display_class":"OTHER","min_zoom":12,"importance":1,"name":null,"ref":null,"common":{"type":"rock"},"children":{},"osm_tags":{"seamark:type":"rock","source":"NRCan-CanVec-10.0"}}},{"type":"Feature","geometry":{"type":"Point","coordinates":[-132.0805508,53.2252457]},"properties":{"osm_id":3040669684,"osm_type":"node","seamark_type":"rock","display_class":"OTHER","min_zoom":12,"importance":1,"name":null,"ref":null,"common":{"type":"rock"},"children":{},"osm_tags":{"seamark:type":"rock","source":"NRCan-CanVec-10.0"}}},{"type":"Feature","geometry":{"type":"Point","coordinates":[-132.0876968,53.2250926]},"properties":{"osm_id":3040669975,"osm_type":"node","seamark_type":"rock","display_class":"OTHER","min_zoom":12,"importance":1,"name":null,"ref":null,"common":{"type":"rock"},"children":{},"osm_tags":{"seamark:type":"rock","source":"NRCan-CanVec-10.0"}}},{"type":"Feature","geometry":{"type":"Point","coordinates":[-132.1615578,53.2251712]},"properties":{"osm_id":3040670061,"osm_type":"node","seamark_type":"rock","display_class":"OTHER","min_zoom":12,"importance":1,"name":null,"ref":null,"common":{"type":"rock"},"children":{},"osm_tags":{"seamark:type":"rock","source":"NRCan-CanVec-10.0"}}},{"type":"Feature","geometry":{"type":"Point","coordinates":[-132.1631229,53.2261784]},"properties":{"osm_id":3040671874,"osm_type":"node","seamark_type":"rock","display_class":"OTHER","min_zoom":12,"importance":1,"name":null,"ref":null,"common":{"type":"rock"},"children":{},"osm_tags":{"seamark:type":"rock","source":"NRCan-CanVec-10.0"}}},{"type":"Feature","geometry":{"type":"Point","coordinates":[-132.1720369,53.2262359]},"properties":{"osm_id":3040671930,"osm_type":"node","seamark_type":"rock","display_class":"OTHER","min_zoom":12,"importance":1,"name":null,"ref":null,"common":{"type":"rock"},"children":{},"osm_tags":{"seamark:type":"rock","source":"NRCan-CanVec-10.0"}}},{"type":"Feature","geometry":{"type":"Point","coordinates":[-132.0779931,53.227306]},"properties":{"osm_id":3040674090,"osm_type":"node","seamark_type":"rock","display_class":"OTHER","min_zoom":12,"importance":1,"name":null,"ref":null,"common":{"type":"rock"},"children":{},"osm_tags":{"seamark:type":"rock","source":"NRCan-CanVec-10.0"}}},{"type":"Feature","geometry":{"type":"Point","coordinates":[-132.16269,53.2273555]},"properties":{"osm_id":3040674348,"osm_type":"node","seamark_type":"rock","display_class":"OTHER","min_zoom":12,"importance":1,"name":null,"ref":null,"common":{"type":"rock"},"children":{},"osm_tags":{"seamark:type":"rock","source":"NRCan-CanVec-10.0"}}},{"type":"Feature","geometry":{"type":"Point","coordinates":[-132.1698765,53.2274978]},"properties":{"osm_id":3040674820,"osm_type":"node","seamark_type":"rock","display_class":"OTHER","min_zoom":12,"importance":1,"name":null,"ref":null,"common":{"type":"rock"},"children":{},"osm_tags":{"seamark:type":"rock","source":"NRCan-CanVec-10.0"}}},{"type":"Feature","geometry":{"type":"Point","coordinates":[-132.0850559,53.2275902]},"properties":{"osm_id":3040675037,"osm_type":"node","seamark_type":"rock","display_class":"OTHER","min_zoom":12,"importance":1,"name":null,"ref":null,"common":{"type":"rock"},"children":{},"osm_tags":{"seamark:type":"rock","source":"NRCan-CanVec-10.0"}}},{"type":"Feature","geometry":{"type":"Point","coordinates":[-132.1656339,53.2288865]},"properties":{"osm_id":3040680000,"osm_type":"node","seamark_type":"rock","display_class":"OTHER","min_zoom":12,"importance":1,"name":null,"ref":null,"common":{"type":"rock"},"children":{},"osm_tags":{"seamark:type":"rock","source":"NRCan-CanVec-10.0"}}},{"type":"Feature","geometry":{"type":"Point","coordinates":[-132.180119,53.2295522]},"properties":{"osm_id":3040685193,"osm_type":"node","seamark_type":"rock","display_class":"OTHER","min_zoom":12,"importance":1,"name":null,"ref":null,"common":{"type":"rock"},"children":{},"osm_tags":{"seamark:type":"rock","source":"NRCan-CanVec-10.0"}}},{"type":"Feature","geometry":{"type":"Point","coordinates":[-132.1558895,53.2301083]},"properties":{"osm_id":3040687626,"osm_type":"node","seamark_type":"rock","display_class":"OTHER","min_zoom":12,"importance":1,"name":null,"ref":null,"common":{"type":"rock"},"children":{},"osm_tags":{"seamark:type":"rock","source":"NRCan-CanVec-10.0"}}},{"type":"Feature","geometry":{"type":"Point","coordinates":[-132.162708,53.2305612]},"properties":{"osm_id":3040690093,"osm_type":"node","seamark_type":"rock","display_class":"OTHER","min_zoom":12,"importance":1,"name":null,"ref":null,"common":{"type":"rock"},"children":{},"osm_tags":{"seamark:type":"rock","source":"NRCan-CanVec-10.0"}}},{"type":"Feature","geometry":{"type":"Point","coordinates":[-132.0900007,53.2318901]},"properties":{"osm_id":3040694976,"osm_type":"node","seamark_type":"rock","display_class":"OTHER","min_zoom":12,"importance":1,"name":null,"ref":null,"common":{"type":"rock"},"children":{},"osm_tags":{"seamark:type":"rock","source":"NRCan-CanVec-10.0"}}},{"type":"Feature","geometry":{"type":"Point","coordinates":[-132.1550646,53.2345661]},"properties":{"osm_id":3040703495,"osm_type":"node","seamark_type":"rock","display_class":"OTHER","min_zoom":12,"importance":1,"name":null,"ref":null,"common":{"type":"rock"},"children":{},"osm_tags":{"seamark:type":"rock","source":"NRCan-CanVec-10.0"}}},{"type":"Feature","geometry":{"type":"Point","coordinates":[-132.1442472,53.2352939]},"properties":{"osm_id":3040705727,"osm_type":"node","seamark_type":"rock","display_class":"OTHER","min_zoom":12,"importance":1,"name":null,"ref":null,"common":{"type":"rock"},"children":{},"osm_tags":{"seamark:type":"rock","source":"NRCan-CanVec-10.0"}}},{"type":"Feature","geometry":{"type":"Point","coordinates":[-132.1585771,53.236167]},"properties":{"osm_id":3040708093,"osm_type":"node","seamark_type":"rock","display_class":"OTHER","min_zoom":12,"importance":1,"name":null,"ref":null,"common":{"type":"rock"},"children":{},"osm_tags":{"seamark:type":"rock","source":"NRCan-CanVec-10.0"}}},{"type":"Feature","geometry":{"type":"Point","coordinates":[-132.0986941,53.2376112]},"properties":{"osm_id":3040712894,"osm_type":"node","seamark_type":"rock","display_class":"OTHER","min_zoom":12,"importance":1,"name":null,"ref":null,"common":{"type":"rock"},"children":{},"osm_tags":{"seamark:type":"rock","source":"NRCan-CanVec-10.0"}}},{"type":"Feature","geometry":{"type":"Point","coordinates":[-132.0827583,53.2394077]},"properties":{"osm_id":3040722128,"osm_type":"node","seamark_type":"rock","display_class":"OTHER","min_zoom":12,"importance":1,"name":null,"ref":null,"common":{"type":"rock"},"children":{},"osm_tags":{"seamark:type":"rock","source":"NRCan-CanVec-10.0"}}},{"type":"Feature","geometry":{"type":"Point","coordinates":[-132.134879,53.2420667]},"properties":{"osm_id":3040739777,"osm_type":"node","seamark_type":"rock","display_class":"OTHER","min_zoom":12,"importance":1,"name":null,"ref":null,"common":{"type":"rock"},"children":{},"osm_tags":{"seamark:type":"rock","source":"NRCan-CanVec-10.0"}}},{"type":"Feature","geometry":{"type":"Point","coordinates":[-132.0710155,53.2425347]},"properties":{"osm_id":3040741584,"osm_type":"node","seamark_type":"rock","display_class":"OTHER","min_zoom":12,"importance":1,"name":null,"ref":null,"common":{"type":"rock"},"children":{},"osm_tags":{"seamark:type":"rock","source":"NRCan-CanVec-10.0"}}},{"type":"Feature","geometry":{"type":"Point","coordinates":[-132.1327366,53.2440738]},"properties":{"osm_id":3040745986,"osm_type":"node","seamark_type":"rock","display_class":"OTHER","min_zoom":12,"importance":1,"name":null,"ref":null,"common":{"type":"rock"},"children":{},"osm_tags":{"seamark:type":"rock","source":"NRCan-CanVec-10.0"}}},{"type":"Feature","geometry":{"type":"Point","coordinates":[-132.1077556,53.2451531]},"properties":{"osm_id":3040750202,"osm_type":"node","seamark_type":"rock","display_class":"OTHER","min_zoom":12,"importance":1,"name":null,"ref":null,"common":{"type":"rock"},"children":{},"osm_tags":{"seamark:type":"rock","source":"NRCan-CanVec-10.0"}}},{"type":"Feature","geometry":{"type":"Point","coordinates":[-132.6313369,53.246262]},"properties":{"osm_id":3040752742,"osm_type":"node","seamark_type":"rock","display_class":"OTHER","min_zoom":12,"importance":1,"name":null,"ref":null,"common":{"type":"rock"},"children":{},"osm_tags":{"seamark:type":"rock","source":"NRCan-CanVec-10.0"}}},{"type":"Feature","geometry":{"type":"Point","coordinates":[-132.8983611,53.4685]},"properties":{"osm_id":13859510593,"osm_type":"node","seamark_type":"light_minor","display_class":"OTHER","min_zoom":12,"importance":1,"name":"Kunakun Point","ref":null,"common":{"name":"Kunakun Point","type":"light_minor"},"children":{"light":{"character":"Fl","colour":"white","height":"44.6","period":"4","range":"6","reference":"G 5858.4"}},"osm_tags":{"seamark:light:character":"Fl","seamark:light:colour":"white","seamark:light:height":"44.6","seamark:light:period":"4","seamark:light:range":"6","seamark:light:reference":"G 5858.4","seamark:name":"Kunakun Point","seamark:type":"light_minor","source":"https://www.notmar.gc.ca/publications/list-lights/pac/pac7686-en.php"}}}],"type":"FeatureCollection"}