{"type":"FeatureCollection","features":[{"type":"Feature","geometry":{"type":"Polygon","coordinates":[[[16.9443333,54.8438333],[17.217,54.8983333],[17.3683333,54.9016667],[17.3683333,54.8885],[17.2186667,54.8925],[16.9471667,54.837],[16.9443333,54.8438333]]]},"properties":{"osm_id":179064593,"osm_type":"way","seamark_type":"separation_zone","display_class":"TSS","min_zoom":6,"importance":5,"name":"TSS Slupska Bank Central","ref":null,"common":{"name":"TSS Slupska Bank Central","type":"separation_zone"},"children":{},"osm_tags":{"seamark:name":"TSS Slupska Bank Central","seamark:type":"separation_zone","source":"UfS 2021-05-20 Nr 859"}}},{"type":"Feature","geometry":{"type":"Polygon","coordinates":[[[17.5633333,54.8836667],[17.6273333,54.8815],[17.7916667,54.8943333],[17.7915,54.9415],[17.7083333,54.9433333],[17.6048333,54.906],[17.5633333,54.9053333],[17.5633333,54.8836667]]]},"properties":{"osm_id":945473877,"osm_type":"way","seamark_type":"separation_zone","display_class":"TSS","min_zoom":6,"importance":5,"name":"TSS Slupska Bank East","ref":null,"common":{"name":"TSS Slupska Bank East","type":"separation_zone"},"children":{},"osm_tags":{"seamark:name":"TSS Slupska Bank East","seamark:type":"separation_zone","source":"UfS 2021-05-20 Nr 859"}}},{"type":"Feature","geometry":{"type":"Point","coordinates":[17.2412205,54.7183039]},"properties":{"osm_id":463446232,"osm_type":"node","seamark_type":"light_major","display_class":"LIGHTHOUSE","min_zoom":7,"importance":5,"name":"Czołpino","ref":null,"common":{"name":"Czołpino","type":"light_major"},"children":{"light":{"1:character":"Oc","1:colour":"white","1:group":"2","1:height":"75","1:period":"8","1:range":"21","1:sector_end":"261","1:sector_start":"048","reference":"C 2940"}},"osm_tags":{"direction":"0-360","fee":"yes","height":"25.2","heritage":"2","heritage:operator":"nid","historic":"lighthouse","man_made":"lighthouse","name":"Latarnia morska Czołpino","nid:inscription_date":"1993-12-30","nid:website":"https://zabytek.pl/pl/obiekty/zabytek?inspire_id=PL.1.9.ZIPOZ.NID_N_22_BL.63545&rejestr=rejestr-zabytkow","ref:inspire":"PL.1.9.ZIPOZ.NID_N_22_BL.63545","ref:nid":"A-321 z 1993-12-30","seamark:light:1:character":"Oc","seamark:light:1:colour":"white","seamark:light:1:group":"2","seamark:light:1:height":"75","seamark:light:1:period":"8","seamark:light:1:range":"21","seamark:light:1:sector_end":"261","seamark:light:1:sector_start":"048","seamark:light:reference":"C 2940","seamark:name":"Czołpino","seamark:type":"light_major","start_date":"1875","tourism":"viewpoint","wikidata":"Q11320229","wikimedia_commons":"Category:Czołpino Lighthouse","wikipedia":"pl:Latarnia Morska Czołpino"}}},{"type":"Feature","geometry":{"type":"Polygon","coordinates":[[[17.734028,54.7868321],[17.7340379,54.7868446],[17.7340392,54.7868583],[17.7340319,54.7868714],[17.7340169,54.786882],[17.7339962,54.7868888],[17.7339726,54.7868909],[17.7339493,54.7868879],[17.7339296,54.7868802],[17.7339159,54.786869],[17.7339102,54.7868556],[17.7339132,54.786842],[17.7339246,54.7868299],[17.7339428,54.786821],[17.7339653,54.7868165],[17.7339891,54.786817],[17.734011,54.7868225],[17.734028,54.7868321]]]},"properties":{"osm_id":300878445,"osm_type":"way","seamark_type":"light_major","display_class":"LIGHTHOUSE","min_zoom":7,"importance":5,"name":"Stilo","ref":null,"common":{"name":"Stilo","type":"light_major"},"children":{"light":{"1:character":"Fl","1:colour":"white","1:group":"3","1:height":"75","1:period":"12","1:range":"23.5","1:sector_end":"290","1:sector_start":"050","1:sequence":"0.3+(2.2)+0.3+(2.2)+0.3+(6.7)","reference":"C 2954"}},"osm_tags":{"building":"lighthouse","height":"33.4","man_made":"lighthouse","name":"Latarnia morska Stilo","opening_hours":"May - Sep 10:00-13:00,14:00-17:00; Jul - Aug 10:00-19:00","operator":"Urząd Morski w Gdyni","seamark:light:1:character":"Fl","seamark:light:1:colour":"white","seamark:light:1:group":"3","seamark:light:1:height":"75","seamark:light:1:period":"12","seamark:light:1:range":"23.5","seamark:light:1:sector_end":"290","seamark:light:1:sector_start":"050","seamark:light:1:sequence":"0.3+(2.2)+0.3+(2.2)+0.3+(6.7)","seamark:light:reference":"C 2954","seamark:name":"Stilo","seamark:type":"light_major","start_date":"1906","tourism":"viewpoint","website":"https://tpnmm.pl/latarnia-stilo/","wikidata":"Q10971018","wikipedia":"pl:Latarnia Morska Stilo"}}},{"type":"Feature","geometry":{"type":"Point","coordinates":[17.0497686,54.6699319]},"properties":{"osm_id":2998018514,"osm_type":"node","seamark_type":"beacon_lateral","display_class":"BEACON","min_zoom":9,"importance":4,"name":null,"ref":null,"common":{"type":"beacon_lateral"},"children":{"beacon_lateral":{"category":"port","colour":"green","construction":"metal","shape":"stake"},"light":{"character":"Fl","colour":"green","height":"6","period":"3","range":"3","sequence":"1+(2)"}},"osm_tags":{"image":"http://www.umsl.gov.pl/galeria/ION/rowy_stawaziel.jpg","seamark:beacon_lateral:category":"port","seamark:beacon_lateral:colour":"green","seamark:beacon_lateral:construction":"metal","seamark:beacon_lateral:shape":"stake","seamark:light:character":"Fl","seamark:light:colour":"green","seamark:light:height":"6","seamark:light:period":"3","seamark:light:range":"3","seamark:light:sequence":"1+(2)","seamark:type":"beacon_lateral","source":"http://www.umsl.gov.pl/mapka_ion.html#rowy1"}}},{"type":"Feature","geometry":{"type":"Point","coordinates":[17.0502703,54.6698891]},"properties":{"osm_id":2998018515,"osm_type":"node","seamark_type":"beacon_lateral","display_class":"BEACON","min_zoom":9,"importance":4,"name":null,"ref":null,"common":{"type":"beacon_lateral"},"children":{"beacon_lateral":{"category":"port","colour":"red","construction":"metal","shape":"stake"},"light":{"character":"Fl","colour":"red","height":"6","period":"3","range":"3","sequence":"1+(2)"}},"osm_tags":{"image":"http://www.umsl.gov.pl/galeria/ION/rowy_stawaczerw.jpg","seamark:beacon_lateral:category":"port","seamark:beacon_lateral:colour":"red","seamark:beacon_lateral:construction":"metal","seamark:beacon_lateral:shape":"stake","seamark:light:character":"Fl","seamark:light:colour":"red","seamark:light:height":"6","seamark:light:period":"3","seamark:light:range":"3","seamark:light:sequence":"1+(2)","seamark:type":"beacon_lateral","source":"http://www.umsl.gov.pl/mapka_ion.html#rowy1"}}},{"type":"Feature","geometry":{"type":"Point","coordinates":[17.0354337,54.6620573]},"properties":{"osm_id":3705896820,"osm_type":"node","seamark_type":"beacon_special_purpose","display_class":"BEACON","min_zoom":9,"importance":4,"name":"Znak specjalny - Rafa","ref":null,"common":{"name":"Znak specjalny - Rafa","type":"beacon_special_purpose"},"children":{"beacon_special_purpose":{"colour":"yellow"},"topmark":{"colour":"yellow","shape":"x-shape"}},"osm_tags":{"seamark:beacon_special_purpose:colour":"yellow","seamark:name":"Znak specjalny - Rafa","seamark:topmark:colour":"yellow","seamark:topmark:shape":"x-shape","seamark:type":"beacon_special_purpose"}}},{"type":"Feature","geometry":{"type":"Point","coordinates":[17.5469139,54.7603525]},"properties":{"osm_id":488059248,"osm_type":"node","seamark_type":"small_craft_facility","display_class":"OTHER","min_zoom":12,"importance":1,"name":null,"ref":null,"common":{"type":"small_craft_facility"},"children":{"small_craft_facility":{"category":"slipway"}},"osm_tags":{"leisure":"slipway","seamark:small_craft_facility:category":"slipway","seamark:type":"small_craft_facility"}}},{"type":"Feature","geometry":{"type":"Point","coordinates":[17.5509107,54.769016]},"properties":{"osm_id":1534650839,"osm_type":"node","seamark_type":"light_minor","display_class":"OTHER","min_zoom":12,"importance":1,"name":null,"ref":null,"common":{"information":"Synchronized with 6629 Iso G light.","type":"light_minor"},"children":{"light":{"character":"Iso","colour":"red","height":"10","period":"4","range":"5","reference":"C 2944"}},"osm_tags":{"seamark:information":"Synchronized with 6629 Iso G light.","seamark:light:character":"Iso","seamark:light:colour":"red","seamark:light:height":"10","seamark:light:period":"4","seamark:light:range":"5","seamark:light:reference":"C 2944","seamark:type":"light_minor","source":"US NGA Pub. 116. 2011-07-07."}}},{"type":"Feature","geometry":{"type":"Point","coordinates":[17.9440909,54.1011837]},"properties":{"osm_id":2076774518,"osm_type":"node","seamark_type":"harbour","display_class":"OTHER","min_zoom":12,"importance":1,"name":null,"ref":null,"common":{"type":"harbour"},"children":{"harbour":{"category":"marina"}},"osm_tags":{"leisure":"marina","seamark:harbour:category":"marina","seamark:type":"harbour"}}},{"type":"Feature","geometry":{"type":"Point","coordinates":[17.939241,54.0997436]},"properties":{"osm_id":2145370598,"osm_type":"node","seamark_type":"harbour","display_class":"OTHER","min_zoom":12,"importance":1,"name":null,"ref":null,"common":{"type":"harbour"},"children":{"harbour":{"category":"marina"}},"osm_tags":{"leisure":"marina","seamark:harbour:category":"marina","seamark:type":"harbour"}}},{"type":"Feature","geometry":{"type":"Point","coordinates":[17.5507827,54.7700777]},"properties":{"osm_id":2889761430,"osm_type":"node","seamark_type":"light_minor","display_class":"OTHER","min_zoom":12,"importance":1,"name":null,"ref":null,"common":{"information":"Synchronized with 6624 Iso R light.","type":"light_minor"},"children":{"light":{"1:character":"Iso","1:colour":"green","1:height":"10","1:period":"4","1:range":"5","1:sector_end":"025","1:sector_start":"180","2:character":"Q","2:colour":"white","2:height":"10","2:sector_end":"180","2:sector_start":"025","reference":"C 2945"}},"osm_tags":{"seamark:information":"Synchronized with 6624 Iso R light.","seamark:light:1:character":"Iso","seamark:light:1:colour":"green","seamark:light:1:height":"10","seamark:light:1:period":"4","seamark:light:1:range":"5","seamark:light:1:sector_end":"025","seamark:light:1:sector_start":"180","seamark:light:2:character":"Q","seamark:light:2:colour":"white","seamark:light:2:height":"10","seamark:light:2:sector_end":"180","seamark:light:2:sector_start":"025","seamark:light:reference":"C 2945","seamark:type":"light_minor","source":"US NGA Pub. 116. 2011-07-07."}}},{"type":"Feature","geometry":{"type":"Point","coordinates":[17.0490604,54.6703034]},"properties":{"osm_id":2996904287,"osm_type":"node","seamark_type":"mooring","display_class":"OTHER","min_zoom":12,"importance":1,"name":null,"ref":null,"common":{"type":"mooring"},"children":{"mooring":{"category":"dolphin","colour":"yellow;black;yellow;black","colour_pattern":"horizontal"}},"osm_tags":{"description":"dalba jednopalowa","man_made":"dolphin","material":"steel","seamark:mooring:category":"dolphin","seamark:mooring:colour":"yellow;black;yellow;black","seamark:mooring:colour_pattern":"horizontal","seamark:type":"mooring"}}},{"type":"Feature","geometry":{"type":"Point","coordinates":[17.0498233,54.6706104]},"properties":{"osm_id":2996904288,"osm_type":"node","seamark_type":"mooring","display_class":"OTHER","min_zoom":12,"importance":1,"name":null,"ref":null,"common":{"type":"mooring"},"children":{"mooring":{"category":"dolphin","colour":"yellow;black;yellow;black","colour_pattern":"horizontal"}},"osm_tags":{"description":"dalba jednopalowa","man_made":"dolphin","material":"steel","seamark:mooring:category":"dolphin","seamark:mooring:colour":"yellow;black;yellow;black","seamark:mooring:colour_pattern":"horizontal","seamark:type":"mooring"}}},{"type":"Feature","geometry":{"type":"Point","coordinates":[17.0525776,54.6678684]},"properties":{"osm_id":2998018507,"osm_type":"node","seamark_type":"landmark","display_class":"OTHER","min_zoom":12,"importance":1,"name":null,"ref":null,"common":{"type":"landmark"},"children":{"landmark":{"category":"tower","colour":"white","construction":"metal"},"light":{"category":"leading","character":"Iso","colour":"orange","height":"10","period":"6","range":"2","sequence":"3+(3)"}},"osm_tags":{"description":"światło podejściowe","image":"http://www.umsl.gov.pl/galeria/ION/rowy_podejscie.jpg","seamark:landmark:category":"tower","seamark:landmark:colour":"white","seamark:landmark:construction":"metal","seamark:light:category":"leading","seamark:light:character":"Iso","seamark:light:colour":"orange","seamark:light:height":"10","seamark:light:period":"6","seamark:light:range":"2","seamark:light:sequence":"3+(3)","seamark:type":"landmark","source":"http://www.umsl.gov.pl/mapka_ion.html#rowy1","url":"http://files.sailingpoland.pl/pliki/54782bb99a58120002000009"}}},{"type":"Feature","geometry":{"type":"Point","coordinates":[17.0526235,54.6668593]},"properties":{"osm_id":3006731744,"osm_type":"node","seamark_type":"crane","display_class":"OTHER","min_zoom":12,"importance":1,"name":null,"ref":null,"common":{"type":"crane"},"children":{"crane":{"category":"sheerlegs"}},"osm_tags":{"man_made":"crane","seamark:crane:category":"sheerlegs","seamark:type":"crane"}}},{"type":"Feature","geometry":{"type":"Point","coordinates":[17.4185184,54.6808416]},"properties":{"osm_id":3638019197,"osm_type":"node","seamark_type":"small_craft_facility","display_class":"OTHER","min_zoom":12,"importance":1,"name":null,"ref":null,"common":{"type":"small_craft_facility"},"children":{"small_craft_facility":{"category":"slipway"}},"osm_tags":{"leisure":"slipway","seamark:small_craft_facility:category":"slipway","seamark:type":"small_craft_facility"}}},{"type":"Feature","geometry":{"type":"Point","coordinates":[17.5483065,54.7620333]},"properties":{"osm_id":4358662863,"osm_type":"node","seamark_type":"small_craft_facility","display_class":"OTHER","min_zoom":12,"importance":1,"name":null,"ref":null,"common":{"type":"small_craft_facility"},"children":{"small_craft_facility":{"category":"slipway"}},"osm_tags":{"leisure":"slipway","seamark:small_craft_facility:category":"slipway","seamark:type":"small_craft_facility"}}},{"type":"Feature","geometry":{"type":"Point","coordinates":[17.5494444,54.7705833]},"properties":{"osm_id":9471740808,"osm_type":"node","seamark_type":"obstruction","display_class":"OTHER","min_zoom":12,"importance":1,"name":null,"ref":null,"common":{"type":"obstruction"},"children":{},"osm_tags":{"depth":"1.7","seamark:type":"obstruction"}}},{"type":"Feature","geometry":{"type":"Point","coordinates":[17.9959106,54.2527135]},"properties":{"osm_id":9612828865,"osm_type":"node","seamark_type":"waterway_gauge","display_class":"OTHER","min_zoom":12,"importance":1,"name":null,"ref":null,"common":{"type":"waterway_gauge"},"children":{"waterway_gauge":{"category":"staff"}},"osm_tags":{"seamark:type":"waterway_gauge","seamark:waterway_gauge:category":"staff"}}},{"type":"Feature","geometry":{"type":"Point","coordinates":[17.9912125,54.2532888]},"properties":{"osm_id":9612857285,"osm_type":"node","seamark_type":"waterway_gauge","display_class":"OTHER","min_zoom":12,"importance":1,"name":null,"ref":null,"common":{"type":"waterway_gauge"},"children":{"waterway_gauge":{"category":"staff"}},"osm_tags":{"seamark:type":"waterway_gauge","seamark:waterway_gauge:category":"staff"}}},{"type":"Feature","geometry":{"type":"Point","coordinates":[17.979833,54.2556296]},"properties":{"osm_id":9612857286,"osm_type":"node","seamark_type":"waterway_gauge","display_class":"OTHER","min_zoom":12,"importance":1,"name":null,"ref":null,"common":{"type":"waterway_gauge"},"children":{"waterway_gauge":{"category":"staff"}},"osm_tags":{"seamark:type":"waterway_gauge","seamark:waterway_gauge:category":"staff"}}},{"type":"Feature","geometry":{"type":"Point","coordinates":[17.8683333,54.9475]},"properties":{"osm_id":10244546601,"osm_type":"node","seamark_type":"obstruction","display_class":"OTHER","min_zoom":12,"importance":1,"name":null,"ref":null,"common":{"type":"obstruction"},"children":{},"osm_tags":{"depth":"15.7","seamark:type":"obstruction"}}},{"type":"Feature","geometry":{"type":"Point","coordinates":[17.5478417,54.761594]},"properties":{"osm_id":12852949135,"osm_type":"node","seamark_type":"small_craft_facility","display_class":"OTHER","min_zoom":12,"importance":1,"name":null,"ref":null,"common":{"type":"small_craft_facility"},"children":{"small_craft_facility":{"category":"slipway"}},"osm_tags":{"leisure":"slipway","seamark:small_craft_facility:category":"slipway","seamark:type":"small_craft_facility"}}},{"type":"Feature","geometry":{"type":"Point","coordinates":[17.896309,54.123246]},"properties":{"osm_id":12985468764,"osm_type":"node","seamark_type":"harbour","display_class":"OTHER","min_zoom":12,"importance":1,"name":null,"ref":null,"common":{"type":"harbour"},"children":{"harbour":{"category":"marina_no_facilities"}},"osm_tags":{"leisure":"marina","seamark:harbour:category":"marina_no_facilities","seamark:type":"harbour","shelter":"yes","shelter_type":"picnic_shelter"}}},{"type":"Feature","geometry":{"type":"LineString","coordinates":[[16.9585,54.8093333],[17.2215,54.871],[17.3715,54.867]]},"properties":{"osm_id":179064582,"osm_type":"way","seamark_type":"separation_boundary","display_class":"OTHER","min_zoom":12,"importance":1,"name":null,"ref":null,"common":{"type":"separation_boundary"},"children":{},"osm_tags":{"seamark:type":"separation_boundary","source":"UfS 2021-05-20 Nr 859"}}},{"type":"Feature","geometry":{"type":"LineString","coordinates":[[17.3678333,54.9243333],[17.2103333,54.9188333],[16.9331667,54.8713333]]},"properties":{"osm_id":179064584,"osm_type":"way","seamark_type":"separation_boundary","display_class":"OTHER","min_zoom":12,"importance":1,"name":null,"ref":null,"common":{"type":"separation_boundary"},"children":{},"osm_tags":{"seamark:type":"separation_boundary","source":"UfS 2021-05-20 Nr 859"}}},{"type":"Feature","geometry":{"type":"LineString","coordinates":[[17.3689977,54.9133202],[17.2137008,54.9078956],[16.9386494,54.8607455]]},"properties":{"osm_id":179064588,"osm_type":"way","seamark_type":"separation_lane","display_class":"OTHER","min_zoom":12,"importance":1,"name":null,"ref":null,"common":{"type":"separation_lane"},"children":{},"osm_tags":{"seamark:type":"separation_lane","source":"UfS 2021-05-20 Nr 859"}}},{"type":"Feature","geometry":{"type":"LineString","coordinates":[[16.951496,54.8192454],[17.2182793,54.8817831],[17.3723598,54.8776754]]},"properties":{"osm_id":179064591,"osm_type":"way","seamark_type":"separation_lane","display_class":"OTHER","min_zoom":12,"importance":1,"name":null,"ref":null,"common":{"type":"separation_lane"},"children":{},"osm_tags":{"seamark:type":"separation_lane","source":"UfS 2021-05-20 Nr 859"}}},{"type":"Feature","geometry":{"type":"LineString","coordinates":[[17.0525776,54.6678684],[17.0402777,54.6776532]]},"properties":{"osm_id":296045960,"osm_type":"way","seamark_type":"navigation_line","display_class":"OTHER","min_zoom":12,"importance":1,"name":null,"ref":null,"common":{"type":"navigation_line"},"children":{"navigation_line":{"category":"leading","orientation":"144"}},"osm_tags":{"seamark:navigation_line:category":"leading","seamark:navigation_line:orientation":"144","seamark:type":"navigation_line"}}},{"type":"Feature","geometry":{"type":"Polygon","coordinates":[[[17.0551769,54.6669432],[17.0552214,54.6669207],[17.0552829,54.6669121],[17.0553806,54.6669082],[17.055422,54.6669133],[17.0554645,54.6669271],[17.0554274,54.6669454],[17.0553884,54.666955],[17.0552924,54.6669615],[17.0552272,54.6669589],[17.0551769,54.6669432]]]},"properties":{"osm_id":366597173,"osm_type":"way","seamark_type":"hulk","display_class":"OTHER","min_zoom":12,"importance":1,"name":null,"ref":null,"common":{"type":"hulk"},"children":{"hulk":{"category":"floating_restaurant"}},"osm_tags":{"seamark:hulk:category":"floating_restaurant","seamark:type":"hulk"}}},{"type":"Feature","geometry":{"type":"LineString","coordinates":[[17.7954805,54.9685627],[17.7054901,54.9576518],[17.6036637,54.9208287],[17.5641849,54.9194869]]},"properties":{"osm_id":945473873,"osm_type":"way","seamark_type":"separation_lane","display_class":"OTHER","min_zoom":12,"importance":1,"name":null,"ref":null,"common":{"type":"separation_lane"},"children":{},"osm_tags":{"seamark:type":"separation_lane"}}},{"type":"Feature","geometry":{"type":"LineString","coordinates":[[17.7913333,54.9798333],[17.6978333,54.9685],[17.5973333,54.9321667],[17.563,54.931]]},"properties":{"osm_id":945473874,"osm_type":"way","seamark_type":"separation_boundary","display_class":"OTHER","min_zoom":12,"importance":1,"name":null,"ref":null,"common":{"type":"separation_boundary"},"children":{},"osm_tags":{"seamark:type":"separation_boundary"}}},{"type":"Feature","geometry":{"type":"LineString","coordinates":[[17.5645678,54.8716166],[17.6278675,54.8693565],[17.7881836,54.8825204]]},"properties":{"osm_id":945473875,"osm_type":"way","seamark_type":"separation_lane","display_class":"OTHER","min_zoom":12,"importance":1,"name":null,"ref":null,"common":{"type":"separation_lane"},"children":{},"osm_tags":{"seamark:type":"separation_lane","source":"UfS 2021-05-20 Nr 859"}}},{"type":"Feature","geometry":{"type":"LineString","coordinates":[[17.5633333,54.8601667],[17.6286667,54.8578333],[17.791,54.8711667]]},"properties":{"osm_id":945473876,"osm_type":"way","seamark_type":"separation_boundary","display_class":"OTHER","min_zoom":12,"importance":1,"name":null,"ref":null,"common":{"type":"separation_boundary"},"children":{},"osm_tags":{"seamark:type":"separation_boundary","source":"UfS 2021-05-20 Nr 859"}}},{"type":"Feature","geometry":{"type":"Polygon","coordinates":[[[17.7925637,54.3230321],[17.7924167,54.322873],[17.7926107,54.3228137],[17.7920218,54.3222892],[17.7924928,54.3221167],[17.7929949,54.3225976],[17.7930242,54.3226257],[17.7933154,54.3227214],[17.7933966,54.3227972],[17.7925637,54.3230321]]]},"properties":{"osm_id":975880468,"osm_type":"way","seamark_type":"harbour","display_class":"OTHER","min_zoom":12,"importance":1,"name":null,"ref":null,"common":{"type":"harbour"},"children":{"harbour":{"category":"marina"}},"osm_tags":{"leisure":"marina","seamark:harbour:category":"marina","seamark:type":"harbour"}}},{"type":"Feature","geometry":{"type":"Polygon","coordinates":[[[17.0501861,54.669569],[17.0501313,54.6695563],[17.0500622,54.6695228],[17.0500663,54.669489],[17.0500886,54.6694517],[17.0502451,54.6693494],[17.0503904,54.6692477],[17.0506361,54.6692271],[17.0504067,54.6694014],[17.0501861,54.669569]]]},"properties":{"osm_id":1278489387,"osm_type":"way","seamark_type":"shoreline_construction","display_class":"OTHER","min_zoom":12,"importance":1,"name":null,"ref":null,"common":{"type":"shoreline_construction"},"children":{"shoreline_construction":{"category":"revetment","conspicuity":"conspicuous"}},"osm_tags":{"seamark:shoreline_construction:category":"revetment","seamark:shoreline_construction:conspicuity":"conspicuous","seamark:type":"shoreline_construction"}}},{"type":"Feature","geometry":{"type":"Polygon","coordinates":[[[17.0515999,54.6673309],[17.0516059,54.6672502],[17.0517791,54.6672545],[17.0517731,54.6673352],[17.0515999,54.6673309]]]},"properties":{"osm_id":166545788,"osm_type":"way","seamark_type":"building","display_class":"OTHER","min_zoom":12,"importance":1,"name":"Bosmanat portu","ref":null,"common":{"type":"building"},"children":{"building":{"function":"harbour_master"}},"osm_tags":{"addr:city":"Rowy","addr:country":"PL","addr:housenumber":"4","addr:postcode":"76-212","addr:street":"Portowa","amenity":"harbourmaster","building":"government","building:levels":"2","email":"vtsrowy@umsl.gov.pl","fax":"+48 59 8141828","harbour_master":"Bogumił Wiśniewski","name":"Bosmanat portu","phone":"+48 59 8141828","roof:levels":"1","seamark:building:function":"harbour_master","seamark:type":"building","website":"http://www.umsl.gov.pl/kontakt.html"}}},{"type":"Feature","geometry":{"type":"Polygon","coordinates":[[[17.9954245,54.2525468],[17.9954588,54.2525522],[17.9957245,54.2527388],[17.9935006,54.253768],[17.9932595,54.2539309],[17.9929684,54.2535992],[17.9954245,54.2525468]]]},"properties":{"osm_id":1040471227,"osm_type":"way","seamark_type":"causeway","display_class":"OTHER","min_zoom":12,"importance":1,"name":"Brama Kaszubska","ref":null,"common":{"type":"causeway"},"children":{"causeway":{"water_level":"dry"}},"osm_tags":{"area":"yes","name":"Brama Kaszubska","seamark:causeway:water_level":"dry","seamark:type":"causeway","wikidata":"Q9178746","wikipedia":"pl:Brama Kaszubska"}}},{"type":"Feature","geometry":{"type":"Point","coordinates":[17.5497744,54.7626306]},"properties":{"osm_id":8380624309,"osm_type":"node","seamark_type":"rescue_station","display_class":"OTHER","min_zoom":12,"importance":1,"name":"Huragan","ref":null,"common":{"name":"Huragan","type":"rescue_station"},"children":{"radio_station":{"category":"ais","mmsi":"261060000"},"rescue_station":{"category":"lifeboat_on_mooring"}},"osm_tags":{"amenity":"lifeboat","contact:mobile":"+48 505 050 986","contact:phone":"+48 59 866 13 14","email":"huragan@sar.gov.pl","emergency":"water_rescue","lifeboat":"offshore","lifeboat:class":"SAR-1500","name":"Huragan","seamark:name":"Huragan","seamark:radio_station:category":"ais","seamark:radio_station:mmsi":"261060000","seamark:rescue_station:category":"lifeboat_on_mooring","seamark:type":"rescue_station","url":"http://www.sar.gov.pl/pl/equipment/sar1500/","website":"https://www.sar.gov.pl/pl/contact/leba/"}}},{"type":"Feature","geometry":{"type":"Polygon","coordinates":[[[17.990459,54.0130198],[17.9917154,54.0133444],[17.9911449,54.0142221],[17.9901325,54.0139948],[17.990459,54.0130198]]]},"properties":{"osm_id":478457841,"osm_type":"way","seamark_type":"harbour","display_class":"OTHER","min_zoom":12,"importance":1,"name":"Jacht Klub \"Portowiec\"","ref":null,"common":{"type":"harbour"},"children":{"harbour":{"category":"marina"}},"osm_tags":{"leisure":"marina","name":"Jacht Klub \"Portowiec\"","seamark:harbour:category":"marina","seamark:type":"harbour","website":"https://www.portowiec.com/"}}},{"type":"Feature","geometry":{"type":"Point","coordinates":[17.1599337,54.6372885]},"properties":{"osm_id":3648936321,"osm_type":"node","seamark_type":"harbour","display_class":"OTHER","min_zoom":12,"importance":1,"name":"Jacht Klub PTTK „Orion” w Słupsku - Przystań Żeglarska w Gardnie Wielkiej","ref":null,"common":{"type":"harbour"},"children":{"harbour":{"category":"marina"}},"osm_tags":{"leisure":"marina","name":"Jacht Klub PTTK „Orion” w Słupsku - Przystań Żeglarska w Gardnie Wielkiej","operator":"PTTK Słupsk","power_supply":"no","seamark:harbour:category":"marina","seamark:type":"harbour","website":"https://slupsk.pttk.pl/orion.html"}}},{"type":"Feature","geometry":{"type":"Point","coordinates":[17.5633,54.785]},"properties":{"osm_id":1534650778,"osm_type":"node","seamark_type":"buoy_safe_water","display_class":"OTHER","min_zoom":12,"importance":1,"name":"LEBA","ref":null,"common":{"name":"LEBA","type":"buoy_safe_water"},"children":{"buoy_safe_water":{"colour":"red;white","colour_pattern":"vertical","shape":"pillar"},"light":{"character":"LFl","colour":"white","period":"10","sequence":"2.5+(7.5)"},"topmark":{"shape":"sphere"}},"osm_tags":{"seamark:buoy_safe_water:colour":"red;white","seamark:buoy_safe_water:colour_pattern":"vertical","seamark:buoy_safe_water:shape":"pillar","seamark:light:character":"LFl","seamark:light:colour":"white","seamark:light:period":"10","seamark:light:sequence":"2.5+(7.5)","seamark:name":"LEBA","seamark:topmark:shape":"sphere","seamark:type":"buoy_safe_water","source":"US NGA Pub. 116. 2011-07-07."}}},{"type":"Feature","geometry":{"type":"Point","coordinates":[17.550324,54.7689342]},"properties":{"osm_id":1534650745,"osm_type":"node","seamark_type":"light_minor","display_class":"OTHER","min_zoom":12,"importance":1,"name":"Latarnia sygnalizacyjna","ref":null,"common":{"type":"light_minor"},"children":{"light":{"1:character":"Fl","1:colour":"green","1:height":"7","1:range":"6","1:sector_end":"198","1:sector_start":"197","2:character":"F","2:colour":"green","2:height":"7","2:range":"6","2:sector_end":"201","2:sector_start":"198","3:character":"Al","3:colour":"green;white","3:height":"7","3:range":"6","3:sector_end":"202","3:sector_start":"201","4:character":"F","4:colour":"white","4:height":"7","4:range":"8","4:sector_end":"204","4:sector_start":"202","5:character":"Al","5:colour":"red;white","5:height":"7","5:range":"6","5:sector_end":"205","5:sector_start":"204","6:character":"F","6:colour":"red","6:height":"7","6:range":"6","6:sector_end":"208","6:sector_start":"205","7:character":"Fl","7:colour":"red","7:height":"7","7:range":"6","7:sector_end":"209","7:sector_start":"208","reference":"C 2944.5"}},"osm_tags":{"name":"Latarnia sygnalizacyjna","seamark:light:1:character":"Fl","seamark:light:1:colour":"green","seamark:light:1:height":"7","seamark:light:1:range":"6","seamark:light:1:sector_end":"198","seamark:light:1:sector_start":"197","seamark:light:2:character":"F","seamark:light:2:colour":"green","seamark:light:2:height":"7","seamark:light:2:range":"6","seamark:light:2:sector_end":"201","seamark:light:2:sector_start":"198","seamark:light:3:character":"Al","seamark:light:3:colour":"green;white","seamark:light:3:height":"7","seamark:light:3:range":"6","seamark:light:3:sector_end":"202","seamark:light:3:sector_start":"201","seamark:light:4:character":"F","seamark:light:4:colour":"white","seamark:light:4:height":"7","seamark:light:4:range":"8","seamark:light:4:sector_end":"204","seamark:light:4:sector_start":"202","seamark:light:5:character":"Al","seamark:light:5:colour":"red;white","seamark:light:5:height":"7","seamark:light:5:range":"6","seamark:light:5:sector_end":"205","seamark:light:5:sector_start":"204","seamark:light:6:character":"F","seamark:light:6:colour":"red","seamark:light:6:height":"7","seamark:light:6:range":"6","seamark:light:6:sector_end":"208","seamark:light:6:sector_start":"205","seamark:light:7:character":"Fl","seamark:light:7:colour":"red","seamark:light:7:height":"7","seamark:light:7:range":"6","seamark:light:7:sector_end":"209","seamark:light:7:sector_start":"208","seamark:light:reference":"C 2944.5","seamark:type":"light_minor","source":"US NGA Pub. 116. 2011-07-07."}}},{"type":"Feature","geometry":{"type":"Polygon","coordinates":[[[17.5493009,54.7655479],[17.5491302,54.7655209],[17.5490114,54.7654716],[17.5488937,54.7653523],[17.5487177,54.7650958],[17.5482539,54.7638253],[17.548727,54.7637377],[17.5490248,54.763683],[17.5500812,54.7634872],[17.5502855,54.7639218],[17.5505485,54.7645072],[17.5507564,54.7653265],[17.5507701,54.7653249],[17.5508153,54.7654501],[17.5506133,54.7655045],[17.5499823,54.765621],[17.5498385,54.7656018],[17.5493009,54.7655479]]]},"properties":{"osm_id":449112525,"osm_type":"way","seamark_type":"harbour","display_class":"OTHER","min_zoom":12,"importance":1,"name":"Port Jachtowy w Łebie","ref":null,"common":{"type":"harbour"},"children":{"harbour":{"category":"marina"}},"osm_tags":{"email":"info.port@leba.eu","ft_link":"www.freietonne.de?edit=29748","leisure":"marina","name":"Port Jachtowy w Łebie","operator":"Port Jachtowy w Łebie Sp. z o.o.","phone":"+48 59 866 17 35","sanitary_dump_station":"customers","seamark:harbour:category":"marina","seamark:type":"harbour","website":"http://port.leba.eu/"}}},{"type":"Feature","geometry":{"type":"Polygon","coordinates":[[[17.5493991,54.7617935],[17.5497741,54.7622525],[17.5506038,54.7622122],[17.5510488,54.7621895],[17.5512952,54.7627091],[17.5515676,54.7627923],[17.5516736,54.7627952],[17.55191,54.7628694],[17.5518085,54.7629789],[17.5508497,54.7639385],[17.5511109,54.764563],[17.5513092,54.7651969],[17.5513465,54.7653636],[17.5514703,54.7660124],[17.5514931,54.7666008],[17.551468,54.767026],[17.5514397,54.7673424],[17.5514203,54.7674801],[17.5515306,54.7674902],[17.5514316,54.7677992],[17.5513971,54.76792],[17.551292,54.7682507],[17.5511255,54.7686644],[17.5510383,54.76886],[17.5509927,54.7689616],[17.5509514,54.7690704],[17.5503536,54.7689859],[17.5503147,54.7690882],[17.5502865,54.7691973],[17.5502642,54.7693316],[17.5502601,54.7694515],[17.5502864,54.7695854],[17.5503532,54.7697094],[17.5504778,54.7698083],[17.5506331,54.7698884],[17.5507738,54.7700182],[17.5508467,54.770048],[17.5508547,54.7700532],[17.5508586,54.7700611],[17.5508563,54.7700707],[17.5508558,54.7700758],[17.5508529,54.7700876],[17.5508486,54.7700972],[17.5508296,54.7701081],[17.550811,54.7701143],[17.550806,54.770115],[17.5507954,54.7701164],[17.550769,54.7701153],[17.550741,54.7701097],[17.5507338,54.7701065],[17.5504419,54.7700078],[17.5504184,54.7699985],[17.5503806,54.7699838],[17.5503473,54.7699694],[17.5503131,54.7699529],[17.5502828,54.7699359],[17.5502531,54.7699192],[17.5501979,54.7698812],[17.5501744,54.7698612],[17.5501506,54.7698403],[17.5501185,54.7698055],[17.5501049,54.769792],[17.5500952,54.769778],[17.5500511,54.7697118],[17.5500226,54.7696552],[17.5500033,54.7696045],[17.549978,54.7694745],[17.5499731,54.7693819],[17.5499762,54.7693073],[17.5499918,54.7692349],[17.5499971,54.7691667],[17.5500147,54.7691026],[17.5500279,54.7690715],[17.5500566,54.7690135],[17.5500888,54.7689635],[17.5503496,54.7687739],[17.5506499,54.7680032],[17.5506509,54.7679944],[17.5504713,54.7679635],[17.5506499,54.7674249],[17.5501765,54.7673154],[17.5500167,54.7672779],[17.5504121,54.7663601],[17.5504105,54.7660477],[17.5504098,54.7659217],[17.5490608,54.7660136],[17.5490089,54.7660179],[17.5489301,54.7660227],[17.5488936,54.7660259],[17.5481311,54.7639669],[17.5481205,54.7639262],[17.5480978,54.7638545],[17.5482539,54.7638253],[17.5480505,54.7635595],[17.5474744,54.7628068],[17.5466344,54.7620324],[17.5464509,54.7616883],[17.5462047,54.7612267],[17.5460558,54.7609481],[17.5458986,54.7606933],[17.5453055,54.7597425],[17.5452995,54.7594802],[17.5453781,54.7591595],[17.5454389,54.7587913],[17.5453721,54.7587307],[17.5462173,54.7583387],[17.5462145,54.758283],[17.5462073,54.7581777],[17.5462007,54.7580612],[17.5465244,54.7578958],[17.5468114,54.7578693],[17.546918,54.7578431],[17.5471471,54.7578383],[17.5472119,54.7578369],[17.5478357,54.7578237],[17.5481291,54.7578186],[17.5478394,54.7579806],[17.5474944,54.7582171],[17.5475064,54.7588115],[17.547506,54.758842],[17.5478457,54.7594158],[17.5481945,54.7600266],[17.5483136,54.7600583],[17.5484831,54.7601033],[17.5487283,54.7600738],[17.5487926,54.7600661],[17.5489463,54.7600477],[17.5492666,54.7599873],[17.5496977,54.7599189],[17.5501809,54.7598475],[17.550451,54.7597978],[17.5507885,54.7597904],[17.550823,54.7597873],[17.5512819,54.7597792],[17.5513242,54.7597777],[17.5517955,54.7597672],[17.5520873,54.7597609],[17.552301,54.75975],[17.552379,54.759746],[17.5528992,54.7597329],[17.5529189,54.7597324],[17.5529433,54.7597584],[17.5532515,54.7597578],[17.553505,54.7597749],[17.5535151,54.759754],[17.5535558,54.7597576],[17.5537023,54.7597687],[17.5539105,54.7597859],[17.5540439,54.7597585],[17.5543729,54.7597618],[17.5543725,54.7598361],[17.5545046,54.7598365],[17.5546375,54.7598368],[17.554701,54.7598719],[17.5546978,54.7598749],[17.5545113,54.7601116],[17.5537827,54.7601269],[17.5532699,54.7601603],[17.5523104,54.7601902],[17.5513433,54.7602235],[17.5505466,54.7602816],[17.5488401,54.7604921],[17.5488294,54.7604931],[17.5487278,54.760582],[17.5493991,54.7617935]]]},"properties":{"osm_id":767300574,"osm_type":"way","seamark_type":"harbour","display_class":"OTHER","min_zoom":12,"importance":1,"name":"Port morski Łeba","ref":null,"common":{"type":"harbour"},"children":{"harbour":{"category":"fishing;marina"}},"osm_tags":{"alt_name":"port Łeba","harbour":"yes","industrial":"port","landuse":"industrial","name":"Port morski Łeba","name:de":"Łeba Hafen","name:en":"Port of Łeba","official_name":"port morski w Łebie","operator":"Urząd Morski w Słupsku","port":"fishing;seaplane","port:type":"seaport","seamark:harbour:category":"fishing;marina","seamark:type":"harbour","source":"Rozporządzenie Ministra Infrastruktury i Rozwoju z dnia 19 marca 2015 r. ws. sprawie granicy portu morskiego w Łebie (Dz.U. z 2015 r. poz. 516)","source:geometry":"Państwowy Rejestr Granic : Port_morski -- http://mapy.geoportal.gov.pl/imap/ -- http://mapy.geoportal.gov.pl/wss/service/puburl/guest/G2_PRG_PUB/MapServer","wikidata":"Q11824864","wikipedia":"pl:Port morski Łeba"}}},{"type":"Feature","geometry":{"type":"Polygon","coordinates":[[[17.828163,54.558879],[17.8282291,54.5586836],[17.8282153,54.5586641],[17.8282728,54.5585281],[17.8283682,54.558296],[17.8298148,54.5586796],[17.8295665,54.5589273],[17.8295409,54.5589544],[17.8292054,54.5592868],[17.828434,54.5590799],[17.828375,54.5589294],[17.828163,54.558879]]]},"properties":{"osm_id":1030181493,"osm_type":"way","seamark_type":"harbour","display_class":"OTHER","min_zoom":12,"importance":1,"name":"Przystań Wodna Centrum Sportu i Rekreacji w Lubowidzu","ref":null,"common":{"type":"harbour"},"children":{"harbour":{"category":"marina"}},"osm_tags":{"leisure":"marina","name":"Przystań Wodna Centrum Sportu i Rekreacji w Lubowidzu","operator":"Centrum Sportu i Rekracji w Lęborku","seamark:harbour:category":"marina","seamark:type":"harbour"}}},{"type":"Feature","geometry":{"type":"Point","coordinates":[17.0346601,54.4653422]},"properties":{"osm_id":6551589627,"osm_type":"node","seamark_type":"harbour","display_class":"OTHER","min_zoom":12,"importance":1,"name":"Przystań kajakowa","ref":null,"common":{"type":"harbour"},"children":{"harbour":{"category":"marina"}},"osm_tags":{"fee":"no","leisure":"marina","name":"Przystań kajakowa","power_supply":"no","sanitary_dump_station":"no","seamark:harbour:category":"marina","seamark:type":"harbour"}}},{"type":"Feature","geometry":{"type":"Point","coordinates":[17.0396099,54.4612475]},"properties":{"osm_id":9434240390,"osm_type":"node","seamark_type":"harbour","display_class":"OTHER","min_zoom":12,"importance":1,"name":"Przystań kajakowa","ref":null,"common":{"type":"harbour"},"children":{"harbour":{"category":"marina"}},"osm_tags":{"leisure":"marina","name":"Przystań kajakowa","seamark:harbour:category":"marina","seamark:type":"harbour"}}},{"type":"Feature","geometry":{"type":"Point","coordinates":[17.2140418,54.3416046]},"properties":{"osm_id":9700563177,"osm_type":"node","seamark_type":"harbour","display_class":"OTHER","min_zoom":12,"importance":1,"name":"Przystań kajakowa","ref":null,"common":{"type":"harbour"},"children":{"harbour":{"category":"marina"}},"osm_tags":{"leisure":"marina","name":"Przystań kajakowa","seamark:harbour:category":"marina","seamark:type":"harbour","sport":"canoe"}}},{"type":"Feature","geometry":{"type":"Point","coordinates":[17.0385909,54.4608568]},"properties":{"osm_id":11826222342,"osm_type":"node","seamark_type":"harbour","display_class":"OTHER","min_zoom":12,"importance":1,"name":"Przystań kajakowa","ref":null,"common":{"type":"harbour"},"children":{"harbour":{"category":"marina"}},"osm_tags":{"leisure":"marina","name":"Przystań kajakowa","seamark:harbour:category":"marina","seamark:type":"harbour"}}},{"type":"Feature","geometry":{"type":"Polygon","coordinates":[[[17.3250503,54.5292191],[17.3250117,54.5290532],[17.3259945,54.5290206],[17.326156,54.5290114],[17.3261823,54.5291804],[17.3255699,54.529205],[17.3250503,54.5292191]]]},"properties":{"osm_id":1118898382,"osm_type":"way","seamark_type":"harbour","display_class":"OTHER","min_zoom":12,"importance":1,"name":"Przystań kajakowa","ref":null,"common":{"type":"harbour"},"children":{"harbour":{"category":"marina"}},"osm_tags":{"leisure":"marina","name":"Przystań kajakowa","operator":"Gmina Damnica","seamark:harbour:category":"marina","seamark:type":"harbour"}}},{"type":"Feature","geometry":{"type":"Point","coordinates":[17.7550896,54.5428914]},"properties":{"osm_id":7922990455,"osm_type":"node","seamark_type":"harbour","display_class":"OTHER","min_zoom":12,"importance":1,"name":"Przystań kajakowa (Łeba)","ref":null,"common":{"type":"harbour"},"children":{"harbour":{"category":"marina"}},"osm_tags":{"capacity":"1","fee":"no","leisure":"marina","name":"Przystań kajakowa (Łeba)","power_supply":"no","sanitary_dump_station":"no","seamark:harbour:category":"marina","seamark:type":"harbour"}}},{"type":"Feature","geometry":{"type":"Point","coordinates":[17.2137589,54.1452138]},"properties":{"osm_id":9634057114,"osm_type":"node","seamark_type":"harbour","display_class":"OTHER","min_zoom":12,"importance":1,"name":"Przystań łódek","ref":null,"common":{"type":"harbour"},"children":{"harbour":{"category":"marina"}},"osm_tags":{"capacity":"4","leisure":"marina","name":"Przystań łódek","operator":"APION","seamark:harbour:category":"marina","seamark:type":"harbour"}}},{"type":"Feature","geometry":{"type":"LineString","coordinates":[[17.0556596,54.6668527],[17.0557213,54.6672499]]},"properties":{"osm_id":166545770,"osm_type":"way","seamark_type":"bridge","display_class":"OTHER","min_zoom":12,"importance":1,"name":"Rybacka","ref":null,"common":{"type":"bridge"},"children":{"bridge":{"category":"fixed"}},"osm_tags":{"bridge":"yes","highway":"living_street","layer":"1","lit":"yes","maxspeed":"20","maxweight":"15","name":"Rybacka","seamark:bridge:category":"fixed","seamark:type":"bridge","source:maxspeed":"PL:living_street","source:maxweight":"sign","surface":"sett"}}},{"type":"Feature","geometry":{"type":"LineString","coordinates":[[17.0521904,54.6669081],[17.0521729,54.6667688]]},"properties":{"osm_id":365316853,"osm_type":"way","seamark_type":"shoreline_construction","display_class":"OTHER","min_zoom":12,"importance":1,"name":"Slip remontowy","ref":null,"common":{"type":"shoreline_construction"},"children":{"shoreline_construction":{"category":"slipway"}},"osm_tags":{"harbour":"slipway","highway":"service","leisure":"slipway","name":"Slip remontowy","seamark:shoreline_construction:category":"slipway","seamark:type":"shoreline_construction","surface":"concrete","vehicle":"yes"}}},{"type":"Feature","geometry":{"type":"Point","coordinates":[17.6666667,54.8333333]},"properties":{"osm_id":663871151,"osm_type":"node","seamark_type":"wreck","display_class":"OTHER","min_zoom":12,"importance":1,"name":"Swanhild","ref":null,"common":{"type":"wreck"},"children":{},"osm_tags":{"historic":"wreck","name":"Swanhild","seamark:type":"wreck","source":"www.dive-links.com","sport":"scuba_diving","verified":"no, please check and del this tag","website":"http://www.dive-links.com/tauchplatz.php?id=1689"}}},{"type":"Feature","geometry":{"type":"Polygon","coordinates":[[[17.0351345,54.6622807],[17.0355297,54.662039],[17.0372966,54.6633316],[17.0375828,54.6632974],[17.0381233,54.6636862],[17.0381441,54.6638888],[17.0396882,54.6651347],[17.0400077,54.6651238],[17.0405715,54.6655099],[17.0403814,54.6656406],[17.0421369,54.6669718],[17.0423664,54.6669503],[17.0428791,54.6672881],[17.0427904,54.667436],[17.0444091,54.6683257],[17.0449881,54.6682193],[17.045191,54.6683574],[17.0443436,54.6689257],[17.0440164,54.6687305],[17.0441386,54.6684418],[17.0426467,54.6675741],[17.0423656,54.6675509],[17.0419557,54.6672515],[17.0420212,54.6671207],[17.0403078,54.6656828],[17.0401257,54.665725],[17.0395626,54.6652956],[17.0395342,54.6651747],[17.0378941,54.6639773],[17.0377039,54.6639333],[17.03707,54.6634847],[17.0371841,54.6633772],[17.0358718,54.6624752],[17.0355168,54.6626072],[17.0351345,54.6622807]]]},"properties":{"osm_id":1474373207,"osm_type":"way","seamark_type":"obstruction","display_class":"OTHER","min_zoom":12,"importance":1,"name":"Sztuczna rafa w Rowach","ref":null,"common":{"name":"Sztuczna rafa w Rowach","status":"submerged","type":"obstruction"},"children":{"obstruction":{"category":"artificial_reef","depth":"1"}},"osm_tags":{"breakwater":"submerged","depth":"1","hazard":"navigation","man_made":"breakwater","material":"rocks","name":"Sztuczna rafa w Rowach","natural":"reef","reef":"artificial","seamark:name":"Sztuczna rafa w Rowach","seamark:obstruction:category":"artificial_reef","seamark:obstruction:depth":"1","seamark:status":"submerged","seamark:type":"obstruction","submerged":"yes"}}},{"type":"Feature","geometry":{"type":"Polygon","coordinates":[[[17.0528857,54.6676019],[17.053795,54.6676535],[17.0539344,54.6676613],[17.0539834,54.6676641],[17.0540949,54.6676704],[17.0542062,54.6676768],[17.0543787,54.6676865],[17.0549353,54.6677181],[17.0554073,54.6675803],[17.0555064,54.6675515],[17.0556344,54.6675147],[17.0556272,54.6673108],[17.055625,54.6673025],[17.05562,54.6672771],[17.0556612,54.6672505],[17.0556552,54.6672151],[17.0556535,54.6672039],[17.0556061,54.6668931],[17.0556011,54.6668579],[17.0555496,54.6668587],[17.0555167,54.6666738],[17.0554531,54.666493],[17.0551578,54.6665978],[17.0550581,54.6666322],[17.0549522,54.6666154],[17.0549019,54.6666361],[17.0547461,54.6667011],[17.0542784,54.6668769],[17.053945,54.6668471],[17.0538486,54.6668033],[17.0534578,54.6665606],[17.0533022,54.6665463],[17.0532494,54.6665408],[17.0531765,54.6665332],[17.0530652,54.6665202],[17.0530493,54.6665178],[17.0529904,54.6665065],[17.0528243,54.6665083],[17.0527525,54.6665028],[17.0523737,54.666531],[17.0520159,54.6665595],[17.0517998,54.6665764],[17.0516958,54.6665852],[17.0514075,54.6666056],[17.0513997,54.6666054],[17.0510508,54.6666345],[17.050901,54.6666442],[17.0512411,54.6670582],[17.0512854,54.6671121],[17.051405,54.6671341],[17.0513858,54.6673941],[17.0517039,54.6674552],[17.0513338,54.6677182],[17.0511856,54.6679594],[17.0511218,54.668179],[17.0510653,54.6687374],[17.0506851,54.6691093],[17.050711,54.6691828],[17.0502439,54.6695886],[17.0502413,54.6695988],[17.0502456,54.6698951],[17.0502435,54.6699042],[17.0502519,54.6699109],[17.0502649,54.6699143],[17.0502831,54.6699106],[17.0503081,54.6698938],[17.0506077,54.6696558],[17.0506958,54.669584],[17.0510192,54.6693178],[17.0510343,54.6693088],[17.0510856,54.6692864],[17.0510988,54.6692774],[17.0513368,54.6690643],[17.0514315,54.6689519],[17.051577,54.6687336],[17.0520111,54.6686807],[17.0525439,54.6682518],[17.0524854,54.6682231],[17.0528857,54.6676019]]]},"properties":{"osm_id":296110072,"osm_type":"way","seamark_type":"harbour","display_class":"OTHER","min_zoom":12,"importance":1,"name":"port morski Rowy","ref":null,"common":{"type":"harbour"},"children":{"harbour":{"category":"fishing;marina"}},"osm_tags":{"email":"vtsrowy@umsl.gov.pl","fax":"+48 59 8141828","harbour":"yes","harbour_master":"Bogumił Wiśniewski","industrial":"port","landuse":"industrial","name":"port morski Rowy","name:de":"Rowy Hafen","name:en":"Port of Rowy","official_name":"port morski w Rowach","operator":"Urząd Morski w Słupsku","phone":"+48 59 8141828","port":"fishing;seaplane","port:type":"seaport","seamark:harbour:category":"fishing;marina","seamark:type":"harbour","source":"Rozporządzenie Ministra Infrastruktury z dnia 15 grudnia 2004 r. w sprawie ustalenia granicy portu morskiego w Rowach od strony lądu (Dz. U. z 2004 r. Nr 273, poz. 2709)","source:geometry":"http://www.umsl.gov.pl/pliki/kilometraz.pdf + Państwowy Rejestr Granic : Port_morski -- http://mapy.geoportal.gov.pl/imap/ -- http://mapy.geoportal.gov.pl/wss/service/puburl/guest/G2_PRG_PUB/MapServer","vhf":"16","website":"http://www.umsl.gov.pl/kontakt.html","wikidata":"Q11824160","wikipedia":"pl:Port morski Rowy"}}},{"type":"Feature","geometry":{"type":"Point","coordinates":[17.0471667,54.6883333]},"properties":{"osm_id":2998018499,"osm_type":"node","seamark_type":"buoy_cardinal","display_class":"OTHER","min_zoom":12,"importance":1,"name":"pława RO","ref":null,"common":{"name":"pława RO","type":"buoy_cardinal"},"children":{"buoy_cardinal":{"category":"north","colour":"black;yellow","colour_pattern":"horizontal","shape":"spar"},"topmark":{"colour":"black","shape":"2 cones up"}},"osm_tags":{"image":"http://www.umsl.gov.pl/galeria/ION/rowy_pla.jpg","name":"pława RO","seamark:buoy_cardinal:category":"north","seamark:buoy_cardinal:colour":"black;yellow","seamark:buoy_cardinal:colour_pattern":"horizontal","seamark:buoy_cardinal:shape":"spar","seamark:name":"pława RO","seamark:topmark:colour":"black","seamark:topmark:shape":"2 cones up","seamark:type":"buoy_cardinal","source":"http://www.umsl.gov.pl/mapka_ion.html#rowy1"}}}],"type":"FeatureCollection"}