{"type":"FeatureCollection","features":[{"type":"Feature","geometry":{"type":"Polygon","coordinates":[[[-105.2493581,54.9814368],[-105.24944,54.9813093],[-105.249364,54.9812489],[-105.2492237,54.9812959],[-105.2493581,54.9814368]]]},"properties":{"osm_id":1202338772,"osm_type":"way","seamark_type":"rock","display_class":"OTHER","min_zoom":12,"importance":1,"name":null,"ref":null,"common":{"type":"rock"},"children":{},"osm_tags":{"seamark:type":"rock"}}},{"type":"Feature","geometry":{"type":"Polygon","coordinates":[[[-105.2500611,54.9820974],[-105.2498596,54.9818797],[-105.2502152,54.9819205],[-105.2500611,54.9820974]]]},"properties":{"osm_id":1202338773,"osm_type":"way","seamark_type":"rock","display_class":"OTHER","min_zoom":12,"importance":1,"name":null,"ref":null,"common":{"type":"rock"},"children":{},"osm_tags":{"seamark:type":"rock"}}}],"type":"FeatureCollection"}