{"type":"FeatureCollection","features":[{"type":"Feature","geometry":{"type":"Point","coordinates":[-165.6581157,54.1342922]},"properties":{"osm_id":6161187465,"osm_type":"node","seamark_type":"rock","display_class":"OTHER","min_zoom":12,"importance":1,"name":null,"ref":null,"common":{"type":"rock"},"children":{"rock":{"water_level":"dry"}},"osm_tags":{"natural":"rock","seamark:rock:water_level":"dry","seamark:type":"rock","source:position":"DigitalGlobe;USGS Topo"}}},{"type":"Feature","geometry":{"type":"Point","coordinates":[-165.6627238,54.1290463]},"properties":{"osm_id":6161187466,"osm_type":"node","seamark_type":"rock","display_class":"OTHER","min_zoom":12,"importance":1,"name":null,"ref":null,"common":{"type":"rock"},"children":{"rock":{"water_level":"dry"}},"osm_tags":{"natural":"rock","seamark:rock:water_level":"dry","seamark:type":"rock","source:position":"DigitalGlobe;USGS Topo"}}},{"type":"Feature","geometry":{"type":"Point","coordinates":[-165.658561,54.1342356]},"properties":{"osm_id":6161187467,"osm_type":"node","seamark_type":"rock","display_class":"OTHER","min_zoom":12,"importance":1,"name":null,"ref":null,"common":{"type":"rock"},"children":{"rock":{"water_level":"dry"}},"osm_tags":{"natural":"rock","seamark:rock:water_level":"dry","seamark:type":"rock","source:position":"DigitalGlobe;USGS Topo"}}},{"type":"Feature","geometry":{"type":"Point","coordinates":[-165.6591082,54.1342105]},"properties":{"osm_id":6161187468,"osm_type":"node","seamark_type":"rock","display_class":"OTHER","min_zoom":12,"importance":1,"name":null,"ref":null,"common":{"type":"rock"},"children":{"rock":{"water_level":"dry"}},"osm_tags":{"natural":"rock","seamark:rock:water_level":"dry","seamark:type":"rock","source:position":"DigitalGlobe;USGS Topo"}}},{"type":"Feature","geometry":{"type":"Point","coordinates":[-165.6589687,54.1344462]},"properties":{"osm_id":6161187469,"osm_type":"node","seamark_type":"rock","display_class":"OTHER","min_zoom":12,"importance":1,"name":null,"ref":null,"common":{"type":"rock"},"children":{"rock":{"water_level":"dry"}},"osm_tags":{"natural":"rock","seamark:rock:water_level":"dry","seamark:type":"rock","source:position":"DigitalGlobe;USGS Topo"}}},{"type":"Feature","geometry":{"type":"Polygon","coordinates":[[[-165.7775717,54.1343995],[-165.7775625,54.1345105],[-165.7775055,54.1345575],[-165.7773684,54.1345593],[-165.7771512,54.1345457],[-165.7771296,54.1345358],[-165.7771157,54.1345006],[-165.7771219,54.1344284],[-165.7771342,54.1343806],[-165.7775717,54.1343995]]]},"properties":{"osm_id":1365645749,"osm_type":"way","seamark_type":"small_craft_facility","display_class":"OTHER","min_zoom":12,"importance":1,"name":null,"ref":null,"common":{"type":"small_craft_facility"},"children":{"small_craft_facility":{"category":"fuel_station"}},"osm_tags":{"seamark:small_craft_facility:category":"fuel_station","seamark:type":"small_craft_facility","waterway":"fuel"}}},{"type":"Feature","geometry":{"type":"Point","coordinates":[-165.8250833,54.1304413]},"properties":{"osm_id":12646829460,"osm_type":"node","seamark_type":"harbour","display_class":"OTHER","min_zoom":12,"importance":1,"name":"Akutan Boat Harbor","ref":null,"common":{"type":"harbour"},"children":{"harbour":{"category":"marina"}},"osm_tags":{"leisure":"marina","name":"Akutan Boat Harbor","seamark:harbour:category":"marina","seamark:type":"harbour"}}},{"type":"Feature","geometry":{"type":"Polygon","coordinates":[[[-165.7960364,54.1257011],[-165.7962278,54.1259135],[-165.7963372,54.1258796],[-165.7963581,54.1259028],[-165.7960034,54.1260125],[-165.795965,54.1259698],[-165.7960909,54.1259309],[-165.7959171,54.125738],[-165.7960364,54.1257011]]]},"properties":{"osm_id":1365658923,"osm_type":"way","seamark_type":"harbour","display_class":"OTHER","min_zoom":12,"importance":1,"name":"Akutan Crab Pot Storage Siytg","ref":null,"common":{"type":"harbour"},"children":{"harbour":{"category":"marina"}},"osm_tags":{"leisure":"marina","name":"Akutan Crab Pot Storage Siytg","seamark:harbour:category":"marina","seamark:type":"harbour"}}},{"type":"Feature","geometry":{"type":"Polygon","coordinates":[[[-165.8283106,54.130501],[-165.8253282,54.13064],[-165.8253195,54.130576],[-165.8283019,54.1304369],[-165.8283106,54.130501]]]},"properties":{"osm_id":1365658248,"osm_type":"way","seamark_type":"harbour","display_class":"OTHER","min_zoom":12,"importance":1,"name":"Akutan Dock","ref":null,"common":{"type":"harbour"},"children":{"harbour":{"category":"marina"}},"osm_tags":{"leisure":"marina","name":"Akutan Dock","seamark:harbour:category":"marina","seamark:type":"harbour"}}},{"type":"Feature","geometry":{"type":"Polygon","coordinates":[[[-165.777037,54.1337573],[-165.7771803,54.1338782],[-165.7773959,54.1340615],[-165.7772804,54.1341084],[-165.7770909,54.1339225],[-165.7769384,54.1337799],[-165.7771818,54.1336282],[-165.7774084,54.1337668],[-165.777376,54.1337909],[-165.7771803,54.1336634],[-165.777037,54.1337573]]]},"properties":{"osm_id":1365645752,"osm_type":"way","seamark_type":"harbour","display_class":"OTHER","min_zoom":12,"importance":1,"name":"Akutan Small Boat Harbor","ref":null,"common":{"type":"harbour"},"children":{"harbour":{"category":"marina"}},"osm_tags":{"leisure":"marina","name":"Akutan Small Boat Harbor","operator":"City of Akutan","seamark:harbour:category":"marina","seamark:type":"harbour"}}},{"type":"Feature","geometry":{"type":"Polygon","coordinates":[[[-165.8083263,54.127328],[-165.80859,54.1275415],[-165.8084648,54.1275947],[-165.8084242,54.1275618],[-165.8084972,54.1275308],[-165.808274,54.1273502],[-165.8083263,54.127328]]]},"properties":{"osm_id":1365658842,"osm_type":"way","seamark_type":"harbour","display_class":"OTHER","min_zoom":12,"importance":1,"name":"Akutan Whaling Station Dock","ref":null,"common":{"type":"harbour"},"children":{"harbour":{"category":"marina"}},"osm_tags":{"leisure":"marina","name":"Akutan Whaling Station Dock","seamark:harbour:category":"marina","seamark:type":"harbour"}}},{"type":"Feature","geometry":{"type":"Polygon","coordinates":[[[-165.7815288,54.1339588],[-165.7814756,54.1338932],[-165.7815152,54.1337925],[-165.78116,54.1330967],[-165.7811779,54.1329082],[-165.7815517,54.1324454],[-165.787683,54.1318857],[-165.7893375,54.1323118],[-165.7899999,54.1336169],[-165.7908072,54.1338949],[-165.7906162,54.1340574],[-165.7898366,54.1338155],[-165.7899198,54.1336079],[-165.7893077,54.1324866],[-165.7882658,54.132699],[-165.7880437,54.1320674],[-165.7876715,54.132108],[-165.787631,54.13195],[-165.7870593,54.1319958],[-165.7871004,54.1321636],[-165.78601,54.1322396],[-165.7860007,54.1322847],[-165.785252,54.1323298],[-165.7846821,54.1323641],[-165.7837577,54.1324075],[-165.7821795,54.132603],[-165.7818769,54.1327526],[-165.7817399,54.1331138],[-165.7818829,54.1335377],[-165.7820477,54.1338289],[-165.7815288,54.1339588]]]},"properties":{"osm_id":1365646774,"osm_type":"way","seamark_type":"harbour","display_class":"OTHER","min_zoom":12,"importance":1,"name":"Trident Seafoods Dock","ref":null,"common":{"type":"harbour"},"children":{"harbour":{"category":"marina"}},"osm_tags":{"leisure":"marina","name":"Trident Seafoods Dock","seamark:harbour:category":"marina","seamark:type":"harbour"}}}],"type":"FeatureCollection"}