{"type":"FeatureCollection","features":[{"type":"Feature","geometry":{"type":"Point","coordinates":[-162.5285075,54.8572321]},"properties":{"osm_id":8539634025,"osm_type":"node","seamark_type":"wreck","display_class":"OTHER","min_zoom":12,"importance":1,"name":null,"ref":null,"common":{"type":"wreck"},"children":{},"osm_tags":{"historic":"wreck","seamark:type":"wreck"}}},{"type":"Feature","geometry":{"type":"Point","coordinates":[-162.5255809,54.8552333]},"properties":{"osm_id":5315549646,"osm_type":"node","seamark_type":"wreck","display_class":"OTHER","min_zoom":12,"importance":1,"name":"Fishing Boat Wreck;Might be F/V Jupiter 82' 1983 or 1984 from King Cove","ref":null,"common":{"type":"wreck"},"children":{},"osm_tags":{"description":"Fishing Boat Wreck on the south west corner of Sozavarika Island.  It looks to be about 90 feet long, and possibly a blue deck and a white hull. Found in OpenStreetMap on 1 January 2018.  US Coast Guard contacted.  Might be old or might be new. ","historic":"wreck","name":"Fishing Boat Wreck;Might be F/V Jupiter 82' 1983 or 1984 from King Cove","seamark:type":"wreck"}}}],"type":"FeatureCollection"}