{"type":"FeatureCollection","features":[{"type":"Feature","geometry":{"type":"Point","coordinates":[37.7048855,55.672214]},"properties":{"osm_id":313979927,"osm_type":"node","seamark_type":"gate","display_class":"OTHER","min_zoom":12,"importance":1,"name":null,"ref":null,"common":{"type":"gate"},"children":{},"osm_tags":{"seamark:type":"gate","waterway":"lock_gate"}}},{"type":"Feature","geometry":{"type":"Point","coordinates":[37.7058868,55.6721987]},"properties":{"osm_id":333752495,"osm_type":"node","seamark_type":"gate","display_class":"OTHER","min_zoom":12,"importance":1,"name":null,"ref":null,"common":{"type":"gate"},"children":{},"osm_tags":{"seamark:type":"gate","waterway":"lock_gate"}}},{"type":"Feature","geometry":{"type":"Point","coordinates":[37.6972825,55.6750685]},"properties":{"osm_id":333752571,"osm_type":"node","seamark_type":"gate","display_class":"OTHER","min_zoom":12,"importance":1,"name":null,"ref":null,"common":{"type":"gate"},"children":{},"osm_tags":{"seamark:type":"gate","waterway":"lock_gate"}}},{"type":"Feature","geometry":{"type":"Point","coordinates":[37.6716849,55.7561162]},"properties":{"osm_id":544523121,"osm_type":"node","seamark_type":"gate","display_class":"OTHER","min_zoom":12,"importance":1,"name":null,"ref":null,"common":{"type":"gate"},"children":{},"osm_tags":{"seamark:type":"gate","waterway":"lock_gate"}}},{"type":"Feature","geometry":{"type":"Point","coordinates":[37.6713575,55.7566258]},"properties":{"osm_id":544523122,"osm_type":"node","seamark_type":"gate","display_class":"OTHER","min_zoom":12,"importance":1,"name":null,"ref":null,"common":{"type":"gate"},"children":{},"osm_tags":{"maxheight":"6","seamark:type":"gate","waterway":"lock_gate"}}},{"type":"Feature","geometry":{"type":"Point","coordinates":[37.5156155,55.9634558]},"properties":{"osm_id":2964259370,"osm_type":"node","seamark_type":"small_craft_facility","display_class":"OTHER","min_zoom":12,"importance":1,"name":null,"ref":null,"common":{"type":"small_craft_facility"},"children":{"small_craft_facility":{"category":"boat_hoist"}},"osm_tags":{"man_made":"crane","seamark:small_craft_facility:category":"boat_hoist","seamark:type":"small_craft_facility"}}},{"type":"Feature","geometry":{"type":"Point","coordinates":[37.482554,55.8343296]},"properties":{"osm_id":4946184882,"osm_type":"node","seamark_type":"small_craft_facility","display_class":"OTHER","min_zoom":12,"importance":1,"name":null,"ref":null,"common":{"type":"small_craft_facility"},"children":{"small_craft_facility":{"category":"boat_hoist"}},"osm_tags":{"seamark:small_craft_facility:category":"boat_hoist","seamark:type":"small_craft_facility"}}},{"type":"Feature","geometry":{"type":"Point","coordinates":[37.5123775,55.9569666]},"properties":{"osm_id":4946485896,"osm_type":"node","seamark_type":"harbour","display_class":"OTHER","min_zoom":12,"importance":1,"name":null,"ref":null,"common":{"type":"harbour"},"children":{"harbour":{"category":"marina"}},"osm_tags":{"seamark:harbour:category":"marina","seamark:type":"harbour"}}},{"type":"Feature","geometry":{"type":"Point","coordinates":[37.5190294,55.965008]},"properties":{"osm_id":4946485897,"osm_type":"node","seamark_type":"harbour","display_class":"OTHER","min_zoom":12,"importance":1,"name":null,"ref":null,"common":{"type":"harbour"},"children":{"harbour":{"category":"marina"}},"osm_tags":{"leisure":"marina","seamark:harbour:category":"marina","seamark:type":"harbour"}}},{"type":"Feature","geometry":{"type":"Point","coordinates":[37.5126135,55.9613208]},"properties":{"osm_id":4946485898,"osm_type":"node","seamark_type":"harbour","display_class":"OTHER","min_zoom":12,"importance":1,"name":null,"ref":null,"common":{"type":"harbour"},"children":{},"osm_tags":{"harbour":"yes","port_of_entry":"no","seamark:type":"harbour"}}},{"type":"Feature","geometry":{"type":"Point","coordinates":[37.5116868,55.9590672]},"properties":{"osm_id":4946490735,"osm_type":"node","seamark_type":"small_craft_facility","display_class":"OTHER","min_zoom":12,"importance":1,"name":null,"ref":null,"common":{"type":"small_craft_facility"},"children":{"small_craft_facility":{"category":"boat_hoist"}},"osm_tags":{"man_made":"crane","seamark:small_craft_facility:category":"boat_hoist","seamark:type":"small_craft_facility"}}},{"type":"Feature","geometry":{"type":"Point","coordinates":[37.6738646,55.698158]},"properties":{"osm_id":5246568225,"osm_type":"node","seamark_type":"wreck","display_class":"OTHER","min_zoom":12,"importance":1,"name":null,"ref":null,"common":{"type":"wreck"},"children":{},"osm_tags":{"historic":"wreck","seamark:type":"wreck"}}},{"type":"Feature","geometry":{"type":"Point","coordinates":[37.6926178,55.6738005]},"properties":{"osm_id":6984803567,"osm_type":"node","seamark_type":"gate","display_class":"OTHER","min_zoom":12,"importance":1,"name":null,"ref":null,"common":{"type":"gate"},"children":{},"osm_tags":{"seamark:type":"gate","waterway":"lock_gate"}}},{"type":"Feature","geometry":{"type":"Point","coordinates":[37.7767547,55.6470896]},"properties":{"osm_id":7562609552,"osm_type":"node","seamark_type":"harbour","display_class":"OTHER","min_zoom":12,"importance":1,"name":null,"ref":null,"common":{"type":"harbour"},"children":{"harbour":{"category":"marina"}},"osm_tags":{"leisure":"marina","seamark:harbour:category":"marina","seamark:type":"harbour"}}},{"type":"Feature","geometry":{"type":"Point","coordinates":[37.7774458,55.6460764]},"properties":{"osm_id":7562612828,"osm_type":"node","seamark_type":"harbour","display_class":"OTHER","min_zoom":12,"importance":1,"name":null,"ref":null,"common":{"type":"harbour"},"children":{"harbour":{"category":"marina"}},"osm_tags":{"leisure":"marina","seamark:harbour:category":"marina","seamark:type":"harbour"}}},{"type":"Feature","geometry":{"type":"Point","coordinates":[37.6741351,55.7004885]},"properties":{"osm_id":10812587326,"osm_type":"node","seamark_type":"wreck","display_class":"OTHER","min_zoom":12,"importance":1,"name":null,"ref":null,"common":{"type":"wreck"},"children":{},"osm_tags":{"seamark:type":"wreck"}}},{"type":"Feature","geometry":{"type":"Point","coordinates":[37.6744257,55.6982073]},"properties":{"osm_id":12643951311,"osm_type":"node","seamark_type":"wreck","display_class":"OTHER","min_zoom":12,"importance":1,"name":null,"ref":null,"common":{"type":"wreck"},"children":{},"osm_tags":{"historic":"wreck","seamark:type":"wreck"}}},{"type":"Feature","geometry":{"type":"Point","coordinates":[37.6721657,55.7555123]},"properties":{"osm_id":12919275319,"osm_type":"node","seamark_type":"mooring","display_class":"OTHER","min_zoom":12,"importance":1,"name":null,"ref":null,"common":{"type":"mooring"},"children":{},"osm_tags":{"seamark:type":"mooring"}}},{"type":"Feature","geometry":{"type":"Point","coordinates":[37.6721283,55.7555719]},"properties":{"osm_id":12919275320,"osm_type":"node","seamark_type":"mooring","display_class":"OTHER","min_zoom":12,"importance":1,"name":null,"ref":null,"common":{"type":"mooring"},"children":{},"osm_tags":{"seamark:type":"mooring"}}},{"type":"Feature","geometry":{"type":"Point","coordinates":[37.6720159,55.7557505]},"properties":{"osm_id":12919275321,"osm_type":"node","seamark_type":"mooring","display_class":"OTHER","min_zoom":12,"importance":1,"name":null,"ref":null,"common":{"type":"mooring"},"children":{},"osm_tags":{"seamark:type":"mooring"}}},{"type":"Feature","geometry":{"type":"Point","coordinates":[37.6719784,55.75581]},"properties":{"osm_id":12919275322,"osm_type":"node","seamark_type":"mooring","display_class":"OTHER","min_zoom":12,"importance":1,"name":null,"ref":null,"common":{"type":"mooring"},"children":{},"osm_tags":{"seamark:type":"mooring"}}},{"type":"Feature","geometry":{"type":"Point","coordinates":[37.6719409,55.7558696]},"properties":{"osm_id":12919275323,"osm_type":"node","seamark_type":"mooring","display_class":"OTHER","min_zoom":12,"importance":1,"name":null,"ref":null,"common":{"type":"mooring"},"children":{},"osm_tags":{"seamark:type":"mooring"}}},{"type":"Feature","geometry":{"type":"Point","coordinates":[37.6720908,55.7556314]},"properties":{"osm_id":12919275324,"osm_type":"node","seamark_type":"mooring","display_class":"OTHER","min_zoom":12,"importance":1,"name":null,"ref":null,"common":{"type":"mooring"},"children":{},"osm_tags":{"seamark:type":"mooring"}}},{"type":"Feature","geometry":{"type":"Point","coordinates":[37.6720533,55.7556909]},"properties":{"osm_id":12919275325,"osm_type":"node","seamark_type":"mooring","display_class":"OTHER","min_zoom":12,"importance":1,"name":null,"ref":null,"common":{"type":"mooring"},"children":{},"osm_tags":{"seamark:type":"mooring"}}},{"type":"Feature","geometry":{"type":"Point","coordinates":[37.6719035,55.7559291]},"properties":{"osm_id":12919275326,"osm_type":"node","seamark_type":"mooring","display_class":"OTHER","min_zoom":12,"importance":1,"name":null,"ref":null,"common":{"type":"mooring"},"children":{},"osm_tags":{"seamark:type":"mooring"}}},{"type":"Feature","geometry":{"type":"Point","coordinates":[37.671866,55.7559886]},"properties":{"osm_id":12919275327,"osm_type":"node","seamark_type":"mooring","display_class":"OTHER","min_zoom":12,"importance":1,"name":null,"ref":null,"common":{"type":"mooring"},"children":{},"osm_tags":{"seamark:type":"mooring"}}},{"type":"Feature","geometry":{"type":"Point","coordinates":[37.671554,55.7569011]},"properties":{"osm_id":12919275334,"osm_type":"node","seamark_type":"mooring","display_class":"OTHER","min_zoom":12,"importance":1,"name":null,"ref":null,"common":{"type":"mooring"},"children":{},"osm_tags":{"seamark:type":"mooring"}}},{"type":"Feature","geometry":{"type":"Point","coordinates":[37.6715175,55.7569639]},"properties":{"osm_id":12919275335,"osm_type":"node","seamark_type":"mooring","display_class":"OTHER","min_zoom":12,"importance":1,"name":null,"ref":null,"common":{"type":"mooring"},"children":{},"osm_tags":{"seamark:type":"mooring"}}},{"type":"Feature","geometry":{"type":"Point","coordinates":[37.6714811,55.7570268]},"properties":{"osm_id":12919275336,"osm_type":"node","seamark_type":"mooring","display_class":"OTHER","min_zoom":12,"importance":1,"name":null,"ref":null,"common":{"type":"mooring"},"children":{},"osm_tags":{"seamark:type":"mooring"}}},{"type":"Feature","geometry":{"type":"Point","coordinates":[37.6714446,55.7570897]},"properties":{"osm_id":12919275337,"osm_type":"node","seamark_type":"mooring","display_class":"OTHER","min_zoom":12,"importance":1,"name":null,"ref":null,"common":{"type":"mooring"},"children":{},"osm_tags":{"seamark:type":"mooring"}}},{"type":"Feature","geometry":{"type":"Point","coordinates":[37.6714082,55.7571525]},"properties":{"osm_id":12919275338,"osm_type":"node","seamark_type":"mooring","display_class":"OTHER","min_zoom":12,"importance":1,"name":null,"ref":null,"common":{"type":"mooring"},"children":{},"osm_tags":{"seamark:type":"mooring"}}},{"type":"Feature","geometry":{"type":"Point","coordinates":[37.6713717,55.7572154]},"properties":{"osm_id":12919275339,"osm_type":"node","seamark_type":"mooring","display_class":"OTHER","min_zoom":12,"importance":1,"name":null,"ref":null,"common":{"type":"mooring"},"children":{},"osm_tags":{"seamark:type":"mooring"}}},{"type":"Feature","geometry":{"type":"Point","coordinates":[37.6713353,55.7572783]},"properties":{"osm_id":12919275340,"osm_type":"node","seamark_type":"mooring","display_class":"OTHER","min_zoom":12,"importance":1,"name":null,"ref":null,"common":{"type":"mooring"},"children":{},"osm_tags":{"seamark:type":"mooring"}}},{"type":"Feature","geometry":{"type":"Point","coordinates":[37.6712988,55.7573411]},"properties":{"osm_id":12919275341,"osm_type":"node","seamark_type":"mooring","display_class":"OTHER","min_zoom":12,"importance":1,"name":null,"ref":null,"common":{"type":"mooring"},"children":{},"osm_tags":{"seamark:type":"mooring"}}},{"type":"Feature","geometry":{"type":"Point","coordinates":[37.6712624,55.757404]},"properties":{"osm_id":12919275342,"osm_type":"node","seamark_type":"mooring","display_class":"OTHER","min_zoom":12,"importance":1,"name":null,"ref":null,"common":{"type":"mooring"},"children":{},"osm_tags":{"seamark:type":"mooring"}}},{"type":"Feature","geometry":{"type":"Point","coordinates":[37.5891023,55.9933381]},"properties":{"osm_id":12942092644,"osm_type":"node","seamark_type":"leading_mark","display_class":"OTHER","min_zoom":12,"importance":1,"name":null,"ref":null,"common":{"type":"leading_mark"},"children":{"beacon_leading":{"colour":"white;black","shape":"board"}},"osm_tags":{"seamark:beacon_leading:colour":"white;black","seamark:beacon_leading:shape":"board","seamark:type":"leading_mark"}}},{"type":"Feature","geometry":{"type":"Point","coordinates":[37.5906468,55.9936723]},"properties":{"osm_id":12942112429,"osm_type":"node","seamark_type":"leading_mark","display_class":"OTHER","min_zoom":12,"importance":1,"name":null,"ref":null,"common":{"type":"leading_mark"},"children":{"beacon_leading":{"colour":"white;black","shape":"board"}},"osm_tags":{"seamark:beacon_leading:colour":"white;black","seamark:beacon_leading:shape":"board","seamark:type":"leading_mark"}}},{"type":"Feature","geometry":{"type":"LineString","coordinates":[[37.5115916,55.9591047],[37.5117161,55.9591127]]},"properties":{"osm_id":504495041,"osm_type":"way","seamark_type":"small_craft_facility","display_class":"OTHER","min_zoom":12,"importance":1,"name":null,"ref":null,"common":{"type":"small_craft_facility"},"children":{"small_craft_facility":{"category":"slipway"}},"osm_tags":{"highway":"service","seamark:small_craft_facility:category":"slipway","seamark:type":"small_craft_facility"}}},{"type":"Feature","geometry":{"type":"LineString","coordinates":[[37.6926397,55.673663],[37.6926178,55.6738005],[37.6924334,55.6738953]]},"properties":{"osm_id":746375864,"osm_type":"way","seamark_type":"gate","display_class":"OTHER","min_zoom":12,"importance":1,"name":null,"ref":null,"common":{"type":"gate"},"children":{},"osm_tags":{"access":"private","bridge":"aqueduct","highway":"footway","layer":"1","motor_vehicle":"no","seamark:type":"gate","waterway":"lock_gate"}}},{"type":"Feature","geometry":{"type":"LineString","coordinates":[[37.4478427,55.8129492],[37.4481374,55.8129432],[37.4483334,55.8128353]]},"properties":{"osm_id":753122415,"osm_type":"way","seamark_type":"gate","display_class":"OTHER","min_zoom":12,"importance":1,"name":null,"ref":null,"common":{"type":"gate"},"children":{},"osm_tags":{"seamark:type":"gate","waterway":"lock_gate"}}},{"type":"Feature","geometry":{"type":"LineString","coordinates":[[37.4498773,55.8157315],[37.4501159,55.8157341],[37.4502838,55.8156351]]},"properties":{"osm_id":753122416,"osm_type":"way","seamark_type":"gate","display_class":"OTHER","min_zoom":12,"importance":1,"name":null,"ref":null,"common":{"type":"gate"},"children":{},"osm_tags":{"seamark:type":"gate","waterway":"lock_gate"}}},{"type":"Feature","geometry":{"type":"LineString","coordinates":[[37.4518831,55.8185678],[37.4521087,55.8185162],[37.4523487,55.818461]]},"properties":{"osm_id":753122417,"osm_type":"way","seamark_type":"gate","display_class":"OTHER","min_zoom":12,"importance":1,"name":null,"ref":null,"common":{"type":"gate"},"children":{},"osm_tags":{"seamark:type":"gate","waterway":"lock_gate"}}},{"type":"Feature","geometry":{"type":"LineString","coordinates":[[37.4597097,55.8293405],[37.4599661,55.8293269],[37.4601553,55.8292238]]},"properties":{"osm_id":753122418,"osm_type":"way","seamark_type":"gate","display_class":"OTHER","min_zoom":12,"importance":1,"name":null,"ref":null,"common":{"type":"gate"},"children":{},"osm_tags":{"seamark:type":"gate","waterway":"lock_gate"}}},{"type":"Feature","geometry":{"type":"LineString","coordinates":[[37.4617514,55.8321286],[37.4620196,55.8321223],[37.4622151,55.8320137]]},"properties":{"osm_id":753122419,"osm_type":"way","seamark_type":"gate","display_class":"OTHER","min_zoom":12,"importance":1,"name":null,"ref":null,"common":{"type":"gate"},"children":{},"osm_tags":{"seamark:type":"gate","waterway":"lock_gate"}}},{"type":"Feature","geometry":{"type":"LineString","coordinates":[[37.463816,55.8349449],[37.4640417,55.8348981],[37.4642697,55.8348535]]},"properties":{"osm_id":753122420,"osm_type":"way","seamark_type":"gate","display_class":"OTHER","min_zoom":12,"importance":1,"name":null,"ref":null,"common":{"type":"gate"},"children":{},"osm_tags":{"seamark:type":"gate","waterway":"lock_gate"}}},{"type":"Feature","geometry":{"type":"LineString","coordinates":[[37.4706966,55.7671762],[37.4707349,55.7670486],[37.4707721,55.7669045]]},"properties":{"osm_id":753122428,"osm_type":"way","seamark_type":"gate","display_class":"OTHER","min_zoom":12,"importance":1,"name":null,"ref":null,"common":{"type":"gate"},"children":{},"osm_tags":{"seamark:type":"gate","waterway":"lock_gate"}}},{"type":"Feature","geometry":{"type":"LineString","coordinates":[[37.4760103,55.7676823],[37.475952,55.7675314],[37.4760898,55.7673968]]},"properties":{"osm_id":753122431,"osm_type":"way","seamark_type":"gate","display_class":"OTHER","min_zoom":12,"importance":1,"name":null,"ref":null,"common":{"type":"gate"},"children":{},"osm_tags":{"seamark:type":"gate","waterway":"lock_gate"}}},{"type":"Feature","geometry":{"type":"LineString","coordinates":[[37.704887,55.6723009],[37.7048855,55.672214],[37.7048819,55.6721198]]},"properties":{"osm_id":753122432,"osm_type":"way","seamark_type":"gate","display_class":"OTHER","min_zoom":12,"importance":1,"name":null,"ref":null,"common":{"type":"gate"},"children":{},"osm_tags":{"seamark:type":"gate","waterway":"lock_gate"}}},{"type":"Feature","geometry":{"type":"LineString","coordinates":[[37.705893,55.6722837],[37.7058868,55.6721987],[37.7058846,55.6721068]]},"properties":{"osm_id":753122433,"osm_type":"way","seamark_type":"gate","display_class":"OTHER","min_zoom":12,"importance":1,"name":null,"ref":null,"common":{"type":"gate"},"children":{},"osm_tags":{"seamark:type":"gate","waterway":"lock_gate"}}},{"type":"Feature","geometry":{"type":"LineString","coordinates":[[37.6971873,55.6751864],[37.6972825,55.6750685],[37.6973794,55.6749447]]},"properties":{"osm_id":753122439,"osm_type":"way","seamark_type":"gate","display_class":"OTHER","min_zoom":12,"importance":1,"name":null,"ref":null,"common":{"type":"gate"},"children":{},"osm_tags":{"seamark:type":"gate","waterway":"lock_gate"}}},{"type":"Feature","geometry":{"type":"LineString","coordinates":[[37.4665546,55.8505573],[37.4608472,55.853004]]},"properties":{"osm_id":791432746,"osm_type":"way","seamark_type":"failrway","display_class":"OTHER","min_zoom":12,"importance":1,"name":null,"ref":null,"common":{"type":"failrway"},"children":{},"osm_tags":{"seamark:type":"failrway","source":"GPS","waterway":"fairway"}}},{"type":"Feature","geometry":{"type":"LineString","coordinates":[[37.2277507,55.3628537],[37.2288472,55.3621628]]},"properties":{"osm_id":1217183544,"osm_type":"way","seamark_type":"shoreline_construction","display_class":"OTHER","min_zoom":12,"importance":1,"name":null,"ref":null,"common":{"type":"shoreline_construction"},"children":{},"osm_tags":{"man_made":"groyne","material":"concrete","seamark:type":"shoreline_construction"}}},{"type":"Feature","geometry":{"type":"LineString","coordinates":[[37.5891023,55.9933381],[37.5906468,55.9936723]]},"properties":{"osm_id":1414038884,"osm_type":"way","seamark_type":"leading_line","display_class":"OTHER","min_zoom":12,"importance":1,"name":null,"ref":null,"common":{"type":"leading_line"},"children":{},"osm_tags":{"seamark:type":"leading_line"}}},{"type":"Feature","geometry":{"type":"Polygon","coordinates":[[[37.4487225,55.8058294],[37.4478765,55.8058012],[37.4478797,55.8057707],[37.4487258,55.8057989],[37.4487225,55.8058294]]]},"properties":{"osm_id":106406166,"osm_type":"way","seamark_type":"harbour","display_class":"OTHER","min_zoom":12,"importance":1,"name":"River Club Moscow","ref":null,"common":{"type":"harbour"},"children":{"harbour":{"category":"marina"}},"osm_tags":{"leisure":"marina","man_made":"pier","name":"River Club Moscow","seamark:harbour:category":"marina","seamark:type":"harbour"}}},{"type":"Feature","geometry":{"type":"Polygon","coordinates":[[[37.4555545,55.8898174],[37.4569854,55.8892315],[37.4572073,55.88912],[37.4573868,55.8891379],[37.4584365,55.8899295],[37.4576452,55.8900302],[37.4561378,55.8904905],[37.4559822,55.8903401],[37.4554512,55.8902258],[37.4555545,55.8898174]]]},"properties":{"osm_id":239971838,"osm_type":"way","seamark_type":"harbour","display_class":"OTHER","min_zoom":12,"importance":1,"name":"ВМК \"Турист\"","ref":null,"common":{"type":"harbour"},"children":{"harbour":{"category":"marina"}},"osm_tags":{"leisure":"marina","name":"ВМК \"Турист\"","seamark:harbour:category":"marina","seamark:type":"harbour"}}},{"type":"Feature","geometry":{"type":"Polygon","coordinates":[[[37.5450118,55.9775923],[37.5434292,55.9773232],[37.5417556,55.9770055],[37.5412146,55.9750341],[37.5424458,55.974914],[37.5459234,55.9758576],[37.5465702,55.9759189],[37.5472193,55.9769139],[37.5468921,55.977046],[37.5470986,55.9772591],[37.5466668,55.9774017],[37.546284,55.9772658],[37.5455107,55.9774092],[37.5452192,55.9774128],[37.5450118,55.9775923]]]},"properties":{"osm_id":212414383,"osm_type":"way","seamark_type":"harbour","display_class":"OTHER","min_zoom":12,"importance":1,"name":"ГБУ \"ЦСП \"Хлебниково\"","ref":null,"common":{"type":"harbour"},"children":{"harbour":{"category":"marina"}},"osm_tags":{"alt_name":"ЭШВСМ","leisure":"marina","name":"ГБУ \"ЦСП \"Хлебниково\"","seamark:harbour:category":"marina","seamark:type":"harbour"}}},{"type":"Feature","geometry":{"type":"LineString","coordinates":[[37.4453661,55.7890027],[37.4464772,55.7889958]]},"properties":{"osm_id":790315405,"osm_type":"way","seamark_type":"gate","display_class":"OTHER","min_zoom":12,"importance":1,"name":"Заградительные ворота №116","ref":null,"common":{"type":"gate"},"children":{},"osm_tags":{"name":"Заградительные ворота №116","seamark:type":"gate","waterway":"lock_gate"}}},{"type":"Feature","geometry":{"type":"Point","coordinates":[37.4590119,55.8490196]},"properties":{"osm_id":635970191,"osm_type":"node","seamark_type":"harbour","display_class":"OTHER","min_zoom":12,"importance":1,"name":"Захарково","ref":null,"common":{"type":"harbour"},"children":{"harbour":{"category":"marina"}},"osm_tags":{"amenity":"ferry_terminal","cargo":"passengers","check_date":"2022-08-19","ferry":"yes","leisure":"marina","name":"Захарково","name:en":"Zakharkovo","opening_hours":"May-Oct: 07:00-13:00; 15:00-20:00","operator":"Гормост","payment:mastercard":"yes","payment:mir":"yes","payment:troika":"yes","payment:visa":"yes","power_supply":"no","public_transport":"stop_position","sanitary_dump_station":"no","seamark:harbour:category":"marina","seamark:type":"harbour","wheelchair":"no"}}},{"type":"Feature","geometry":{"type":"LineString","coordinates":[[37.7245221,55.6417204],[37.7251331,55.6417571],[37.7257324,55.641793]]},"properties":{"osm_id":105920299,"osm_type":"way","seamark_type":"harbour","display_class":"OTHER","min_zoom":12,"importance":1,"name":"Марьино","ref":null,"common":{"type":"harbour"},"children":{},"osm_tags":{"name":"Марьино","seamark:type":"harbour"}}},{"type":"Feature","geometry":{"type":"Polygon","coordinates":[[[37.609818,55.7393379],[37.6086995,55.7396656],[37.6084656,55.7396912],[37.6083785,55.7396871],[37.6082021,55.7397293],[37.6077857,55.7391831],[37.6079956,55.7391329],[37.6083455,55.739575],[37.6085976,55.7394632],[37.6086968,55.7392956],[37.6087827,55.7392035],[37.6089114,55.7391341],[37.6090267,55.7391008],[37.6092145,55.7390948],[37.6093861,55.739125],[37.6095968,55.739222],[37.609818,55.7393379]]]},"properties":{"osm_id":290004012,"osm_type":"way","seamark_type":"harbour","display_class":"OTHER","min_zoom":12,"importance":1,"name":"Московский речной императорский яхт-клуб","ref":null,"common":{"type":"harbour"},"children":{"harbour":{"category":"marina"}},"osm_tags":{"leisure":"marina","name":"Московский речной императорский яхт-клуб","name:ru":"Московский речной императорский яхт-клуб","seamark:harbour:category":"marina","seamark:type":"harbour","website":"https://www.irycbg.ru"}}},{"type":"Feature","geometry":{"type":"Point","coordinates":[37.4387151,55.8040972]},"properties":{"osm_id":5843419612,"osm_type":"node","seamark_type":"harbour","display_class":"OTHER","min_zoom":12,"importance":1,"name":"Сила Ветра","ref":null,"common":{"type":"harbour"},"children":{"harbour":{"category":"marina"}},"osm_tags":{"club":"sailing","contact:email":"sport@silavetra.com","contact:phone":"+7 495 1081503","contact:website":"https://silavetra.com/","name":"Сила Ветра","opening_hours":"Mo-Su 09:00-21:00","seamark:harbour:category":"marina","seamark:type":"harbour"}}},{"type":"Feature","geometry":{"type":"Point","coordinates":[37.5130093,55.962891]},"properties":{"osm_id":2964271304,"osm_type":"node","seamark_type":"small_craft_facility","display_class":"OTHER","min_zoom":12,"importance":1,"name":"Топливозаправка (для яхт)","ref":null,"common":{"type":"small_craft_facility"},"children":{"small_craft_facility":{"category":"fuel_station"}},"osm_tags":{"amenity":"fuel","name":"Топливозаправка (для яхт)","seamark:small_craft_facility:category":"fuel_station","seamark:type":"small_craft_facility"}}},{"type":"Feature","geometry":{"type":"Polygon","coordinates":[[[37.5349616,55.9689066],[37.5363161,55.9689231],[37.5366173,55.9690197],[37.5368158,55.9690768],[37.5373219,55.9693374],[37.5374224,55.9693936],[37.5386684,55.9701449],[37.5417139,55.9708266],[37.5432183,55.9711227],[37.5432891,55.9713723],[37.5429378,55.9716441],[37.5402656,55.9712453],[37.5401688,55.9714657],[37.5399154,55.9719689],[37.535464,55.9728503],[37.5344144,55.9725885],[37.5351689,55.9713824],[37.535251,55.9708658],[37.5347498,55.9698529],[37.5347738,55.9695865],[37.5347795,55.969566],[37.5349616,55.9689066]]]},"properties":{"osm_id":212409883,"osm_type":"way","seamark_type":"harbour","display_class":"OTHER","min_zoom":12,"importance":1,"name":"Яхт-Клуб \"Адмирал\"","ref":null,"common":{"type":"harbour"},"children":{"harbour":{"category":"marina"}},"osm_tags":{"leisure":"marina","name":"Яхт-Клуб \"Адмирал\"","seamark:harbour:category":"marina","seamark:type":"harbour"}}},{"type":"Feature","geometry":{"type":"Point","coordinates":[37.6974937,55.6889608]},"properties":{"osm_id":9223626265,"osm_type":"node","seamark_type":"harbour","display_class":"OTHER","min_zoom":12,"importance":1,"name":"Яхт-Клуб Ривер Парк Нагатино","ref":null,"common":{"type":"harbour"},"children":{"harbour":{"category":"marina"}},"osm_tags":{"leisure":"marina","name":"Яхт-Клуб Ривер Парк Нагатино","seamark:harbour:category":"marina","seamark:type":"harbour"}}},{"type":"Feature","geometry":{"type":"Polygon","coordinates":[[[37.3840479,55.8233963],[37.383184,55.8233789],[37.3825008,55.8232532],[37.3822141,55.8234747],[37.3820651,55.8235897],[37.3815876,55.8234571],[37.3820007,55.8231407],[37.3823708,55.8226827],[37.3825103,55.8222547],[37.3824781,55.8218389],[37.3819846,55.8208173],[37.3834491,55.8205603],[37.3835805,55.8208399],[37.3839721,55.8209966],[37.3842387,55.8215759],[37.3843825,55.8218509],[37.3841049,55.822145],[37.3842043,55.8222868],[37.3840946,55.8227794],[37.3840702,55.8228859],[37.3841894,55.8228945],[37.3840479,55.8233963]]]},"properties":{"osm_id":292566822,"osm_type":"way","seamark_type":"harbour","display_class":"OTHER","min_zoom":12,"importance":1,"name":"Яхт-клуб \"Shore House\"","ref":null,"common":{"type":"harbour"},"children":{"harbour":{"category":"marina"}},"osm_tags":{"leisure":"marina","name":"Яхт-клуб \"Shore House\"","phone":"+7 495 7272577","seamark:harbour:category":"marina","seamark:type":"harbour","website":"https://www.sh-crocus.ru/"}}},{"type":"Feature","geometry":{"type":"Polygon","coordinates":[[[37.5184595,55.9620922],[37.5164325,55.9621013],[37.5149002,55.9621057],[37.5143908,55.9621039],[37.5143394,55.9610633],[37.5154903,55.9610337],[37.5163859,55.9607349],[37.5188675,55.9607316],[37.5188621,55.9616505],[37.5188058,55.9616535],[37.5188057,55.9617],[37.5188084,55.9617361],[37.5188615,55.9617381],[37.5188594,55.9620637],[37.5185078,55.9620622],[37.5184595,55.9620922]]]},"properties":{"osm_id":292857296,"osm_type":"way","seamark_type":"harbour","display_class":"OTHER","min_zoom":12,"importance":1,"name":"Яхт-клуб \"Аврора\"","ref":null,"common":{"type":"harbour"},"children":{"harbour":{"category":"marina"}},"osm_tags":{"leisure":"marina","name":"Яхт-клуб \"Аврора\"","seamark:harbour:category":"marina","seamark:type":"harbour"}}},{"type":"Feature","geometry":{"type":"Polygon","coordinates":[[[37.5164325,55.9621013],[37.5149002,55.9621057],[37.5149109,55.9625741],[37.5153562,55.9630771],[37.5154232,55.9640244],[37.5158029,55.9641697],[37.5178613,55.9649251],[37.5192749,55.9653049],[37.5202217,55.9653755],[37.5203425,55.9648721],[37.5197872,55.9637752],[37.5192588,55.9630561],[37.5192963,55.9620622],[37.5190496,55.9620652],[37.5188594,55.9620637],[37.5185078,55.9620622],[37.5184595,55.9620922],[37.5164325,55.9621013]]]},"properties":{"osm_id":292857303,"osm_type":"way","seamark_type":"harbour","display_class":"OTHER","min_zoom":12,"importance":1,"name":"Яхт-клуб \"Водник\"","ref":null,"common":{"type":"harbour"},"children":{"harbour":{"category":"marina"}},"osm_tags":{"leisure":"marina","name":"Яхт-клуб \"Водник\"","seamark:harbour:category":"marina","seamark:type":"harbour"}}},{"type":"Feature","geometry":{"type":"Polygon","coordinates":[[[37.5196475,55.9589812],[37.5155016,55.9589373],[37.5159201,55.958628],[37.5150582,55.9583412],[37.5139236,55.9592244],[37.5143367,55.9610513],[37.5154847,55.9610213],[37.5163859,55.9607349],[37.5188675,55.9607316],[37.5189463,55.9605682],[37.5192675,55.9596469],[37.5192918,55.9595413],[37.5192182,55.959536],[37.5192356,55.9595095],[37.5192456,55.9594855],[37.519428,55.9593849],[37.5196475,55.9589812]]]},"properties":{"osm_id":292864416,"osm_type":"way","seamark_type":"harbour","display_class":"OTHER","min_zoom":12,"importance":1,"name":"Яхт-клуб \"Нептун\"","ref":null,"common":{"type":"harbour"},"children":{"harbour":{"category":"marina"}},"osm_tags":{"leisure":"marina","name":"Яхт-клуб \"Нептун\"","seamark:harbour:category":"marina","seamark:type":"harbour"}}},{"type":"Feature","geometry":{"type":"Point","coordinates":[37.4789196,55.8337677]},"properties":{"osm_id":4946184869,"osm_type":"node","seamark_type":"harbour","display_class":"OTHER","min_zoom":12,"importance":1,"name":"Яхт-клуб Royal","ref":null,"common":{"type":"harbour"},"children":{"harbour":{"category":"marina"}},"osm_tags":{"name":"Яхт-клуб Royal","name:en":"Royal Yacht Club","seamark:harbour:category":"marina","seamark:type":"harbour"}}},{"type":"Feature","geometry":{"type":"Point","coordinates":[37.5269874,55.9771256]},"properties":{"osm_id":1485941170,"osm_type":"node","seamark_type":"harbour","display_class":"OTHER","min_zoom":12,"importance":1,"name":"Яхт-клуб МГУ","ref":null,"common":{"type":"harbour"},"children":{"harbour":{"category":"marina"}},"osm_tags":{"leisure":"marina","name":"Яхт-клуб МГУ","name:en":"MGU Yacht Club","seamark:harbour:category":"marina","seamark:type":"harbour"}}}],"type":"FeatureCollection"}