{"type":"FeatureCollection","features":[{"type":"Feature","geometry":{"type":"Point","coordinates":[92.8104071,55.9853101]},"properties":{"osm_id":5082473308,"osm_type":"node","seamark_type":"beacon_special_purpose","display_class":"BEACON","min_zoom":9,"importance":4,"name":null,"ref":null,"common":{"type":"beacon_special_purpose"},"children":{"beacon_special_purpose":{"category":"leading"},"buoy_lateral":{"colour":"white"}},"osm_tags":{"man_made":"beacon","seamark:beacon_special_purpose:category":"leading","seamark:buoy_lateral:colour":"white","seamark:type":"beacon_special_purpose"}}},{"type":"Feature","geometry":{"type":"Point","coordinates":[92.7524344,55.9772237]},"properties":{"osm_id":5468541044,"osm_type":"node","seamark_type":"buoy_lateral","display_class":"OTHER","min_zoom":12,"importance":1,"name":null,"ref":null,"common":{"type":"buoy_lateral"},"children":{"buoy_lateral":{"colour":"white"},"light":{"colour":"green"}},"osm_tags":{"seamark:buoy_lateral:colour":"white","seamark:light:colour":"green","seamark:type":"buoy_lateral"}}},{"type":"Feature","geometry":{"type":"Point","coordinates":[92.7240519,55.9720715]},"properties":{"osm_id":5468541045,"osm_type":"node","seamark_type":"buoy_lateral","display_class":"OTHER","min_zoom":12,"importance":1,"name":null,"ref":null,"common":{"type":"buoy_lateral"},"children":{"buoy_lateral":{"colour":"white"},"light":{"colour":"green"}},"osm_tags":{"seamark:buoy_lateral:colour":"white","seamark:light:colour":"green","seamark:type":"buoy_lateral"}}},{"type":"Feature","geometry":{"type":"Point","coordinates":[92.7096854,55.9700336]},"properties":{"osm_id":5468541046,"osm_type":"node","seamark_type":"buoy_lateral","display_class":"OTHER","min_zoom":12,"importance":1,"name":null,"ref":null,"common":{"type":"buoy_lateral"},"children":{"buoy_lateral":{"colour":"white"},"light":{"colour":"green"}},"osm_tags":{"seamark:buoy_lateral:colour":"white","seamark:light:colour":"green","seamark:type":"buoy_lateral"}}},{"type":"Feature","geometry":{"type":"Point","coordinates":[92.6928648,55.9700331]},"properties":{"osm_id":5468541047,"osm_type":"node","seamark_type":"buoy_lateral","display_class":"OTHER","min_zoom":12,"importance":1,"name":null,"ref":null,"common":{"type":"buoy_lateral"},"children":{"buoy_lateral":{"colour":"white"},"light":{"colour":"green"}},"osm_tags":{"seamark:buoy_lateral:colour":"white","seamark:light:colour":"green","seamark:type":"buoy_lateral"}}},{"type":"Feature","geometry":{"type":"Point","coordinates":[92.6796263,55.9707039]},"properties":{"osm_id":5468541048,"osm_type":"node","seamark_type":"buoy_lateral","display_class":"OTHER","min_zoom":12,"importance":1,"name":null,"ref":null,"common":{"type":"buoy_lateral"},"children":{"buoy_lateral":{"colour":"white"},"light":{"colour":"green"}},"osm_tags":{"seamark:buoy_lateral:colour":"white","seamark:light:colour":"green","seamark:type":"buoy_lateral"}}},{"type":"Feature","geometry":{"type":"Point","coordinates":[92.6358426,55.9664114]},"properties":{"osm_id":5468541049,"osm_type":"node","seamark_type":"buoy_lateral","display_class":"OTHER","min_zoom":12,"importance":1,"name":null,"ref":null,"common":{"type":"buoy_lateral"},"children":{"buoy_lateral":{"colour":"white"},"light":{"colour":"green"}},"osm_tags":{"seamark:buoy_lateral:colour":"white","seamark:light:colour":"green","seamark:type":"buoy_lateral"}}},{"type":"Feature","geometry":{"type":"Point","coordinates":[92.621047,55.964379]},"properties":{"osm_id":5468541050,"osm_type":"node","seamark_type":"buoy_lateral","display_class":"OTHER","min_zoom":12,"importance":1,"name":null,"ref":null,"common":{"type":"buoy_lateral"},"children":{"buoy_lateral":{"colour":"white"},"light":{"colour":"green"}},"osm_tags":{"seamark:buoy_lateral:colour":"white","seamark:light:colour":"green","seamark:type":"buoy_lateral"}}},{"type":"Feature","geometry":{"type":"Point","coordinates":[92.5721712,55.9657286]},"properties":{"osm_id":5468541051,"osm_type":"node","seamark_type":"buoy_lateral","display_class":"OTHER","min_zoom":12,"importance":1,"name":null,"ref":null,"common":{"type":"buoy_lateral"},"children":{"buoy_lateral":{"colour":"white"},"light":{"colour":"green"}},"osm_tags":{"seamark:buoy_lateral:colour":"white","seamark:light:colour":"green","seamark:type":"buoy_lateral"}}},{"type":"Feature","geometry":{"type":"Point","coordinates":[92.5524329,55.9657297]},"properties":{"osm_id":5468541052,"osm_type":"node","seamark_type":"buoy_lateral","display_class":"OTHER","min_zoom":12,"importance":1,"name":null,"ref":null,"common":{"type":"buoy_lateral"},"children":{"buoy_lateral":{"colour":"white"},"light":{"colour":"green"}},"osm_tags":{"seamark:buoy_lateral:colour":"white","seamark:light:colour":"green","seamark:type":"buoy_lateral"}}},{"type":"Feature","geometry":{"type":"Point","coordinates":[92.5301168,55.9638367]},"properties":{"osm_id":5468541053,"osm_type":"node","seamark_type":"buoy_lateral","display_class":"OTHER","min_zoom":12,"importance":1,"name":null,"ref":null,"common":{"type":"buoy_lateral"},"children":{"buoy_lateral":{"colour":"white"},"light":{"colour":"green"}},"osm_tags":{"seamark:buoy_lateral:colour":"white","seamark:light:colour":"green","seamark:type":"buoy_lateral"}}},{"type":"Feature","geometry":{"type":"Point","coordinates":[92.4923174,55.9533745]},"properties":{"osm_id":5468541054,"osm_type":"node","seamark_type":"buoy_lateral","display_class":"OTHER","min_zoom":12,"importance":1,"name":null,"ref":null,"common":{"type":"buoy_lateral"},"children":{"buoy_lateral":{"colour":"white"},"light":{"colour":"green"}},"osm_tags":{"seamark:buoy_lateral:colour":"white","seamark:light:colour":"green","seamark:type":"buoy_lateral"}}},{"type":"Feature","geometry":{"type":"Point","coordinates":[92.48552,55.9522091]},"properties":{"osm_id":5468541055,"osm_type":"node","seamark_type":"buoy_lateral","display_class":"OTHER","min_zoom":12,"importance":1,"name":null,"ref":null,"common":{"type":"buoy_lateral"},"children":{"buoy_lateral":{"colour":"white"},"light":{"colour":"green"}},"osm_tags":{"seamark:buoy_lateral:colour":"white","seamark:light:colour":"green","seamark:type":"buoy_lateral","source":"Yard24.ru"}}},{"type":"Feature","geometry":{"type":"Point","coordinates":[92.4765597,55.9533745]},"properties":{"osm_id":5468541056,"osm_type":"node","seamark_type":"buoy_lateral","display_class":"OTHER","min_zoom":12,"importance":1,"name":null,"ref":null,"common":{"type":"buoy_lateral"},"children":{"buoy_lateral":{"colour":"white"},"light":{"colour":"green"}},"osm_tags":{"seamark:buoy_lateral:colour":"white","seamark:light:colour":"green","seamark:type":"buoy_lateral","source":"Yard24.ru"}}},{"type":"Feature","geometry":{"type":"Point","coordinates":[92.4379302,55.9618018]},"properties":{"osm_id":5468541057,"osm_type":"node","seamark_type":"buoy_lateral","display_class":"OTHER","min_zoom":12,"importance":1,"name":null,"ref":null,"common":{"type":"buoy_lateral"},"children":{"buoy_lateral":{"colour":"white"},"light":{"colour":"green"}},"osm_tags":{"seamark:buoy_lateral:colour":"white","seamark:light:colour":"green","seamark:type":"buoy_lateral","source":"Yard24.ru"}}},{"type":"Feature","geometry":{"type":"Point","coordinates":[92.4228191,55.9645571]},"properties":{"osm_id":5468541058,"osm_type":"node","seamark_type":"buoy_lateral","display_class":"OTHER","min_zoom":12,"importance":1,"name":null,"ref":null,"common":{"type":"buoy_lateral"},"children":{"buoy_lateral":{"colour":"white"},"light":{"colour":"green"}},"osm_tags":{"seamark:buoy_lateral:colour":"white","seamark:light:colour":"green","seamark:type":"buoy_lateral","source":"Yard24.ru"}}},{"type":"Feature","geometry":{"type":"Point","coordinates":[92.3205435,55.9602776]},"properties":{"osm_id":5468541059,"osm_type":"node","seamark_type":"buoy_lateral","display_class":"OTHER","min_zoom":12,"importance":1,"name":null,"ref":null,"common":{"type":"buoy_lateral"},"children":{"buoy_lateral":{"colour":"white"},"light":{"colour":"green"}},"osm_tags":{"seamark:buoy_lateral:colour":"white","seamark:light:colour":"green","seamark:type":"buoy_lateral","source":"Yard24.ru"}}},{"type":"Feature","geometry":{"type":"Point","coordinates":[92.7289028,55.9720785]},"properties":{"osm_id":5468609980,"osm_type":"node","seamark_type":"buoy_lateral","display_class":"OTHER","min_zoom":12,"importance":1,"name":null,"ref":null,"common":{"type":"buoy_lateral"},"children":{"buoy_lateral":{"colour":"red"},"light":{"colour":"red"}},"osm_tags":{"seamark:buoy_lateral:colour":"red","seamark:light:colour":"red","seamark:type":"buoy_lateral"}}},{"type":"Feature","geometry":{"type":"Point","coordinates":[92.713364,55.9697357]},"properties":{"osm_id":5468609981,"osm_type":"node","seamark_type":"buoy_lateral","display_class":"OTHER","min_zoom":12,"importance":1,"name":null,"ref":null,"common":{"type":"buoy_lateral"},"children":{"buoy_lateral":{"colour":"red"},"light":{"colour":"red"}},"osm_tags":{"seamark:buoy_lateral:colour":"red","seamark:light:colour":"red","seamark:type":"buoy_lateral"}}},{"type":"Feature","geometry":{"type":"Point","coordinates":[92.6936136,55.9690614]},"properties":{"osm_id":5468609982,"osm_type":"node","seamark_type":"buoy_lateral","display_class":"OTHER","min_zoom":12,"importance":1,"name":null,"ref":null,"common":{"type":"buoy_lateral"},"children":{"buoy_lateral":{"colour":"red"},"light":{"colour":"red"}},"osm_tags":{"seamark:buoy_lateral:colour":"red","seamark:light:colour":"red","seamark:type":"buoy_lateral"}}},{"type":"Feature","geometry":{"type":"Point","coordinates":[92.6498744,55.9675017]},"properties":{"osm_id":5468609983,"osm_type":"node","seamark_type":"buoy_lateral","display_class":"OTHER","min_zoom":12,"importance":1,"name":null,"ref":null,"common":{"type":"buoy_lateral"},"children":{"buoy_lateral":{"colour":"red"},"light":{"colour":"red"}},"osm_tags":{"seamark:buoy_lateral:colour":"red","seamark:light:colour":"red","seamark:type":"buoy_lateral"}}},{"type":"Feature","geometry":{"type":"Point","coordinates":[92.4844923,55.9513649]},"properties":{"osm_id":5468609984,"osm_type":"node","seamark_type":"buoy_lateral","display_class":"OTHER","min_zoom":12,"importance":1,"name":null,"ref":null,"common":{"type":"buoy_lateral"},"children":{"buoy_lateral":{"colour":"red"},"light":{"colour":"red"}},"osm_tags":{"seamark:buoy_lateral:colour":"red","seamark:light:colour":"red","seamark:type":"buoy_lateral","source":"Yard24.ru"}}},{"type":"Feature","geometry":{"type":"Point","coordinates":[92.4606267,55.9566815]},"properties":{"osm_id":5468609985,"osm_type":"node","seamark_type":"buoy_lateral","display_class":"OTHER","min_zoom":12,"importance":1,"name":null,"ref":null,"common":{"type":"buoy_lateral"},"children":{"buoy_lateral":{"colour":"red"},"light":{"colour":"red"}},"osm_tags":{"seamark:buoy_lateral:colour":"red","seamark:light:colour":"red","seamark:type":"buoy_lateral","source":"Yard24.ru"}}},{"type":"Feature","geometry":{"type":"Point","coordinates":[92.4451866,55.959758]},"properties":{"osm_id":5468609986,"osm_type":"node","seamark_type":"buoy_lateral","display_class":"OTHER","min_zoom":12,"importance":1,"name":null,"ref":null,"common":{"type":"buoy_lateral"},"children":{"buoy_lateral":{"colour":"red"},"light":{"colour":"red"}},"osm_tags":{"seamark:buoy_lateral:colour":"red","seamark:light:colour":"red","seamark:type":"buoy_lateral","source":"Yard24.ru"}}},{"type":"Feature","geometry":{"type":"Point","coordinates":[92.4199093,55.9639326]},"properties":{"osm_id":5468609987,"osm_type":"node","seamark_type":"buoy_lateral","display_class":"OTHER","min_zoom":12,"importance":1,"name":null,"ref":null,"common":{"type":"buoy_lateral"},"children":{"buoy_lateral":{"colour":"red"},"light":{"colour":"red"}},"osm_tags":{"seamark:buoy_lateral:colour":"red","seamark:light:colour":"red","seamark:type":"buoy_lateral","source":"Yard24.ru"}}},{"type":"Feature","geometry":{"type":"Point","coordinates":[92.3749401,55.9705802]},"properties":{"osm_id":5468609988,"osm_type":"node","seamark_type":"buoy_lateral","display_class":"OTHER","min_zoom":12,"importance":1,"name":null,"ref":null,"common":{"type":"buoy_lateral"},"children":{"buoy_lateral":{"colour":"red"},"light":{"colour":"red"}},"osm_tags":{"seamark:buoy_lateral:colour":"red","seamark:light:colour":"red","seamark:type":"buoy_lateral","source":"Yard24.ru"}}},{"type":"Feature","geometry":{"type":"Point","coordinates":[92.3331542,55.9652416]},"properties":{"osm_id":5468609989,"osm_type":"node","seamark_type":"buoy_lateral","display_class":"OTHER","min_zoom":12,"importance":1,"name":null,"ref":null,"common":{"type":"buoy_lateral"},"children":{"buoy_lateral":{"colour":"red"},"light":{"colour":"red"}},"osm_tags":{"seamark:buoy_lateral:colour":"red","seamark:light:colour":"red","seamark:type":"buoy_lateral","source":"Yard24.ru"}}},{"type":"Feature","geometry":{"type":"Point","coordinates":[92.8191881,55.9906145]},"properties":{"osm_id":8951366375,"osm_type":"node","seamark_type":"buoy_lateral","display_class":"OTHER","min_zoom":12,"importance":1,"name":null,"ref":null,"common":{"type":"buoy_lateral"},"children":{"buoy_lateral":{"colour":"white"},"light":{"colour":"green"}},"osm_tags":{"seamark:buoy_lateral:colour":"white","seamark:light:colour":"green","seamark:type":"buoy_lateral"}}},{"type":"Feature","geometry":{"type":"Polygon","coordinates":[[[92.2739853,55.9292304],[92.2736849,55.9289239],[92.2736473,55.9285242],[92.27376,55.9278811],[92.2750721,55.9276758],[92.275263,55.9275474],[92.2755815,55.9275431],[92.2758896,55.9274423],[92.2778258,55.9271315],[92.2777994,55.927882],[92.2773232,55.9279964],[92.2767895,55.9282364],[92.2757901,55.928088],[92.2750801,55.9282151],[92.2749749,55.928402],[92.2749459,55.9287832],[92.2748427,55.9290422],[92.2748007,55.9292966],[92.2739853,55.9292304]]]},"properties":{"osm_id":238774422,"osm_type":"way","seamark_type":"harbour","display_class":"OTHER","min_zoom":12,"importance":1,"name":null,"ref":null,"common":{"type":"harbour"},"children":{"harbour":{"category":"marina"}},"osm_tags":{"leisure":"marina","seamark:harbour:category":"marina","seamark:type":"harbour"}}},{"type":"Feature","geometry":{"type":"Polygon","coordinates":[[[92.2731323,55.9287075],[92.2735025,55.9286955],[92.2736044,55.9276436],[92.2749777,55.9276316],[92.2752137,55.9268412],[92.2734596,55.9261409],[92.2719468,55.9264685],[92.2715069,55.9265256],[92.2699029,55.9265256],[92.2697957,55.9266338],[92.2706593,55.9269163],[92.2711582,55.9274904],[92.2718395,55.9273792],[92.2723491,55.9274753],[92.2729499,55.9274723],[92.2731323,55.9287075]]]},"properties":{"osm_id":238774421,"osm_type":"way","seamark_type":"harbour","display_class":"OTHER","min_zoom":12,"importance":1,"name":"Адмирал","ref":null,"common":{"type":"harbour"},"children":{"harbour":{"category":"marina"}},"osm_tags":{"leisure":"marina","name":"Адмирал","seamark:harbour:category":"marina","seamark:type":"harbour"}}},{"type":"Feature","geometry":{"type":"Polygon","coordinates":[[[92.8852023,55.9964115],[92.8861167,55.9956191],[92.8865382,55.9952679],[92.8850716,55.9948548],[92.88476,55.9951336],[92.8844402,55.9954681],[92.8843335,55.9956912],[92.884125,55.9957977],[92.8841125,55.9959625],[92.8852023,55.9964115]]]},"properties":{"osm_id":516535021,"osm_type":"way","seamark_type":"harbour","display_class":"OTHER","min_zoom":12,"importance":1,"name":"Отдых","ref":null,"common":{"type":"harbour"},"children":{"harbour":{"category":"marina"}},"osm_tags":{"leisure":"marina","name":"Отдых","official_name":"Лодочная станция \"Отдых\"","seamark:harbour:category":"marina","seamark:type":"harbour"}}},{"type":"Feature","geometry":{"type":"LineString","coordinates":[[92.3052901,55.951119],[92.3104166,55.9535772],[92.3249855,55.9622796],[92.3357895,55.9665912],[92.3418405,55.9683085],[92.3566034,55.9707282],[92.3649719,55.9711965],[92.3699608,55.9712086],[92.3735657,55.9710464]]},"properties":{"osm_id":515578602,"osm_type":"way","seamark_type":"recommended_route_centreline","display_class":"OTHER","min_zoom":12,"importance":1,"name":"Судовой Ход Енисей, ГЭС - Дивногорск","ref":null,"common":{"type":"recommended_route_centreline"},"children":{},"osm_tags":{"name":"Судовой Ход Енисей, ГЭС - Дивногорск","seamark:type":"recommended_route_centreline"}}},{"type":"Feature","geometry":{"type":"LineString","coordinates":[[92.4880448,55.9521596],[92.4860991,55.9489705],[92.4844499,55.947223]]},"properties":{"osm_id":383816747,"osm_type":"way","seamark_type":"recommended_route_centreline","display_class":"OTHER","min_zoom":12,"importance":1,"name":"Судовой Ход Енисей, Дивногорск - Усть Мана","ref":null,"common":{"type":"recommended_route_centreline"},"children":{},"osm_tags":{"name":"Судовой Ход Енисей, Дивногорск - Усть Мана","seamark:type":"recommended_route_centreline"}}},{"type":"Feature","geometry":{"type":"LineString","coordinates":[[92.4025657,55.9682245],[92.3935643,55.9696655],[92.3863223,55.970356],[92.3735657,55.9710464]]},"properties":{"osm_id":501601099,"osm_type":"way","seamark_type":"recommended_route_centreline","display_class":"OTHER","min_zoom":12,"importance":1,"name":"Судовой Ход Енисей, Дивногорск - Усть Мана","ref":null,"common":{"type":"recommended_route_centreline"},"children":{},"osm_tags":{"name":"Судовой Ход Енисей, Дивногорск - Усть Мана","seamark:type":"recommended_route_centreline"}}},{"type":"Feature","geometry":{"type":"LineString","coordinates":[[92.3735657,55.9710464],[92.3723748,55.9707943],[92.3720744,55.970434],[92.3718813,55.9700378],[92.3719671,55.9696655],[92.3721235,55.9695301],[92.3724392,55.9694013],[92.3731369,55.9691642],[92.373868,55.9689045],[92.3743746,55.9687064],[92.3758351,55.9688438],[92.3822453,55.9693773],[92.3895409,55.9693053],[92.3946479,55.9690291],[92.4025657,55.9682245]]},"properties":{"osm_id":501601100,"osm_type":"way","seamark_type":"recommended_route_centreline","display_class":"OTHER","min_zoom":12,"importance":1,"name":"Судовой Ход Енисей, Дивногорск - Усть Мана","ref":null,"common":{"type":"recommended_route_centreline"},"children":{},"osm_tags":{"name":"Судовой Ход Енисей, Дивногорск - Усть Мана","seamark:type":"recommended_route_centreline"}}},{"type":"Feature","geometry":{"type":"LineString","coordinates":[[92.4025657,55.9682245],[92.4149039,55.9658226],[92.4349776,55.961571],[92.4448052,55.9605441],[92.4491074,55.9598654],[92.464911,55.956442],[92.4784615,55.9521833],[92.4817338,55.9518109],[92.4856713,55.9517989],[92.4880448,55.9521596]]},"properties":{"osm_id":515578601,"osm_type":"way","seamark_type":"recommended_route_centreline","display_class":"OTHER","min_zoom":12,"importance":1,"name":"Судовой Ход Енисей, Дивногорск - Усть Мана","ref":null,"common":{"type":"recommended_route_centreline"},"children":{},"osm_tags":{"name":"Судовой Ход Енисей, Дивногорск - Усть Мана","seamark:type":"recommended_route_centreline"}}},{"type":"Feature","geometry":{"type":"LineString","coordinates":[[92.8274008,55.9904417],[92.8310325,55.9909428],[92.8373733,55.9918129],[92.8420081,55.992845],[92.8540566,55.9973752],[92.8648615,56.0014407]]},"properties":{"osm_id":501601093,"osm_type":"way","seamark_type":"recommended_route_centreline","display_class":"OTHER","min_zoom":12,"importance":1,"name":"Судовой Ход Енисей, Усть Мана - Красноярск","ref":null,"common":{"type":"recommended_route_centreline"},"children":{},"osm_tags":{"name":"Судовой Ход Енисей, Усть Мана - Красноярск","seamark:type":"recommended_route_centreline"}}},{"type":"Feature","geometry":{"type":"LineString","coordinates":[[92.8274008,55.9904417],[92.8188392,55.9901026],[92.8094099,55.9889032],[92.7967798,55.9861648]]},"properties":{"osm_id":501601095,"osm_type":"way","seamark_type":"recommended_route_centreline","display_class":"OTHER","min_zoom":12,"importance":1,"name":"Судовой Ход Енисей, Усть Мана - Красноярск","ref":null,"common":{"type":"recommended_route_centreline"},"children":{},"osm_tags":{"name":"Судовой Ход Енисей, Усть Мана - Красноярск","seamark:type":"recommended_route_centreline"}}},{"type":"Feature","geometry":{"type":"LineString","coordinates":[[92.7967798,55.9861648],[92.8120017,55.9881753],[92.8143394,55.9885141],[92.8192383,55.9892395],[92.8274008,55.9904417]]},"properties":{"osm_id":501601096,"osm_type":"way","seamark_type":"recommended_route_centreline","display_class":"OTHER","min_zoom":12,"importance":1,"name":"Судовой Ход Енисей, Усть Мана - Красноярск","ref":null,"common":{"type":"recommended_route_centreline"},"children":{},"osm_tags":{"name":"Судовой Ход Енисей, Усть Мана - Красноярск","seamark:type":"recommended_route_centreline"}}},{"type":"Feature","geometry":{"type":"LineString","coordinates":[[92.7967798,55.9861648],[92.7486271,55.9755103],[92.722588,55.9716225],[92.7107136,55.9698396],[92.7057593,55.9695017],[92.6972125,55.969512],[92.6786399,55.9703431],[92.6712269,55.9702017],[92.6488893,55.9679567],[92.6248887,55.9641893],[92.6181939,55.9636608],[92.6117351,55.9636548],[92.6030662,55.9639131],[92.5962749,55.9640812],[92.5549689,55.965018],[92.5507739,55.9649159],[92.5332215,55.9633426],[92.529284,55.962658],[92.5158837,55.9589345],[92.4989536,55.9542076],[92.4936965,55.9530183],[92.4880448,55.9521596]]},"properties":{"osm_id":501601097,"osm_type":"way","seamark_type":"recommended_route_centreline","display_class":"OTHER","min_zoom":12,"importance":1,"name":"Судовой Ход Енисей, Усть Мана - Красноярск","ref":null,"common":{"type":"recommended_route_centreline"},"children":{},"osm_tags":{"name":"Судовой Ход Енисей, Усть Мана - Красноярск","seamark:type":"recommended_route_centreline"}}}],"type":"FeatureCollection"}