{"type":"FeatureCollection","features":[{"type":"Feature","geometry":{"type":"Polygon","coordinates":[[[48.6588592,55.7681564],[48.6591104,55.7682086],[48.6595319,55.768333],[48.6598997,55.7684827],[48.6600013,55.7684407],[48.660115,55.7683297],[48.6594961,55.7680656],[48.6590057,55.7679041],[48.6588742,55.7681295],[48.6588592,55.7681564]]]},"properties":{"osm_id":839661586,"osm_type":"way","seamark_type":"harbour","display_class":"OTHER","min_zoom":12,"importance":1,"name":null,"ref":null,"common":{"type":"harbour"},"children":{"harbour":{"category":"marina"}},"osm_tags":{"leisure":"marina","seamark:harbour:category":"marina","seamark:type":"harbour"}}},{"type":"Feature","geometry":{"type":"Polygon","coordinates":[[[49.0134886,55.650245],[49.0132418,55.6500497],[49.0129736,55.6498878],[49.0128667,55.6498333],[49.0127805,55.6497894],[49.0124774,55.6495064],[48.9620197,55.6603094],[48.9622691,55.6605318],[48.9623836,55.6607154],[48.962414,55.6607633],[48.9625159,55.6610644],[48.962642,55.6614396],[49.0134886,55.650245]]]},"properties":{"osm_id":1009501582,"osm_type":"way","seamark_type":"restricted_area","display_class":"OTHER","min_zoom":12,"importance":1,"name":null,"ref":null,"common":{"type":"restricted_area"},"children":{"restricted_area":{"restriction":"no_anchoring"}},"osm_tags":{"seamark:restricted_area:restriction":"no_anchoring","seamark:type":"restricted_area"}}}],"type":"FeatureCollection"}