{"type":"FeatureCollection","features":[{"type":"Feature","geometry":{"type":"Polygon","coordinates":[[[-161.3644203,55.2187557],[-161.3643463,55.2187382],[-161.3642924,55.2187096],[-161.3642516,55.2186832],[-161.3642523,55.2186679],[-161.364267,55.2186617],[-161.3643155,55.2186709],[-161.3643587,55.2186993],[-161.3643764,55.2187109],[-161.364396,55.2187206],[-161.364411,55.2187281],[-161.364428,55.2187448],[-161.3644357,55.21875],[-161.3644449,55.2187601],[-161.3644203,55.2187557]]]},"properties":{"osm_id":1351757632,"osm_type":"way","seamark_type":"wreck","display_class":"OTHER","min_zoom":12,"importance":1,"name":"F/V Lily","ref":null,"common":{"type":"wreck"},"children":{},"osm_tags":{"historic":"wreck","name":"F/V Lily","seamark:type":"wreck"}}},{"type":"Feature","geometry":{"type":"Polygon","coordinates":[[[-161.3671484,55.2169273],[-161.3669177,55.2169013],[-161.3668933,55.2167779],[-161.3669073,55.2165009],[-161.3669656,55.216389],[-161.3670637,55.216341],[-161.3672038,55.216377],[-161.3674093,55.2164742],[-161.3675471,55.2165528],[-161.3676498,55.2166807],[-161.3676685,55.2167926],[-161.3675984,55.2169071],[-161.3672528,55.2169324],[-161.3671484,55.2169273]]]},"properties":{"osm_id":1351860744,"osm_type":"way","seamark_type":"harbour","display_class":"OTHER","min_zoom":12,"importance":1,"name":"Skiff Landing Ramp","ref":null,"common":{"type":"harbour"},"children":{"harbour":{"category":"marina"}},"osm_tags":{"leisure":"marina","name":"Skiff Landing Ramp","seamark:harbour:category":"marina","seamark:type":"harbour"}}}],"type":"FeatureCollection"}