{"type":"FeatureCollection","features":[{"type":"Feature","geometry":{"type":"Polygon","coordinates":[[[0.71775,56.7665],[0.7183822,56.7667708],[0.718963,56.7670742],[0.7194866,56.7674074],[0.7199482,56.7677671],[0.7203432,56.7681498],[0.7206679,56.7685519],[0.720919,56.7689695],[0.7210943,56.7693986],[0.721192,56.7698351],[0.7212111,56.7702747],[0.7211516,56.7707131],[0.7210139,56.7711463],[0.7207993,56.77157],[0.7205101,56.7719801],[0.7201488,56.7723727],[0.7197191,56.772744],[0.719225,56.7730904],[0.7186713,56.7734086],[0.7180634,56.7736956],[0.7174071,56.7739485],[0.7167087,56.7741649],[0.7159749,56.7743428],[0.7152129,56.7744805],[0.7144299,56.7745765],[0.7136335,56.77463],[0.7128313,56.7746405],[0.7120312,56.7746079],[0.7112407,56.7745324],[0.7104675,56.7744149],[0.7097191,56.7742564],[0.7090027,56.7740584],[0.7083251,56.773823],[0.7076929,56.7735522],[0.7071121,56.7732488],[0.7065884,56.7729157],[0.7061269,56.7725561],[0.7057319,56.7721734],[0.7054072,56.7717713],[0.705156,56.7713537],[0.7049808,56.7709247],[0.7048831,56.7704882],[0.7048639,56.7700487],[0.7049235,56.7696102],[0.7050612,56.769177],[0.7052757,56.7687533],[0.705565,56.7683431],[0.7059263,56.7679505],[0.706356,56.7675791],[0.7068501,56.7672327],[0.7074037,56.7669144],[0.7080117,56.7666274],[0.708668,56.7663744],[0.7093664,56.7661579],[0.7101001,56.76598],[0.7108622,56.7658424],[0.7116452,56.7657463],[0.7124416,56.7656928],[0.7132437,56.7656823],[0.7140439,56.7657149],[0.7148344,56.7657904],[0.7156075,56.765908],[0.7163559,56.7660665],[0.7170724,56.7662645],[0.71775,56.7665]]]},"properties":{"osm_id":1426103343,"osm_type":"way","seamark_type":"restricted_area","display_class":"OTHER","min_zoom":12,"importance":1,"name":"Catcher oil field","ref":null,"common":{"name":"Catcher oil field","type":"restricted_area"},"children":{"restricted_area":{"category":"safety_zone"}},"osm_tags":{"seamark:name":"Catcher oil field","seamark:restricted_area:category":"safety_zone","seamark:type":"restricted_area"}}},{"type":"Feature","geometry":{"type":"LineString","coordinates":[[-0.8654453,54.8335699],[-0.8036699,54.8620079],[-0.7099214,54.9467321],[-0.6269869,55.0215348],[-0.5475531,55.0947344],[-0.4790219,55.1577796],[-0.3765804,55.251835],[-0.2950202,55.3265597],[-0.213212,55.4013704],[-0.1348038,55.4729393],[-0.0649859,55.536558],[0.0090163,55.6038772],[0.0877432,55.6727175],[0.1691384,55.743764],[0.2460527,55.8107806],[0.3102974,55.8666696],[0.3968139,55.9418069],[0.4775279,56.0117737],[0.5548619,56.0786918],[0.6257758,56.1399527],[0.7009185,56.2047604],[0.7820261,56.2745899],[0.8851679,56.3632058],[0.9874419,56.4508732],[1.0579341,56.5111803],[1.1356548,56.5775605],[1.1995409,56.6320377],[1.2032488,56.650337],[1.2029707,56.6629222],[1.203114,56.7489561],[1.2032426,56.8260195],[1.2034304,56.9382678],[1.203522,56.9928826],[1.2036196,57.0510333],[1.2712435,57.1314049],[1.3244582,57.1945286],[1.378686,57.2587432],[1.4330171,57.3229682],[1.502942,57.4054616],[1.5792332,57.4952544],[1.5859075,57.5074068],[1.5996268,57.5955399],[1.6504255,57.6683917],[1.7238426,57.7112007],[1.7972597,57.7535635]]},"properties":{"osm_id":174152511,"osm_type":"way","seamark_type":"pipeline_submarine","display_class":"OTHER","min_zoom":12,"importance":1,"name":"Central Area Transmission System (CATS)","ref":null,"common":{"name":"Central Area Transmission System (CATS)","type":"pipeline_submarine"},"children":{"pipeline_submarine":{"category":"supply","product":"gas"}},"osm_tags":{"location":"underwater","man_made":"pipeline","name":"Central Area Transmission System (CATS)","operator":"BP","seamark:name":"Central Area Transmission System (CATS)","seamark:pipeline_submarine:category":"supply","seamark:pipeline_submarine:product":"gas","seamark:type":"pipeline_submarine","source":"Gassco","substance":"gas"}}},{"type":"Feature","geometry":{"type":"Point","coordinates":[0.7129667,56.7701667]},"properties":{"osm_id":13109298363,"osm_type":"node","seamark_type":"platform","display_class":"OTHER","min_zoom":12,"importance":1,"name":"FPSO BW Catcher","ref":null,"common":{"name":"FPSO BW Catcher","type":"platform"},"children":{"fog_signal":{"category":"horn","group":"U"},"light":{"character":"Mo","colour":"yellow","group":"U","period":"15","range":"10"},"platform":{"category":"fpso"}},"osm_tags":{"seamark:fog_signal:category":"horn","seamark:fog_signal:group":"U","seamark:light:character":"Mo","seamark:light:colour":"yellow","seamark:light:group":"U","seamark:light:period":"15","seamark:light:range":"10","seamark:name":"FPSO BW Catcher","seamark:platform:category":"fpso","seamark:type":"platform"}}},{"type":"Feature","geometry":{"type":"LineString","coordinates":[[1.9066429,58.366875],[1.8996906,58.3643878],[1.8795204,58.3563284],[1.8497501,58.3415735],[1.7324041,58.2237761],[1.6752264,58.1662364],[1.6081783,58.098645],[1.610403,58.0897282],[1.6092906,58.0812013],[1.5990938,58.0445221],[1.5686459,57.9810286],[1.5347784,57.9102717],[1.5007054,57.8389445],[1.4636618,57.7612382],[1.4353866,57.7018127],[1.4003486,57.6280385],[1.3165493,57.5125106],[1.2924478,57.4397452],[1.2411314,57.330789],[1.1886257,57.2189722],[1.179051,57.1347236],[1.1695298,57.050756],[1.1691522,56.9256711],[1.1687882,56.804711],[1.1647095,56.7941531],[1.1064949,56.7433526],[1.0639942,56.668263],[1.0237396,56.5970036],[0.9838413,56.526242],[0.9325929,56.4351561],[0.9604024,56.4034698],[0.9310228,56.3098131],[0.9024172,56.2184025],[0.877319,56.13802],[0.851565,56.0553622],[0.8255664,55.9717393],[0.7992776,55.8869988],[0.7768156,55.8144469],[0.7513788,55.7321226],[0.7284747,55.6578465],[0.702701,55.5740956],[0.6899042,55.4461739],[0.6771616,55.3183809],[0.6673771,55.2199734],[0.6575638,55.1210306],[0.6503812,55.0484568],[0.6427785,54.9714947],[0.6336567,54.8789591],[0.6265613,54.8068332],[0.618246,54.7221431],[0.6098546,54.6364977],[0.6007541,54.5434111],[0.5914631,54.4481558],[0.5373272,54.3298399],[0.4657713,54.2448923],[0.3945718,54.1601938],[0.337888,54.0415316],[0.3089883,53.9809021],[0.2725853,53.9044052]]},"properties":{"osm_id":637286664,"osm_type":"way","seamark_type":"pipeline_submarine","display_class":"OTHER","min_zoom":12,"importance":1,"name":"Langeled","ref":null,"common":{"name":"Langeled","type":"pipeline_submarine"},"children":{"pipeline_submarine":{"category":"supply","product":"gas"}},"osm_tags":{"diameter":"1118","location":"underwater","man_made":"pipeline","name":"Langeled","operator":"Gassco","seamark:name":"Langeled","seamark:pipeline_submarine:category":"supply","seamark:pipeline_submarine:product":"gas","seamark:type":"pipeline_submarine","source":"Gassco","substance":"gas"}}}],"type":"FeatureCollection"}