{"type":"FeatureCollection","features":[{"type":"Feature","geometry":{"type":"Point","coordinates":[13.69718,56.8161903]},"properties":{"osm_id":4448464531,"osm_type":"node","seamark_type":"small_craft_facility","display_class":"OTHER","min_zoom":12,"importance":1,"name":null,"ref":null,"common":{"type":"small_craft_facility"},"children":{"small_craft_facility":{"category":"pump-out"}},"osm_tags":{"access":"yes","addr:place":"Bolmens hamnförening","boat":"yes","fee":"no","opening_hours":"24/7","sanitary_dump_station:accepted":"black_water","sanitary_dump_station:pump-out":"yes","seamark:small_craft_facility:category":"pump-out","seamark:type":"small_craft_facility","vehicle":"no","waterway":"sanitary_dump_station","website":"https://hamnkartan.azurewebsites.net"}}},{"type":"Feature","geometry":{"type":"Polygon","coordinates":[[[13.7730672,56.8908398],[13.7722651,56.8908536],[13.7716448,56.8908642],[13.7716611,56.8910736],[13.7714562,56.8912018],[13.7714677,56.8916385],[13.7712176,56.8917894],[13.7712179,56.8918686],[13.7712188,56.8918949],[13.7732613,56.8918525],[13.7732606,56.8918342],[13.7732076,56.8918343],[13.7732067,56.8917233],[13.7731892,56.8917232],[13.773141,56.8916855],[13.7731438,56.8915583],[13.7731437,56.8915481],[13.7731349,56.8912629],[13.7731345,56.891252],[13.7731258,56.8909696],[13.7731267,56.8909577],[13.7731299,56.8908885],[13.7730672,56.8908398]]]},"properties":{"osm_id":478706035,"osm_type":"way","seamark_type":"harbour","display_class":"OTHER","min_zoom":12,"importance":1,"name":"Bolmstad Hamnförening","ref":null,"common":{"type":"harbour"},"children":{"harbour":{"category":"marina"}},"osm_tags":{"leisure":"marina","name":"Bolmstad Hamnförening","operator":"Bolmstad Hamnförening","seamark:harbour:category":"marina","seamark:type":"harbour","website":"http://www.bolmstadhamn.se/"}}},{"type":"Feature","geometry":{"type":"Point","coordinates":[13.0367964,56.511349]},"properties":{"osm_id":288589116,"osm_type":"node","seamark_type":"harbour","display_class":"OTHER","min_zoom":12,"importance":1,"name":"Laholm hamn","ref":null,"common":{"type":"harbour"},"children":{"harbour":{"category":"marina"}},"osm_tags":{"leisure":"marina","name":"Laholm hamn","seamark:harbour:category":"marina","seamark:type":"harbour"}}}],"type":"FeatureCollection"}