{"type":"FeatureCollection","features":[{"type":"Feature","geometry":{"type":"LineString","coordinates":[[1.9546605,57.0303566],[1.9379167,57.0008167],[1.9224333,56.9825333],[1.9157833,56.9686833],[1.8972833,56.9440167],[1.8867833,56.9282],[1.87745,56.9048167],[1.8222333,56.8315167],[1.7169333,56.7241],[1.6354333,56.7170167],[1.5171483,56.7124079],[1.3862206,56.7073059],[1.3009667,56.7039833],[1.2174413,56.7093356],[1.1286851,56.7150222],[1.0446513,56.7204054],[0.98645,56.7241333],[0.7586333,56.7584833],[0.7129667,56.7701667]]},"properties":{"osm_id":1426103345,"osm_type":"way","seamark_type":"pipeline_submarine","display_class":"OTHER","min_zoom":12,"importance":1,"name":null,"ref":null,"common":{"type":"pipeline_submarine"},"children":{"pipeline_submarine":{"category":"supply","product":"gas"}},"osm_tags":{"location":"underwater","man_made":"pipeline","seamark:pipeline_submarine:category":"supply","seamark:pipeline_submarine:product":"gas","seamark:type":"pipeline_submarine","substance":"gas","usage":"transmission"}}},{"type":"Feature","geometry":{"type":"LineString","coordinates":[[1.2039667,57.02925],[1.3280667,57.02635],[1.4901167,56.9945167],[1.5881163,56.965031],[1.7494957,56.9164252],[1.8773667,56.8778667],[2.0562333,56.7978],[2.1087333,56.7806333]]},"properties":{"osm_id":1426261655,"osm_type":"way","seamark_type":"pipeline_submarine","display_class":"OTHER","min_zoom":12,"importance":1,"name":null,"ref":null,"common":{"type":"pipeline_submarine"},"children":{"pipeline_submarine":{"category":"supply","product":"gas"}},"osm_tags":{"location":"underwater","man_made":"pipeline","seamark:pipeline_submarine:category":"supply","seamark:pipeline_submarine:product":"gas","seamark:type":"pipeline_submarine","substance":"gas","usage":"transmission"}}},{"type":"Feature","geometry":{"type":"LineString","coordinates":[[1.8670833,56.9657333],[1.8391333,57.0111333]]},"properties":{"osm_id":1426261657,"osm_type":"way","seamark_type":"pipeline_submarine","display_class":"OTHER","min_zoom":12,"importance":1,"name":null,"ref":null,"common":{"type":"pipeline_submarine"},"children":{"pipeline_submarine":{"category":"supply","product":"gas"}},"osm_tags":{"location":"underwater","man_made":"pipeline","seamark:pipeline_submarine:category":"supply","seamark:pipeline_submarine:product":"gas","seamark:type":"pipeline_submarine","substance":"gas","usage":"transmission"}}},{"type":"Feature","geometry":{"type":"Point","coordinates":[1.8670833,56.9657333]},"properties":{"osm_id":13110917757,"osm_type":"node","seamark_type":"platform","display_class":"OTHER","min_zoom":12,"importance":1,"name":"29/5b WHPA Franklin gas field","ref":null,"common":{"name":"29/5b WHPA Franklin gas field","type":"platform"},"children":{"light":{"character":"Mo","colour":"yellow","group":"U","period":"15","range":"15"},"platform":{"category":"production"}},"osm_tags":{"man_made":"offshore_platform","seamark:light:character":"Mo","seamark:light:colour":"yellow","seamark:light:group":"U","seamark:light:period":"15","seamark:light:range":"15","seamark:name":"29/5b WHPA Franklin gas field","seamark:platform:category":"production","seamark:type":"platform"}}},{"type":"Feature","geometry":{"type":"Point","coordinates":[1.8056167,56.9592833]},"properties":{"osm_id":13110917823,"osm_type":"node","seamark_type":"platform","display_class":"OTHER","min_zoom":12,"importance":1,"name":"29/5b West Franklin gas field","ref":null,"common":{"name":"29/5b West Franklin gas field","type":"platform"},"children":{"light":{"character":"Mo","colour":"yellow","group":"U","period":"15","range":"15"},"platform":{"category":"production"}},"osm_tags":{"man_made":"offshore_platform","seamark:light:character":"Mo","seamark:light:colour":"yellow","seamark:light:group":"U","seamark:light:period":"15","seamark:light:range":"15","seamark:name":"29/5b West Franklin gas field","seamark:platform:category":"production","seamark:type":"platform"}}},{"type":"Feature","geometry":{"type":"LineString","coordinates":[[2.3333341,56.6972426],[2.3074712,56.7001436],[2.2869849,56.7012123],[2.2669621,56.7034006],[2.2527792,56.7069118],[2.2494421,56.7074206],[2.2408211,56.7067083],[2.2221888,56.7042148],[2.1930815,56.7024846],[2.1083552,56.7002963],[1.9978588,56.6954102],[1.9518805,56.6941886],[1.908683,56.6928652],[1.8619631,56.6904217],[1.8410133,56.687469],[1.8107936,56.6826831],[1.7053029,56.6657749],[1.6010344,56.6657749],[1.4867274,56.6657749],[1.3704442,56.6657749],[1.2559942,56.6657749],[1.2029707,56.6629222]]},"properties":{"osm_id":174152510,"osm_type":"way","seamark_type":"pipeline_submarine","display_class":"OTHER","min_zoom":12,"importance":1,"name":"Central Area Transmission System (CATS)","ref":null,"common":{"name":"Central Area Transmission System (CATS)","type":"pipeline_submarine"},"children":{"pipeline_submarine":{"category":"supply","product":"gas"}},"osm_tags":{"location":"underwater","man_made":"pipeline","name":"Central Area Transmission System (CATS)","operator":"BP","seamark:name":"Central Area Transmission System (CATS)","seamark:pipeline_submarine:category":"supply","seamark:pipeline_submarine:product":"gas","seamark:type":"pipeline_submarine","source":"Gassco","substance":"gas"}}},{"type":"Feature","geometry":{"type":"Polygon","coordinates":[[[1.8759833,56.9637667],[1.8763268,56.9642314],[1.876585,56.9647123],[1.8767555,56.9652046],[1.8768367,56.9657037],[1.8768277,56.9662047],[1.8767287,56.9667028],[1.8765407,56.9671932],[1.8762653,56.9676712],[1.8759053,56.9681322],[1.8754642,56.9685717],[1.8749462,56.9689856],[1.8743562,56.9693697],[1.8737,56.9697205],[1.8729839,56.9700345],[1.8722148,56.9703088],[1.8714,56.9705406],[1.8705475,56.9707278],[1.8696654,56.9708686],[1.8687623,56.9709615],[1.8678468,56.9710057],[1.8669278,56.9710009],[1.866014,56.9709469],[1.8651144,56.9708444],[1.8642375,56.9706943],[1.8633919,56.9704981],[1.8625856,56.9702577],[1.8618264,56.9699753],[1.8611216,56.9696537],[1.8604781,56.969296],[1.859902,56.9689057],[1.8593988,56.9684864],[1.8589735,56.9680423],[1.8586301,56.9675776],[1.8583718,56.9670968],[1.8582013,56.9666044],[1.8581202,56.9661054],[1.8581291,56.9656044],[1.8582281,56.9651063],[1.8584162,56.9646158],[1.8586915,56.9641378],[1.8590515,56.9636768],[1.8594926,56.9632372],[1.8600107,56.9628233],[1.8606006,56.9624391],[1.8612568,56.9620882],[1.8619729,56.9617741],[1.8627421,56.9614998],[1.8635568,56.9612679],[1.8644093,56.9610807],[1.8652914,56.9609399],[1.8661945,56.9608469],[1.86711,56.9608027],[1.868029,56.9608075],[1.8689428,56.9608615],[1.8698424,56.9609641],[1.8707193,56.9611142],[1.871565,56.9613104],[1.8723713,56.9615509],[1.8731304,56.9618334],[1.8738352,56.962155],[1.8744787,56.9625128],[1.8750548,56.9629032],[1.875558,56.9633225],[1.8759833,56.9637667]]]},"properties":{"osm_id":1426261656,"osm_type":"way","seamark_type":"restricted_area","display_class":"OTHER","min_zoom":12,"importance":1,"name":"Franklin gas field","ref":null,"common":{"name":"Franklin gas field","type":"restricted_area"},"children":{"restricted_area":{"category":"safety_zone"}},"osm_tags":{"seamark:name":"Franklin gas field","seamark:restricted_area:category":"safety_zone","seamark:type":"restricted_area"}}},{"type":"Feature","geometry":{"type":"Polygon","coordinates":[[[1.8056,56.95375],[1.8065228,56.9537764],[1.8074364,56.953852],[1.808332,56.953976],[1.809201,56.9541473],[1.810035,56.9543643],[1.810826,56.9546247],[1.8115664,56.9549262],[1.8122491,56.9552659],[1.8128674,56.9556403],[1.8134154,56.956046],[1.8138878,56.956479],[1.8142801,56.9569352],[1.8145886,56.9574102],[1.8148102,56.9578993],[1.8149427,56.958398],[1.814985,56.9589013],[1.8149367,56.9594044],[1.8147981,56.9599025],[1.8145706,56.9603908],[1.8142564,56.9608646],[1.8138586,56.9613194],[1.8133809,56.9617506],[1.812828,56.9621543],[1.8122052,56.9625264],[1.8115185,56.9628635],[1.8107745,56.9631623],[1.8099803,56.9634199],[1.8091437,56.9636337],[1.8082726,56.9638019],[1.8073755,56.9639227],[1.806461,56.963995],[1.805538,56.964018],[1.8046152,56.9639917],[1.8037016,56.9639161],[1.802806,56.9637921],[1.801937,56.9636208],[1.8011029,56.9634039],[1.8003119,56.9631435],[1.7995715,56.9628421],[1.7988889,56.9625025],[1.7982706,56.9621281],[1.7977226,56.9617225],[1.7972501,56.9612895],[1.7968578,56.9608334],[1.7965494,56.9603585],[1.7963278,56.9598694],[1.7961952,56.9593708],[1.7961529,56.9588675],[1.7962013,56.9583643],[1.7963399,56.9578662],[1.7965674,56.9573778],[1.7968816,56.956904],[1.7972794,56.9564492],[1.7977571,56.9560179],[1.79831,56.9556142],[1.7989328,56.9552419],[1.7996195,56.9549048],[1.8003635,56.9546059],[1.8011576,56.9543483],[1.8019943,56.9541344],[1.8028653,56.9539662],[1.8037624,56.9538454],[1.8046769,56.9537731],[1.8056,56.95375]]]},"properties":{"osm_id":1426261658,"osm_type":"way","seamark_type":"restricted_area","display_class":"OTHER","min_zoom":12,"importance":1,"name":"Franklin gas field","ref":null,"common":{"name":"Franklin gas field","type":"restricted_area"},"children":{"restricted_area":{"category":"safety_zone"}},"osm_tags":{"seamark:name":"Franklin gas field","seamark:restricted_area:category":"safety_zone","seamark:type":"restricted_area"}}}],"type":"FeatureCollection"}