{"type":"FeatureCollection","features":[{"type":"Feature","geometry":{"type":"Point","coordinates":[14.2716586,57.9939472]},"properties":{"osm_id":11850272441,"osm_type":"node","seamark_type":"beacon_cardinal","display_class":"BEACON","min_zoom":9,"importance":4,"name":null,"ref":null,"common":{"type":"beacon_cardinal"},"children":{"beacon_cardinal":{"category":"south","colour":"yellow;black","colour_pattern":"hozirontal","shape":"pile"},"topmark":{"colour":"black","shape":"2 cones down"}},"osm_tags":{"seamark:beacon_cardinal:category":"south","seamark:beacon_cardinal:colour":"yellow;black","seamark:beacon_cardinal:colour_pattern":"hozirontal","seamark:beacon_cardinal:shape":"pile","seamark:topmark:colour":"black","seamark:topmark:shape":"2 cones down","seamark:type":"beacon_cardinal"}}},{"type":"Feature","geometry":{"type":"Point","coordinates":[14.2034018,57.7862441]},"properties":{"osm_id":11850272443,"osm_type":"node","seamark_type":"beacon_special_purpose","display_class":"BEACON","min_zoom":9,"importance":4,"name":null,"ref":null,"common":{"type":"beacon_special_purpose"},"children":{"beacon_special_purpose":{"category":"warning","colour":"yellow","colour_pattern":"horizontal","shape":"pile"},"topmark":{"colour":"yellow","shape":"x_shape"}},"osm_tags":{"seamark:beacon_special_purpose:category":"warning","seamark:beacon_special_purpose:colour":"yellow","seamark:beacon_special_purpose:colour_pattern":"horizontal","seamark:beacon_special_purpose:shape":"pile","seamark:topmark:colour":"yellow","seamark:topmark:shape":"x_shape","seamark:type":"beacon_special_purpose"}}},{"type":"Feature","geometry":{"type":"Point","coordinates":[14.16666,57.78448]},"properties":{"osm_id":4448464579,"osm_type":"node","seamark_type":"small_craft_facility","display_class":"OTHER","min_zoom":12,"importance":1,"name":null,"ref":null,"common":{"type":"small_craft_facility"},"children":{"small_craft_facility":{"category":"pump-out"}},"osm_tags":{"access":"yes","boat":"yes","description:se":"Tömningsstation","fee":"no","opening_hours":"24/7","sanitary_dump_station:accepted":"black_water","sanitary_dump_station:pump-out":"yes","seamark:small_craft_facility:category":"pump-out","seamark:type":"small_craft_facility","vehicle":"no","waterway":"sanitary_dump_station"}}},{"type":"Feature","geometry":{"type":"Point","coordinates":[14.268418,57.7975656]},"properties":{"osm_id":5652752580,"osm_type":"node","seamark_type":"small_craft_facility","display_class":"OTHER","min_zoom":12,"importance":1,"name":null,"ref":null,"common":{"type":"small_craft_facility"},"children":{"small_craft_facility":{"category":"slipway"}},"osm_tags":{"leisure":"slipway","seamark:small_craft_facility:category":"slipway","seamark:type":"small_craft_facility","surface":"concrete:plates","vehicle":"yes","website":"https://www.batramper.se/ramp/huskvarna-vattern-4231"}}},{"type":"Feature","geometry":{"type":"Point","coordinates":[14.2677366,57.7965548]},"properties":{"osm_id":5833891320,"osm_type":"node","seamark_type":"small_craft_facility","display_class":"OTHER","min_zoom":12,"importance":1,"name":null,"ref":null,"common":{"type":"small_craft_facility"},"children":{"small_craft_facility":{"category":"slipway"}},"osm_tags":{"leisure":"slipway","seamark:small_craft_facility:category":"slipway","seamark:type":"small_craft_facility","surface":"sand"}}},{"type":"Feature","geometry":{"type":"Point","coordinates":[14.2684226,57.7974841]},"properties":{"osm_id":5833891324,"osm_type":"node","seamark_type":"small_craft_facility","display_class":"OTHER","min_zoom":12,"importance":1,"name":null,"ref":null,"common":{"type":"small_craft_facility"},"children":{"small_craft_facility":{"category":"slipway"}},"osm_tags":{"leisure":"slipway","seamark:small_craft_facility:category":"slipway","seamark:type":"small_craft_facility","surface":"concrete:plates","vehicle":"yes","website":"https://www.batramper.se/ramp/huskvarna-vattern-4231"}}},{"type":"Feature","geometry":{"type":"Point","coordinates":[14.2623333,57.7979167]},"properties":{"osm_id":10845706696,"osm_type":"node","seamark_type":"buoy_cardinal","display_class":"OTHER","min_zoom":12,"importance":1,"name":null,"ref":null,"common":{"type":"buoy_cardinal"},"children":{"buoy_cardinal":{"category":"west","colour":"yellow;black;yellow","colour_pattern":"horizontal","shape":"spar"},"topmark":{"colour":"black","shape":"2 cones point together"}},"osm_tags":{"seamark:buoy_cardinal:category":"west","seamark:buoy_cardinal:colour":"yellow;black;yellow","seamark:buoy_cardinal:colour_pattern":"horizontal","seamark:buoy_cardinal:shape":"spar","seamark:topmark:colour":"black","seamark:topmark:shape":"2 cones point together","seamark:type":"buoy_cardinal"}}},{"type":"Feature","geometry":{"type":"Point","coordinates":[14.263,57.7975]},"properties":{"osm_id":10845706697,"osm_type":"node","seamark_type":"buoy_cardinal","display_class":"OTHER","min_zoom":12,"importance":1,"name":null,"ref":null,"common":{"type":"buoy_cardinal"},"children":{"buoy_cardinal":{"category":"south","colour":"yellow;black","colour_pattern":"horizontal","shape":"spar"},"topmark":{"colour":"black","shape":"2 cones down"}},"osm_tags":{"seamark:buoy_cardinal:category":"south","seamark:buoy_cardinal:colour":"yellow;black","seamark:buoy_cardinal:colour_pattern":"horizontal","seamark:buoy_cardinal:shape":"spar","seamark:topmark:colour":"black","seamark:topmark:shape":"2 cones down","seamark:type":"buoy_cardinal"}}},{"type":"Feature","geometry":{"type":"Point","coordinates":[14.2636667,57.7979167]},"properties":{"osm_id":10845706698,"osm_type":"node","seamark_type":"buoy_cardinal","display_class":"OTHER","min_zoom":12,"importance":1,"name":null,"ref":null,"common":{"type":"buoy_cardinal"},"children":{"buoy_cardinal":{"category":"east","colour":"black;yellow;black","colour_pattern":"horizontal","shape":"spar"},"topmark":{"colour":"black","shape":"2 cones base together"}},"osm_tags":{"seamark:buoy_cardinal:category":"east","seamark:buoy_cardinal:colour":"black;yellow;black","seamark:buoy_cardinal:colour_pattern":"horizontal","seamark:buoy_cardinal:shape":"spar","seamark:topmark:colour":"black","seamark:topmark:shape":"2 cones base together","seamark:type":"buoy_cardinal"}}},{"type":"Feature","geometry":{"type":"Point","coordinates":[14.263,57.7983333]},"properties":{"osm_id":10845706699,"osm_type":"node","seamark_type":"buoy_cardinal","display_class":"OTHER","min_zoom":12,"importance":1,"name":null,"ref":null,"common":{"type":"buoy_cardinal"},"children":{"buoy_cardinal":{"category":"north","colour":"black;yellow","colour_pattern":"horizontal","shape":"spar"},"topmark":{"colour":"black","shape":"2 cones up"}},"osm_tags":{"seamark:buoy_cardinal:category":"north","seamark:buoy_cardinal:colour":"black;yellow","seamark:buoy_cardinal:colour_pattern":"horizontal","seamark:buoy_cardinal:shape":"spar","seamark:topmark:colour":"black","seamark:topmark:shape":"2 cones up","seamark:type":"buoy_cardinal"}}},{"type":"Feature","geometry":{"type":"Point","coordinates":[14.2628959,57.7979439]},"properties":{"osm_id":10845712610,"osm_type":"node","seamark_type":"rock","display_class":"OTHER","min_zoom":12,"importance":1,"name":null,"ref":null,"common":{"type":"rock"},"children":{"rock":{"water_level":"submerged"}},"osm_tags":{"seamark:rock:water_level":"submerged","seamark:type":"rock"}}},{"type":"Feature","geometry":{"type":"Point","coordinates":[14.1987333,57.7858667]},"properties":{"osm_id":12269774844,"osm_type":"node","seamark_type":"buoy_special_purpose","display_class":"OTHER","min_zoom":12,"importance":1,"name":null,"ref":null,"common":{"type":"buoy_special_purpose"},"children":{"buoy_special_purpose":{"colour":"yellow","shape":"spar"}},"osm_tags":{"seamark:buoy_special_purpose:colour":"yellow","seamark:buoy_special_purpose:shape":"spar","seamark:type":"buoy_special_purpose"}}},{"type":"Feature","geometry":{"type":"Point","coordinates":[14.8019269,57.110105]},"properties":{"osm_id":13128131201,"osm_type":"node","seamark_type":"harbour","display_class":"OTHER","min_zoom":12,"importance":1,"name":null,"ref":null,"common":{"type":"harbour"},"children":{"harbour":{"category":"marina_no_facilities"}},"osm_tags":{"leisure":"marina","seamark:harbour:category":"marina_no_facilities","seamark:type":"harbour"}}},{"type":"Feature","geometry":{"type":"Polygon","coordinates":[[[14.2657685,57.7970591],[14.2658624,57.7973907],[14.2659456,57.7974007],[14.2659377,57.797421],[14.2660373,57.7975089],[14.2662737,57.7976515],[14.2666284,57.7978753],[14.2667528,57.7979366],[14.2668736,57.7979696],[14.2669594,57.7979682],[14.2672545,57.7979253],[14.267697,57.7978252],[14.2679848,57.7977581],[14.2682871,57.7976923],[14.2683453,57.7976647],[14.2684,57.7976294],[14.2684305,57.7975878],[14.268418,57.7975656],[14.2683865,57.7975262],[14.2684226,57.7974841],[14.2684222,57.7974607],[14.2683944,57.7973464],[14.2682201,57.7971163],[14.2681355,57.7970259],[14.2681,57.7969561],[14.2680699,57.7968961],[14.2680441,57.7968009],[14.2680243,57.7967503],[14.2680109,57.796706],[14.2679197,57.7966932],[14.2678767,57.796626],[14.2677869,57.7965828],[14.2677366,57.7965548],[14.2676323,57.7965184],[14.2673886,57.7964859],[14.2673318,57.7964651],[14.2674109,57.7959815],[14.2671348,57.7959706],[14.2670758,57.7964556],[14.2670399,57.7965016],[14.266946,57.796493],[14.2668924,57.7964759],[14.2668951,57.796433],[14.2669004,57.7963044],[14.2669138,57.7961914],[14.2668334,57.79616],[14.2665625,57.7962115],[14.2664417,57.7962394],[14.2661387,57.7963158],[14.2660528,57.7963566],[14.2660421,57.7963744],[14.2660046,57.7964201],[14.2659214,57.796423],[14.265798,57.7962472],[14.2656907,57.7962715],[14.2658222,57.7964444],[14.2658356,57.7964773],[14.2658946,57.7965502],[14.2659563,57.796636],[14.2660421,57.7968346],[14.2660394,57.7968918],[14.266026,57.796909],[14.2659616,57.7969533],[14.2658275,57.7970334],[14.2657685,57.7970591]]]},"properties":{"osm_id":1276418139,"osm_type":"way","seamark_type":"harbour","display_class":"OTHER","min_zoom":12,"importance":1,"name":null,"ref":null,"common":{"type":"harbour"},"children":{"harbour":{"category":"marina"}},"osm_tags":{"seamark:harbour:category":"marina","seamark:type":"harbour"}}},{"type":"Feature","geometry":{"type":"LineString","coordinates":[[14.2060956,57.7826591],[14.203906,57.7861869]]},"properties":{"osm_id":1276418140,"osm_type":"way","seamark_type":"pipeline_submarine","display_class":"OTHER","min_zoom":12,"importance":1,"name":null,"ref":null,"common":{"type":"pipeline_submarine"},"children":{"pipeline_submarine":{"category":"outfall"}},"osm_tags":{"seamark:pipeline_submarine:category":"outfall","seamark:type":"pipeline_submarine"}}},{"type":"Feature","geometry":{"type":"LineString","coordinates":[[14.1965622,57.6659427],[14.1968111,57.6658369]]},"properties":{"osm_id":1296354838,"osm_type":"way","seamark_type":"small_craft_facility","display_class":"OTHER","min_zoom":12,"importance":1,"name":null,"ref":null,"common":{"small_craft_facility":"slipway","type":"small_craft_facility"},"children":{},"osm_tags":{"highway":"service","incline":"up","lanes":"1","leisure":"slipway","seamark:small_craft_facility":"slipway","seamark:type":"small_craft_facility","service":"driveway","sidewalk":"no","smoothness":"intermediate","surface":"grass"}}},{"type":"Feature","geometry":{"type":"Polygon","coordinates":[[[14.264,57.8666667],[14.2689657,57.8737007],[14.2714977,57.8788125],[14.2739009,57.882874],[14.2787504,57.8884634],[14.2826772,57.8923527],[14.285059,57.8938354],[14.2869687,57.8967206],[14.2902946,57.9013958],[14.2995643,57.9130697],[14.3019675,57.9174008],[14.3058299,57.9236915],[14.3125247,57.9292063],[14.3155288,57.9333532],[14.3178462,57.9380008],[14.3231677,57.9426478],[14.328575,57.9464744],[14.3340682,57.9496173],[14.3376731,57.9548093],[14.3433379,57.9618674],[14.3497752,57.9666934],[14.3593883,57.9711092],[14.3688333,57.975],[14.3083333,57.975],[14.225,57.8666667],[14.264,57.8666667]]]},"properties":{"osm_id":1355495433,"osm_type":"way","seamark_type":"restricted_area","display_class":"OTHER","min_zoom":12,"importance":1,"name":null,"ref":null,"common":{"type":"restricted_area"},"children":{"restricted_area":{"restriction":"no_fishing"}},"osm_tags":{"seamark:restricted_area:restriction":"no_fishing","seamark:type":"restricted_area"}}},{"type":"Feature","geometry":{"type":"Polygon","coordinates":[[[14.5952541,57.9896357],[14.595585,57.9895899],[14.5957786,57.9895001],[14.5958129,57.989459],[14.5956685,57.9893608],[14.5953004,57.9891813],[14.595141,57.9891683],[14.5950062,57.9891912],[14.5948772,57.9892944],[14.5950057,57.9894107],[14.5951399,57.9895404],[14.5952541,57.9896357]]]},"properties":{"osm_id":1365704599,"osm_type":"way","seamark_type":"harbour","display_class":"OTHER","min_zoom":12,"importance":1,"name":null,"ref":null,"common":{"type":"harbour"},"children":{"harbour":{"category":"marina"}},"osm_tags":{"leisure":"marina","seamark:harbour:category":"marina","seamark:type":"harbour"}}},{"type":"Feature","geometry":{"type":"Polygon","coordinates":[[[14.6852419,57.374031],[14.6854028,57.3740368],[14.6856335,57.3739225],[14.6855342,57.3736521],[14.6854457,57.3736738],[14.685502,57.3738386],[14.6853653,57.3738849],[14.685199,57.373989],[14.6852419,57.374031]]]},"properties":{"osm_id":1540331030,"osm_type":"way","seamark_type":"rock","display_class":"OTHER","min_zoom":12,"importance":1,"name":null,"ref":null,"common":{"type":"rock"},"children":{"rock":{"water_level":"awash"}},"osm_tags":{"seamark:rock:water_level":"awash","seamark:type":"rock"}}},{"type":"Feature","geometry":{"type":"Polygon","coordinates":[[[14.1183068,57.8779553],[14.1183874,57.8779168],[14.1184047,57.8779029],[14.1185141,57.8778238],[14.1191342,57.8774211],[14.118824,57.877262],[14.1184906,57.8773853],[14.118315,57.8774304],[14.1182251,57.8773177],[14.118098,57.877047],[14.1179247,57.8768045],[14.1182696,57.8764879],[14.1172933,57.8759345],[14.1168483,57.8754515],[14.1157943,57.8756885],[14.115247,57.8763226],[14.1155449,57.8768856],[14.1158011,57.8772216],[14.1159763,57.8774732],[14.1162795,57.8778418],[14.1163573,57.8779572],[14.1160171,57.8782714],[14.1164319,57.8783479],[14.1165891,57.87838],[14.1168371,57.8783414],[14.1169459,57.8782803],[14.1169036,57.8782353],[14.1169762,57.8781871],[14.1169036,57.8780938],[14.1171879,57.8780295],[14.1176414,57.8780102],[14.1177684,57.8779588],[14.1176414,57.8778591],[14.1179741,57.8777176],[14.1181555,57.8777626],[14.1181373,57.8778494],[14.1183068,57.8779553]]]},"properties":{"osm_id":885927111,"osm_type":"way","seamark_type":"harbour","display_class":"OTHER","min_zoom":12,"importance":1,"name":"Domsand","ref":null,"common":{"type":"harbour"},"children":{"harbour":{"category":"marina"}},"osm_tags":{"leisure":"marina","name":"Domsand","seamark:harbour:category":"marina","seamark:type":"harbour"}}},{"type":"Feature","geometry":{"type":"Polygon","coordinates":[[[14.1202094,57.8779656],[14.1202048,57.8779762],[14.1201894,57.8779833],[14.1201691,57.8779842],[14.1201516,57.8779786],[14.1201437,57.8779686],[14.1201483,57.8779581],[14.1201637,57.877951],[14.120184,57.87795],[14.1202014,57.8779556],[14.1202094,57.8779656]]]},"properties":{"osm_id":1104004562,"osm_type":"way","seamark_type":"light_minor","display_class":"OTHER","min_zoom":12,"importance":1,"name":"Domsand","ref":null,"common":{"name":"Domsand","status":"occasional","type":"light_minor"},"children":{"light":{"1:character":"LFl","1:colour":"green","1:height":"7","1:period":"10","1:range":"9","1:sector_end":"198.1","1:sector_start":"124.6","2:character":"LFl","2:colour":"white","2:height":"7","2:period":"10","2:range":"9","2:sector_end":"284.7","2:sector_start":"198.1","3:character":"LFl","3:colour":"red","3:height":"7","3:period":"10","3:range":"9","3:sector_end":"305.3","3:sector_start":"284.7","reference":"C 7081.2"}},"osm_tags":{"building":"yes","man_made":"lighthouse","name":"Domsand fyr","seamark:light:1:character":"LFl","seamark:light:1:colour":"green","seamark:light:1:height":"7","seamark:light:1:period":"10","seamark:light:1:range":"9","seamark:light:1:sector_end":"198.1","seamark:light:1:sector_start":"124.6","seamark:light:2:character":"LFl","seamark:light:2:colour":"white","seamark:light:2:height":"7","seamark:light:2:period":"10","seamark:light:2:range":"9","seamark:light:2:sector_end":"284.7","seamark:light:2:sector_start":"198.1","seamark:light:3:character":"LFl","seamark:light:3:colour":"red","seamark:light:3:height":"7","seamark:light:3:period":"10","seamark:light:3:range":"9","seamark:light:3:sector_end":"305.3","seamark:light:3:sector_start":"284.7","seamark:light:reference":"C 7081.2","seamark:name":"Domsand","seamark:status":"occasional","seamark:type":"light_minor"}}},{"type":"Feature","geometry":{"type":"Point","coordinates":[14.2703024,57.803151]},"properties":{"osm_id":5157166588,"osm_type":"node","seamark_type":"light_minor","display_class":"OTHER","min_zoom":12,"importance":1,"name":"Huskvarna","ref":null,"common":{"name":"Huskvarna","type":"light_minor"},"children":{"light":{"1:character":"Iso","1:colour":"red","1:height":"5","1:period":"4","1:range":"6","1:sector_end":"78","1:sector_start":"359","2:character":"Iso","2:colour":"green","2:height":"5","2:period":"4","2:range":"5","2:sector_end":"98","2:sector_start":"78","3:character":"Iso","3:colour":"white","3:height":"5","3:period":"4","3:range":"9","3:sector_end":"166","3:sector_start":"98","4:character":"Iso","4:colour":"red","4:height":"5","4:period":"4","4:range":"6","4:sector_end":"179","4:sector_start":"166","reference":"C 7081.28"}},"osm_tags":{"man_made":"lighthouse","seamark:light:1:character":"Iso","seamark:light:1:colour":"red","seamark:light:1:height":"5","seamark:light:1:period":"4","seamark:light:1:range":"6","seamark:light:1:sector_end":"78","seamark:light:1:sector_start":"359","seamark:light:2:character":"Iso","seamark:light:2:colour":"green","seamark:light:2:height":"5","seamark:light:2:period":"4","seamark:light:2:range":"5","seamark:light:2:sector_end":"98","seamark:light:2:sector_start":"78","seamark:light:3:character":"Iso","seamark:light:3:colour":"white","seamark:light:3:height":"5","seamark:light:3:period":"4","seamark:light:3:range":"9","seamark:light:3:sector_end":"166","seamark:light:3:sector_start":"98","seamark:light:4:character":"Iso","seamark:light:4:colour":"red","seamark:light:4:height":"5","seamark:light:4:period":"4","seamark:light:4:range":"6","seamark:light:4:sector_end":"179","seamark:light:4:sector_start":"166","seamark:light:reference":"C 7081.28","seamark:name":"Huskvarna","seamark:type":"light_minor","wikidata":"Q40523125"}}},{"type":"Feature","geometry":{"type":"Point","coordinates":[14.1665869,57.7860381]},"properties":{"osm_id":3215519230,"osm_type":"node","seamark_type":"light_minor","display_class":"OTHER","min_zoom":12,"importance":1,"name":"Jönköping","ref":null,"common":{"name":"Jönköping","type":"light_minor"},"children":{"light":{"1:character":"Fl","1:colour":"white","1:height":"10","1:period":"1.5","1:range":"9","1:sector_end":"233","1:sector_start":"175","2:character":"Fl","2:colour":"red","2:height":"10","2:period":"1.5","2:range":"6","2:sector_end":"300","2:sector_start":"233","3:character":"Fl","3:colour":"green","3:height":"10","3:period":"1.5","3:range":"5","3:sector_end":"177","3:sector_start":"300","reference":"C 7081.29"}},"osm_tags":{"man_made":"lighthouse","seamark:light:1:character":"Fl","seamark:light:1:colour":"white","seamark:light:1:height":"10","seamark:light:1:period":"1.5","seamark:light:1:range":"9","seamark:light:1:sector_end":"233","seamark:light:1:sector_start":"175","seamark:light:2:character":"Fl","seamark:light:2:colour":"red","seamark:light:2:height":"10","seamark:light:2:period":"1.5","seamark:light:2:range":"6","seamark:light:2:sector_end":"300","seamark:light:2:sector_start":"233","seamark:light:3:character":"Fl","seamark:light:3:colour":"green","seamark:light:3:height":"10","seamark:light:3:period":"1.5","seamark:light:3:range":"5","seamark:light:3:sector_end":"177","seamark:light:3:sector_start":"300","seamark:light:reference":"C 7081.29","seamark:name":"Jönköping","seamark:type":"light_minor","wikidata":"Q40524309"}}},{"type":"Feature","geometry":{"type":"Polygon","coordinates":[[[14.2906183,57.9981042],[14.2904341,57.9977569],[14.2897475,57.9974157],[14.2797375,57.9971485],[14.2800666,57.9989208],[14.2801325,57.9991129],[14.2807258,57.9995321],[14.2811213,57.9996282],[14.2816322,57.9996893],[14.2819042,57.9999077],[14.284206,57.9997753],[14.287591,57.9994284],[14.2906554,57.9987483],[14.2907213,57.9984273],[14.2906183,57.9981042]]]},"properties":{"osm_id":1276418138,"osm_type":"way","seamark_type":"anchorage","display_class":"OTHER","min_zoom":12,"importance":1,"name":"Näs","ref":null,"common":{"name":"Näs","type":"anchorage"},"children":{},"osm_tags":{"seamark:name":"Näs","seamark:type":"anchorage"}}},{"type":"Feature","geometry":{"type":"Point","coordinates":[14.1532161,57.8476673]},"properties":{"osm_id":6486681087,"osm_type":"node","seamark_type":"harbour","display_class":"OTHER","min_zoom":12,"importance":1,"name":"Sjöbo","ref":null,"common":{"type":"harbour"},"children":{"harbour":{"category":"marina"}},"osm_tags":{"leisure":"marina","name":"Sjöbo","seamark:harbour:category":"marina","seamark:type":"harbour"}}},{"type":"Feature","geometry":{"type":"Point","coordinates":[14.2769357,57.9977763]},"properties":{"osm_id":4306087888,"osm_type":"node","seamark_type":"light_minor","display_class":"OTHER","min_zoom":12,"importance":1,"name":"Visingsö södra udde","ref":null,"common":{"name":"Visingsö södra udde","type":"light_minor"},"children":{"light":{"character":"Fl","colour":"white","period":"6","range":"7","reference":"C 5952.87"}},"osm_tags":{"man_made":"lighthouse","name":"Visingsö södra udde","seamark:light:character":"Fl","seamark:light:colour":"white","seamark:light:period":"6","seamark:light:range":"7","seamark:light:reference":"C 5952.87","seamark:name":"Visingsö södra udde","seamark:type":"light_minor"}}}],"type":"FeatureCollection"}