{"type":"FeatureCollection","features":[{"type":"Feature","geometry":{"type":"Point","coordinates":[93.422583,58.140337]},"properties":{"osm_id":5469028524,"osm_type":"node","seamark_type":"beacon_special_purpose","display_class":"BEACON","min_zoom":9,"importance":4,"name":null,"ref":null,"common":{"type":"beacon_special_purpose"},"children":{"beacon_special_purpose":{"category":"leading"}},"osm_tags":{"seamark:beacon_special_purpose:category":"leading","seamark:type":"beacon_special_purpose"}}},{"type":"Feature","geometry":{"type":"Point","coordinates":[93.238566,58.166257]},"properties":{"osm_id":5469028542,"osm_type":"node","seamark_type":"beacon_special_purpose","display_class":"BEACON","min_zoom":9,"importance":4,"name":null,"ref":null,"common":{"type":"beacon_special_purpose"},"children":{"beacon_special_purpose":{"category":"leading"}},"osm_tags":{"seamark:beacon_special_purpose:category":"leading","seamark:type":"beacon_special_purpose"}}},{"type":"Feature","geometry":{"type":"Point","coordinates":[93.421556,58.142397]},"properties":{"osm_id":5469028543,"osm_type":"node","seamark_type":"beacon_special_purpose","display_class":"BEACON","min_zoom":9,"importance":4,"name":null,"ref":null,"common":{"type":"beacon_special_purpose"},"children":{"beacon_special_purpose":{"category":"leading"}},"osm_tags":{"seamark:beacon_special_purpose:category":"leading","seamark:type":"beacon_special_purpose"}}},{"type":"Feature","geometry":{"type":"Point","coordinates":[93.222775,58.009701]},"properties":{"osm_id":5469028544,"osm_type":"node","seamark_type":"beacon_special_purpose","display_class":"BEACON","min_zoom":9,"importance":4,"name":null,"ref":null,"common":{"type":"beacon_special_purpose"},"children":{"beacon_special_purpose":{"category":"leading"}},"osm_tags":{"seamark:beacon_special_purpose:category":"leading","seamark:type":"beacon_special_purpose"}}},{"type":"Feature","geometry":{"type":"Point","coordinates":[93.221738,58.011931]},"properties":{"osm_id":5469028545,"osm_type":"node","seamark_type":"beacon_special_purpose","display_class":"BEACON","min_zoom":9,"importance":4,"name":null,"ref":null,"common":{"type":"beacon_special_purpose"},"children":{"beacon_special_purpose":{"category":"leading"}},"osm_tags":{"seamark:beacon_special_purpose:category":"leading","seamark:type":"beacon_special_purpose"}}},{"type":"Feature","geometry":{"type":"Point","coordinates":[93.220197,58.010561]},"properties":{"osm_id":5469028546,"osm_type":"node","seamark_type":"beacon_special_purpose","display_class":"BEACON","min_zoom":9,"importance":4,"name":null,"ref":null,"common":{"type":"beacon_special_purpose"},"children":{"beacon_special_purpose":{"category":"leading"}},"osm_tags":{"seamark:beacon_special_purpose:category":"leading","seamark:type":"beacon_special_purpose"}}},{"type":"Feature","geometry":{"type":"Point","coordinates":[93.410226,58.150465]},"properties":{"osm_id":5469028547,"osm_type":"node","seamark_type":"beacon_special_purpose","display_class":"BEACON","min_zoom":9,"importance":4,"name":null,"ref":null,"common":{"type":"beacon_special_purpose"},"children":{"beacon_special_purpose":{"category":"leading"}},"osm_tags":{"seamark:beacon_special_purpose:category":"leading","seamark:type":"beacon_special_purpose"}}},{"type":"Feature","geometry":{"type":"Point","coordinates":[93.394948,58.185311]},"properties":{"osm_id":5469028548,"osm_type":"node","seamark_type":"beacon_special_purpose","display_class":"BEACON","min_zoom":9,"importance":4,"name":null,"ref":null,"common":{"type":"beacon_special_purpose"},"children":{"beacon_special_purpose":{"category":"leading"}},"osm_tags":{"seamark:beacon_special_purpose:category":"leading","seamark:type":"beacon_special_purpose"}}},{"type":"Feature","geometry":{"type":"Point","coordinates":[93.388594,58.163851]},"properties":{"osm_id":5469028549,"osm_type":"node","seamark_type":"beacon_special_purpose","display_class":"BEACON","min_zoom":9,"importance":4,"name":null,"ref":null,"common":{"type":"beacon_special_purpose"},"children":{"beacon_special_purpose":{"category":"leading"}},"osm_tags":{"seamark:beacon_special_purpose:category":"leading","seamark:type":"beacon_special_purpose"}}},{"type":"Feature","geometry":{"type":"Point","coordinates":[93.34688,58.190461]},"properties":{"osm_id":5469028550,"osm_type":"node","seamark_type":"beacon_special_purpose","display_class":"BEACON","min_zoom":9,"importance":4,"name":null,"ref":null,"common":{"type":"beacon_special_purpose"},"children":{"beacon_special_purpose":{"category":"leading"}},"osm_tags":{"seamark:beacon_special_purpose:category":"leading","seamark:type":"beacon_special_purpose"}}},{"type":"Feature","geometry":{"type":"Point","coordinates":[93.341048,58.165743]},"properties":{"osm_id":5469028553,"osm_type":"node","seamark_type":"beacon_special_purpose","display_class":"BEACON","min_zoom":9,"importance":4,"name":null,"ref":null,"common":{"type":"beacon_special_purpose"},"children":{"beacon_special_purpose":{"category":"leading"}},"osm_tags":{"seamark:beacon_special_purpose:category":"leading","seamark:type":"beacon_special_purpose"}}},{"type":"Feature","geometry":{"type":"Point","coordinates":[93.120464,58.019656]},"properties":{"osm_id":5469028554,"osm_type":"node","seamark_type":"beacon_special_purpose","display_class":"BEACON","min_zoom":9,"importance":4,"name":null,"ref":null,"common":{"type":"beacon_special_purpose"},"children":{"beacon_special_purpose":{"category":"leading"}},"osm_tags":{"seamark:beacon_special_purpose:category":"leading","seamark:type":"beacon_special_purpose"}}},{"type":"Feature","geometry":{"type":"Point","coordinates":[93.109648,58.01502]},"properties":{"osm_id":5469028555,"osm_type":"node","seamark_type":"beacon_special_purpose","display_class":"BEACON","min_zoom":9,"importance":4,"name":null,"ref":null,"common":{"type":"beacon_special_purpose"},"children":{"beacon_special_purpose":{"category":"leading"}},"osm_tags":{"seamark:beacon_special_purpose:category":"leading","seamark:type":"beacon_special_purpose"}}},{"type":"Feature","geometry":{"type":"Point","coordinates":[93.115308,58.002318]},"properties":{"osm_id":5469028556,"osm_type":"node","seamark_type":"beacon_special_purpose","display_class":"BEACON","min_zoom":9,"importance":4,"name":null,"ref":null,"common":{"type":"beacon_special_purpose"},"children":{"beacon_special_purpose":{"category":"leading"}},"osm_tags":{"seamark:beacon_special_purpose:category":"leading","seamark:type":"beacon_special_purpose"}}},{"type":"Feature","geometry":{"type":"Point","coordinates":[93.443008,58.136388]},"properties":{"osm_id":5469028561,"osm_type":"node","seamark_type":"beacon_special_purpose","display_class":"BEACON","min_zoom":9,"importance":4,"name":null,"ref":null,"common":{"type":"beacon_special_purpose"},"children":{"beacon_special_purpose":{"category":"leading"}},"osm_tags":{"seamark:beacon_special_purpose:category":"leading","seamark:type":"beacon_special_purpose"}}},{"type":"Feature","geometry":{"type":"Point","coordinates":[93.073081,58.005924]},"properties":{"osm_id":5469028618,"osm_type":"node","seamark_type":"beacon_special_purpose","display_class":"BEACON","min_zoom":9,"importance":4,"name":null,"ref":null,"common":{"type":"beacon_special_purpose"},"children":{"beacon_special_purpose":{"category":"leading"}},"osm_tags":{"seamark:beacon_special_purpose:category":"leading","seamark:type":"beacon_special_purpose"}}},{"type":"Feature","geometry":{"type":"Point","coordinates":[93.144665,58.064978]},"properties":{"osm_id":5469028619,"osm_type":"node","seamark_type":"beacon_special_purpose","display_class":"BEACON","min_zoom":9,"importance":4,"name":null,"ref":null,"common":{"type":"beacon_special_purpose"},"children":{"beacon_special_purpose":{"category":"leading"}},"osm_tags":{"seamark:beacon_special_purpose:category":"leading","seamark:type":"beacon_special_purpose"}}},{"type":"Feature","geometry":{"type":"Point","coordinates":[93.135913,58.062403]},"properties":{"osm_id":5469028627,"osm_type":"node","seamark_type":"beacon_special_purpose","display_class":"BEACON","min_zoom":9,"importance":4,"name":null,"ref":null,"common":{"type":"beacon_special_purpose"},"children":{"beacon_special_purpose":{"category":"leading"}},"osm_tags":{"seamark:beacon_special_purpose:category":"leading","seamark:type":"beacon_special_purpose"}}},{"type":"Feature","geometry":{"type":"Point","coordinates":[93.150848,58.133638]},"properties":{"osm_id":5469028632,"osm_type":"node","seamark_type":"beacon_special_purpose","display_class":"BEACON","min_zoom":9,"importance":4,"name":null,"ref":null,"common":{"type":"beacon_special_purpose"},"children":{"beacon_special_purpose":{"category":"leading"}},"osm_tags":{"seamark:beacon_special_purpose:category":"leading","seamark:type":"beacon_special_purpose"}}},{"type":"Feature","geometry":{"type":"Point","coordinates":[93.076344,58.067209]},"properties":{"osm_id":5469028633,"osm_type":"node","seamark_type":"beacon_special_purpose","display_class":"BEACON","min_zoom":9,"importance":4,"name":null,"ref":null,"common":{"type":"beacon_special_purpose"},"children":{"beacon_special_purpose":{"category":"leading"}},"osm_tags":{"seamark:beacon_special_purpose:category":"leading","seamark:type":"beacon_special_purpose"}}},{"type":"Feature","geometry":{"type":"Point","coordinates":[93.113425,58.062403]},"properties":{"osm_id":5469028639,"osm_type":"node","seamark_type":"beacon_special_purpose","display_class":"BEACON","min_zoom":9,"importance":4,"name":null,"ref":null,"common":{"type":"beacon_special_purpose"},"children":{"beacon_special_purpose":{"category":"leading"}},"osm_tags":{"seamark:beacon_special_purpose:category":"leading","seamark:type":"beacon_special_purpose"}}},{"type":"Feature","geometry":{"type":"Point","coordinates":[93.87629,58.0921]},"properties":{"osm_id":5469028676,"osm_type":"node","seamark_type":"beacon_special_purpose","display_class":"BEACON","min_zoom":9,"importance":4,"name":null,"ref":null,"common":{"type":"beacon_special_purpose"},"children":{"beacon_special_purpose":{"category":"leading"}},"osm_tags":{"seamark:beacon_special_purpose:category":"leading","seamark:type":"beacon_special_purpose"}}},{"type":"Feature","geometry":{"type":"Point","coordinates":[93.95147,58.103084]},"properties":{"osm_id":5469028677,"osm_type":"node","seamark_type":"beacon_special_purpose","display_class":"BEACON","min_zoom":9,"importance":4,"name":null,"ref":null,"common":{"type":"beacon_special_purpose"},"children":{"beacon_special_purpose":{"category":"leading"}},"osm_tags":{"seamark:beacon_special_purpose:category":"leading","seamark:type":"beacon_special_purpose"}}},{"type":"Feature","geometry":{"type":"Point","coordinates":[93.840407,58.113899]},"properties":{"osm_id":5469028678,"osm_type":"node","seamark_type":"beacon_special_purpose","display_class":"BEACON","min_zoom":9,"importance":4,"name":null,"ref":null,"common":{"type":"beacon_special_purpose"},"children":{"beacon_special_purpose":{"category":"leading"}},"osm_tags":{"seamark:beacon_special_purpose:category":"leading","seamark:type":"beacon_special_purpose"}}},{"type":"Feature","geometry":{"type":"Point","coordinates":[93.751148,58.114242]},"properties":{"osm_id":5469028681,"osm_type":"node","seamark_type":"beacon_special_purpose","display_class":"BEACON","min_zoom":9,"importance":4,"name":null,"ref":null,"common":{"type":"beacon_special_purpose"},"children":{"beacon_special_purpose":{"category":"leading"}},"osm_tags":{"seamark:beacon_special_purpose:category":"leading","seamark:type":"beacon_special_purpose"}}},{"type":"Feature","geometry":{"type":"Point","coordinates":[93.554593,58.130892]},"properties":{"osm_id":5469028682,"osm_type":"node","seamark_type":"beacon_special_purpose","display_class":"BEACON","min_zoom":9,"importance":4,"name":null,"ref":null,"common":{"type":"beacon_special_purpose"},"children":{"beacon_special_purpose":{"category":"leading"}},"osm_tags":{"seamark:beacon_special_purpose:category":"leading","seamark:type":"beacon_special_purpose"}}},{"type":"Feature","geometry":{"type":"Point","coordinates":[93.46464,58.132096]},"properties":{"osm_id":5469028685,"osm_type":"node","seamark_type":"beacon_special_purpose","display_class":"BEACON","min_zoom":9,"importance":4,"name":null,"ref":null,"common":{"type":"beacon_special_purpose"},"children":{"beacon_special_purpose":{"category":"leading"}},"osm_tags":{"seamark:beacon_special_purpose:category":"leading","seamark:type":"beacon_special_purpose"}}},{"type":"Feature","geometry":{"type":"Point","coordinates":[93.0066511,58.1094358]},"properties":{"osm_id":5468550565,"osm_type":"node","seamark_type":"buoy_lateral","display_class":"OTHER","min_zoom":12,"importance":1,"name":null,"ref":null,"common":{"type":"buoy_lateral"},"children":{"buoy_lateral":{"colour":"white"},"light":{"colour":"green"}},"osm_tags":{"seamark:buoy_lateral:colour":"white","seamark:light:colour":"green","seamark:type":"buoy_lateral","source":"Yard24.ru"}}},{"type":"Feature","geometry":{"type":"Point","coordinates":[93.0131849,58.1063415]},"properties":{"osm_id":5468550566,"osm_type":"node","seamark_type":"buoy_lateral","display_class":"OTHER","min_zoom":12,"importance":1,"name":null,"ref":null,"common":{"type":"buoy_lateral"},"children":{"buoy_lateral":{"colour":"white"},"light":{"colour":"green"}},"osm_tags":{"seamark:buoy_lateral:colour":"white","seamark:light:colour":"green","seamark:type":"buoy_lateral","source":"Yard24.ru"}}},{"type":"Feature","geometry":{"type":"Point","coordinates":[93.0214119,58.1010036]},"properties":{"osm_id":5468550567,"osm_type":"node","seamark_type":"buoy_lateral","display_class":"OTHER","min_zoom":12,"importance":1,"name":null,"ref":null,"common":{"type":"buoy_lateral"},"children":{"buoy_lateral":{"colour":"white"},"light":{"colour":"green"}},"osm_tags":{"seamark:buoy_lateral:colour":"white","seamark:light:colour":"green","seamark:type":"buoy_lateral","source":"Yard24.ru"}}},{"type":"Feature","geometry":{"type":"Point","coordinates":[93.0167761,58.0957005]},"properties":{"osm_id":5468550568,"osm_type":"node","seamark_type":"buoy_lateral","display_class":"OTHER","min_zoom":12,"importance":1,"name":null,"ref":null,"common":{"type":"buoy_lateral"},"children":{"buoy_lateral":{"colour":"white"},"light":{"colour":"green"}},"osm_tags":{"seamark:buoy_lateral:colour":"white","seamark:light:colour":"green","seamark:type":"buoy_lateral","source":"Yard24.ru"}}},{"type":"Feature","geometry":{"type":"Point","coordinates":[93.0018295,58.0970799]},"properties":{"osm_id":5468550569,"osm_type":"node","seamark_type":"buoy_lateral","display_class":"OTHER","min_zoom":12,"importance":1,"name":null,"ref":null,"common":{"type":"buoy_lateral"},"children":{"buoy_lateral":{"colour":"white"},"light":{"colour":"green"}},"osm_tags":{"seamark:buoy_lateral:colour":"white","seamark:light:colour":"green","seamark:type":"buoy_lateral","source":"Yard24.ru"}}},{"type":"Feature","geometry":{"type":"Point","coordinates":[93.0564247,58.0853982]},"properties":{"osm_id":5468550576,"osm_type":"node","seamark_type":"buoy_lateral","display_class":"OTHER","min_zoom":12,"importance":1,"name":null,"ref":null,"common":{"type":"buoy_lateral"},"children":{"buoy_lateral":{"colour":"white"},"light":{"colour":"green"}},"osm_tags":{"seamark:buoy_lateral:colour":"white","seamark:light:colour":"green","seamark:type":"buoy_lateral","source":"Yard24.ru"}}},{"type":"Feature","geometry":{"type":"Point","coordinates":[93.0471486,58.0800333]},"properties":{"osm_id":5468550577,"osm_type":"node","seamark_type":"buoy_lateral","display_class":"OTHER","min_zoom":12,"importance":1,"name":null,"ref":null,"common":{"type":"buoy_lateral"},"children":{"buoy_lateral":{"colour":"white"},"light":{"colour":"green"}},"osm_tags":{"seamark:buoy_lateral:colour":"white","seamark:light:colour":"green","seamark:type":"buoy_lateral","source":"Yard24.ru"}}},{"type":"Feature","geometry":{"type":"Point","coordinates":[93.0325663,58.0874525]},"properties":{"osm_id":5468550578,"osm_type":"node","seamark_type":"buoy_lateral","display_class":"OTHER","min_zoom":12,"importance":1,"name":null,"ref":null,"common":{"type":"buoy_lateral"},"children":{"buoy_lateral":{"colour":"white"},"light":{"colour":"green"}},"osm_tags":{"seamark:buoy_lateral:colour":"white","seamark:light:colour":"green","seamark:type":"buoy_lateral","source":"Yard24.ru"}}},{"type":"Feature","geometry":{"type":"Point","coordinates":[93.0967282,58.0728484]},"properties":{"osm_id":5468550579,"osm_type":"node","seamark_type":"buoy_lateral","display_class":"OTHER","min_zoom":12,"importance":1,"name":null,"ref":null,"common":{"type":"buoy_lateral"},"children":{"buoy_lateral":{"colour":"white"},"light":{"colour":"green"}},"osm_tags":{"seamark:buoy_lateral:colour":"white","seamark:light:colour":"green","seamark:type":"buoy_lateral","source":"Yard24.ru"}}},{"type":"Feature","geometry":{"type":"Point","coordinates":[93.2049096,58.1406867]},"properties":{"osm_id":5468550580,"osm_type":"node","seamark_type":"buoy_lateral","display_class":"OTHER","min_zoom":12,"importance":1,"name":null,"ref":null,"common":{"type":"buoy_lateral"},"children":{"buoy_lateral":{"colour":"white"},"light":{"colour":"green"}},"osm_tags":{"seamark:buoy_lateral:colour":"white","seamark:light:colour":"green","seamark:type":"buoy_lateral","source":"Yard24.ru"}}},{"type":"Feature","geometry":{"type":"Point","coordinates":[93.2248829,58.1459539]},"properties":{"osm_id":5468550581,"osm_type":"node","seamark_type":"buoy_lateral","display_class":"OTHER","min_zoom":12,"importance":1,"name":null,"ref":null,"common":{"type":"buoy_lateral"},"children":{"buoy_lateral":{"colour":"white"},"light":{"colour":"green"}},"osm_tags":{"seamark:buoy_lateral:colour":"white","seamark:light:colour":"green","seamark:type":"buoy_lateral","source":"Yard24.ru"}}},{"type":"Feature","geometry":{"type":"Point","coordinates":[93.241688,58.1490685]},"properties":{"osm_id":5468550582,"osm_type":"node","seamark_type":"buoy_lateral","display_class":"OTHER","min_zoom":12,"importance":1,"name":null,"ref":null,"common":{"type":"buoy_lateral"},"children":{"buoy_lateral":{"colour":"white"},"light":{"colour":"green"}},"osm_tags":{"seamark:buoy_lateral:colour":"white","seamark:light:colour":"green","seamark:type":"buoy_lateral","source":"Yard24.ru"}}},{"type":"Feature","geometry":{"type":"Point","coordinates":[93.2639565,58.1537283]},"properties":{"osm_id":5468550583,"osm_type":"node","seamark_type":"buoy_lateral","display_class":"OTHER","min_zoom":12,"importance":1,"name":null,"ref":null,"common":{"type":"buoy_lateral"},"children":{"buoy_lateral":{"colour":"white"},"light":{"colour":"green"}},"osm_tags":{"seamark:buoy_lateral:colour":"white","seamark:light:colour":"green","seamark:type":"buoy_lateral","source":"Yard24.ru"}}},{"type":"Feature","geometry":{"type":"Point","coordinates":[93.2725699,58.1551048]},"properties":{"osm_id":5468550584,"osm_type":"node","seamark_type":"buoy_lateral","display_class":"OTHER","min_zoom":12,"importance":1,"name":null,"ref":null,"common":{"type":"buoy_lateral"},"children":{"buoy_lateral":{"colour":"white"},"light":{"colour":"green"}},"osm_tags":{"seamark:buoy_lateral:colour":"white","seamark:light:colour":"green","seamark:type":"buoy_lateral","source":"Yard24.ru"}}},{"type":"Feature","geometry":{"type":"Point","coordinates":[93.2911114,58.1585404]},"properties":{"osm_id":5468550585,"osm_type":"node","seamark_type":"buoy_lateral","display_class":"OTHER","min_zoom":12,"importance":1,"name":null,"ref":null,"common":{"type":"buoy_lateral"},"children":{"buoy_lateral":{"colour":"white"},"light":{"colour":"green"}},"osm_tags":{"seamark:buoy_lateral:colour":"white","seamark:light:colour":"green","seamark:type":"buoy_lateral","source":"Yard24.ru"}}},{"type":"Feature","geometry":{"type":"Point","coordinates":[93.2986481,58.1593869]},"properties":{"osm_id":5468550586,"osm_type":"node","seamark_type":"buoy_lateral","display_class":"OTHER","min_zoom":12,"importance":1,"name":null,"ref":null,"common":{"type":"buoy_lateral"},"children":{"buoy_lateral":{"colour":"white"},"light":{"colour":"green"}},"osm_tags":{"seamark:buoy_lateral:colour":"white","seamark:light:colour":"green","seamark:type":"buoy_lateral","source":"Yard24.ru"}}},{"type":"Feature","geometry":{"type":"Point","coordinates":[93.3108435,58.1612657]},"properties":{"osm_id":5468550587,"osm_type":"node","seamark_type":"buoy_lateral","display_class":"OTHER","min_zoom":12,"importance":1,"name":null,"ref":null,"common":{"type":"buoy_lateral"},"children":{"buoy_lateral":{"colour":"white"},"light":{"colour":"green"}},"osm_tags":{"seamark:buoy_lateral:colour":"white","seamark:light:colour":"green","seamark:type":"buoy_lateral","source":"Yard24.ru"}}},{"type":"Feature","geometry":{"type":"Point","coordinates":[93.3204301,58.1626747]},"properties":{"osm_id":5468550588,"osm_type":"node","seamark_type":"buoy_lateral","display_class":"OTHER","min_zoom":12,"importance":1,"name":null,"ref":null,"common":{"type":"buoy_lateral"},"children":{"buoy_lateral":{"colour":"white"},"light":{"colour":"green"}},"osm_tags":{"seamark:buoy_lateral:colour":"white","seamark:light:colour":"green","seamark:type":"buoy_lateral","source":"Yard24.ru"}}},{"type":"Feature","geometry":{"type":"Point","coordinates":[93.3274388,58.1633792]},"properties":{"osm_id":5468550589,"osm_type":"node","seamark_type":"buoy_lateral","display_class":"OTHER","min_zoom":12,"importance":1,"name":null,"ref":null,"common":{"type":"buoy_lateral"},"children":{"buoy_lateral":{"colour":"white"},"light":{"colour":"green"}},"osm_tags":{"seamark:buoy_lateral:colour":"white","seamark:light:colour":"green","seamark:type":"buoy_lateral","source":"Yard24.ru"}}},{"type":"Feature","geometry":{"type":"Point","coordinates":[93.3335158,58.165416]},"properties":{"osm_id":5468550590,"osm_type":"node","seamark_type":"buoy_lateral","display_class":"OTHER","min_zoom":12,"importance":1,"name":null,"ref":null,"common":{"type":"buoy_lateral"},"children":{"buoy_lateral":{"colour":"white"},"light":{"colour":"green"}},"osm_tags":{"seamark:buoy_lateral:colour":"white","seamark:light:colour":"green","seamark:type":"buoy_lateral","source":"Yard24.ru"}}},{"type":"Feature","geometry":{"type":"Point","coordinates":[93.3633624,58.1703795]},"properties":{"osm_id":5468550591,"osm_type":"node","seamark_type":"buoy_lateral","display_class":"OTHER","min_zoom":12,"importance":1,"name":null,"ref":null,"common":{"type":"buoy_lateral"},"children":{"buoy_lateral":{"colour":"white"},"light":{"colour":"green"}},"osm_tags":{"seamark:buoy_lateral:colour":"white","seamark:light:colour":"green","seamark:type":"buoy_lateral","source":"Yard24.ru"}}},{"type":"Feature","geometry":{"type":"Point","coordinates":[93.3810033,58.1686159]},"properties":{"osm_id":5468550592,"osm_type":"node","seamark_type":"buoy_lateral","display_class":"OTHER","min_zoom":12,"importance":1,"name":null,"ref":null,"common":{"type":"buoy_lateral"},"children":{"buoy_lateral":{"colour":"white"},"light":{"colour":"green"}},"osm_tags":{"seamark:buoy_lateral:colour":"white","seamark:light:colour":"green","seamark:type":"buoy_lateral","source":"Yard24.ru"}}},{"type":"Feature","geometry":{"type":"Point","coordinates":[93.4069523,58.1600723]},"properties":{"osm_id":5468550593,"osm_type":"node","seamark_type":"buoy_lateral","display_class":"OTHER","min_zoom":12,"importance":1,"name":null,"ref":null,"common":{"type":"buoy_lateral"},"children":{"buoy_lateral":{"colour":"white"},"light":{"colour":"green"}},"osm_tags":{"seamark:buoy_lateral:colour":"white","seamark:light:colour":"green","seamark:type":"buoy_lateral","source":"Yard24.ru"}}},{"type":"Feature","geometry":{"type":"Point","coordinates":[93.4121148,58.1590375]},"properties":{"osm_id":5468550594,"osm_type":"node","seamark_type":"buoy_lateral","display_class":"OTHER","min_zoom":12,"importance":1,"name":null,"ref":null,"common":{"type":"buoy_lateral"},"children":{"buoy_lateral":{"colour":"white"},"light":{"colour":"green"}},"osm_tags":{"seamark:buoy_lateral:colour":"white","seamark:light:colour":"green","seamark:type":"buoy_lateral","source":"Yard24.ru"}}},{"type":"Feature","geometry":{"type":"Point","coordinates":[93.4149864,58.1568354]},"properties":{"osm_id":5468550595,"osm_type":"node","seamark_type":"buoy_lateral","display_class":"OTHER","min_zoom":12,"importance":1,"name":null,"ref":null,"common":{"type":"buoy_lateral"},"children":{"buoy_lateral":{"colour":"white"},"light":{"colour":"green"}},"osm_tags":{"seamark:buoy_lateral:colour":"white","seamark:light:colour":"green","seamark:type":"buoy_lateral","source":"Yard24.ru"}}},{"type":"Feature","geometry":{"type":"Point","coordinates":[93.4178971,58.1547735]},"properties":{"osm_id":5468550596,"osm_type":"node","seamark_type":"buoy_lateral","display_class":"OTHER","min_zoom":12,"importance":1,"name":null,"ref":null,"common":{"type":"buoy_lateral"},"children":{"buoy_lateral":{"colour":"white"},"light":{"colour":"green"}},"osm_tags":{"seamark:buoy_lateral:colour":"white","seamark:light:colour":"green","seamark:type":"buoy_lateral","source":"Yard24.ru"}}},{"type":"Feature","geometry":{"type":"Point","coordinates":[93.4215381,58.1520058]},"properties":{"osm_id":5468550597,"osm_type":"node","seamark_type":"buoy_lateral","display_class":"OTHER","min_zoom":12,"importance":1,"name":null,"ref":null,"common":{"type":"buoy_lateral"},"children":{"buoy_lateral":{"colour":"white"},"light":{"colour":"green"}},"osm_tags":{"seamark:buoy_lateral:colour":"white","seamark:light:colour":"green","seamark:type":"buoy_lateral","source":"Yard24.ru"}}},{"type":"Feature","geometry":{"type":"Point","coordinates":[93.4253414,58.1442533]},"properties":{"osm_id":5468550598,"osm_type":"node","seamark_type":"buoy_lateral","display_class":"OTHER","min_zoom":12,"importance":1,"name":null,"ref":null,"common":{"type":"buoy_lateral"},"children":{"buoy_lateral":{"colour":"white"},"light":{"colour":"green"}},"osm_tags":{"seamark:buoy_lateral:colour":"white","seamark:light:colour":"green","seamark:type":"buoy_lateral","source":"Yard24.ru"}}},{"type":"Feature","geometry":{"type":"Point","coordinates":[93.4347144,58.1408189]},"properties":{"osm_id":5468550599,"osm_type":"node","seamark_type":"buoy_lateral","display_class":"OTHER","min_zoom":12,"importance":1,"name":null,"ref":null,"common":{"type":"buoy_lateral"},"children":{"buoy_lateral":{"colour":"white"},"light":{"colour":"green"}},"osm_tags":{"seamark:buoy_lateral:colour":"white","seamark:light:colour":"green","seamark:type":"buoy_lateral","source":"Yard24.ru"}}},{"type":"Feature","geometry":{"type":"Point","coordinates":[93.4620583,58.1370511]},"properties":{"osm_id":5468550600,"osm_type":"node","seamark_type":"buoy_lateral","display_class":"OTHER","min_zoom":12,"importance":1,"name":null,"ref":null,"common":{"type":"buoy_lateral"},"children":{"buoy_lateral":{"colour":"white"},"light":{"colour":"green"}},"osm_tags":{"seamark:buoy_lateral:colour":"white","seamark:light:colour":"green","seamark:type":"buoy_lateral","source":"Yard24.ru"}}},{"type":"Feature","geometry":{"type":"Point","coordinates":[93.4920879,58.1352241]},"properties":{"osm_id":5468550601,"osm_type":"node","seamark_type":"buoy_lateral","display_class":"OTHER","min_zoom":12,"importance":1,"name":null,"ref":null,"common":{"type":"buoy_lateral"},"children":{"buoy_lateral":{"colour":"white"},"light":{"colour":"green"}},"osm_tags":{"seamark:buoy_lateral:colour":"white","seamark:light:colour":"green","seamark:type":"buoy_lateral","source":"Yard24.ru"}}},{"type":"Feature","geometry":{"type":"Point","coordinates":[93.5125453,58.1336502]},"properties":{"osm_id":5468550602,"osm_type":"node","seamark_type":"buoy_lateral","display_class":"OTHER","min_zoom":12,"importance":1,"name":null,"ref":null,"common":{"type":"buoy_lateral"},"children":{"buoy_lateral":{"colour":"white"},"light":{"colour":"green"}},"osm_tags":{"seamark:buoy_lateral:colour":"white","seamark:light:colour":"green","seamark:type":"buoy_lateral","source":"Yard24.ru"}}},{"type":"Feature","geometry":{"type":"Point","coordinates":[93.836664,58.1094077]},"properties":{"osm_id":5468550603,"osm_type":"node","seamark_type":"buoy_lateral","display_class":"OTHER","min_zoom":12,"importance":1,"name":null,"ref":null,"common":{"type":"buoy_lateral"},"children":{"buoy_lateral":{"colour":"white"},"light":{"colour":"green"}},"osm_tags":{"seamark:buoy_lateral:colour":"white","seamark:light:colour":"green","seamark:type":"buoy_lateral","source":"Yard24.ru"}}},{"type":"Feature","geometry":{"type":"Point","coordinates":[93.8642536,58.1010383]},"properties":{"osm_id":5468550604,"osm_type":"node","seamark_type":"buoy_lateral","display_class":"OTHER","min_zoom":12,"importance":1,"name":null,"ref":null,"common":{"type":"buoy_lateral"},"children":{"buoy_lateral":{"colour":"white"},"light":{"colour":"green"}},"osm_tags":{"seamark:buoy_lateral:colour":"white","seamark:light:colour":"green","seamark:type":"buoy_lateral","source":"Yard24.ru"}}},{"type":"Feature","geometry":{"type":"Point","coordinates":[93.8686123,58.0961985]},"properties":{"osm_id":5468550605,"osm_type":"node","seamark_type":"buoy_lateral","display_class":"OTHER","min_zoom":12,"importance":1,"name":null,"ref":null,"common":{"type":"buoy_lateral"},"children":{"buoy_lateral":{"colour":"white"},"light":{"colour":"green"}},"osm_tags":{"seamark:buoy_lateral:colour":"white","seamark:light:colour":"green","seamark:type":"buoy_lateral","source":"Yard24.ru"}}},{"type":"Feature","geometry":{"type":"Point","coordinates":[93.9433574,58.0998381]},"properties":{"osm_id":5468550606,"osm_type":"node","seamark_type":"buoy_lateral","display_class":"OTHER","min_zoom":12,"importance":1,"name":null,"ref":null,"common":{"type":"buoy_lateral"},"children":{"buoy_lateral":{"colour":"white"},"light":{"colour":"green"}},"osm_tags":{"seamark:buoy_lateral:colour":"white","seamark:light:colour":"green","seamark:type":"buoy_lateral","source":"Yard24.ru"}}},{"type":"Feature","geometry":{"type":"Point","coordinates":[93.9609155,58.1022123]},"properties":{"osm_id":5468550607,"osm_type":"node","seamark_type":"buoy_lateral","display_class":"OTHER","min_zoom":12,"importance":1,"name":null,"ref":null,"common":{"type":"buoy_lateral"},"children":{"buoy_lateral":{"colour":"white"},"light":{"colour":"green"}},"osm_tags":{"seamark:buoy_lateral:colour":"white","seamark:light:colour":"green","seamark:type":"buoy_lateral","source":"Yard24.ru"}}},{"type":"Feature","geometry":{"type":"Point","coordinates":[93.9713306,58.1077031]},"properties":{"osm_id":5468550608,"osm_type":"node","seamark_type":"buoy_lateral","display_class":"OTHER","min_zoom":12,"importance":1,"name":null,"ref":null,"common":{"type":"buoy_lateral"},"children":{"buoy_lateral":{"colour":"white"},"light":{"colour":"green"}},"osm_tags":{"seamark:buoy_lateral:colour":"white","seamark:light:colour":"green","seamark:type":"buoy_lateral","source":"Yard24.ru"}}},{"type":"Feature","geometry":{"type":"Point","coordinates":[93.9822577,58.1101119]},"properties":{"osm_id":5468550609,"osm_type":"node","seamark_type":"buoy_lateral","display_class":"OTHER","min_zoom":12,"importance":1,"name":null,"ref":null,"common":{"type":"buoy_lateral"},"children":{"buoy_lateral":{"colour":"white"},"light":{"colour":"green"}},"osm_tags":{"seamark:buoy_lateral:colour":"white","seamark:light:colour":"green","seamark:type":"buoy_lateral","source":"Yard24.ru"}}},{"type":"Feature","geometry":{"type":"Point","coordinates":[93.9924706,58.1130692]},"properties":{"osm_id":5468550610,"osm_type":"node","seamark_type":"buoy_lateral","display_class":"OTHER","min_zoom":12,"importance":1,"name":null,"ref":null,"common":{"type":"buoy_lateral"},"children":{"buoy_lateral":{"colour":"white"},"light":{"colour":"green"}},"osm_tags":{"seamark:buoy_lateral:colour":"white","seamark:light:colour":"green","seamark:type":"buoy_lateral","source":"Yard24.ru"}}},{"type":"Feature","geometry":{"type":"Point","coordinates":[93.0021431,58.0054437]},"properties":{"osm_id":5468603847,"osm_type":"node","seamark_type":"buoy_lateral","display_class":"OTHER","min_zoom":12,"importance":1,"name":null,"ref":null,"common":{"type":"buoy_lateral"},"children":{"buoy_lateral":{"colour":"white"},"light":{"colour":"green"}},"osm_tags":{"seamark:buoy_lateral:colour":"white","seamark:light:colour":"green","seamark:type":"buoy_lateral","source":"Yard24.ru"}}},{"type":"Feature","geometry":{"type":"Point","coordinates":[93.0354879,58.0004133]},"properties":{"osm_id":5468603848,"osm_type":"node","seamark_type":"buoy_lateral","display_class":"OTHER","min_zoom":12,"importance":1,"name":null,"ref":null,"common":{"type":"buoy_lateral"},"children":{"buoy_lateral":{"colour":"white"},"light":{"colour":"green"}},"osm_tags":{"seamark:buoy_lateral:colour":"white","seamark:light:colour":"green","seamark:type":"buoy_lateral","source":"Yard24.ru"}}},{"type":"Feature","geometry":{"type":"Point","coordinates":[93.056776,58.0002302]},"properties":{"osm_id":5468603849,"osm_type":"node","seamark_type":"buoy_lateral","display_class":"OTHER","min_zoom":12,"importance":1,"name":null,"ref":null,"common":{"type":"buoy_lateral"},"children":{"buoy_lateral":{"colour":"white"},"light":{"colour":"green"}},"osm_tags":{"seamark:buoy_lateral:colour":"white","seamark:light:colour":"green","seamark:type":"buoy_lateral","source":"Yard24.ru"}}},{"type":"Feature","geometry":{"type":"Point","coordinates":[93.0650549,58.002999]},"properties":{"osm_id":5468603850,"osm_type":"node","seamark_type":"buoy_lateral","display_class":"OTHER","min_zoom":12,"importance":1,"name":null,"ref":null,"common":{"type":"buoy_lateral"},"children":{"buoy_lateral":{"colour":"white"},"light":{"colour":"green"}},"osm_tags":{"seamark:buoy_lateral:colour":"white","seamark:light:colour":"green","seamark:type":"buoy_lateral","source":"Yard24.ru"}}},{"type":"Feature","geometry":{"type":"Point","coordinates":[93.0913057,58.0042312]},"properties":{"osm_id":5468603851,"osm_type":"node","seamark_type":"buoy_lateral","display_class":"OTHER","min_zoom":12,"importance":1,"name":null,"ref":null,"common":{"type":"buoy_lateral"},"children":{"buoy_lateral":{"colour":"white"},"light":{"colour":"green"}},"osm_tags":{"seamark:buoy_lateral:colour":"white","seamark:light:colour":"green","seamark:type":"buoy_lateral","source":"Yard24.ru"}}},{"type":"Feature","geometry":{"type":"Point","coordinates":[93.0987976,58.0004188]},"properties":{"osm_id":5468603852,"osm_type":"node","seamark_type":"buoy_lateral","display_class":"OTHER","min_zoom":12,"importance":1,"name":null,"ref":null,"common":{"type":"buoy_lateral"},"children":{"buoy_lateral":{"colour":"white"},"light":{"colour":"green"}},"osm_tags":{"seamark:buoy_lateral:colour":"white","seamark:light:colour":"green","seamark:type":"buoy_lateral","source":"Yard24.ru"}}},{"type":"Feature","geometry":{"type":"Point","coordinates":[93.1167393,58.0119769]},"properties":{"osm_id":5468603853,"osm_type":"node","seamark_type":"buoy_lateral","display_class":"OTHER","min_zoom":12,"importance":1,"name":null,"ref":null,"common":{"type":"buoy_lateral"},"children":{"buoy_lateral":{"colour":"white"},"light":{"colour":"green"}},"osm_tags":{"seamark:buoy_lateral:colour":"white","seamark:light:colour":"green","seamark:type":"buoy_lateral","source":"Yard24.ru"}}},{"type":"Feature","geometry":{"type":"Point","coordinates":[93.1202816,58.0153787]},"properties":{"osm_id":5468603854,"osm_type":"node","seamark_type":"buoy_lateral","display_class":"OTHER","min_zoom":12,"importance":1,"name":null,"ref":null,"common":{"type":"buoy_lateral"},"children":{"buoy_lateral":{"colour":"white"},"light":{"colour":"green"}},"osm_tags":{"seamark:buoy_lateral:colour":"white","seamark:light:colour":"green","seamark:type":"buoy_lateral","source":"Yard24.ru"}}},{"type":"Feature","geometry":{"type":"Point","coordinates":[93.1547898,58.0241049]},"properties":{"osm_id":5468603855,"osm_type":"node","seamark_type":"buoy_lateral","display_class":"OTHER","min_zoom":12,"importance":1,"name":null,"ref":null,"common":{"type":"buoy_lateral"},"children":{"buoy_lateral":{"colour":"white"},"light":{"colour":"green"}},"osm_tags":{"seamark:buoy_lateral:colour":"white","seamark:light:colour":"green","seamark:type":"buoy_lateral","source":"Yard24.ru"}}},{"type":"Feature","geometry":{"type":"Point","coordinates":[93.214516,58.0088394]},"properties":{"osm_id":5468827259,"osm_type":"node","seamark_type":"buoy_lateral","display_class":"OTHER","min_zoom":12,"importance":1,"name":null,"ref":null,"common":{"type":"buoy_lateral"},"children":{"buoy_lateral":{"colour":"red"},"light":{"colour":"red"}},"osm_tags":{"seamark:buoy_lateral:colour":"red","seamark:light:colour":"red","seamark:type":"buoy_lateral","source":"Yard24.ru"}}},{"type":"Feature","geometry":{"type":"Point","coordinates":[93.1672609,58.0270999]},"properties":{"osm_id":5468827260,"osm_type":"node","seamark_type":"buoy_lateral","display_class":"OTHER","min_zoom":12,"importance":1,"name":null,"ref":null,"common":{"type":"buoy_lateral"},"children":{"buoy_lateral":{"colour":"red"},"light":{"colour":"red"}},"osm_tags":{"seamark:buoy_lateral:colour":"red","seamark:light:colour":"red","seamark:type":"buoy_lateral","source":"Yard24.ru"}}},{"type":"Feature","geometry":{"type":"Point","coordinates":[93.1075005,58.0056133]},"properties":{"osm_id":5468827261,"osm_type":"node","seamark_type":"buoy_lateral","display_class":"OTHER","min_zoom":12,"importance":1,"name":null,"ref":null,"common":{"type":"buoy_lateral"},"children":{"buoy_lateral":{"colour":"red"},"light":{"colour":"red"}},"osm_tags":{"seamark:buoy_lateral:colour":"red","seamark:light:colour":"red","seamark:type":"buoy_lateral","source":"Yard24.ru"}}},{"type":"Feature","geometry":{"type":"Point","coordinates":[93.1003872,58.0044983]},"properties":{"osm_id":5468827262,"osm_type":"node","seamark_type":"buoy_lateral","display_class":"OTHER","min_zoom":12,"importance":1,"name":null,"ref":null,"common":{"type":"buoy_lateral"},"children":{"buoy_lateral":{"colour":"red"},"light":{"colour":"red"}},"osm_tags":{"seamark:buoy_lateral:colour":"red","seamark:light:colour":"red","seamark:type":"buoy_lateral","source":"Yard24.ru"}}},{"type":"Feature","geometry":{"type":"Point","coordinates":[93.0878659,58.0004347]},"properties":{"osm_id":5468827263,"osm_type":"node","seamark_type":"buoy_lateral","display_class":"OTHER","min_zoom":12,"importance":1,"name":null,"ref":null,"common":{"type":"buoy_lateral"},"children":{"buoy_lateral":{"colour":"red"},"light":{"colour":"red"}},"osm_tags":{"seamark:buoy_lateral:colour":"red","seamark:light:colour":"red","seamark:type":"buoy_lateral","source":"Yard24.ru"}}},{"type":"Feature","geometry":{"type":"Point","coordinates":[93.0717106,58.00075]},"properties":{"osm_id":5468827264,"osm_type":"node","seamark_type":"buoy_lateral","display_class":"OTHER","min_zoom":12,"importance":1,"name":null,"ref":null,"common":{"type":"buoy_lateral"},"children":{"buoy_lateral":{"colour":"red"},"light":{"colour":"red"}},"osm_tags":{"seamark:buoy_lateral:colour":"red","seamark:light:colour":"red","seamark:type":"buoy_lateral","source":"Yard24.ru"}}},{"type":"Feature","geometry":{"type":"Point","coordinates":[93.0431499,58.0020561]},"properties":{"osm_id":5468827265,"osm_type":"node","seamark_type":"buoy_lateral","display_class":"OTHER","min_zoom":12,"importance":1,"name":null,"ref":null,"common":{"type":"buoy_lateral"},"children":{"buoy_lateral":{"colour":"red"},"light":{"colour":"red"}},"osm_tags":{"seamark:buoy_lateral:colour":"red","seamark:light:colour":"red","seamark:type":"buoy_lateral","source":"Yard24.ru"}}},{"type":"Feature","geometry":{"type":"Point","coordinates":[93.0030331,58.0898634]},"properties":{"osm_id":5468827271,"osm_type":"node","seamark_type":"buoy_lateral","display_class":"OTHER","min_zoom":12,"importance":1,"name":null,"ref":null,"common":{"type":"buoy_lateral"},"children":{"buoy_lateral":{"colour":"red"},"light":{"colour":"red"}},"osm_tags":{"seamark:buoy_lateral:colour":"red","seamark:light:colour":"red","seamark:type":"buoy_lateral","source":"Yard24.ru"}}},{"type":"Feature","geometry":{"type":"Point","coordinates":[93.0009217,58.0942567]},"properties":{"osm_id":5468827273,"osm_type":"node","seamark_type":"buoy_lateral","display_class":"OTHER","min_zoom":12,"importance":1,"name":null,"ref":null,"common":{"type":"buoy_lateral"},"children":{"buoy_lateral":{"colour":"red"},"light":{"colour":"red"}},"osm_tags":{"seamark:buoy_lateral:colour":"red","seamark:light:colour":"red","seamark:type":"buoy_lateral","source":"Yard24.ru"}}},{"type":"Feature","geometry":{"type":"Point","coordinates":[93.0029663,58.0969421]},"properties":{"osm_id":5468827274,"osm_type":"node","seamark_type":"buoy_lateral","display_class":"OTHER","min_zoom":12,"importance":1,"name":null,"ref":null,"common":{"type":"buoy_lateral"},"children":{"buoy_lateral":{"colour":"red"},"light":{"colour":"red"}},"osm_tags":{"seamark:buoy_lateral:colour":"red","seamark:light:colour":"red","seamark:type":"buoy_lateral","source":"Yard24.ru"}}},{"type":"Feature","geometry":{"type":"Point","coordinates":[93.0174806,58.0962044]},"properties":{"osm_id":5468827276,"osm_type":"node","seamark_type":"buoy_lateral","display_class":"OTHER","min_zoom":12,"importance":1,"name":null,"ref":null,"common":{"type":"buoy_lateral"},"children":{"buoy_lateral":{"colour":"red"},"light":{"colour":"red"}},"osm_tags":{"seamark:buoy_lateral:colour":"red","seamark:light:colour":"red","seamark:type":"buoy_lateral","source":"Yard24.ru"}}},{"type":"Feature","geometry":{"type":"Point","coordinates":[93.0232956,58.0934713]},"properties":{"osm_id":5468827277,"osm_type":"node","seamark_type":"buoy_lateral","display_class":"OTHER","min_zoom":12,"importance":1,"name":null,"ref":null,"common":{"type":"buoy_lateral"},"children":{"buoy_lateral":{"colour":"red"},"light":{"colour":"red"}},"osm_tags":{"seamark:buoy_lateral:colour":"red","seamark:light:colour":"red","seamark:type":"buoy_lateral","source":"Yard24.ru"}}},{"type":"Feature","geometry":{"type":"Point","coordinates":[93.0220955,58.1044747]},"properties":{"osm_id":5468827278,"osm_type":"node","seamark_type":"buoy_lateral","display_class":"OTHER","min_zoom":12,"importance":1,"name":null,"ref":null,"common":{"type":"buoy_lateral"},"children":{"buoy_lateral":{"colour":"red"},"light":{"colour":"red"}},"osm_tags":{"seamark:buoy_lateral:colour":"red","seamark:light:colour":"red","seamark:type":"buoy_lateral","source":"Yard24.ru"}}},{"type":"Feature","geometry":{"type":"Point","coordinates":[93.9916651,58.1135415]},"properties":{"osm_id":5468875875,"osm_type":"node","seamark_type":"buoy_lateral","display_class":"OTHER","min_zoom":12,"importance":1,"name":null,"ref":null,"common":{"type":"buoy_lateral"},"children":{"buoy_lateral":{"colour":"red"},"light":{"colour":"red"}},"osm_tags":{"seamark:buoy_lateral:colour":"red","seamark:light:colour":"red","seamark:type":"buoy_lateral","source":"Yard24.ru"}}},{"type":"Feature","geometry":{"type":"Point","coordinates":[93.9809484,58.1109166]},"properties":{"osm_id":5468875876,"osm_type":"node","seamark_type":"buoy_lateral","display_class":"OTHER","min_zoom":12,"importance":1,"name":null,"ref":null,"common":{"type":"buoy_lateral"},"children":{"buoy_lateral":{"colour":"red"},"light":{"colour":"red"}},"osm_tags":{"seamark:buoy_lateral:colour":"red","seamark:light:colour":"red","seamark:type":"buoy_lateral","source":"Yard24.ru"}}},{"type":"Feature","geometry":{"type":"Point","coordinates":[93.9713849,58.1082307]},"properties":{"osm_id":5468875877,"osm_type":"node","seamark_type":"buoy_lateral","display_class":"OTHER","min_zoom":12,"importance":1,"name":null,"ref":null,"common":{"type":"buoy_lateral"},"children":{"buoy_lateral":{"colour":"red"},"light":{"colour":"red"}},"osm_tags":{"seamark:buoy_lateral:colour":"red","seamark:light:colour":"red","seamark:type":"buoy_lateral","source":"Yard24.ru"}}},{"type":"Feature","geometry":{"type":"Point","coordinates":[93.9516963,58.1013935]},"properties":{"osm_id":5468875879,"osm_type":"node","seamark_type":"buoy_lateral","display_class":"OTHER","min_zoom":12,"importance":1,"name":null,"ref":null,"common":{"type":"buoy_lateral"},"children":{"buoy_lateral":{"colour":"red"},"light":{"colour":"red"}},"osm_tags":{"seamark:buoy_lateral:colour":"red","seamark:light:colour":"red","seamark:type":"buoy_lateral","source":"Yard24.ru"}}},{"type":"Feature","geometry":{"type":"Point","coordinates":[93.9483997,58.0963784]},"properties":{"osm_id":5468875880,"osm_type":"node","seamark_type":"buoy_lateral","display_class":"OTHER","min_zoom":12,"importance":1,"name":null,"ref":null,"common":{"type":"buoy_lateral"},"children":{"buoy_lateral":{"colour":"red"},"light":{"colour":"red"}},"osm_tags":{"seamark:buoy_lateral:colour":"red","seamark:light:colour":"red","seamark:type":"buoy_lateral","source":"Yard24.ru"}}},{"type":"Feature","geometry":{"type":"Point","coordinates":[93.9226623,58.1016956]},"properties":{"osm_id":5468875881,"osm_type":"node","seamark_type":"buoy_lateral","display_class":"OTHER","min_zoom":12,"importance":1,"name":null,"ref":null,"common":{"type":"buoy_lateral"},"children":{"buoy_lateral":{"colour":"red"},"light":{"colour":"red"}},"osm_tags":{"seamark:buoy_lateral:colour":"red","seamark:light:colour":"red","seamark:type":"buoy_lateral","source":"Yard24.ru"}}},{"type":"Feature","geometry":{"type":"Point","coordinates":[93.9116021,58.1018263]},"properties":{"osm_id":5468875882,"osm_type":"node","seamark_type":"buoy_lateral","display_class":"OTHER","min_zoom":12,"importance":1,"name":null,"ref":null,"common":{"type":"buoy_lateral"},"children":{"buoy_lateral":{"colour":"red"},"light":{"colour":"red"}},"osm_tags":{"seamark:buoy_lateral:colour":"red","seamark:light:colour":"red","seamark:type":"buoy_lateral","source":"Yard24.ru"}}},{"type":"Feature","geometry":{"type":"Point","coordinates":[93.8959916,58.1003156]},"properties":{"osm_id":5468875883,"osm_type":"node","seamark_type":"buoy_lateral","display_class":"OTHER","min_zoom":12,"importance":1,"name":null,"ref":null,"common":{"type":"buoy_lateral"},"children":{"buoy_lateral":{"colour":"red"},"light":{"colour":"red"}},"osm_tags":{"seamark:buoy_lateral:colour":"red","seamark:light:colour":"red","seamark:type":"buoy_lateral","source":"Yard24.ru"}}},{"type":"Feature","geometry":{"type":"Point","coordinates":[93.8315674,58.1132125]},"properties":{"osm_id":5468875884,"osm_type":"node","seamark_type":"buoy_lateral","display_class":"OTHER","min_zoom":12,"importance":1,"name":null,"ref":null,"common":{"type":"buoy_lateral"},"children":{"buoy_lateral":{"colour":"red"},"light":{"colour":"red"}},"osm_tags":{"seamark:buoy_lateral:colour":"red","seamark:light:colour":"red","seamark:type":"buoy_lateral","source":"Yard24.ru"}}},{"type":"Feature","geometry":{"type":"Point","coordinates":[93.7593502,58.1051114]},"properties":{"osm_id":5468875885,"osm_type":"node","seamark_type":"buoy_lateral","display_class":"OTHER","min_zoom":12,"importance":1,"name":null,"ref":null,"common":{"type":"buoy_lateral"},"children":{"buoy_lateral":{"colour":"red"},"light":{"colour":"red"}},"osm_tags":{"seamark:buoy_lateral:colour":"red","seamark:light:colour":"red","seamark:type":"buoy_lateral","source":"Yard24.ru"}}},{"type":"Feature","geometry":{"type":"Point","coordinates":[93.727131,58.1140551]},"properties":{"osm_id":5468875886,"osm_type":"node","seamark_type":"buoy_lateral","display_class":"OTHER","min_zoom":12,"importance":1,"name":null,"ref":null,"common":{"type":"buoy_lateral"},"children":{"buoy_lateral":{"colour":"red"},"light":{"colour":"red"}},"osm_tags":{"seamark:buoy_lateral:colour":"red","seamark:light:colour":"red","seamark:type":"buoy_lateral","source":"Yard24.ru"}}},{"type":"Feature","geometry":{"type":"Point","coordinates":[93.5891091,58.1112986]},"properties":{"osm_id":5468875887,"osm_type":"node","seamark_type":"buoy_lateral","display_class":"OTHER","min_zoom":12,"importance":1,"name":null,"ref":null,"common":{"type":"buoy_lateral"},"children":{"buoy_lateral":{"colour":"red"},"light":{"colour":"red"}},"osm_tags":{"seamark:buoy_lateral:colour":"red","seamark:light:colour":"red","seamark:type":"buoy_lateral","source":"Yard24.ru"}}},{"type":"Feature","geometry":{"type":"Point","coordinates":[93.565579,58.1152558]},"properties":{"osm_id":5468875888,"osm_type":"node","seamark_type":"buoy_lateral","display_class":"OTHER","min_zoom":12,"importance":1,"name":null,"ref":null,"common":{"type":"buoy_lateral"},"children":{"buoy_lateral":{"colour":"red"},"light":{"colour":"red"}},"osm_tags":{"seamark:buoy_lateral:colour":"red","seamark:light:colour":"red","seamark:type":"buoy_lateral","source":"Yard24.ru"}}},{"type":"Feature","geometry":{"type":"Point","coordinates":[93.5566685,58.120761]},"properties":{"osm_id":5468875889,"osm_type":"node","seamark_type":"buoy_lateral","display_class":"OTHER","min_zoom":12,"importance":1,"name":null,"ref":null,"common":{"type":"buoy_lateral"},"children":{"buoy_lateral":{"colour":"red"},"light":{"colour":"red"}},"osm_tags":{"seamark:buoy_lateral:colour":"red","seamark:light:colour":"red","seamark:type":"buoy_lateral","source":"Yard24.ru"}}},{"type":"Feature","geometry":{"type":"Point","coordinates":[93.516235,58.1349931]},"properties":{"osm_id":5468875890,"osm_type":"node","seamark_type":"buoy_lateral","display_class":"OTHER","min_zoom":12,"importance":1,"name":null,"ref":null,"common":{"type":"buoy_lateral"},"children":{"buoy_lateral":{"colour":"red"},"light":{"colour":"red"}},"osm_tags":{"seamark:buoy_lateral:colour":"red","seamark:light:colour":"red","seamark:type":"buoy_lateral","source":"Yard24.ru"}}},{"type":"Feature","geometry":{"type":"Point","coordinates":[93.4933206,58.1357011]},"properties":{"osm_id":5468875891,"osm_type":"node","seamark_type":"buoy_lateral","display_class":"OTHER","min_zoom":12,"importance":1,"name":null,"ref":null,"common":{"type":"buoy_lateral"},"children":{"buoy_lateral":{"colour":"red"},"light":{"colour":"red"}},"osm_tags":{"seamark:buoy_lateral:colour":"red","seamark:light:colour":"red","seamark:type":"buoy_lateral","source":"Yard24.ru"}}},{"type":"Feature","geometry":{"type":"Point","coordinates":[93.4596801,58.1384469]},"properties":{"osm_id":5468875892,"osm_type":"node","seamark_type":"buoy_lateral","display_class":"OTHER","min_zoom":12,"importance":1,"name":null,"ref":null,"common":{"type":"buoy_lateral"},"children":{"buoy_lateral":{"colour":"red"},"light":{"colour":"red"}},"osm_tags":{"seamark:buoy_lateral:colour":"red","seamark:light:colour":"red","seamark:type":"buoy_lateral","source":"Yard24.ru"}}},{"type":"Feature","geometry":{"type":"Point","coordinates":[93.4518089,58.1413538]},"properties":{"osm_id":5468875893,"osm_type":"node","seamark_type":"buoy_lateral","display_class":"OTHER","min_zoom":12,"importance":1,"name":null,"ref":null,"common":{"type":"buoy_lateral"},"children":{"buoy_lateral":{"colour":"red"},"light":{"colour":"red"}},"osm_tags":{"seamark:buoy_lateral:colour":"red","seamark:light:colour":"red","seamark:type":"buoy_lateral","source":"Yard24.ru"}}},{"type":"Feature","geometry":{"type":"Point","coordinates":[93.4431521,58.1445997]},"properties":{"osm_id":5468875894,"osm_type":"node","seamark_type":"buoy_lateral","display_class":"OTHER","min_zoom":12,"importance":1,"name":null,"ref":null,"common":{"type":"buoy_lateral"},"children":{"buoy_lateral":{"colour":"red"},"light":{"colour":"red"}},"osm_tags":{"seamark:buoy_lateral:colour":"red","seamark:light:colour":"red","seamark:type":"buoy_lateral","source":"Yard24.ru"}}},{"type":"Feature","geometry":{"type":"Point","coordinates":[93.4340736,58.1413658]},"properties":{"osm_id":5468875895,"osm_type":"node","seamark_type":"buoy_lateral","display_class":"OTHER","min_zoom":12,"importance":1,"name":null,"ref":null,"common":{"type":"buoy_lateral"},"children":{"buoy_lateral":{"colour":"red"},"light":{"colour":"red"}},"osm_tags":{"seamark:buoy_lateral:colour":"red","seamark:light:colour":"red","seamark:type":"buoy_lateral","source":"Yard24.ru"}}},{"type":"Feature","geometry":{"type":"Point","coordinates":[93.4243131,58.1459981]},"properties":{"osm_id":5468875896,"osm_type":"node","seamark_type":"buoy_lateral","display_class":"OTHER","min_zoom":12,"importance":1,"name":null,"ref":null,"common":{"type":"buoy_lateral"},"children":{"buoy_lateral":{"colour":"red"},"light":{"colour":"red"}},"osm_tags":{"seamark:buoy_lateral:colour":"red","seamark:light:colour":"red","seamark:type":"buoy_lateral","source":"Yard24.ru"}}},{"type":"Feature","geometry":{"type":"Point","coordinates":[93.4253339,58.1492464]},"properties":{"osm_id":5468875898,"osm_type":"node","seamark_type":"buoy_lateral","display_class":"OTHER","min_zoom":12,"importance":1,"name":null,"ref":null,"common":{"type":"buoy_lateral"},"children":{"buoy_lateral":{"colour":"red"},"light":{"colour":"red"}},"osm_tags":{"seamark:buoy_lateral:colour":"red","seamark:light:colour":"red","seamark:type":"buoy_lateral","source":"Yard24.ru"}}},{"type":"Feature","geometry":{"type":"Point","coordinates":[93.422934,58.1520083]},"properties":{"osm_id":5468875899,"osm_type":"node","seamark_type":"buoy_lateral","display_class":"OTHER","min_zoom":12,"importance":1,"name":null,"ref":null,"common":{"type":"buoy_lateral"},"children":{"buoy_lateral":{"colour":"red"},"light":{"colour":"red"}},"osm_tags":{"seamark:buoy_lateral:colour":"red","seamark:light:colour":"red","seamark:type":"buoy_lateral","source":"Yard24.ru"}}},{"type":"Feature","geometry":{"type":"Point","coordinates":[93.4285452,58.1533443]},"properties":{"osm_id":5468875900,"osm_type":"node","seamark_type":"buoy_lateral","display_class":"OTHER","min_zoom":12,"importance":1,"name":null,"ref":null,"common":{"type":"buoy_lateral"},"children":{"buoy_lateral":{"colour":"red"},"light":{"colour":"red"}},"osm_tags":{"seamark:buoy_lateral:colour":"red","seamark:light:colour":"red","seamark:type":"buoy_lateral","source":"Yard24.ru"}}},{"type":"Feature","geometry":{"type":"Point","coordinates":[93.4186285,58.1550945]},"properties":{"osm_id":5468875901,"osm_type":"node","seamark_type":"buoy_lateral","display_class":"OTHER","min_zoom":12,"importance":1,"name":null,"ref":null,"common":{"type":"buoy_lateral"},"children":{"buoy_lateral":{"colour":"red"},"light":{"colour":"red"}},"osm_tags":{"seamark:buoy_lateral:colour":"red","seamark:light:colour":"red","seamark:type":"buoy_lateral","source":"Yard24.ru"}}},{"type":"Feature","geometry":{"type":"Point","coordinates":[93.4160751,58.1569625]},"properties":{"osm_id":5468875902,"osm_type":"node","seamark_type":"buoy_lateral","display_class":"OTHER","min_zoom":12,"importance":1,"name":null,"ref":null,"common":{"type":"buoy_lateral"},"children":{"buoy_lateral":{"colour":"red"},"light":{"colour":"red"}},"osm_tags":{"seamark:buoy_lateral:colour":"red","seamark:light:colour":"red","seamark:type":"buoy_lateral","source":"Yard24.ru"}}},{"type":"Feature","geometry":{"type":"Point","coordinates":[93.4127849,58.159386]},"properties":{"osm_id":5468875903,"osm_type":"node","seamark_type":"buoy_lateral","display_class":"OTHER","min_zoom":12,"importance":1,"name":null,"ref":null,"common":{"type":"buoy_lateral"},"children":{"buoy_lateral":{"colour":"red"},"light":{"colour":"red"}},"osm_tags":{"seamark:buoy_lateral:colour":"red","seamark:light:colour":"red","seamark:type":"buoy_lateral","source":"Yard24.ru"}}},{"type":"Feature","geometry":{"type":"Point","coordinates":[93.4069664,58.1614603]},"properties":{"osm_id":5468875904,"osm_type":"node","seamark_type":"buoy_lateral","display_class":"OTHER","min_zoom":12,"importance":1,"name":null,"ref":null,"common":{"type":"buoy_lateral"},"children":{"buoy_lateral":{"colour":"red"},"light":{"colour":"red"}},"osm_tags":{"seamark:buoy_lateral:colour":"red","seamark:light:colour":"red","seamark:type":"buoy_lateral","source":"Yard24.ru"}}},{"type":"Feature","geometry":{"type":"Point","coordinates":[93.4111002,58.1625656]},"properties":{"osm_id":5468875905,"osm_type":"node","seamark_type":"buoy_lateral","display_class":"OTHER","min_zoom":12,"importance":1,"name":null,"ref":null,"common":{"type":"buoy_lateral"},"children":{"buoy_lateral":{"colour":"red"},"light":{"colour":"red"}},"osm_tags":{"seamark:buoy_lateral:colour":"red","seamark:light:colour":"red","seamark:type":"buoy_lateral","source":"Yard24.ru"}}},{"type":"Feature","geometry":{"type":"Point","coordinates":[93.3964773,58.1636892]},"properties":{"osm_id":5468875906,"osm_type":"node","seamark_type":"buoy_lateral","display_class":"OTHER","min_zoom":12,"importance":1,"name":null,"ref":null,"common":{"type":"buoy_lateral"},"children":{"buoy_lateral":{"colour":"red"},"light":{"colour":"red"}},"osm_tags":{"seamark:buoy_lateral:colour":"red","seamark:light:colour":"red","seamark:type":"buoy_lateral","source":"Yard24.ru"}}},{"type":"Feature","geometry":{"type":"Point","coordinates":[93.3883888,58.1729297]},"properties":{"osm_id":5468875907,"osm_type":"node","seamark_type":"buoy_lateral","display_class":"OTHER","min_zoom":12,"importance":1,"name":null,"ref":null,"common":{"type":"buoy_lateral"},"children":{"buoy_lateral":{"colour":"red"},"light":{"colour":"red"}},"osm_tags":{"seamark:buoy_lateral:colour":"red","seamark:light:colour":"red","seamark:type":"buoy_lateral","source":"Yard24.ru"}}},{"type":"Feature","geometry":{"type":"Point","coordinates":[93.3815425,58.1689846]},"properties":{"osm_id":5468875908,"osm_type":"node","seamark_type":"buoy_lateral","display_class":"OTHER","min_zoom":12,"importance":1,"name":null,"ref":null,"common":{"type":"buoy_lateral"},"children":{"buoy_lateral":{"colour":"red"},"light":{"colour":"red"}},"osm_tags":{"seamark:buoy_lateral:colour":"red","seamark:light:colour":"red","seamark:type":"buoy_lateral","source":"Yard24.ru"}}},{"type":"Feature","geometry":{"type":"Point","coordinates":[93.3701297,58.1707251]},"properties":{"osm_id":5468875909,"osm_type":"node","seamark_type":"buoy_lateral","display_class":"OTHER","min_zoom":12,"importance":1,"name":null,"ref":null,"common":{"type":"buoy_lateral"},"children":{"buoy_lateral":{"colour":"red"},"light":{"colour":"red"}},"osm_tags":{"seamark:buoy_lateral:colour":"red","seamark:light:colour":"red","seamark:type":"buoy_lateral","source":"Yard24.ru"}}},{"type":"Feature","geometry":{"type":"Point","coordinates":[93.3633345,58.170867]},"properties":{"osm_id":5468875910,"osm_type":"node","seamark_type":"buoy_lateral","display_class":"OTHER","min_zoom":12,"importance":1,"name":null,"ref":null,"common":{"type":"buoy_lateral"},"children":{"buoy_lateral":{"colour":"red"},"light":{"colour":"red"}},"osm_tags":{"seamark:buoy_lateral:colour":"red","seamark:light:colour":"red","seamark:type":"buoy_lateral","source":"Yard24.ru"}}},{"type":"Feature","geometry":{"type":"Point","coordinates":[93.3681961,58.181203]},"properties":{"osm_id":5468875911,"osm_type":"node","seamark_type":"buoy_lateral","display_class":"OTHER","min_zoom":12,"importance":1,"name":null,"ref":null,"common":{"type":"buoy_lateral"},"children":{"buoy_lateral":{"colour":"red"},"light":{"colour":"red"}},"osm_tags":{"seamark:buoy_lateral:colour":"red","seamark:light:colour":"red","seamark:type":"buoy_lateral","source":"Yard24.ru"}}},{"type":"Feature","geometry":{"type":"Point","coordinates":[93.3504729,58.1701835]},"properties":{"osm_id":5468875912,"osm_type":"node","seamark_type":"buoy_lateral","display_class":"OTHER","min_zoom":12,"importance":1,"name":null,"ref":null,"common":{"type":"buoy_lateral"},"children":{"buoy_lateral":{"colour":"red"},"light":{"colour":"red"}},"osm_tags":{"seamark:buoy_lateral:colour":"red","seamark:light:colour":"red","seamark:type":"buoy_lateral","source":"Yard24.ru"}}},{"type":"Feature","geometry":{"type":"Point","coordinates":[93.3408634,58.1739591]},"properties":{"osm_id":5468875913,"osm_type":"node","seamark_type":"buoy_lateral","display_class":"OTHER","min_zoom":12,"importance":1,"name":null,"ref":null,"common":{"type":"buoy_lateral"},"children":{"buoy_lateral":{"colour":"red"},"light":{"colour":"red"}},"osm_tags":{"seamark:buoy_lateral:colour":"red","seamark:light:colour":"red","seamark:type":"buoy_lateral","source":"Yard24.ru"}}},{"type":"Feature","geometry":{"type":"Point","coordinates":[93.3206152,58.168826]},"properties":{"osm_id":5468875914,"osm_type":"node","seamark_type":"buoy_lateral","display_class":"OTHER","min_zoom":12,"importance":1,"name":null,"ref":null,"common":{"type":"buoy_lateral"},"children":{"buoy_lateral":{"colour":"red"},"light":{"colour":"red"}},"osm_tags":{"seamark:buoy_lateral:colour":"red","seamark:light:colour":"red","seamark:type":"buoy_lateral","source":"Yard24.ru"}}},{"type":"Feature","geometry":{"type":"Point","coordinates":[93.3212835,58.1633298]},"properties":{"osm_id":5468875915,"osm_type":"node","seamark_type":"buoy_lateral","display_class":"OTHER","min_zoom":12,"importance":1,"name":null,"ref":null,"common":{"type":"buoy_lateral"},"children":{"buoy_lateral":{"colour":"red"},"light":{"colour":"red"}},"osm_tags":{"seamark:buoy_lateral:colour":"red","seamark:light:colour":"red","seamark:type":"buoy_lateral","source":"Yard24.ru"}}},{"type":"Feature","geometry":{"type":"Point","coordinates":[93.3118696,58.1672769]},"properties":{"osm_id":5468875916,"osm_type":"node","seamark_type":"buoy_lateral","display_class":"OTHER","min_zoom":12,"importance":1,"name":null,"ref":null,"common":{"type":"buoy_lateral"},"children":{"buoy_lateral":{"colour":"red"},"light":{"colour":"red"}},"osm_tags":{"seamark:buoy_lateral:colour":"red","seamark:light:colour":"red","seamark:type":"buoy_lateral","source":"Yard24.ru"}}},{"type":"Feature","geometry":{"type":"Point","coordinates":[93.290733,58.1591868]},"properties":{"osm_id":5468875918,"osm_type":"node","seamark_type":"buoy_lateral","display_class":"OTHER","min_zoom":12,"importance":1,"name":null,"ref":null,"common":{"type":"buoy_lateral"},"children":{"buoy_lateral":{"colour":"red"},"light":{"colour":"red"}},"osm_tags":{"seamark:buoy_lateral:colour":"red","seamark:light:colour":"red","seamark:type":"buoy_lateral","source":"Yard24.ru"}}},{"type":"Feature","geometry":{"type":"Point","coordinates":[93.2775396,58.1604116]},"properties":{"osm_id":5468875919,"osm_type":"node","seamark_type":"buoy_lateral","display_class":"OTHER","min_zoom":12,"importance":1,"name":null,"ref":null,"common":{"type":"buoy_lateral"},"children":{"buoy_lateral":{"colour":"red"},"light":{"colour":"red"}},"osm_tags":{"seamark:buoy_lateral:colour":"red","seamark:light:colour":"red","seamark:type":"buoy_lateral","source":"Yard24.ru"}}},{"type":"Feature","geometry":{"type":"Point","coordinates":[93.264674,58.1571277]},"properties":{"osm_id":5468875920,"osm_type":"node","seamark_type":"buoy_lateral","display_class":"OTHER","min_zoom":12,"importance":1,"name":null,"ref":null,"common":{"type":"buoy_lateral"},"children":{"buoy_lateral":{"colour":"red"},"light":{"colour":"red"}},"osm_tags":{"seamark:buoy_lateral:colour":"red","seamark:light:colour":"red","seamark:type":"buoy_lateral","source":"Yard24.ru"}}},{"type":"Feature","geometry":{"type":"Point","coordinates":[93.2541384,58.1548609]},"properties":{"osm_id":5468876821,"osm_type":"node","seamark_type":"buoy_lateral","display_class":"OTHER","min_zoom":12,"importance":1,"name":null,"ref":null,"common":{"type":"buoy_lateral"},"children":{"buoy_lateral":{"colour":"red"},"light":{"colour":"red"}},"osm_tags":{"seamark:buoy_lateral:colour":"red","seamark:light:colour":"red","seamark:type":"buoy_lateral","source":"Yard24.ru"}}},{"type":"Feature","geometry":{"type":"Point","coordinates":[93.167342,58.1221107]},"properties":{"osm_id":5468876822,"osm_type":"node","seamark_type":"buoy_lateral","display_class":"OTHER","min_zoom":12,"importance":1,"name":null,"ref":null,"common":{"type":"buoy_lateral"},"children":{"buoy_lateral":{"colour":"red"},"light":{"colour":"red"}},"osm_tags":{"seamark:buoy_lateral:colour":"red","seamark:light:colour":"red","seamark:type":"buoy_lateral","source":"Yard24.ru"}}},{"type":"Feature","geometry":{"type":"Point","coordinates":[93.1605968,58.1077133]},"properties":{"osm_id":5468876823,"osm_type":"node","seamark_type":"buoy_lateral","display_class":"OTHER","min_zoom":12,"importance":1,"name":null,"ref":null,"common":{"type":"buoy_lateral"},"children":{"buoy_lateral":{"colour":"red"},"light":{"colour":"red"}},"osm_tags":{"seamark:buoy_lateral:colour":"red","seamark:light:colour":"red","seamark:type":"buoy_lateral","source":"Yard24.ru"}}},{"type":"Feature","geometry":{"type":"Point","coordinates":[93.1546948,58.096665]},"properties":{"osm_id":5468876824,"osm_type":"node","seamark_type":"buoy_lateral","display_class":"OTHER","min_zoom":12,"importance":1,"name":null,"ref":null,"common":{"type":"buoy_lateral"},"children":{"buoy_lateral":{"colour":"red"},"light":{"colour":"red"}},"osm_tags":{"seamark:buoy_lateral:colour":"red","seamark:light:colour":"red","seamark:type":"buoy_lateral","source":"Yard24.ru"}}},{"type":"Feature","geometry":{"type":"Point","coordinates":[93.1372579,58.0745752]},"properties":{"osm_id":5468876825,"osm_type":"node","seamark_type":"buoy_lateral","display_class":"OTHER","min_zoom":12,"importance":1,"name":null,"ref":null,"common":{"type":"buoy_lateral"},"children":{"buoy_lateral":{"colour":"red"},"light":{"colour":"red"}},"osm_tags":{"seamark:buoy_lateral:colour":"red","seamark:light:colour":"red","seamark:type":"buoy_lateral","source":"Yard24.ru"}}},{"type":"Feature","geometry":{"type":"Point","coordinates":[93.1273435,58.0711894]},"properties":{"osm_id":5468876826,"osm_type":"node","seamark_type":"buoy_lateral","display_class":"OTHER","min_zoom":12,"importance":1,"name":null,"ref":null,"common":{"type":"buoy_lateral"},"children":{"buoy_lateral":{"colour":"red"},"light":{"colour":"red"}},"osm_tags":{"seamark:buoy_lateral:colour":"red","seamark:light:colour":"red","seamark:type":"buoy_lateral","source":"Yard24.ru"}}},{"type":"Feature","geometry":{"type":"Point","coordinates":[93.1158297,58.0704558]},"properties":{"osm_id":5468876827,"osm_type":"node","seamark_type":"buoy_lateral","display_class":"OTHER","min_zoom":12,"importance":1,"name":null,"ref":null,"common":{"type":"buoy_lateral"},"children":{"buoy_lateral":{"colour":"red"},"light":{"colour":"red"}},"osm_tags":{"seamark:buoy_lateral:colour":"red","seamark:light:colour":"red","seamark:type":"buoy_lateral","source":"Yard24.ru"}}},{"type":"Feature","geometry":{"type":"Point","coordinates":[93.1105242,58.0709727]},"properties":{"osm_id":5468876828,"osm_type":"node","seamark_type":"buoy_lateral","display_class":"OTHER","min_zoom":12,"importance":1,"name":null,"ref":null,"common":{"type":"buoy_lateral"},"children":{"buoy_lateral":{"colour":"red"},"light":{"colour":"red"}},"osm_tags":{"seamark:buoy_lateral:colour":"red","seamark:light:colour":"red","seamark:type":"buoy_lateral","source":"Yard24.ru"}}},{"type":"Feature","geometry":{"type":"Point","coordinates":[93.1079101,58.0719897]},"properties":{"osm_id":5468876829,"osm_type":"node","seamark_type":"buoy_lateral","display_class":"OTHER","min_zoom":12,"importance":1,"name":null,"ref":null,"common":{"type":"buoy_lateral"},"children":{"buoy_lateral":{"colour":"red"},"light":{"colour":"red"}},"osm_tags":{"seamark:buoy_lateral:colour":"red","seamark:light:colour":"red","seamark:type":"buoy_lateral","source":"Yard24.ru"}}},{"type":"Feature","geometry":{"type":"Point","coordinates":[93.0994802,58.0735317]},"properties":{"osm_id":5468876830,"osm_type":"node","seamark_type":"buoy_lateral","display_class":"OTHER","min_zoom":12,"importance":1,"name":null,"ref":null,"common":{"type":"buoy_lateral"},"children":{"buoy_lateral":{"colour":"red"},"light":{"colour":"red"}},"osm_tags":{"seamark:buoy_lateral:colour":"red","seamark:light:colour":"red","seamark:type":"buoy_lateral","source":"Yard24.ru"}}},{"type":"Feature","geometry":{"type":"Point","coordinates":[93.0539485,58.0788685]},"properties":{"osm_id":5468876831,"osm_type":"node","seamark_type":"buoy_lateral","display_class":"OTHER","min_zoom":12,"importance":1,"name":null,"ref":null,"common":{"type":"buoy_lateral"},"children":{"buoy_lateral":{"colour":"red"},"light":{"colour":"red"}},"osm_tags":{"seamark:buoy_lateral:colour":"red","seamark:light:colour":"red","seamark:type":"buoy_lateral","source":"Yard24.ru"}}},{"type":"Feature","geometry":{"type":"LineString","coordinates":[[93.5760649,58.1111631],[93.5782451,58.1109537],[93.5800713,58.1108191],[93.5854933,58.1108191],[93.5898253,58.1108042],[93.5919913,58.111051],[93.5945537,58.111395],[93.6015613,58.1126663],[93.6062189,58.1134067],[93.6095599,58.1138479],[93.6118533,58.1140049],[93.6179265,58.1141171],[93.6262224,58.1140647],[93.6376328,58.1140722],[93.6472735,58.1140797],[93.659052,58.1140722],[93.6719913,58.1140722]]},"properties":{"osm_id":519080458,"osm_type":"way","seamark_type":"recommended_route_centreline","display_class":"OTHER","min_zoom":12,"importance":1,"name":"Сдовой ход - Ангара","ref":null,"common":{"type":"recommended_route_centreline"},"children":{},"osm_tags":{"name":"Сдовой ход - Ангара","seamark:type":"recommended_route_centreline"}}},{"type":"Feature","geometry":{"type":"LineString","coordinates":[[93.1137846,58.0075175],[93.1109736,58.0053574],[93.1076691,58.0042774],[93.1044076,58.0038794],[93.1020901,58.0038908],[93.0884001,58.0048117],[93.083658,58.0048458],[93.0780575,58.0044706],[93.0597327,58.0030949],[93.0416868,58.0017305],[93.0336831,58.001162]]},"properties":{"osm_id":515726923,"osm_type":"way","seamark_type":"recommended_route_centreline","display_class":"OTHER","min_zoom":12,"importance":1,"name":"Судовой Ход Енисей, Момотово - Стрелка","ref":null,"common":{"type":"recommended_route_centreline"},"children":{},"osm_tags":{"name":"Судовой Ход Енисей, Момотово - Стрелка","seamark:type":"recommended_route_centreline"}}},{"type":"Feature","geometry":{"type":"LineString","coordinates":[[93.1242809,58.0685672],[93.124743,58.0683881],[93.1268047,58.0682481],[93.1285947,58.0683485],[93.1317832,58.0686194],[93.1341372,58.0689573],[93.1366294,58.0697579],[93.1398812,58.0710546],[93.1411474,58.0718674],[93.142287,58.0728018],[93.1432079,58.073998],[93.1445086,58.0759184],[93.1452683,58.0770536],[93.1462122,58.0785266],[93.1482152,58.0815728],[93.1535102,58.0897453],[93.1590125,58.0984239],[93.1661262,58.1093779],[93.1718867,58.1183255],[93.1737105,58.1203049],[93.1774182,58.1230568],[93.1862366,58.1293855],[93.1985021,58.1378925],[93.203733,58.1415105],[93.2047151,58.1421558],[93.2059978,58.1428117],[93.209465,58.1441974],[93.2120704,58.1449378],[93.2249172,58.1474234],[93.2591914,58.1537461],[93.2718943,58.156067],[93.2724308,58.1561689],[93.2846932,58.157908],[93.2887171,58.1584542],[93.3076162,58.1610419],[93.3187056,58.1627303],[93.320582,58.1629774],[93.3255996,58.1636223],[93.3275737,58.1641203],[93.3296551,58.1648447],[93.335792,58.1665651],[93.3417572,58.1681043],[93.3511557,58.1696547],[93.3551539,58.170167],[93.3572861,58.1704311],[93.3596128,58.1705846],[93.3620117,58.1706533],[93.3643736,58.1706506],[93.3755101,58.1699716],[93.3787931,58.1696321],[93.3837284,58.1679232]]},"properties":{"osm_id":515822004,"osm_type":"way","seamark_type":"recommended_route_centreline","display_class":"OTHER","min_zoom":12,"importance":1,"name":"Судовой ход - Ангара","ref":null,"common":{"type":"recommended_route_centreline"},"children":{},"osm_tags":{"name":"Судовой ход - Ангара","seamark:type":"recommended_route_centreline"}}},{"type":"Feature","geometry":{"type":"LineString","coordinates":[[93.3837284,58.1679232],[93.3955379,58.1635933],[93.4020386,58.1613959],[93.4057559,58.1604893],[93.4094359,58.1599571],[93.4112852,58.1593954],[93.4124433,58.15908],[93.413396,58.1585873],[93.4142553,58.1578777],[93.4237821,58.1506334],[93.4243051,58.1501898],[93.42466,58.149697],[93.4248468,58.1491351],[93.4244359,58.1477254],[93.4241834,58.1467452],[93.4241711,58.1463615],[93.4241822,58.1460269],[93.4242451,58.1458021],[93.4244299,58.1452818],[93.4246394,58.1449761],[93.4250585,58.1447679],[93.4312698,58.1419709],[93.4322435,58.1415871],[93.4333773,58.1412229],[93.4345727,58.1409431],[93.4381837,58.1404683],[93.4448018,58.1396031],[93.4493001,58.1391347],[93.4572986,58.138315],[93.4613902,58.1379377],[93.4641508,58.137749],[93.4683903,58.1374237],[93.4780102,58.1367154],[93.4836482,58.136302],[93.48949,58.1358772]]},"properties":{"osm_id":516301094,"osm_type":"way","seamark_type":"recommended_route_centreline","display_class":"OTHER","min_zoom":12,"importance":1,"name":"Судовой ход - Ангара","ref":null,"common":{"type":"recommended_route_centreline"},"children":{},"osm_tags":{"name":"Судовой ход - Ангара","seamark:type":"recommended_route_centreline"}}},{"type":"Feature","geometry":{"type":"LineString","coordinates":[[93.48949,58.1358772],[93.4811215,58.1369476],[93.4795658,58.1371175],[93.4736918,58.1376414],[93.4695183,58.1380265],[93.4663694,58.138321],[93.4651356,58.1384343],[93.4637945,58.1385957],[93.4605114,58.1390035],[93.4595566,58.1391281],[93.4578239,58.1394339],[93.4543654,58.1402643],[93.4508592,58.1411262],[93.4482156,58.1418906],[93.4471065,58.1422353],[93.4439083,58.1434777],[93.4415729,58.1445054],[93.4409012,58.1448502],[93.4312159,58.1501013],[93.4149456,58.1588339],[93.4091548,58.161869],[93.4003579,58.1665961],[93.3984482,58.167592],[93.3925473,58.1702742],[93.3854234,58.1734541],[93.3795655,58.1760453],[93.3764755,58.1771994],[93.3752525,58.1774596],[93.3737719,58.1777764],[93.3713257,58.1781498],[93.3692443,58.1784326],[93.3657896,58.1783987],[93.3642232,58.1782403],[93.362571,58.1780027],[93.3615196,58.1778103],[93.3575284,58.1768939],[93.3534086,58.1759547],[93.351134,58.1754003],[93.3436024,58.1736125],[93.333646,58.1713493],[93.3262861,58.1696178],[93.3196556,58.1681466],[93.3101713,58.1660755],[93.3015024,58.1643098],[93.2917821,58.162329],[93.2845294,58.1607556],[93.2761395,58.1589783],[93.2679641,58.1573482],[93.2597029,58.1556613],[93.2492316,58.1535442],[93.2367003,58.1509853],[93.2124102,58.1460822],[93.2110798,58.1457764],[93.2094705,58.1453801],[93.2062089,58.1443608],[93.2033765,58.1434435],[93.2019174,58.1428772],[93.2003939,58.1418579],[93.1881201,58.1334532],[93.1767046,58.1254658],[93.1710183,58.1215564],[93.1703317,58.1210351],[93.168379,58.1187912],[93.1676924,58.1178733],[93.1647956,58.1128522],[93.1614911,58.107309],[93.1575429,58.1003816],[93.1558907,58.0974447],[93.1525433,58.0915361],[93.14484,58.0782411],[93.1436383,58.0763236],[93.142308,58.0750074],[93.1408918,58.0741563],[93.1341326,58.0712967],[93.1299698,58.0696058],[93.1275022,58.0688],[93.1257856,58.068573],[93.1242809,58.0685672]]},"properties":{"osm_id":516301096,"osm_type":"way","seamark_type":"recommended_route_centreline","display_class":"OTHER","min_zoom":12,"importance":1,"name":"Судовой ход - Ангара","ref":null,"common":{"type":"recommended_route_centreline"},"children":{},"osm_tags":{"name":"Судовой ход - Ангара","seamark:type":"recommended_route_centreline"}}},{"type":"Feature","geometry":{"type":"LineString","coordinates":[[93.3837284,58.1679232],[93.3899505,58.1672441],[93.3937639,58.1668667],[93.397561,58.1663564],[93.4028217,58.1656616],[93.4077084,58.1651255],[93.4123756,58.1645851],[93.4189535,58.1637402],[93.4208561,58.1634528],[93.4212708,58.1634657],[93.4083345,58.1680418],[93.4043422,58.169427],[93.4012037,58.1704948],[93.3976586,58.1717469],[93.3896496,58.1746927],[93.3889422,58.1749499],[93.3852508,58.1761933],[93.3817138,58.1774152],[93.3810877,58.1776167],[93.3795103,58.1779211],[93.378437,58.1780798],[93.377128,58.1782684],[93.3738268,58.1784356],[93.3692443,58.1784326]]},"properties":{"osm_id":516301097,"osm_type":"way","seamark_type":"recommended_route_centreline","display_class":"OTHER","min_zoom":12,"importance":1,"name":"Судовой ход - Ангара","ref":null,"common":{"type":"recommended_route_centreline"},"children":{},"osm_tags":{"name":"Судовой ход - Ангара","seamark:type":"recommended_route_centreline"}}},{"type":"Feature","geometry":{"type":"LineString","coordinates":[[93.8570697,58.1039389],[93.8553746,58.1049593],[93.8524992,58.1062744],[93.8501389,58.1072041],[93.84147,58.1095847],[93.8374145,58.1108317],[93.8349039,58.1114324],[93.8329727,58.1117725],[93.8308055,58.1117725],[93.8292391,58.1117498],[93.826514,58.1114438],[93.8218791,58.1106843],[93.8150127,58.10946],[93.7964303,58.1062858],[93.7845213,58.1041997],[93.7685997,58.1014899],[93.7661106,58.1011384],[93.7647159,58.1010477],[93.7619693,58.1011044],[93.7597806,58.1013085],[93.757549,58.1016373],[93.7556822,58.1021248],[93.7511117,58.1034854],[93.7328727,58.1088592],[93.7190111,58.1129287],[93.715213,58.1137788],[93.7126381,58.1139601],[93.7100203,58.1140735],[93.6961801,58.1140735],[93.6803164,58.1140777],[93.671978,58.1140628],[93.6706756,58.1144292],[93.6629177,58.1164332],[93.6583309,58.117667],[93.6564622,58.118168],[93.6468356,58.1205905],[93.6420727,58.1219119],[93.6311293,58.1247108],[93.6213231,58.1272716],[93.6108518,58.1300474],[93.6049509,58.1315882],[93.596561,58.1337406],[93.5938573,58.1344317],[93.5910678,58.135134],[93.5893941,58.1354625],[93.5864329,58.1358137],[93.5814333,58.1364933],[93.5773778,58.137071],[93.5749102,58.1374108],[93.5578492,58.1397673],[93.5562348,58.1399754],[93.5547559,58.1401446],[93.5507505,58.1406455],[93.5483843,58.1409837],[93.5442187,58.1416603],[93.5423331,58.1419855],[93.5411253,58.1421546],[93.5369597,58.142649],[93.533041,58.1431699],[93.5313634,58.1434164],[93.5295443,58.1436705],[93.5276013,58.14396],[93.5266846,58.1440852],[93.5256441,58.1442551],[93.5251875,58.1443224],[93.5234746,58.1446418],[93.5229083,58.1447445],[93.5225332,58.1448062],[93.522027,58.1448529],[93.5188736,58.1451125],[93.5158653,58.1453647],[93.5142939,58.1454973],[93.5116209,58.145796],[93.5058317,58.1464353],[93.4990342,58.1470618],[93.4921473,58.1476669],[93.4888624,58.1479372],[93.4816909,58.148731],[93.4794224,58.1488769],[93.4742918,58.1491386],[93.4709418,58.1492845],[93.4672992,58.1494948],[93.463998,58.149705],[93.4632256,58.149778],[93.4623474,58.1500097],[93.4582413,58.1512239],[93.4517691,58.1531846],[93.445801,58.1550036],[93.4425811,58.1559475],[93.4415078,58.1562906],[93.4383368,58.1574017],[93.4291325,58.1606747],[93.4212708,58.1634657]]},"properties":{"osm_id":516374565,"osm_type":"way","seamark_type":"recommended_route_centreline","display_class":"OTHER","min_zoom":12,"importance":1,"name":"Судовой ход - Ангара","ref":null,"common":{"type":"recommended_route_centreline"},"children":{},"osm_tags":{"name":"Судовой ход - Ангара","seamark:type":"recommended_route_centreline"}}},{"type":"Feature","geometry":{"type":"LineString","coordinates":[[93.8570697,58.1039389],[93.8581054,58.1035194],[93.8588187,58.1032458],[93.8612214,58.1024434],[93.8618651,58.1022294],[93.8636692,58.1017932],[93.8659746,58.1012404],[93.8663198,58.1011709],[93.8684797,58.1008312],[93.8701139,58.1005797],[93.8738668,58.0999941],[93.8752727,58.099848],[93.8767528,58.099695],[93.8782013,58.0995437],[93.8791816,58.0994408],[93.8797988,58.0993767],[93.8826605,58.0990968],[93.883582,58.0990258],[93.8843503,58.098969],[93.8867458,58.098964],[93.8881417,58.0990304],[93.8903397,58.0991362],[93.8927384,58.0993132],[93.8944394,58.0994407],[93.8972464,58.099651],[93.9014053,58.1001952],[93.906592,58.1008622],[93.910297,58.1010924],[93.9183464,58.1010987],[93.9228978,58.1010207],[93.9289073,58.1008929],[93.936651,58.1006835],[93.9490807,58.1006087],[93.9517705,58.1007658],[93.95417,58.1011809],[93.9564847,58.101656],[93.9583251,58.1023367],[93.9611423,58.1036981]]},"properties":{"osm_id":516374566,"osm_type":"way","seamark_type":"recommended_route_centreline","display_class":"OTHER","min_zoom":12,"importance":1,"name":"Судовой ход - Ангара","ref":null,"common":{"type":"recommended_route_centreline"},"children":{},"osm_tags":{"name":"Судовой ход - Ангара","seamark:type":"recommended_route_centreline"}}},{"type":"Feature","geometry":{"type":"LineString","coordinates":[[93.9611423,58.1036981],[93.9573907,58.1009154],[93.9535401,58.0980277],[93.9501707,58.0956485],[93.9473111,58.0936059],[93.9462918,58.0928801],[93.9454707,58.0923937],[93.9442815,58.0917577]]},"properties":{"osm_id":516374567,"osm_type":"way","seamark_type":"recommended_route_centreline","display_class":"OTHER","min_zoom":12,"importance":1,"name":"Судовой ход - Ангара","ref":null,"common":{"type":"recommended_route_centreline"},"children":{},"osm_tags":{"name":"Судовой ход - Ангара","seamark:type":"recommended_route_centreline"}}},{"type":"Feature","geometry":{"type":"LineString","coordinates":[[93.9442815,58.0917577],[93.9419881,58.0911591],[93.9384772,58.0905679],[93.93566,58.0902013],[93.9300398,58.0897822],[93.9266988,58.0895652],[93.9220978,58.0894155],[93.9193373,58.0893706],[93.9172987,58.0894006],[93.9133206,58.0895502],[93.9101354,58.0896774],[93.9081393,58.0898196],[93.9066103,58.0899543],[93.9031561,58.0906877],[93.8976915,58.0918849],[93.8927508,58.0928876],[93.8869324,58.0940773],[93.8763006,58.096262],[93.8694771,58.0976312],[93.8676579,58.0981231],[93.865466,58.0988956],[93.8641731,58.0995249],[93.8631324,58.1001089],[93.8616626,58.1010245],[93.8599643,58.1021066],[93.8589585,58.1027429],[93.8581699,58.1032376],[93.857553,58.1036287],[93.8570697,58.1039389]]},"properties":{"osm_id":516374568,"osm_type":"way","seamark_type":"recommended_route_centreline","display_class":"OTHER","min_zoom":12,"importance":1,"name":"Судовой ход - Ангара","ref":null,"common":{"type":"recommended_route_centreline"},"children":{},"osm_tags":{"name":"Судовой ход - Ангара","seamark:type":"recommended_route_centreline"}}},{"type":"Feature","geometry":{"type":"LineString","coordinates":[[93.0228854,58.1017631],[93.0300093,58.0986449],[93.038013,58.0948119],[93.0747057,58.0791356],[93.0870653,58.0752438],[93.0954552,58.073224]]},"properties":{"osm_id":515734703,"osm_type":"way","seamark_type":"recommended_route_centreline","display_class":"OTHER","min_zoom":12,"importance":1,"name":"Судовой ход Ангара","ref":null,"common":{"type":"recommended_route_centreline"},"children":{},"osm_tags":{"name":"Судовой ход Ангара","seamark:type":"recommended_route_centreline"}}},{"type":"Feature","geometry":{"type":"LineString","coordinates":[[93.0954552,58.073224],[93.0903912,58.0730084],[93.0839539,58.0722027],[93.0761004,58.0720665],[93.0677963,58.0729063],[93.06211,58.0745403],[93.042369,58.0835942],[93.0210049,58.0941688]]},"properties":{"osm_id":515734704,"osm_type":"way","seamark_type":"recommended_route_centreline","display_class":"OTHER","min_zoom":12,"importance":1,"name":"Судовой ход Ангара","ref":null,"common":{"type":"recommended_route_centreline"},"children":{},"osm_tags":{"name":"Судовой ход Ангара","seamark:type":"recommended_route_centreline"}}},{"type":"Feature","geometry":{"type":"LineString","coordinates":[[93.1242809,58.0685672],[93.1223093,58.0687472],[93.1155136,58.0698868],[93.1082555,58.0710818],[93.1005961,58.0723643],[93.0954552,58.073224]]},"properties":{"osm_id":515744119,"osm_type":"way","seamark_type":"recommended_route_centreline","display_class":"OTHER","min_zoom":12,"importance":1,"name":"Судовой ход Ангара","ref":null,"common":{"type":"recommended_route_centreline"},"children":{},"osm_tags":{"name":"Судовой ход Ангара","seamark:type":"recommended_route_centreline"}}},{"type":"Feature","geometry":{"type":"LineString","coordinates":[[93.0210049,58.0941688],[93.0200744,58.0956284],[93.0206752,58.097182],[93.0219842,58.0990417],[93.0228854,58.1017631]]},"properties":{"osm_id":515734705,"osm_type":"way","seamark_type":"recommended_route_centreline","display_class":"OTHER","min_zoom":12,"importance":1,"name":"Судовой ход Ангара - Стрелка","ref":null,"common":{"type":"recommended_route_centreline"},"children":{},"osm_tags":{"name":"Судовой ход Ангара - Стрелка","seamark:type":"recommended_route_centreline"}}}],"type":"FeatureCollection"}