{"type":"FeatureCollection","features":[{"type":"Feature","geometry":{"type":"Point","coordinates":[24.0697222,58.1013889]},"properties":{"osm_id":8992472393,"osm_type":"node","seamark_type":"wreck","display_class":"OTHER","min_zoom":12,"importance":1,"name":null,"ref":null,"common":{"type":"wreck"},"children":{"wreck":{"category":"dangerous"}},"osm_tags":{"depth":"9.1","seamark:type":"wreck","seamark:wreck:category":"dangerous"}}},{"type":"Feature","geometry":{"type":"Point","coordinates":[24.0675,58.1013889]},"properties":{"osm_id":8992472394,"osm_type":"node","seamark_type":"wreck","display_class":"OTHER","min_zoom":12,"importance":1,"name":null,"ref":null,"common":{"type":"wreck"},"children":{"wreck":{"category":"dangerous"}},"osm_tags":{"depth":"9.1","seamark:type":"wreck","seamark:wreck:category":"dangerous"}}},{"type":"Feature","geometry":{"type":"Point","coordinates":[24.0631667,58.0688333]},"properties":{"osm_id":9028666844,"osm_type":"node","seamark_type":"wreck","display_class":"OTHER","min_zoom":12,"importance":1,"name":null,"ref":null,"common":{"type":"wreck"},"children":{"wreck":{"category":"dangerous"}},"osm_tags":{"depth":"7.2","seamark:type":"wreck","seamark:wreck:category":"dangerous"}}},{"type":"Feature","geometry":{"type":"Point","coordinates":[24.061,58.0688333]},"properties":{"osm_id":9028666845,"osm_type":"node","seamark_type":"wreck","display_class":"OTHER","min_zoom":12,"importance":1,"name":null,"ref":null,"common":{"type":"wreck"},"children":{"wreck":{"category":"dangerous"}},"osm_tags":{"depth":"7.2","seamark:type":"wreck","seamark:wreck:category":"dangerous"}}},{"type":"Feature","geometry":{"type":"Point","coordinates":[24.3455,58.149]},"properties":{"osm_id":9205150869,"osm_type":"node","seamark_type":"wreck","display_class":"OTHER","min_zoom":12,"importance":1,"name":null,"ref":null,"common":{"type":"wreck"},"children":{"wreck":{"category":"dangerous","depth":"10.4"}},"osm_tags":{"depth":"10.4","seamark:type":"wreck","seamark:wreck:category":"dangerous","seamark:wreck:depth":"10.4"}}},{"type":"Feature","geometry":{"type":"Point","coordinates":[24.4165,58.3258333]},"properties":{"osm_id":9207233219,"osm_type":"node","seamark_type":"wreck","display_class":"OTHER","min_zoom":12,"importance":1,"name":null,"ref":null,"common":{"type":"wreck"},"children":{"wreck":{"category":"dangerous","depth":"5.4"}},"osm_tags":{"depth":"5.4","seamark:type":"wreck","seamark:wreck:category":"dangerous","seamark:wreck:depth":"5.4"}}},{"type":"Feature","geometry":{"type":"Point","coordinates":[24.4167778,58.3274444]},"properties":{"osm_id":9207279937,"osm_type":"node","seamark_type":"obstruction","display_class":"OTHER","min_zoom":12,"importance":1,"name":null,"ref":null,"common":{"type":"obstruction"},"children":{"obstruction":{"depth":"6.1"}},"osm_tags":{"depth":"6.1","seamark:obstruction:depth":"6.1","seamark:type":"obstruction"}}},{"type":"Feature","geometry":{"type":"Point","coordinates":[24.0161667,58.1781667]},"properties":{"osm_id":9452125878,"osm_type":"node","seamark_type":"rock","display_class":"OTHER","min_zoom":12,"importance":1,"name":null,"ref":null,"common":{"type":"rock"},"children":{"rock":{"water_level":"submerged"}},"osm_tags":{"depth":"4.9","seamark:rock:water_level":"submerged","seamark:type":"rock"}}},{"type":"Feature","geometry":{"type":"Point","coordinates":[24.0033333,58.1778333]},"properties":{"osm_id":9452125879,"osm_type":"node","seamark_type":"rock","display_class":"OTHER","min_zoom":12,"importance":1,"name":null,"ref":null,"common":{"type":"rock"},"children":{"rock":{"water_level":"submerged"}},"osm_tags":{"depth":"3.9","seamark:rock:water_level":"submerged","seamark:type":"rock"}}},{"type":"Feature","geometry":{"type":"Point","coordinates":[24.0023333,58.1823333]},"properties":{"osm_id":9452125880,"osm_type":"node","seamark_type":"obstruction","display_class":"OTHER","min_zoom":12,"importance":1,"name":null,"ref":null,"common":{"type":"obstruction"},"children":{},"osm_tags":{"depth":"4.7","seamark:type":"obstruction"}}},{"type":"Feature","geometry":{"type":"Point","coordinates":[24.0145,58.1918333]},"properties":{"osm_id":9452125881,"osm_type":"node","seamark_type":"rock","display_class":"OTHER","min_zoom":12,"importance":1,"name":null,"ref":null,"common":{"type":"rock"},"children":{"rock":{"water_level":"submerged"}},"osm_tags":{"depth":"5.6","seamark:rock:water_level":"submerged","seamark:type":"rock"}}},{"type":"Feature","geometry":{"type":"Point","coordinates":[24.305,58.0033333]},"properties":{"osm_id":9465990367,"osm_type":"node","seamark_type":"rock","display_class":"OTHER","min_zoom":12,"importance":1,"name":null,"ref":null,"common":{"type":"rock"},"children":{"rock":{"water_level":"submerged"}},"osm_tags":{"depth":"9.7","seamark:rock:water_level":"submerged","seamark:type":"rock"}}},{"type":"Feature","geometry":{"type":"Point","coordinates":[24.2683333,58.0033333]},"properties":{"osm_id":9465990368,"osm_type":"node","seamark_type":"obstruction","display_class":"OTHER","min_zoom":12,"importance":1,"name":null,"ref":null,"common":{"type":"obstruction"},"children":{},"osm_tags":{"depth":"11.7","seamark:type":"obstruction"}}},{"type":"Feature","geometry":{"type":"Point","coordinates":[24.3948333,58.2393333]},"properties":{"osm_id":10156751041,"osm_type":"node","seamark_type":"obstruction","display_class":"OTHER","min_zoom":12,"importance":1,"name":null,"ref":null,"common":{"type":"obstruction"},"children":{},"osm_tags":{"depth":"7.7","seamark:type":"obstruction"}}},{"type":"Feature","geometry":{"type":"Point","coordinates":[24.3731667,58.2408333]},"properties":{"osm_id":10156751042,"osm_type":"node","seamark_type":"obstruction","display_class":"OTHER","min_zoom":12,"importance":1,"name":null,"ref":null,"common":{"type":"obstruction"},"children":{},"osm_tags":{"depth":"7.2","seamark:type":"obstruction"}}},{"type":"Feature","geometry":{"type":"Point","coordinates":[24.3753333,58.201]},"properties":{"osm_id":10156751043,"osm_type":"node","seamark_type":"obstruction","display_class":"OTHER","min_zoom":12,"importance":1,"name":null,"ref":null,"common":{"type":"obstruction"},"children":{},"osm_tags":{"depth":"8.3","seamark:type":"obstruction"}}},{"type":"Feature","geometry":{"type":"Point","coordinates":[24.393,58.195]},"properties":{"osm_id":10156751044,"osm_type":"node","seamark_type":"obstruction","display_class":"OTHER","min_zoom":12,"importance":1,"name":null,"ref":null,"common":{"type":"obstruction"},"children":{},"osm_tags":{"depth":"8.3","seamark:type":"obstruction"}}},{"type":"Feature","geometry":{"type":"Point","coordinates":[24.3693333,58.1943333]},"properties":{"osm_id":10156751045,"osm_type":"node","seamark_type":"obstruction","display_class":"OTHER","min_zoom":12,"importance":1,"name":null,"ref":null,"common":{"type":"obstruction"},"children":{},"osm_tags":{"depth":"8.3","seamark:type":"obstruction"}}},{"type":"Feature","geometry":{"type":"Point","coordinates":[24.2577778,58.2163889]},"properties":{"osm_id":10225437087,"osm_type":"node","seamark_type":"rock","display_class":"OTHER","min_zoom":12,"importance":1,"name":null,"ref":null,"common":{"type":"rock"},"children":{"rock":{"water_level":"submerged"}},"osm_tags":{"depth":"5.4","seamark:rock:water_level":"submerged","seamark:type":"rock"}}},{"type":"Feature","geometry":{"type":"Point","coordinates":[24.2338889,58.2175]},"properties":{"osm_id":10225437088,"osm_type":"node","seamark_type":"rock","display_class":"OTHER","min_zoom":12,"importance":1,"name":null,"ref":null,"common":{"type":"rock"},"children":{"rock":{"water_level":"submerged"}},"osm_tags":{"depth":"4.4","seamark:rock:water_level":"submerged","seamark:type":"rock"}}},{"type":"Feature","geometry":{"type":"Point","coordinates":[24.23,58.215]},"properties":{"osm_id":10225437089,"osm_type":"node","seamark_type":"rock","display_class":"OTHER","min_zoom":12,"importance":1,"name":null,"ref":null,"common":{"type":"rock"},"children":{"rock":{"water_level":"submerged"}},"osm_tags":{"depth":"4.9","seamark:rock:water_level":"submerged","seamark:type":"rock"}}},{"type":"Feature","geometry":{"type":"Point","coordinates":[24.22,58.2138889]},"properties":{"osm_id":10225437090,"osm_type":"node","seamark_type":"rock","display_class":"OTHER","min_zoom":12,"importance":1,"name":null,"ref":null,"common":{"type":"rock"},"children":{"rock":{"water_level":"submerged"}},"osm_tags":{"depth":"4.5","seamark:rock:water_level":"submerged","seamark:type":"rock"}}},{"type":"Feature","geometry":{"type":"Point","coordinates":[24.2119444,58.2111111]},"properties":{"osm_id":10225437091,"osm_type":"node","seamark_type":"rock","display_class":"OTHER","min_zoom":12,"importance":1,"name":null,"ref":null,"common":{"type":"rock"},"children":{"rock":{"water_level":"submerged"}},"osm_tags":{"depth":"4.7","seamark:rock:water_level":"submerged","seamark:type":"rock"}}},{"type":"Feature","geometry":{"type":"Point","coordinates":[24.1216667,58.2266667]},"properties":{"osm_id":10225463965,"osm_type":"node","seamark_type":"rock","display_class":"OTHER","min_zoom":12,"importance":1,"name":null,"ref":null,"common":{"type":"rock"},"children":{"rock":{"water_level":"submerged"}},"osm_tags":{"depth":"1.7","seamark:rock:water_level":"submerged","seamark:type":"rock"}}},{"type":"Feature","geometry":{"type":"Point","coordinates":[24.1230556,58.225]},"properties":{"osm_id":10225463966,"osm_type":"node","seamark_type":"rock","display_class":"OTHER","min_zoom":12,"importance":1,"name":null,"ref":null,"common":{"type":"rock"},"children":{"rock":{"water_level":"submerged"}},"osm_tags":{"depth":"2","seamark:rock:water_level":"submerged","seamark:type":"rock"}}},{"type":"Feature","geometry":{"type":"Point","coordinates":[24.0258333,58.1419444]},"properties":{"osm_id":10225463967,"osm_type":"node","seamark_type":"rock","display_class":"OTHER","min_zoom":12,"importance":1,"name":null,"ref":null,"common":{"type":"rock"},"children":{"rock":{"water_level":"submerged"}},"osm_tags":{"depth":"2.6","seamark:rock:water_level":"submerged","seamark:type":"rock"}}},{"type":"Feature","geometry":{"type":"Polygon","coordinates":[[[24.4956397,58.374256],[24.4956788,58.3742416],[24.4956569,58.3742252],[24.4956178,58.3742396],[24.4956397,58.374256]]]},"properties":{"osm_id":611871071,"osm_type":"way","seamark_type":"rescue_station","display_class":"OTHER","min_zoom":12,"importance":1,"name":null,"ref":null,"common":{"type":"rescue_station"},"children":{},"osm_tags":{"building":"yes","emergency":"water_rescue","seamark:type":"rescue_station"}}},{"type":"Feature","geometry":{"type":"Polygon","coordinates":[[[24.5039244,58.3721555],[24.5039773,58.3721438],[24.5039607,58.3721233],[24.5039078,58.372135],[24.5039244,58.3721555]]]},"properties":{"osm_id":1080808898,"osm_type":"way","seamark_type":"rescue_station","display_class":"OTHER","min_zoom":12,"importance":1,"name":null,"ref":null,"common":{"type":"rescue_station"},"children":{},"osm_tags":{"building":"yes","emergency":"water_rescue","seamark:type":"rescue_station"}}},{"type":"Feature","geometry":{"type":"LineString","coordinates":[[24.1172778,58.229105],[24.1178055,58.2287202],[24.1184892,58.2279903]]},"properties":{"osm_id":1161073322,"osm_type":"way","seamark_type":"harbour","display_class":"OTHER","min_zoom":12,"importance":1,"name":null,"ref":null,"common":{"type":"harbour"},"children":{},"osm_tags":{"man_made":"breakwater","material":"stone","seamark:type":"harbour"}}},{"type":"Feature","geometry":{"type":"LineString","coordinates":[[24.4703527,58.1223028],[24.4708142,58.1223637],[24.4713873,58.1224805],[24.4720988,58.1226186],[24.4730431,58.1228278],[24.4739181,58.1229873],[24.4746354,58.1231112],[24.4758431,58.1232087],[24.4764969,58.1232523],[24.4776623,58.1230807]]},"properties":{"osm_id":1172034291,"osm_type":"way","seamark_type":"harbour","display_class":"OTHER","min_zoom":12,"importance":1,"name":null,"ref":null,"common":{"type":"harbour"},"children":{},"osm_tags":{"man_made":"breakwater","material":"stone","seamark:type":"harbour"}}},{"type":"Feature","geometry":{"type":"LineString","coordinates":[[24.4705168,58.1220717],[24.471016,58.1221197],[24.4713193,58.122162],[24.4720818,58.122344],[24.4728581,58.1225166],[24.4738287,58.1227197],[24.4744092,58.1228311],[24.4746877,58.1228588],[24.4749042,58.1228843],[24.4755316,58.1229462],[24.4759273,58.1229717]]},"properties":{"osm_id":1172034292,"osm_type":"way","seamark_type":"harbour","display_class":"OTHER","min_zoom":12,"importance":1,"name":null,"ref":null,"common":{"type":"harbour"},"children":{},"osm_tags":{"man_made":"breakwater","material":"stone","seamark:type":"harbour"}}},{"type":"Feature","geometry":{"type":"Point","coordinates":[24.0181088,58.140996]},"properties":{"osm_id":10604575177,"osm_type":"node","seamark_type":"small_craft_facility","display_class":"OTHER","min_zoom":12,"importance":1,"name":"Alexela Kihnu paaditankla","ref":null,"common":{"type":"small_craft_facility"},"children":{"small_craft_facility":{"category":"fuel_station"}},"osm_tags":{"brand":"Alexela","brand:wikidata":"Q20529782","name":"Alexela Kihnu paaditankla","opening_hours":"24/7","payment:cash":"yes","payment:credit_cards":"yes","payment:debit_cards":"yes","seamark:small_craft_facility:category":"fuel_station","seamark:type":"small_craft_facility","self_service":"yes","waterway":"fuel","website":"https://www.alexela.ee/et/tanklad/tankla-lemsi-kula-kihnu-vald-parnu-maakond-88002/kihnu-sadamatankla"}}},{"type":"Feature","geometry":{"type":"Point","coordinates":[24.4862333,58.07365]},"properties":{"osm_id":677529190,"osm_type":"node","seamark_type":"light_minor","display_class":"OTHER","min_zoom":12,"importance":1,"name":"Häädemeeste tulepaak","ref":null,"common":{"type":"light_minor"},"children":{"light":{"character":"Fl","colour":"white","height":"32","period":"5","range":"11","reference":"C 3594.5","sequence":"1.5+(3.5)"}},"osm_tags":{"man_made":"lighthouse","name":"Häädemeeste tulepaak","number":"894","seamark:light:character":"Fl","seamark:light:colour":"white","seamark:light:height":"32","seamark:light:period":"5","seamark:light:range":"11","seamark:light:reference":"C 3594.5","seamark:light:sequence":"1.5+(3.5)","seamark:type":"light_minor","source":"Estonian Maritime Administration, 24.03.2010","url":"https://nma.vta.ee/aton/"}}},{"type":"Feature","geometry":{"type":"Polygon","coordinates":[[[24.4611625,58.0359178],[24.4619676,58.0357013],[24.4617039,58.035365],[24.4606961,58.0355963],[24.4602171,58.0357244],[24.4599493,58.0358832],[24.4598201,58.0350371],[24.4594699,58.0349827],[24.4590916,58.0350272],[24.4588333,58.0350711],[24.4589758,58.0353273],[24.4575646,58.0355591],[24.4573533,58.0359576],[24.4573281,58.0359872],[24.4572964,58.0360085],[24.4572589,58.0360261],[24.4571977,58.0360517],[24.4571653,58.036073],[24.4571306,58.0361002],[24.4570978,58.0361219],[24.457049,58.0361453],[24.4569594,58.0361634],[24.456346,58.0362667],[24.4562732,58.0362789],[24.4558909,58.0363402],[24.4558406,58.0363378],[24.4557712,58.0363361],[24.4557128,58.0363388],[24.4556607,58.0363426],[24.4555837,58.0363526],[24.4554625,58.036372],[24.4554021,58.0363837],[24.4553443,58.0363991],[24.4552813,58.0364149],[24.45523,58.0364312],[24.4551962,58.0364468],[24.4551051,58.036487],[24.4539016,58.0366911],[24.4536527,58.0367321],[24.4528922,58.0368574],[24.4527721,58.0368807],[24.4523164,58.0369689],[24.4519673,58.0370303],[24.4518353,58.0370641],[24.4518112,58.0370738],[24.4518013,58.0370813],[24.4518087,58.0370955],[24.4518393,58.0371054],[24.4518776,58.0371091],[24.4537252,58.0374702],[24.453749,58.037478],[24.4537696,58.037479],[24.4538134,58.037472],[24.4539434,58.0374482],[24.4539523,58.0374466],[24.4550339,58.0372499],[24.4551871,58.0372329],[24.4552165,58.037234],[24.4552497,58.0372402],[24.4552999,58.0372421],[24.4553573,58.0372298],[24.455451,58.0372007],[24.4554975,58.0371897],[24.4559644,58.0371063],[24.456012,58.0370919],[24.4560725,58.0370745],[24.4561772,58.0370517],[24.4562299,58.037047],[24.4562989,58.0370421],[24.4563596,58.037035],[24.4564235,58.0370224],[24.4564779,58.0370074],[24.4565422,58.0369911],[24.4566582,58.0369758],[24.4567973,58.0369529],[24.4568464,58.03695],[24.4568929,58.0369564],[24.4569126,58.0369611],[24.4570124,58.0369852],[24.4572982,58.037054],[24.4573508,58.0370638],[24.4573926,58.0370762],[24.4574305,58.0371006],[24.4574855,58.0371317],[24.4575448,58.0371464],[24.4576074,58.0371689],[24.4576564,58.0371887],[24.4577007,58.0371995],[24.457715,58.037203],[24.4577232,58.0372027],[24.4577364,58.0372023],[24.457765,58.0371984],[24.4577972,58.0371909],[24.457827,58.0371831],[24.4578843,58.0371606],[24.4579159,58.0371476],[24.4579549,58.0371438],[24.4579946,58.0371414],[24.4581563,58.0371211],[24.4582167,58.0371115],[24.4583024,58.0371182],[24.4585952,58.0369774],[24.4585145,58.0365527],[24.4594342,58.0361452],[24.4609629,58.0356464],[24.4611625,58.0359178]]]},"properties":{"osm_id":1159034205,"osm_type":"way","seamark_type":"harbour","display_class":"OTHER","min_zoom":12,"importance":1,"name":"Jaagupi sadam","ref":null,"common":{"type":"harbour"},"children":{"harbour":{"category":"marina"}},"osm_tags":{"fee":"yes","leisure":"marina","maxdraft":"0.5","maxdraught":"0.5","maxlength":"5.0","maxwidth":"2.0","name":"Jaagupi sadam","name:en":"Jaagupi Marina","name:et":"Jaagupi sadam","operator":"Jaagupi Sadama Arendus OÜ","phone":"+372 56506638","power_supply":"no","ref:LOCODE":"EEJGP","sadamaregister:code":"EE JGP","sadamaregister:ref":"159","sadamaregister:url":"https://www.sadamaregister.ee/sadam/159","sanitary_dump_station":"no","seamark:harbour:category":"marina","seamark:type":"harbour"}}},{"type":"Feature","geometry":{"type":"Point","coordinates":[24.4886167,58.3885]},"properties":{"osm_id":677529227,"osm_type":"node","seamark_type":"buoy_lateral","display_class":"OTHER","min_zoom":12,"importance":1,"name":"Jannseni kai vasaku külje poi","ref":null,"common":{"type":"buoy_lateral"},"children":{"buoy_lateral":{"category":"port","colour":"red","system":"iala-a"}},"osm_tags":{"name":"Jannseni kai vasaku külje poi","number":"887.4","seamark:buoy_lateral:category":"port","seamark:buoy_lateral:colour":"red","seamark:buoy_lateral:system":"iala-a","seamark:type":"buoy_lateral","source":"Estonian Maritime Administration, 24.03.2010","url":"https://nma.vta.ee/aton/"}}},{"type":"Feature","geometry":{"type":"Polygon","coordinates":[[[24.4865837,58.3893159],[24.4868264,58.3893318],[24.4868209,58.3894178],[24.4873007,58.3894322],[24.4874028,58.3890866],[24.4874187,58.3890328],[24.4873973,58.389028],[24.4871473,58.388972],[24.4869815,58.3889203],[24.4867941,58.3889102],[24.4867695,58.3889577],[24.4865837,58.3893159]]]},"properties":{"osm_id":1158973717,"osm_type":"way","seamark_type":"harbour","display_class":"OTHER","min_zoom":12,"importance":1,"name":"Japsi sadam","ref":null,"common":{"type":"harbour"},"children":{"harbour":{"category":"marina"}},"osm_tags":{"addr:city":"Pärnu","addr:country":"EE","addr:housenumber":"36a","addr:postcode":"80041","addr:street":"J. V. Jannseni","alt_name:et":"Japsi sadam","fee":"yes","leisure":"marina","maxdraft":"2.0","maxdraught":"2.0","maxlength":"4.0","maxwidth":"2.0","name":"Japsi sadam","name:en":"Japs Marina","name:et":"Japsi kalasadam","operator":"Japs AS","phone":"+372 4459600","power_supply":"yes","ref:LOCODE":"EEJAP","sadamaregister:code":"EE JAP","sadamaregister:ref":"3677","sadamaregister:url":"https://www.sadamaregister.ee/sadam/3677","sanitary_dump_station":"no","seamark:harbour:category":"marina","seamark:type":"harbour","website":"https://japs.ee/"}}},{"type":"Feature","geometry":{"type":"Polygon","coordinates":[[[24.2935021,58.3690673],[24.2933346,58.3689515],[24.2937153,58.3688118],[24.2940274,58.3688826],[24.2942349,58.3689136],[24.2945985,58.3689296],[24.2951112,58.3689257],[24.2950641,58.3689435],[24.2950363,58.3689655],[24.2950115,58.3690014],[24.2949849,58.3690883],[24.2949639,58.3691651],[24.2949068,58.3692081],[24.2947736,58.3691791],[24.2946213,58.3691322],[24.2943396,58.3691482],[24.2939351,58.369265],[24.2939446,58.3692774],[24.2938554,58.3693089],[24.2935021,58.3690673]]]},"properties":{"osm_id":787383882,"osm_type":"way","seamark_type":"harbour","display_class":"OTHER","min_zoom":12,"importance":1,"name":"Juheta väikesadam","ref":null,"common":{"type":"harbour"},"children":{"harbour":{"category":"marina"}},"osm_tags":{"leisure":"marina","maxdraft":"0.7","maxdraught":"0.7","maxlength":"8.0","maxwidth":"3.0","name":"Juheta väikesadam","name:en":"Juheta Marina","name:et":"Juheta väikesadam","operator":"Saulepa Sadam MTÜ","phone":"+372 5013489","power_supply":"no","ref:LOCODE":"EEJHT","sadamaregister:code":"EE JHT","sadamaregister:ref":"160","sadamaregister:url":"https://www.sadamaregister.ee/sadam/160","sanitary_dump_station":"no","seamark:harbour:category":"marina","seamark:type":"harbour","source:url":"https://www.sadamaregister.ee/SadamaRegister/sadam/160"}}},{"type":"Feature","geometry":{"type":"Polygon","coordinates":[[[24.1945972,58.2694831],[24.1946681,58.2692833],[24.1933412,58.2690179],[24.1922405,58.269738],[24.1925335,58.2698723],[24.1945972,58.2694831]]]},"properties":{"osm_id":1138090648,"osm_type":"way","seamark_type":"harbour","display_class":"OTHER","min_zoom":12,"importance":1,"name":"Kavaru sadam","ref":null,"common":{"type":"harbour"},"children":{"harbour":{"category":"marina"}},"osm_tags":{"alt_name":"Kavaru paadisadam","capacity":"11","fee":"yes","leisure":"marina","maxdraft":"0.8","maxdraught":"0.8","maxlength":"12.0","maxwidth":"4.0","name":"Kavaru sadam","name:en":"Kavaru Marina","name:et":"Kavaru sadam","operator":"Pärnu Linnavalitsus","phone":"+372 4448200","power_supply":"no","ref:LOCODE":"EEKVR","sadamaregister:code":"EE KVR","sadamaregister:ref":"206","sadamaregister:url":"https://www.sadamaregister.ee/sadam/206","sanitary_dump_station":"no","seamark:harbour:category":"marina","seamark:type":"harbour","veeohutuse_stend:name":"Kavaru sadam, Liivi laht","veeohutuse_stend:ref":"310"}}},{"type":"Feature","geometry":{"type":"Polygon","coordinates":[[[24.0184945,58.1409783],[24.0186689,58.140998],[24.0186881,58.1410001],[24.0197878,58.1411241],[24.0200085,58.1409859],[24.0207808,58.1412995],[24.0210663,58.141316],[24.0212155,58.141374],[24.0212286,58.1413656],[24.0213459,58.1412901],[24.0225347,58.1418376],[24.0225081,58.1418569],[24.0226149,58.1419097],[24.0221991,58.142151],[24.0222998,58.142195],[24.0223609,58.1422036],[24.022409,58.1422001],[24.0224582,58.1421891],[24.0225531,58.1421314],[24.0226157,58.1421533],[24.022963,58.1419769],[24.0229648,58.1413985],[24.021304,58.1409998],[24.0212342,58.140957],[24.0211819,58.1409317],[24.0188573,58.1403609],[24.0184945,58.1409783]]]},"properties":{"osm_id":1137662215,"osm_type":"way","seamark_type":"harbour","display_class":"OTHER","min_zoom":12,"importance":1,"name":"Kihnu sadam","ref":null,"common":{"type":"harbour"},"children":{"harbour":{"category":"marina"}},"osm_tags":{"landuse":"harbour","maxdraft":"3.3","maxdraught":"3.3","name":"Kihnu sadam","name:en":"Port of Kihnu","name:et":"Kihnu sadam","operator":"Saarte Liinid AS","phone":"+3725 043888","power_supply":"no","ref:LOCODE":"EEKHN","sadamaregister:code":"EE KHN","sadamaregister:ref":"211","sadamaregister:url":"https://www.sadamaregister.ee/sadam/211","sanitary_dump_station":"no","seamark:harbour:category":"marina","seamark:type":"harbour","website":"https://saarteliinid.ee/kihnu/"}}},{"type":"Feature","geometry":{"type":"Point","coordinates":[24.0347833,58.1422833]},"properties":{"osm_id":677529394,"osm_type":"node","seamark_type":"buoy_lateral","display_class":"OTHER","min_zoom":12,"importance":1,"name":"Kihnu sadama laevatee parema külje poi","ref":null,"common":{"type":"buoy_lateral"},"children":{"buoy_lateral":{"category":"starboard","colour":"green","system":"iala-a"},"light":{"character":"Fl","colour":"green","period":"3"}},"osm_tags":{"name":"Kihnu sadama laevatee parema külje poi","number":"862","seamark:buoy_lateral:category":"starboard","seamark:buoy_lateral:colour":"green","seamark:buoy_lateral:system":"iala-a","seamark:light:character":"Fl","seamark:light:colour":"green","seamark:light:period":"3","seamark:type":"buoy_lateral","source":"Estonian Maritime Administration, 24.03.2010","url":"https://nma.vta.ee/aton/"}}},{"type":"Feature","geometry":{"type":"Point","coordinates":[24.0223089,58.1421646]},"properties":{"osm_id":677528683,"osm_type":"node","seamark_type":"light_minor","display_class":"OTHER","min_zoom":12,"importance":1,"name":"Kihnu sadamamuuli tulepaak","ref":null,"common":{"type":"light_minor"},"children":{"light":{"character":"Fl","colour":"white","height":"6","period":"3","range":"1","reference":"C 3598","sequence":"1+(2)"}},"osm_tags":{"man_made":"lighthouse","name":"Kihnu sadamamuuli tulepaak","name:en":"Kihnu harbour","number":"843","seamark:light:character":"Fl","seamark:light:colour":"white","seamark:light:height":"6","seamark:light:period":"3","seamark:light:range":"1","seamark:light:reference":"C 3598","seamark:light:sequence":"1+(2)","seamark:type":"light_minor","source":"Estonian Maritime Administration, 24.03.2010","url":"https://nma.vta.ee/aton/"}}},{"type":"Feature","geometry":{"type":"Point","coordinates":[24.046,58.1416667]},"properties":{"osm_id":677528722,"osm_type":"node","seamark_type":"buoy_safe_water","display_class":"OTHER","min_zoom":12,"importance":1,"name":"Kihnu teljepoi","ref":null,"common":{"type":"buoy_safe_water"},"children":{"buoy_safe_water":{"colour":"red;white","colour_pattern":"vertical"},"light":{"character":"LFl","colour":"white","period":"10"}},"osm_tags":{"name":"Kihnu teljepoi","number":"845","seamark:buoy_safe_water:colour":"red;white","seamark:buoy_safe_water:colour_pattern":"vertical","seamark:light:character":"LFl","seamark:light:colour":"white","seamark:light:period":"10","seamark:type":"buoy_safe_water","source":"Estonian Maritime Administration, 24.03.2010","url":"https://nma.vta.ee/aton/"}}},{"type":"Feature","geometry":{"type":"Point","coordinates":[24.176,58.2017333]},"properties":{"osm_id":677528847,"osm_type":"node","seamark_type":"buoy_lateral","display_class":"OTHER","min_zoom":12,"importance":1,"name":"Kihnu väina laevatee parema külje poi K25","ref":null,"common":{"type":"buoy_lateral"},"children":{"buoy_lateral":{"category":"starboard","colour":"green","system":"iala-a"},"light":{"character":"Fl","colour":"green","period":"3"}},"osm_tags":{"name":"Kihnu väina laevatee parema külje poi K25","number":"863","seamark:buoy_lateral:category":"starboard","seamark:buoy_lateral:colour":"green","seamark:buoy_lateral:system":"iala-a","seamark:light:character":"Fl","seamark:light:colour":"green","seamark:light:period":"3","seamark:type":"buoy_lateral","source":"Estonian Maritime Administration, 24.03.2010","url":"https://nma.vta.ee/aton/"}}},{"type":"Feature","geometry":{"type":"Point","coordinates":[24.0598833,58.1976833]},"properties":{"osm_id":677529356,"osm_type":"node","seamark_type":"buoy_safe_water","display_class":"OTHER","min_zoom":12,"importance":1,"name":"Kihnu väina laevatee teljepoi K9","ref":null,"common":{"type":"buoy_safe_water"},"children":{"buoy_safe_water":{"colour":"red;white","colour_pattern":"vertical"},"light":{"character":"LFl","colour":"white","period":"10"}},"osm_tags":{"name":"Kihnu väina laevatee teljepoi K9","number":"838","seamark:buoy_safe_water:colour":"red;white","seamark:buoy_safe_water:colour_pattern":"vertical","seamark:light:character":"LFl","seamark:light:colour":"white","seamark:light:period":"10","seamark:type":"buoy_safe_water","source":"Estonian Maritime Administration, 24.03.2010","url":"https://nma.vta.ee/aton/"}}},{"type":"Feature","geometry":{"type":"Point","coordinates":[24.34025,58.2415167]},"properties":{"osm_id":677529015,"osm_type":"node","seamark_type":"buoy_lateral","display_class":"OTHER","min_zoom":12,"importance":1,"name":"Kihnu väina laevatee vasaku külje poi K38","ref":null,"common":{"type":"buoy_lateral"},"children":{"buoy_lateral":{"category":"port","colour":"red","system":"iala-a"},"light":{"character":"Fl","colour":"red","period":"3"}},"osm_tags":{"name":"Kihnu väina laevatee vasaku külje poi K38","number":"864","seamark:buoy_lateral:category":"port","seamark:buoy_lateral:colour":"red","seamark:buoy_lateral:system":"iala-a","seamark:light:character":"Fl","seamark:light:colour":"red","seamark:light:period":"3","seamark:type":"buoy_lateral","source":"Estonian Maritime Administration, 24.03.2010","url":"https://nma.vta.ee/aton/"}}},{"type":"Feature","geometry":{"type":"Point","coordinates":[24.0470667,58.1866833]},"properties":{"osm_id":677528776,"osm_type":"node","seamark_type":"buoy_lateral","display_class":"OTHER","min_zoom":12,"importance":1,"name":"Kihnu-Munalaiu laevatee parema külje poi M8","ref":null,"common":{"type":"buoy_lateral"},"children":{"buoy_lateral":{"category":"starboard","colour":"green","shape":"pillar","system":"iala-a"},"light":{"character":"Fl","colour":"green","period":"3"}},"osm_tags":{"name":"Kihnu-Munalaiu laevatee parema külje poi M8","number":"839","seamark:buoy_lateral:category":"starboard","seamark:buoy_lateral:colour":"green","seamark:buoy_lateral:shape":"pillar","seamark:buoy_lateral:system":"iala-a","seamark:light:character":"Fl","seamark:light:colour":"green","seamark:light:period":"3","seamark:type":"buoy_lateral","source":"Estonian Maritime Administration, 24.03.2010","url":"https://nma.vta.ee/aton/"}}},{"type":"Feature","geometry":{"type":"Point","coordinates":[24.0483833,58.1899667]},"properties":{"osm_id":677529318,"osm_type":"node","seamark_type":"buoy_lateral","display_class":"OTHER","min_zoom":12,"importance":1,"name":"Kihnu-Munalaiu laevatee vasaku külje poi M12","ref":null,"common":{"type":"buoy_lateral"},"children":{"buoy_lateral":{"category":"port","colour":"red","shape":"pillar","system":"iala-a"},"light":{"character":"Fl","colour":"red","period":"3"}},"osm_tags":{"name":"Kihnu-Munalaiu laevatee vasaku külje poi M12","number":"844","seamark:buoy_lateral:category":"port","seamark:buoy_lateral:colour":"red","seamark:buoy_lateral:shape":"pillar","seamark:buoy_lateral:system":"iala-a","seamark:light:character":"Fl","seamark:light:colour":"red","seamark:light:period":"3","seamark:type":"buoy_lateral","source":"Estonian Maritime Administration, 24.03.2010","url":"https://nma.vta.ee/aton/"}}},{"type":"Feature","geometry":{"type":"Polygon","coordinates":[[[24.1215378,58.2344834],[24.1228103,58.234031],[24.1226534,58.2339561],[24.1226034,58.2339791],[24.1225536,58.2339917],[24.1225204,58.2339985],[24.1225075,58.2340016],[24.1224909,58.2340041],[24.1224642,58.2340107],[24.1222675,58.2340912],[24.1219532,58.2339203],[24.1218896,58.2339472],[24.1218604,58.2339667],[24.1217968,58.2339357],[24.1212326,58.234088],[24.1215378,58.2344834]]]},"properties":{"osm_id":1159878873,"osm_type":"way","seamark_type":"harbour","display_class":"OTHER","min_zoom":12,"importance":1,"name":"Lao sadam","ref":null,"common":{"type":"harbour"},"children":{"harbour":{"category":"marina"}},"osm_tags":{"email":"arbetona@gmail.com","fee":"yes","leisure":"marina","maxdraft":"1.0","maxdraught":"1.0","maxlength":"20.0","maxwidth":"4.0","name":"Lao sadam","name:en":"Lao Marina","name:et":"Lao sadam","operator":"Arbeton OÜ","phone":"+372 5010011","power_supply":"no","ref:LOCODE":"EELAO","sadamaregister:code":"EE LAO","sadamaregister:ref":"310","sadamaregister:url":"https://www.sadamaregister.ee/sadam/310","sanitary_dump_station":"no","seamark:harbour:category":"marina","seamark:type":"harbour"}}},{"type":"Feature","geometry":{"type":"Polygon","coordinates":[[[24.2897449,58.3303489],[24.29126,58.3301682],[24.2912526,58.3297793],[24.2915855,58.3295554],[24.2919035,58.3293826],[24.291896,58.3293548],[24.2917319,58.3290379],[24.2916008,58.3290163],[24.2914882,58.3290184],[24.2914065,58.3290146],[24.2913161,58.3290131],[24.2912323,58.3290058],[24.2911699,58.3290055],[24.2911093,58.3290222],[24.2910469,58.3290242],[24.2909845,58.3290239],[24.2909462,58.3289988],[24.290938,58.3289738],[24.2909428,58.3289512],[24.2909818,58.3289333],[24.2910144,58.3289142],[24.2910841,58.328892],[24.2910651,58.3288693],[24.2910247,58.3288419],[24.289513,58.3289151],[24.2895467,58.3290035],[24.2894523,58.3295204],[24.2894523,58.329642],[24.2894955,58.3298376],[24.2897449,58.3303489]]]},"properties":{"osm_id":1143838005,"osm_type":"way","seamark_type":"harbour","display_class":"OTHER","min_zoom":12,"importance":1,"name":"Lindi sadam","ref":null,"common":{"type":"harbour"},"children":{"harbour":{"category":"marina"}},"osm_tags":{"alt_name":"Lindi kalasadam","fee":"yes","leisure":"marina","maxdraft":"0.8","maxdraught":"0.8","maxlength":"15.0","maxwidth":"4.0","name":"Lindi sadam","name:en":"Lindi Marina","name:et":"Lindi sadam","operator":"Lindi Sadamaarendus MTÜ","phone":"+3725092768","power_supply":"no","ref:LOCODE":"EELIN","sadamaregister:code":"EE LIN","sadamaregister:ref":"315","sadamaregister:url":"https://www.sadamaregister.ee/sadam/315","sanitary_dump_station":"no","seamark:harbour:category":"marina","seamark:type":"harbour"}}},{"type":"Feature","geometry":{"type":"Polygon","coordinates":[[[24.2654214,58.2806328],[24.2667132,58.2804434],[24.2667179,58.2804007],[24.2667156,58.2803859],[24.2666808,58.2803632],[24.2666416,58.280328],[24.2666411,58.28027],[24.2666774,58.2802153],[24.2667483,58.280165],[24.2668497,58.2801409],[24.2669424,58.2801156],[24.2669917,58.2800722],[24.2669871,58.2800404],[24.2669351,58.2800189],[24.2668657,58.2799997],[24.2668634,58.2799769],[24.2668869,58.2799416],[24.2669794,58.2798959],[24.2670461,58.2798684],[24.2671947,58.2798077],[24.2673027,58.2797949],[24.2673616,58.2797606],[24.2674655,58.2796983],[24.2678053,58.2795923],[24.2679845,58.2795759],[24.2680406,58.2795673],[24.2682563,58.2795172],[24.2683695,58.2794794],[24.2685925,58.279383],[24.2687298,58.2793033],[24.2688695,58.2792073],[24.269061,58.2791135],[24.2692569,58.2790334],[24.2694014,58.2790035],[24.2695362,58.2789684],[24.2695912,58.2789541],[24.2696862,58.2789124],[24.2697139,58.2789003],[24.2699225,58.2787928],[24.2701119,58.2787047],[24.2701669,58.278675],[24.2699037,58.2785563],[24.2698291,58.2785929],[24.2697899,58.2785793],[24.2697811,58.2785634],[24.2697918,58.2785452],[24.2698845,58.2785222],[24.2699274,58.2784811],[24.2699161,58.2784333],[24.2698746,58.2783754],[24.2697443,58.2782971],[24.2696033,58.2782326],[24.2695535,58.2782259],[24.2694931,58.278234],[24.2694671,58.2782284],[24.2694476,58.2782136],[24.2694038,58.2781545],[24.2693746,58.2781319],[24.2693277,58.2780955],[24.2692756,58.2780683],[24.2684982,58.2778887],[24.2683624,58.2778613],[24.267628,58.2784517],[24.2674335,58.2784594],[24.2673706,58.2784423],[24.2673083,58.2784365],[24.2672735,58.2784184],[24.2672328,58.278417],[24.2671813,58.2784147],[24.2660411,58.2790096],[24.2659221,58.2790673],[24.2653336,58.2795006],[24.2656325,58.2798063],[24.2655298,58.2798346],[24.2654214,58.2806328]]]},"properties":{"osm_id":1143841091,"osm_type":"way","seamark_type":"harbour","display_class":"OTHER","min_zoom":12,"importance":1,"name":"Liu sadam","ref":null,"common":{"type":"harbour"},"children":{"harbour":{"category":"marina"}},"osm_tags":{"alt_name":"Liu väikesadam","fee":"yes","leisure":"marina","maxdraft":"1.0","maxdraught":"1.0","maxlength":"20.0","maxwidth":"4.0","name":"Liu sadam","name:en":"Liu Marina","name:et":"Liu sadam","operator":"Liu Sadamaarendus MTÜ","phone":"+372 56218848","power_supply":"no","ref:LOCODE":"EELIU","sadamaregister:code":"EE LIU","sadamaregister:ref":"317","sadamaregister:url":"https://www.sadamaregister.ee/sadam/317","sanitary_dump_station":"no","seamark:harbour:category":"marina","seamark:type":"harbour"}}},{"type":"Feature","geometry":{"type":"Point","coordinates":[24.2644,58.2772833]},"properties":{"osm_id":677529052,"osm_type":"node","seamark_type":"light_minor","display_class":"OTHER","min_zoom":12,"importance":1,"name":"Liu tulepaak","ref":null,"common":{"type":"light_minor"},"children":{"light":{"character":"Oc","colour":"white","group":"2","height":"30","period":"5","range":"7","reference":"C 3605","sequence":"1+(0.5)+3+(0.5)"}},"osm_tags":{"man_made":"lighthouse","name":"Liu tulepaak","number":"865","seamark:light:character":"Oc","seamark:light:colour":"white","seamark:light:group":"2","seamark:light:height":"30","seamark:light:period":"5","seamark:light:range":"7","seamark:light:reference":"C 3605","seamark:light:sequence":"1+(0.5)+3+(0.5)","seamark:type":"light_minor","source":"Estonian Maritime Administration, 24.03.2010","url":"https://nma.vta.ee/aton/"}}},{"type":"Feature","geometry":{"type":"Polygon","coordinates":[[[24.1260406,58.2222639],[24.1262852,58.222283],[24.1266876,58.2221135],[24.1263657,58.2214933],[24.1248073,58.2214665],[24.1246705,58.2214792],[24.1233429,58.2217264],[24.1233402,58.221879],[24.1232007,58.2220245],[24.1229437,58.222142],[24.122366,58.2223689],[24.1222491,58.2223781],[24.1220592,58.2224146],[24.1218976,58.2224169],[24.1217349,58.222431],[24.1217103,58.2224367],[24.1216812,58.2224413],[24.121654,58.222444],[24.1216113,58.2224555],[24.1215934,58.2224594],[24.1215795,58.2224697],[24.1215796,58.2224897],[24.1215856,58.2225005],[24.1216033,58.2225102],[24.1216183,58.222512],[24.121653,58.2225121],[24.1240207,58.2228938],[24.1240608,58.2229099],[24.1260528,58.2222991],[24.1260406,58.2222639]]]},"properties":{"osm_id":1168917149,"osm_type":"way","seamark_type":"harbour","display_class":"OTHER","min_zoom":12,"importance":1,"name":"Manilaiu sadam","ref":null,"common":{"type":"harbour"},"children":{"harbour":{"category":"marina"}},"osm_tags":{"alt_name":"Manija sadam","email":"munalaiu.ylevaataja@saarteliinid.ee","fee":"yes","harbour":"yes","leisure":"marina","maxdraft":"3.5","maxdraught":"3.5","maxlength":"45.0","maxwidth":"13.0","mooring":"yes","name":"Manilaiu sadam","name:en":"Manilaiu Marina","name:et":"Manilaiu sadam","operator":"Saarte Liinid AS","phone":"+372 5688 4443","power_supply":"no","ref:LOCODE":"EEMAN","sadamaregister:code":"EE MAN","sadamaregister:ref":"309","sadamaregister:url":"https://www.sadamaregister.ee/sadam/309","sanitary_dump_station":"no","seamark:harbour:category":"marina","seamark:type":"harbour","source":"survey+Maaameti Ortofoto 2014+http://www.portbooker.com/en/marinas/estonia/parnumaa/parnu/manilaid/","website":"https://saarteliinid.ee/manilaiu/"}}},{"type":"Feature","geometry":{"type":"Point","coordinates":[24.1002628,58.2033542]},"properties":{"osm_id":677528690,"osm_type":"node","seamark_type":"light_minor","display_class":"OTHER","min_zoom":12,"importance":1,"name":"Manilaiu tuletorn","ref":null,"common":{"type":"light_minor"},"children":{"light":{"10:character":"Iso","10:colour":"green","10:height":"9","10:period":"4","10:range":"2","10:sector_end":"338.5","10:sector_start":"310","1:character":"Iso","1:colour":"white","1:height":"9","1:period":"4","1:range":"6","1:sector_end":"11","1:sector_start":"338.5","2:character":"Iso","2:colour":"red","2:height":"9","2:period":"4","2:range":"3","2:sector_end":"75","2:sector_start":"11","3:character":"Iso","3:colour":"green","3:height":"9","3:period":"4","3:range":"2","3:sector_end":"102","3:sector_start":"75","4:character":"Iso","4:colour":"white","4:height":"9","4:period":"4","4:range":"6","4:sector_end":"125.5","4:sector_start":"102","5:character":"Iso","5:colour":"red","5:height":"9","5:period":"4","5:range":"3","5:sector_end":"154","5:sector_start":"125.5","6:character":"Iso","6:colour":"white","6:height":"9","6:period":"4","6:range":"6","6:sector_end":"229.5","6:sector_start":"154","7:character":"Iso","7:colour":"green","7:height":"9","7:period":"4","7:range":"2","7:sector_end":"257","7:sector_start":"229.5","8:character":"Iso","8:colour":"white","8:height":"9","8:period":"4","8:range":"6","8:sector_end":"266.5","8:sector_start":"257","9:character":"Iso","9:colour":"red","9:height":"9","9:period":"4","9:range":"3","9:sector_end":"310","9:sector_start":"266.5","reference":"C 3603"}},"osm_tags":{"alt_name":"Manilaiu tulepaak","height":"8","man_made":"lighthouse","name":"Manilaiu tuletorn","name:en":"Manilaid lighthouse","name:et":"Manilaiu tuletorn","number":"855","old_name":"Manilaiu tulepaak","seamark:light:10:character":"Iso","seamark:light:10:colour":"green","seamark:light:10:height":"9","seamark:light:10:period":"4","seamark:light:10:range":"2","seamark:light:10:sector_end":"338.5","seamark:light:10:sector_start":"310","seamark:light:1:character":"Iso","seamark:light:1:colour":"white","seamark:light:1:height":"9","seamark:light:1:period":"4","seamark:light:1:range":"6","seamark:light:1:sector_end":"11","seamark:light:1:sector_start":"338.5","seamark:light:2:character":"Iso","seamark:light:2:colour":"red","seamark:light:2:height":"9","seamark:light:2:period":"4","seamark:light:2:range":"3","seamark:light:2:sector_end":"75","seamark:light:2:sector_start":"11","seamark:light:3:character":"Iso","seamark:light:3:colour":"green","seamark:light:3:height":"9","seamark:light:3:period":"4","seamark:light:3:range":"2","seamark:light:3:sector_end":"102","seamark:light:3:sector_start":"75","seamark:light:4:character":"Iso","seamark:light:4:colour":"white","seamark:light:4:height":"9","seamark:light:4:period":"4","seamark:light:4:range":"6","seamark:light:4:sector_end":"125.5","seamark:light:4:sector_start":"102","seamark:light:5:character":"Iso","seamark:light:5:colour":"red","seamark:light:5:height":"9","seamark:light:5:period":"4","seamark:light:5:range":"3","seamark:light:5:sector_end":"154","seamark:light:5:sector_start":"125.5","seamark:light:6:character":"Iso","seamark:light:6:colour":"white","seamark:light:6:height":"9","seamark:light:6:period":"4","seamark:light:6:range":"6","seamark:light:6:sector_end":"229.5","seamark:light:6:sector_start":"154","seamark:light:7:character":"Iso","seamark:light:7:colour":"green","seamark:light:7:height":"9","seamark:light:7:period":"4","seamark:light:7:range":"2","seamark:light:7:sector_end":"257","seamark:light:7:sector_start":"229.5","seamark:light:8:character":"Iso","seamark:light:8:colour":"white","seamark:light:8:height":"9","seamark:light:8:period":"4","seamark:light:8:range":"6","seamark:light:8:sector_end":"266.5","seamark:light:8:sector_start":"257","seamark:light:9:character":"Iso","seamark:light:9:colour":"red","seamark:light:9:height":"9","seamark:light:9:period":"4","seamark:light:9:range":"3","seamark:light:9:sector_end":"310","seamark:light:9:sector_start":"266.5","seamark:light:reference":"C 3603","seamark:type":"light_minor","source":"Estonian Maritime Administration, 24.03.2010","url":"https://nma.vta.ee/aton/","wikidata":"Q14955128","wikipedia":"et:Manilaiu tuletorn"}}},{"type":"Feature","geometry":{"type":"Polygon","coordinates":[[[24.0243247,58.3054764],[24.0251641,58.3048822],[24.0238856,58.3043522],[24.0227603,58.3038856],[24.0227441,58.3038874],[24.0227037,58.30391],[24.0226699,58.3039289],[24.022657,58.303969],[24.0226679,58.3039921],[24.0226761,58.3040094],[24.0227009,58.3040581],[24.0227144,58.3040841],[24.0226859,58.304107],[24.0226692,58.3041183],[24.022636,58.3041408],[24.022595,58.3041614],[24.0225219,58.3041615],[24.0224593,58.3041617],[24.0224093,58.3041618],[24.0221378,58.304105],[24.0221053,58.3040925],[24.02209,58.3040672],[24.0221063,58.3040433],[24.0221145,58.3040227],[24.0220988,58.3040111],[24.0220492,58.3040172],[24.0219842,58.30404],[24.0219673,58.3040559],[24.0219277,58.3040499],[24.0218957,58.3040272],[24.021883,58.3040094],[24.0217604,58.3039882],[24.0217296,58.3039951],[24.0216408,58.3039948],[24.0215448,58.3039763],[24.0213603,58.3039406],[24.0212669,58.3039084],[24.0211815,58.30389],[24.021114,58.3038564],[24.0210812,58.3038232],[24.0208225,58.3037705],[24.0207671,58.3037799],[24.0207714,58.3037992],[24.0211588,58.3041603],[24.0211884,58.3042131],[24.0213943,58.3042868],[24.0216359,58.3043645],[24.0217848,58.3044053],[24.0217924,58.3045417],[24.0217398,58.3045936],[24.0217759,58.3046355],[24.0217678,58.304641],[24.0217346,58.3046634],[24.0217174,58.3046948],[24.0217397,58.3047243],[24.0217973,58.3047524],[24.0218688,58.3047571],[24.0219283,58.304774],[24.0219411,58.3047777],[24.0219902,58.3047907],[24.0220295,58.3048214],[24.0220148,58.3048383],[24.0219587,58.3048644],[24.0219465,58.3048701],[24.021888,58.3048782],[24.0218585,58.3049543],[24.0230669,58.3052101],[24.0243247,58.3054764]]]},"properties":{"osm_id":1138078410,"osm_type":"way","seamark_type":"harbour","display_class":"OTHER","min_zoom":12,"importance":1,"name":"Merelaiu väikesadam","ref":null,"common":{"type":"harbour"},"children":{"harbour":{"category":"marina"}},"osm_tags":{"alt_name":"Merelaiu sadam","fee":"yes","leisure":"marina","maxdraft":"1.0","maxdraught":"1.0","maxlength":"12.0","maxwidth":"4.0","name":"Merelaiu väikesadam","name:en":"Merelaiu Marina","name:et":"Merelaiu väikesadam","operator":"Johannes Kasearu","phone":"+3725017067","power_supply":"no","ref:LOCODE":"EEMRL","sadamaregister:code":"EE MRL","sadamaregister:ref":"316","sadamaregister:url":"https://www.sadamaregister.ee/sadam/316","sanitary_dump_station":"no","seamark:harbour:category":"marina","seamark:type":"harbour","website":"https://merelaiupuhkekula.eu/"}}},{"type":"Feature","geometry":{"type":"Point","coordinates":[24.0862,58.2188333]},"properties":{"osm_id":677529089,"osm_type":"node","seamark_type":"buoy_lateral","display_class":"OTHER","min_zoom":12,"importance":1,"name":"Munalaiu laevatee teljepoi Nr.1","ref":null,"common":{"type":"buoy_lateral"},"children":{"buoy_lateral":{"category":"starboard","colour":"green","system":"iala-a"},"light":{"character":"Fl","colour":"green","period":"3"}},"osm_tags":{"name":"Munalaiu laevatee teljepoi Nr.1","number":"851","seamark:buoy_lateral:category":"starboard","seamark:buoy_lateral:colour":"green","seamark:buoy_lateral:system":"iala-a","seamark:light:character":"Fl","seamark:light:colour":"green","seamark:light:period":"3","seamark:type":"buoy_lateral","source":"Estonian Maritime Administration, 24.03.2010","url":"https://nma.vta.ee/aton/"}}},{"type":"Feature","geometry":{"type":"Point","coordinates":[24.1216667,58.2255]},"properties":{"osm_id":677529198,"osm_type":"node","seamark_type":"buoy_lateral","display_class":"OTHER","min_zoom":12,"importance":1,"name":"Munalaiu laevatee teljepoi Nr.2","ref":null,"common":{"type":"buoy_lateral"},"children":{"buoy_lateral":{"category":"port","colour":"red","system":"iala-a"}},"osm_tags":{"name":"Munalaiu laevatee teljepoi Nr.2","number":"852","seamark:buoy_lateral:category":"port","seamark:buoy_lateral:colour":"red","seamark:buoy_lateral:system":"iala-a","seamark:type":"buoy_lateral","source":"Estonian Maritime Administration, 24.03.2010","url":"https://nma.vta.ee/aton/"}}},{"type":"Feature","geometry":{"type":"Point","coordinates":[24.1051667,58.223]},"properties":{"osm_id":677528977,"osm_type":"node","seamark_type":"buoy_lateral","display_class":"OTHER","min_zoom":12,"importance":1,"name":"Munalaiu laevatee vasaku külje poi","ref":null,"common":{"type":"buoy_lateral"},"children":{"buoy_lateral":{"category":"port","colour":"red","system":"iala-a"},"light":{"character":"Fl","colour":"red","period":"3"}},"osm_tags":{"name":"Munalaiu laevatee vasaku külje poi","number":"846","seamark:buoy_lateral:category":"port","seamark:buoy_lateral:colour":"red","seamark:buoy_lateral:system":"iala-a","seamark:light:character":"Fl","seamark:light:colour":"red","seamark:light:period":"3","seamark:type":"buoy_lateral","source":"Estonian Maritime Administration, 24.03.2010","url":"https://nma.vta.ee/aton/"}}},{"type":"Feature","geometry":{"type":"Polygon","coordinates":[[[24.1163174,58.2298299],[24.1169767,58.2299699],[24.117151,58.229946],[24.1174729,58.2301474],[24.1183736,58.2299034],[24.1189687,58.229867],[24.1194995,58.2294766],[24.1187454,58.2291888],[24.1188503,58.2291205],[24.1187122,58.2290613],[24.1187056,58.2290586],[24.1186122,58.2290192],[24.1181304,58.2287533],[24.1181247,58.2287505],[24.1180017,58.2287005],[24.1174402,58.2290771],[24.1173222,58.2291501],[24.1164077,58.2297694],[24.1163174,58.2298299]]]},"properties":{"osm_id":427615357,"osm_type":"way","seamark_type":"harbour","display_class":"OTHER","min_zoom":12,"importance":1,"name":"Munalaiu sadam","ref":null,"common":{"type":"harbour"},"children":{"harbour":{"category":"marina"}},"osm_tags":{"addr:city":"Lao küla","email":"info@saarteliinid.ee","fee":"yes","harbour":"yes","harbour:electricity":"yes","harbour:water_tap":"yes","leisure":"marina","maxdraft":"3.5","maxdraught":"3.5","maxlength":"45.0","maxwidth":"13.0","name":"Munalaiu sadam","name:en":"Munalaiu Harbour","name:et":"Munalaiu sadam","operator":"Saarte Liinid AS","phone":"+372 4530140","power_supply":"yes","ref:LOCODE":"EEMUN","sadamaregister:code":"EE MUN","sadamaregister:ref":"319","sadamaregister:url":"https://www.sadamaregister.ee/sadam/319","sanitary_dump_station":"yes","seamark:harbour:category":"marina","seamark:type":"harbour","website":"https://saarteliinid.ee/munalaiu/","wikidata":"Q18625117","wikipedia":"et:Munalaiu sadam"}}},{"type":"Feature","geometry":{"type":"Point","coordinates":[24.1209667,58.2258333]},"properties":{"osm_id":677528748,"osm_type":"node","seamark_type":"buoy_lateral","display_class":"OTHER","min_zoom":12,"importance":1,"name":"Munalaiu vasaku külje poi","ref":null,"common":{"type":"buoy_lateral"},"children":{"buoy_lateral":{"category":"port","colour":"red","system":"iala-a"},"light":{"character":"Fl","colour":"red","period":"3"}},"osm_tags":{"name":"Munalaiu vasaku külje poi","number":"848","seamark:buoy_lateral:category":"port","seamark:buoy_lateral:colour":"red","seamark:buoy_lateral:system":"iala-a","seamark:light:character":"Fl","seamark:light:colour":"red","seamark:light:period":"3","seamark:type":"buoy_lateral","source":"Estonian Maritime Administration, 24.03.2010","url":"https://nma.vta.ee/aton/"}}},{"type":"Feature","geometry":{"type":"Polygon","coordinates":[[[24.1331851,58.2481668],[24.1345749,58.2481378],[24.1346907,58.2460713],[24.1351981,58.2457723],[24.1349499,58.2456562],[24.1331906,58.2456504],[24.1331851,58.2481668]]]},"properties":{"osm_id":1170389953,"osm_type":"way","seamark_type":"harbour","display_class":"OTHER","min_zoom":12,"importance":1,"name":"Peerni sadam","ref":null,"common":{"type":"harbour"},"children":{"harbour":{"category":"marina"}},"osm_tags":{"email":"maidokaja@hotmail.com","fee":"yes","leisure":"marina","maxdraft":"0.8","maxdraught":"0.8","maxlength":"12.0","maxwidth":"4.0","name":"Peerni sadam","name:en":"Peerni Marina","name:et":"Peerni sadam","operator":"Maido Kaja","phone":"+372 566 53088","power_supply":"no","ref:LOCODE":"EEPRI","sadamaregister:code":"EE PRI","sadamaregister:ref":"350","sadamaregister:url":"https://www.sadamaregister.ee/sadam/350","sanitary_dump_station":"no","seamark:harbour:category":"marina","seamark:type":"harbour"}}},{"type":"Feature","geometry":{"type":"Polygon","coordinates":[[[24.4901194,58.3865792],[24.4899641,58.3867299],[24.4903056,58.3868999],[24.4896277,58.387449],[24.4859553,58.3864786],[24.4867595,58.3857468],[24.4870549,58.3858446],[24.487167,58.3857519],[24.4873122,58.3857948],[24.4873539,58.3857587],[24.4874732,58.3856562],[24.4875192,58.3856697],[24.4879231,58.385345],[24.4884365,58.3855175],[24.489028,58.3857013],[24.4890798,58.3857607],[24.4891115,58.3857795],[24.4892258,58.3858205],[24.489316,58.3858678],[24.4894061,58.3859119],[24.4894723,58.3859623],[24.4895144,58.3860064],[24.4895144,58.3860569],[24.4894783,58.3861199],[24.4894121,58.3861672],[24.489322,58.3862333],[24.4894151,58.3862635],[24.4893518,58.3863245],[24.4893216,58.3863531],[24.4901194,58.3865792]]]},"properties":{"osm_id":704378538,"osm_type":"way","seamark_type":"harbour","display_class":"OTHER","min_zoom":12,"importance":1,"name":"Pärnu Jahtklubi jahisadam","ref":null,"common":{"type":"harbour"},"children":{"harbour":{"category":"marina"}},"osm_tags":{"alt_name":"Pärnu Sadama Väikesadam","capacity":"140","email":"sadam@jahtklubi.ee","fee":"yes","internet_access":"wlan","leisure":"marina","maxdraft":"3","maxdraught":"3.0","maxlength":"16","name":"Pärnu Jahtklubi jahisadam","name:de":"Jachthafen Pärnu","name:en":"Pärnu Yacht Club Marina","name:et":"Pärnu Jahtklubi jahisadam","name:fi":"Pärnun pursiseuran huvivenesatama","name:lv":"Pērnavas Jahtkluba jahtu osta","name:ru":"Пярнуский яхтенный порт Яхт-клуба","name:sv":"Pärnu Segelbåtsklubbs hamn","operator":"Pärnu Jahtklubi","payment:cash":"yes","payment:credit_cards":"yes","phone":"+3724471750","power_supply":"yes","ref:LOCODE":"EEPRV","sadamaregister:code":"EE PRV","sadamaregister:ref":"1201","sadamaregister:url":"https://www.sadamaregister.ee/sadam/1201","sanitary_dump_station":"yes","seamark:harbour:category":"marina","seamark:type":"harbour","vhf":"12","website":"https://jahtklubi.ee","wheelchair":"yes"}}},{"type":"Feature","geometry":{"type":"Polygon","coordinates":[[[24.4920826,58.3869734],[24.4916253,58.3869159],[24.4910223,58.3874296],[24.4913174,58.3876841],[24.4955472,58.3880075],[24.4955776,58.3879375],[24.4956005,58.3878185],[24.4945241,58.3877475],[24.4916151,58.3875252],[24.4915405,58.3874208],[24.4918396,58.387174],[24.4920826,58.3869734]]]},"properties":{"osm_id":1390652092,"osm_type":"way","seamark_type":"harbour","display_class":"OTHER","min_zoom":12,"importance":1,"name":"Pärnu Vanasadam","ref":null,"common":{"type":"harbour"},"children":{"harbour":{"category":"marina"}},"osm_tags":{"email":"kaspar.kokk@transcom.ee","fee":"yes","leisure":"marina","maxdraft":"6.0","maxdraught":"6.0","maxlength":"120.0","maxwidth":"12.0","name":"Pärnu Vanasadam","name:en":"Pärnu Old Port","name:et":"Pärnu Vanasadam","operator":"OÜ LSV Holding","phone":"+372 5166317","power_supply":"yes","ref:LOCODE":"EEPUV","sadamaregister:code":"EE PUV","sadamaregister:ref":"9009","sadamaregister:url":"https://www.sadamaregister.ee/sadam/9009","sanitary_dump_station":"no","seamark:harbour:category":"marina","seamark:type":"harbour"}}},{"type":"Feature","geometry":{"type":"Point","coordinates":[24.4642084,58.3663014]},"properties":{"osm_id":677528728,"osm_type":"node","seamark_type":"light_minor","display_class":"OTHER","min_zoom":12,"importance":1,"name":"Pärnu idamuuli tulepaak","ref":null,"common":{"type":"light_minor"},"children":{"light":{"character":"Fl","colour":"red","height":"5","period":"3","range":"1","reference":"C 3611.5","sequence":"0.3+(2.7)"}},"osm_tags":{"man_made":"lighthouse","name":"Pärnu idamuuli tulepaak","number":"886","seamark:light:character":"Fl","seamark:light:colour":"red","seamark:light:height":"5","seamark:light:period":"3","seamark:light:range":"1","seamark:light:reference":"C 3611.5","seamark:light:sequence":"0.3+(2.7)","seamark:type":"light_minor","source":"Estonian Maritime Administration, 24.03.2010","url":"https://nma.vta.ee/aton/"}}},{"type":"Feature","geometry":{"type":"Point","coordinates":[24.4616333,58.3686167]},"properties":{"osm_id":677529287,"osm_type":"node","seamark_type":"light_minor","display_class":"OTHER","min_zoom":12,"importance":1,"name":"Pärnu läänemuuli tulepaak","ref":null,"common":{"radar_reflector":"yes","type":"light_minor"},"children":{"light":{"character":"Fl","colour":"green","height":"5","period":"3","range":"1","reference":"C 3611","sequence":"0.3+(2.7)"}},"osm_tags":{"man_made":"lighthouse","name":"Pärnu läänemuuli tulepaak","number":"885","seamark:light:character":"Fl","seamark:light:colour":"green","seamark:light:height":"5","seamark:light:period":"3","seamark:light:range":"1","seamark:light:reference":"C 3611","seamark:light:sequence":"0.3+(2.7)","seamark:radar_reflector":"yes","seamark:type":"light_minor","source":"Estonian Maritime Administration, 24.03.2010","url":"https://nma.vta.ee/aton/"}}},{"type":"Feature","geometry":{"type":"Point","coordinates":[24.459,58.3643333]},"properties":{"osm_id":677529024,"osm_type":"node","seamark_type":"buoy_lateral","display_class":"OTHER","min_zoom":12,"importance":1,"name":"Pärnu muuliotsa parema külje poi","ref":null,"common":{"type":"buoy_lateral"},"children":{"buoy_lateral":{"category":"starboard","colour":"green","system":"iala-a"}},"osm_tags":{"name":"Pärnu muuliotsa parema külje poi","number":"877.1","seamark:buoy_lateral:category":"starboard","seamark:buoy_lateral:colour":"green","seamark:buoy_lateral:system":"iala-a","seamark:type":"buoy_lateral","source":"Estonian Maritime Administration, 24.03.2010","url":"https://nma.vta.ee/aton/"}}},{"type":"Feature","geometry":{"type":"Point","coordinates":[24.4583,58.3646667]},"properties":{"osm_id":677529128,"osm_type":"node","seamark_type":"buoy_lateral","display_class":"OTHER","min_zoom":12,"importance":1,"name":"Pärnu muuliotsa vasaku külje poi","ref":null,"common":{"type":"buoy_lateral"},"children":{"buoy_lateral":{"category":"port","colour":"red","system":"iala-a"}},"osm_tags":{"name":"Pärnu muuliotsa vasaku külje poi","number":"877.2","seamark:buoy_lateral:category":"port","seamark:buoy_lateral:colour":"red","seamark:buoy_lateral:system":"iala-a","seamark:type":"buoy_lateral","source":"Estonian Maritime Administration, 24.03.2010","url":"https://nma.vta.ee/aton/"}}},{"type":"Feature","geometry":{"type":"Point","coordinates":[24.4481667,58.3571667]},"properties":{"osm_id":677528857,"osm_type":"node","seamark_type":"buoy_lateral","display_class":"OTHER","min_zoom":12,"importance":1,"name":"Pärnu parema külje poi","ref":null,"common":{"type":"buoy_lateral"},"children":{"buoy_lateral":{"category":"starboard","colour":"green","system":"iala-a"},"light":{"character":"Fl","colour":"green","period":"3"}},"osm_tags":{"name":"Pärnu parema külje poi","number":"876","seamark:buoy_lateral:category":"starboard","seamark:buoy_lateral:colour":"green","seamark:buoy_lateral:system":"iala-a","seamark:light:character":"Fl","seamark:light:colour":"green","seamark:light:period":"3","seamark:type":"buoy_lateral","source":"Estonian Maritime Administration, 24.03.2010","url":"https://nma.vta.ee/aton/"}}},{"type":"Feature","geometry":{"type":"Point","coordinates":[24.4656833,58.3788667]},"properties":{"osm_id":677529157,"osm_type":"node","seamark_type":"light_minor","display_class":"OTHER","min_zoom":12,"importance":1,"name":"Pärnu sihi alumine tulepaak","ref":null,"common":{"type":"light_minor"},"children":{"light":{"category":"lower","character":"Q","colour":"red","height":"24","range":"10","reference":"C 3606"}},"osm_tags":{"man_made":"lighthouse","name":"Pärnu sihi alumine tulepaak","number":"871","old_name":"Pärnu mere-sihi alumine tulepaak","seamark:light:category":"lower","seamark:light:character":"Q","seamark:light:colour":"red","seamark:light:height":"24","seamark:light:range":"10","seamark:light:reference":"C 3606","seamark:type":"light_minor","source":"Estonian Maritime Administration, 24.03.2010","url":"https://nma.vta.ee/aton/"}}},{"type":"Feature","geometry":{"type":"Point","coordinates":[24.4714,58.3856167]},"properties":{"osm_id":677528937,"osm_type":"node","seamark_type":"light_minor","display_class":"OTHER","min_zoom":12,"importance":1,"name":"Pärnu sihi ülemine tulepaak","ref":null,"common":{"type":"light_minor"},"children":{"light":{"category":"upper","character":"Iso","colour":"red","height":"37","period":"6","range":"11","reference":"C 3606.1"}},"osm_tags":{"man_made":"lighthouse","name":"Pärnu sihi ülemine tulepaak","number":"872","old_name":"Pärnu mere-sihi ülemine tulepaak","seamark:light:category":"upper","seamark:light:character":"Iso","seamark:light:colour":"red","seamark:light:height":"37","seamark:light:period":"6","seamark:light:range":"11","seamark:light:reference":"C 3606.1","seamark:type":"light_minor","source":"Estonian Maritime Administration, 24.03.2010","url":"https://nma.vta.ee/aton/"}}},{"type":"Feature","geometry":{"type":"Polygon","coordinates":[[[24.4777584,58.123536],[24.4801975,58.1233286],[24.4801215,58.1232265],[24.4799093,58.122355],[24.4782082,58.1221024],[24.4781892,58.122636],[24.4768366,58.1228702],[24.4756361,58.1226778],[24.4756361,58.1232215],[24.4765484,58.1232667],[24.4770267,58.1231981],[24.4779675,58.1231362],[24.4777584,58.123536]]]},"properties":{"osm_id":1172139668,"osm_type":"way","seamark_type":"harbour","display_class":"OTHER","min_zoom":12,"importance":1,"name":"Rannametsa sadam","ref":null,"common":{"type":"harbour"},"children":{"harbour":{"category":"marina"}},"osm_tags":{"alt_name":"Rannametsa paadisadam","email":"rannametsapaadisadam@gmail.com","fee":"yes","leisure":"marina","maxdraft":"0.6","maxdraught":"0.6","maxlength":"11.0","maxwidth":"4.0","name":"Rannametsa sadam","name:en":"Rannametsa Marina","name:et":"Rannametsa sadam","operator":"Rannametsa paadisadam MTÜ","phone":"+372 5535296","power_supply":"no","ref:LOCODE":"EERNM","sadamaregister:code":"EE RNM","sadamaregister:ref":"339","sadamaregister:url":"https://www.sadamaregister.ee/sadam/339","sanitary_dump_station":"no","seamark:harbour:category":"marina","seamark:type":"harbour"}}},{"type":"Feature","geometry":{"type":"Point","coordinates":[24.4596798,58.40376]},"properties":{"osm_id":8758166843,"osm_type":"node","seamark_type":"harbour","display_class":"OTHER","min_zoom":12,"importance":1,"name":"Sauga sadam","ref":null,"common":{"type":"harbour"},"children":{"harbour":{"category":"marina"}},"osm_tags":{"capacity":"55","leisure":"marina","maxdraft":"2,5","name":"Sauga sadam","operator":"Tõnis ja Pojad OÜ","phone":"+372 5097841","seamark:harbour:category":"marina","seamark:type":"harbour","website":"https://fishingvillage.ee/sadam/"}}},{"type":"Feature","geometry":{"type":"Point","coordinates":[24.4699167,58.3715667]},"properties":{"osm_id":677529006,"osm_type":"node","seamark_type":"buoy_lateral","display_class":"OTHER","min_zoom":12,"importance":1,"name":"Seedri parema külje poi","ref":null,"common":{"type":"buoy_lateral"},"children":{"buoy_lateral":{"category":"starboard","colour":"green","system":"iala-a"}},"osm_tags":{"name":"Seedri parema külje poi","number":"877.3","seamark:buoy_lateral:category":"starboard","seamark:buoy_lateral:colour":"green","seamark:buoy_lateral:system":"iala-a","seamark:type":"buoy_lateral","source":"Estonian Maritime Administration, 24.03.2010","url":"https://nma.vta.ee/aton/"}}},{"type":"Feature","geometry":{"type":"Point","coordinates":[24.4805667,58.3789333]},"properties":{"osm_id":677529060,"osm_type":"node","seamark_type":"light_minor","display_class":"OTHER","min_zoom":12,"importance":1,"name":"Seedri sihi alumine tulepaak","ref":null,"common":{"type":"light_minor"},"children":{"light":{"1:category":"upper","1:character":"Iso","1:colour":"white","1:height":"25","1:period":"3","1:range":"3","1:sector_end":"41","1:sector_start":"37","reference":"C 3608.1"}},"osm_tags":{"man_made":"lighthouse","name":"Seedri sihi alumine tulepaak","number":"881","seamark:light:1:category":"upper","seamark:light:1:character":"Iso","seamark:light:1:colour":"white","seamark:light:1:height":"25","seamark:light:1:period":"3","seamark:light:1:range":"3","seamark:light:1:sector_end":"41","seamark:light:1:sector_start":"37","seamark:light:reference":"C 3608.1","seamark:type":"light_minor","source":"Estonian Maritime Administration, 24.03.2010","url":"https://nma.vta.ee/aton/","wikidata":"Q14955828"}}},{"type":"Feature","geometry":{"type":"Point","coordinates":[24.4846833,58.3815833]},"properties":{"osm_id":677529166,"osm_type":"node","seamark_type":"light_minor","display_class":"OTHER","min_zoom":12,"importance":1,"name":"Seedri sihi ülemine tulepaak","ref":null,"common":{"type":"light_minor"},"children":{"light":{"1:category":"lower","1:character":"Q","1:colour":"white","1:height":"16","1:range":"3","1:sector_end":"41","1:sector_start":"37","reference":"C 3608"}},"osm_tags":{"man_made":"lighthouse","name":"Seedri sihi ülemine tulepaak","number":"882","seamark:light:1:category":"lower","seamark:light:1:character":"Q","seamark:light:1:colour":"white","seamark:light:1:height":"16","seamark:light:1:range":"3","seamark:light:1:sector_end":"41","seamark:light:1:sector_start":"37","seamark:light:reference":"C 3608","seamark:type":"light_minor","source":"Estonian Maritime Administration, 24.03.2010","url":"https://nma.vta.ee/aton/","wikidata":"Q12374789"}}},{"type":"Feature","geometry":{"type":"Point","coordinates":[24.4661667,58.37]},"properties":{"osm_id":677529109,"osm_type":"node","seamark_type":"buoy_lateral","display_class":"OTHER","min_zoom":12,"importance":1,"name":"Seedri vasaku külje poi","ref":null,"common":{"type":"buoy_lateral"},"children":{"buoy_lateral":{"category":"port","colour":"red","system":"iala-a"}},"osm_tags":{"name":"Seedri vasaku külje poi","number":"877.4","seamark:buoy_lateral:category":"port","seamark:buoy_lateral:colour":"red","seamark:buoy_lateral:system":"iala-a","seamark:type":"buoy_lateral","source":"Estonian Maritime Administration, 24.03.2010","url":"https://nma.vta.ee/aton/"}}},{"type":"Feature","geometry":{"type":"Polygon","coordinates":[[[24.0020597,58.1551791],[24.0012892,58.1550572],[24.0013002,58.1548046],[24.0016965,58.1541861],[24.0027916,58.1544068],[24.0028851,58.1546739],[24.0024669,58.1551559],[24.0020597,58.1551791]]]},"properties":{"osm_id":1022714592,"osm_type":"way","seamark_type":"harbour","display_class":"OTHER","min_zoom":12,"importance":1,"name":"Sigatsuaru väikesadam","ref":null,"common":{"type":"harbour"},"children":{"harbour":{"category":"marina"}},"osm_tags":{"alt_name":"Sigatsuaru kalasadam","capacity":"40","fee":"yes","leisure":"marina","maxdraft":"0.3","maxdraught":"0.3","name":"Sigatsuaru väikesadam","name:en":"Sigatsuaru Marina","name:et":"Sigatsuaru väikesadam","operator":"Kihnu Vallavalitsus","phone":"+372 53328095","power_supply":"no","ref:LOCODE":"EESIG","sadamaregister:code":"EE SIG","sadamaregister:ref":"1936","sadamaregister:url":"https://www.sadamaregister.ee/sadam/1936","sanitary_dump_station":"no","seamark:harbour:category":"marina","seamark:type":"harbour","veeohutuse_stend:name":"Sigatsuaru 2","veeohutuse_stend:ref":"706","website":"https://kihnu.ee/sigatsuaru-kalasadam"}}},{"type":"Feature","geometry":{"type":"Point","coordinates":[24.4866167,58.3893333]},"properties":{"osm_id":677528978,"osm_type":"node","seamark_type":"light_minor","display_class":"OTHER","min_zoom":12,"importance":1,"name":"Silla sihi alumine tulepaak","ref":null,"common":{"type":"light_minor"},"children":{"light":{"1:category":"upper","1:character":"Iso","1:colour":"red","1:height":"29","1:period":"6","1:range":"2","1:sector_end":"28.2","1:sector_start":"24.2","reference":"C 3612.1"}},"osm_tags":{"man_made":"lighthouse","name":"Silla sihi alumine tulepaak","number":"891","seamark:light:1:category":"upper","seamark:light:1:character":"Iso","seamark:light:1:colour":"red","seamark:light:1:height":"29","seamark:light:1:period":"6","seamark:light:1:range":"2","seamark:light:1:sector_end":"28.2","seamark:light:1:sector_start":"24.2","seamark:light:reference":"C 3612.1","seamark:type":"light_minor","source":"Estonian Maritime Administration, 24.03.2010","url":"https://nma.vta.ee/aton/"}}},{"type":"Feature","geometry":{"type":"Point","coordinates":[24.4883333,58.39115]},"properties":{"osm_id":677529081,"osm_type":"node","seamark_type":"light_minor","display_class":"OTHER","min_zoom":12,"importance":1,"name":"Silla sihi ülemine tulepaak","ref":null,"common":{"type":"light_minor"},"children":{"light":{"1:category":"lower","1:character":"Iso","1:colour":"red","1:height":"16","1:period":"3","1:range":"2","1:sector_end":"28.2","1:sector_start":"24.2","reference":"C 3612"}},"osm_tags":{"man_made":"lighthouse","name":"Silla sihi ülemine tulepaak","number":"892","seamark:light:1:category":"lower","seamark:light:1:character":"Iso","seamark:light:1:colour":"red","seamark:light:1:height":"16","seamark:light:1:period":"3","seamark:light:1:range":"2","seamark:light:1:sector_end":"28.2","seamark:light:1:sector_start":"24.2","seamark:light:reference":"C 3612","seamark:type":"light_minor","source":"Estonian Maritime Administration, 24.03.2010","url":"https://nma.vta.ee/aton/"}}},{"type":"Feature","geometry":{"type":"Point","coordinates":[24.2313333,58.12]},"properties":{"osm_id":677529236,"osm_type":"node","seamark_type":"buoy_cardinal","display_class":"OTHER","min_zoom":12,"importance":1,"name":"Sorgu idapoi","ref":null,"common":{"type":"buoy_cardinal"},"children":{"buoy_cardinal":{"category":"south","colour":"yellow;black","colour_pattern":"horizontal"},"light":{"character":"Q+LFl","colour":"white","group":"6","period":"15"},"topmark":{"colour":"black","shape":"2 cones down"}},"osm_tags":{"name":"Sorgu idapoi","number":"861","seamark:buoy_cardinal:category":"south","seamark:buoy_cardinal:colour":"yellow;black","seamark:buoy_cardinal:colour_pattern":"horizontal","seamark:light:character":"Q+LFl","seamark:light:colour":"white","seamark:light:group":"6","seamark:light:period":"15","seamark:topmark:colour":"black","seamark:topmark:shape":"2 cones down","seamark:type":"buoy_cardinal","source":"Estonian Maritime Administration, 24.03.2010","url":"https://nma.vta.ee/aton/"}}},{"type":"Feature","geometry":{"type":"Point","coordinates":[24.1998333,58.1787333]},"properties":{"osm_id":3369832013,"osm_type":"node","seamark_type":"light_minor","display_class":"OTHER","min_zoom":12,"importance":1,"name":"Sorgu tuletorn","ref":null,"common":{"type":"light_minor"},"children":{"light":{"1:character":"Fl","1:colour":"white","1:group":"2","1:height":"19","1:period":"9","1:range":"7","1:sector_end":"342","1:sector_start":"101","1:sequence":"1+(1),1+(6)","2:character":"Fl","2:colour":"red","2:group":"2","2:height":"19","2:period":"9","2:range":"7","2:sector_end":"101","2:sector_start":"342","2:sequence":"1+(1),1+(6)","reference":"C 3602"}},"osm_tags":{"man_made":"lighthouse","name":"Sorgu tuletorn","number":"860","seamark:light:1:character":"Fl","seamark:light:1:colour":"white","seamark:light:1:group":"2","seamark:light:1:height":"19","seamark:light:1:period":"9","seamark:light:1:range":"7","seamark:light:1:sector_end":"342","seamark:light:1:sector_start":"101","seamark:light:1:sequence":"1+(1),1+(6)","seamark:light:2:character":"Fl","seamark:light:2:colour":"red","seamark:light:2:group":"2","seamark:light:2:height":"19","seamark:light:2:period":"9","seamark:light:2:range":"7","seamark:light:2:sector_end":"101","seamark:light:2:sector_start":"342","seamark:light:2:sequence":"1+(1),1+(6)","seamark:light:reference":"C 3602","seamark:type":"light_minor","source":"Estonian Maritime Administration, 24.03.2010","url":"https://nma.vta.ee/aton/","wikidata":"Q15219785"}}},{"type":"Feature","geometry":{"type":"Polygon","coordinates":[[[24.0160003,58.1411536],[24.0164842,58.1411979],[24.0165387,58.1410372],[24.0166905,58.1406576],[24.0160923,58.1406056],[24.01575,58.1410823],[24.0160003,58.1411536]]]},"properties":{"osm_id":1137663451,"osm_type":"way","seamark_type":"harbour","display_class":"OTHER","min_zoom":12,"importance":1,"name":"Suaru kalasadam","ref":null,"common":{"type":"harbour"},"children":{"harbour":{"category":"marina"}},"osm_tags":{"fee":"yes","leisure":"marina","maxdraft":"2.0","maxdraught":"2.0","name":"Suaru kalasadam","name:en":"Suaru Fishing Marina","name:et":"Suaru kalasadam","operator":"Kihnu Vallavalitsus","phone":"+372 5119242","power_supply":"yes","ref:LOCODE":"EESUK","sadamaregister:code":"EE SUK","sadamaregister:ref":"2670","sadamaregister:url":"https://www.sadamaregister.ee/sadam/2670","sanitary_dump_station":"yes","seamark:harbour:category":"marina","seamark:type":"harbour","website":"https://kihnu.ee/suaru-kalasadam"}}},{"type":"Feature","geometry":{"type":"Polygon","coordinates":[[[24.0184604,58.1410536],[24.0184945,58.1409783],[24.0185556,58.140825],[24.0166905,58.1406576],[24.0165387,58.1410372],[24.0183926,58.1411918],[24.0184604,58.1410536]]]},"properties":{"osm_id":1137663173,"osm_type":"way","seamark_type":"harbour","display_class":"OTHER","min_zoom":12,"importance":1,"name":"Suaru sadam","ref":null,"common":{"type":"harbour"},"children":{"harbour":{"category":"marina"}},"osm_tags":{"alt_name":"Suaru väikesadam","capacity":"28","fee":"yes","internet_access":"wlan","internet_access:fee":"no","leisure":"marina","maxdraft":"2.0","maxdraught":"2.0","name":"Suaru sadam","name:en":"Suaru Marina","name:et":"Suaru sadam","operator":"Kihnu Vallavalitsus","phone":"+372 53328095","power_supply":"yes","ref:LOCODE":"EESUA","sadamaregister:code":"EE SUA","sadamaregister:ref":"1907","sadamaregister:url":"https://www.sadamaregister.ee/sadam/1907","sanitary_dump_station":"yes","seamark:harbour:category":"marina","seamark:type":"harbour","website":"https://kihnu.ee/suaru-vaikesadam"}}},{"type":"Feature","geometry":{"type":"Polygon","coordinates":[[[24.4928031,58.38599],[24.492868,58.3859642],[24.4929505,58.3859348],[24.4930225,58.3859054],[24.4930428,58.3858985],[24.4930264,58.3858488],[24.4930097,58.3857877],[24.4929904,58.3857122],[24.4929548,58.3855774],[24.4929214,58.3854601],[24.4928855,58.3853244],[24.4928441,58.3851801],[24.4928075,58.3850474],[24.492782,58.3849447],[24.4923952,58.3848989],[24.4923475,58.3848563],[24.4914524,58.3839816],[24.4922643,58.3838415],[24.4929533,58.3837245],[24.493324,58.38366],[24.4937915,58.3837022],[24.4942672,58.3835113],[24.4941114,58.3833505],[24.4939867,58.3832275],[24.4931124,58.3833659],[24.4925073,58.3834545],[24.4911292,58.3837469],[24.4910046,58.3837925],[24.4909379,58.3838371],[24.4908815,58.3839017],[24.4908635,58.383961],[24.4908697,58.3840157],[24.4909012,58.3840951],[24.4920897,58.3852269],[24.4923157,58.3852757],[24.4923373,58.3856745],[24.4922557,58.3856689],[24.4922609,58.385731],[24.4922322,58.3858506],[24.4921905,58.3859688],[24.4928031,58.38599]]]},"properties":{"osm_id":1136432470,"osm_type":"way","seamark_type":"harbour","display_class":"OTHER","min_zoom":12,"importance":1,"name":"Talvesadam","ref":null,"common":{"type":"harbour"},"children":{"harbour":{"category":"marina"}},"osm_tags":{"addr:city":"Pärnu","addr:country":"EE","addr:housenumber":"2","addr:postcode":"80012","addr:street":"Sadama","alt_name":"Pärnu talvesadam","capacity":"28","fee":"yes","leisure":"marina","maxdraught":"2.0","name":"Talvesadam","name:en":"Talvesadam - Pärnu Winterharbour","name:et":"Talvesadam","operator":"VL Kaatrid OÜ","phone":"+3725283077","power_supply":"yes","ref:LOCODE":"EETLV","sadamaregister:code":"EE TLV","sadamaregister:ref":"709","sadamaregister:url":"https://www.sadamaregister.ee/sadam/709","sanitary_dump_station":"yes","seamark:harbour:category":"marina","seamark:type":"harbour","website":"https://talvesadam.ee/"}}},{"type":"Feature","geometry":{"type":"Point","coordinates":[24.4795,58.3838333]},"properties":{"osm_id":677529360,"osm_type":"node","seamark_type":"buoy_lateral","display_class":"OTHER","min_zoom":12,"importance":1,"name":"Turbakai vasaku külje poi","ref":null,"common":{"type":"buoy_lateral"},"children":{"buoy_lateral":{"category":"port","colour":"red","system":"iala-a"}},"osm_tags":{"name":"Turbakai vasaku külje poi","number":"887.2","seamark:buoy_lateral:category":"port","seamark:buoy_lateral:colour":"red","seamark:buoy_lateral:system":"iala-a","seamark:type":"buoy_lateral","source":"Estonian Maritime Administration, 24.03.2010","url":"https://nma.vta.ee/aton/"}}},{"type":"Feature","geometry":{"type":"Point","coordinates":[24.01964,58.30834]},"properties":{"osm_id":747012848,"osm_type":"node","seamark_type":"buoy_lateral","display_class":"OTHER","min_zoom":12,"importance":1,"name":"Tölli sadam","ref":null,"common":{"name":"Tölli sadam","type":"buoy_lateral"},"children":{"buoy_lateral":{"category":"port","colour":"red"}},"osm_tags":{"seamark":"buoy","seamark:buoy_lateral:category":"port","seamark:buoy_lateral:colour":"red","seamark:name":"Tölli sadam","seamark:type":"buoy_lateral"}}},{"type":"Feature","geometry":{"type":"Point","coordinates":[24.4751389,58.3776667]},"properties":{"osm_id":677529217,"osm_type":"node","seamark_type":"buoy_lateral","display_class":"OTHER","min_zoom":12,"importance":1,"name":"Ujuvkai vasaku külje poi","ref":null,"common":{"type":"buoy_lateral"},"children":{"buoy_lateral":{"category":"port","colour":"red","system":"iala-a"}},"osm_tags":{"name":"Ujuvkai vasaku külje poi","number":"887.1","seamark:buoy_lateral:category":"port","seamark:buoy_lateral:colour":"red","seamark:buoy_lateral:system":"iala-a","seamark:type":"buoy_lateral","source":"Estonian Maritime Administration, 24.03.2010","url":"https://nma.vta.ee/aton/"}}},{"type":"Feature","geometry":{"type":"Polygon","coordinates":[[[24.568278,58.3630859],[24.5683387,58.363196],[24.5683566,58.3632401],[24.5684289,58.3634439],[24.5695542,58.3633088],[24.5695723,58.3631008],[24.5695686,58.3629779],[24.5695723,58.3629427],[24.569102,58.3630244],[24.568278,58.3630859]]]},"properties":{"osm_id":1390656529,"osm_type":"way","seamark_type":"harbour","display_class":"OTHER","min_zoom":12,"importance":1,"name":"Vaala sadam","ref":null,"common":{"type":"harbour"},"children":{"harbour":{"category":"marina"}},"osm_tags":{"alt_name":"Vaala paadisadam","capacity":"16","email":"rolandtomson@gmail.com","fee":"yes","leisure":"marina","maxdraft":"2.0","maxdraught":"2.0","maxlength":"13.0","maxwidth":"4.0","name":"Vaala sadam","name:en":"Vaala Marina","name:et":"Vaala sadam","operator":"Tiit Valdaru","phone":"+3725073917","power_supply":"no","ref:LOCODE":"EERKL","sadamaregister:code":"EE RKL","sadamaregister:ref":"9184","sadamaregister:url":"https://www.sadamaregister.ee/sadam/9184","sanitary_dump_station":"no","seamark:harbour:category":"marina","seamark:type":"harbour"}}},{"type":"Feature","geometry":{"type":"Point","coordinates":[24.4852667,58.3879333]},"properties":{"osm_id":677529120,"osm_type":"node","seamark_type":"buoy_lateral","display_class":"OTHER","min_zoom":12,"importance":1,"name":"Vana-Pärnu vasaku külje poi","ref":null,"common":{"type":"buoy_lateral"},"children":{"buoy_lateral":{"category":"port","colour":"red","system":"iala-a"}},"osm_tags":{"name":"Vana-Pärnu vasaku külje poi","number":"887.3","seamark:buoy_lateral:category":"port","seamark:buoy_lateral:colour":"red","seamark:buoy_lateral:system":"iala-a","seamark:type":"buoy_lateral","source":"Estonian Maritime Administration, 24.03.2010","url":"https://nma.vta.ee/aton/"}}},{"type":"Feature","geometry":{"type":"Polygon","coordinates":[[[24.4751531,58.3902161],[24.4751806,58.3902306],[24.4759255,58.3906238],[24.4759487,58.3906396],[24.4761079,58.3907475],[24.4762876,58.3907813],[24.4767731,58.3905817],[24.4756493,58.3898576],[24.476086,58.3896635],[24.4763087,58.3895645],[24.4762616,58.3895364],[24.4758523,58.3896948],[24.4757848,58.389655],[24.4757189,58.3896823],[24.4754788,58.3897816],[24.4755071,58.3897986],[24.4751661,58.3899385],[24.4751457,58.3899527],[24.4751143,58.3899746],[24.4749819,58.3900667],[24.4748987,58.3900328],[24.4741291,58.3905777],[24.474217,58.3906238],[24.4743666,58.3905168],[24.4746649,58.3903033],[24.4748649,58.3902053],[24.475035,58.3901219],[24.475108,58.3901802],[24.4751531,58.3902161]]]},"properties":{"osm_id":1175626306,"osm_type":"way","seamark_type":"harbour","display_class":"OTHER","min_zoom":12,"importance":1,"name":"Vana-Sauga Sadam","ref":null,"common":{"type":"harbour"},"children":{"harbour":{"category":"marina"}},"osm_tags":{"email":"lasnmati@gmail.com","fee":"yes","harbour":"yes","leisure":"marina","maxdraft":"1.5","maxdraught":"1.5","maxlength":"12.0","maxwidth":"4.0","name":"Vana-Sauga Sadam","name:en":"Vana-Sauga Marina","name:et":"Vana-Sauga Sadam","operator":"Kaluriühistu Merekaru","phone":"+372 4443170","power_supply":"no","ref:LOCODE":"EEVSG","sadamaregister:code":"EE VSG","sadamaregister:ref":"2147","sadamaregister:url":"https://www.sadamaregister.ee/sadam/2147","sanitary_dump_station":"no","seamark:harbour:category":"marina","seamark:type":"harbour"}}},{"type":"Feature","geometry":{"type":"Polygon","coordinates":[[[24.0191287,58.3089704],[24.0201462,58.3090962],[24.0209019,58.3089174],[24.021695,58.3080448],[24.0202982,58.3076469],[24.0202859,58.3076686],[24.0202084,58.3076732],[24.020128,58.3076728],[24.0200506,58.3076906],[24.0200171,58.3077228],[24.0200149,58.3077652],[24.0200263,58.3077979],[24.0200167,58.3078209],[24.0199598,58.3078339],[24.0199017,58.3078525],[24.0198098,58.3078717],[24.0197664,58.3078908],[24.0197417,58.3079492],[24.0197361,58.3079625],[24.0197395,58.3080061],[24.0197095,58.3080097],[24.0196003,58.3079978],[24.0195608,58.3079979],[24.0195053,58.3080103],[24.0192962,58.3080393],[24.0192533,58.3080819],[24.0192478,58.3081181],[24.0193534,58.3083096],[24.0192815,58.3084955],[24.0192769,58.308641],[24.0191781,58.3087466],[24.0191528,58.3087798],[24.0191739,58.3088396],[24.0191369,58.3089279],[24.0191287,58.3089704]]]},"properties":{"osm_id":1138076220,"osm_type":"way","seamark_type":"harbour","display_class":"OTHER","min_zoom":12,"importance":1,"name":"Võidu sadam","ref":null,"common":{"type":"harbour"},"children":{"harbour":{"category":"marina"}},"osm_tags":{"alt_name":"Võidu paadisadam","fee":"yes","leisure":"marina","maxdraft":"1.0","maxdraught":"1.0","maxlength":"12.0","maxwidth":"4.0","name":"Võidu sadam","name:en":"Võidu Marina","name:et":"Võidu sadam","operator":"Pärnu Linnavalitsus","phone":"+372 4448200","power_supply":"no","ref:LOCODE":"EEVDU","sadamaregister:code":"EE VDU","sadamaregister:ref":"397","sadamaregister:url":"https://www.sadamaregister.ee/sadam/397","sanitary_dump_station":"no","seamark:harbour:category":"marina","seamark:type":"harbour"}}},{"type":"Feature","geometry":{"type":"Polygon","coordinates":[[[24.4680469,58.2144391],[24.4681727,58.2143892],[24.4680099,58.2142087],[24.4673944,58.2143597],[24.4674725,58.2146033],[24.4669776,58.2148139],[24.4666233,58.2149426],[24.4661773,58.215119],[24.4661383,58.2151344],[24.4660561,58.2151636],[24.46568,58.2152971],[24.4652202,58.2154658],[24.4651862,58.2154783],[24.4651075,58.2155203],[24.4650823,58.2155371],[24.4650706,58.2155449],[24.4650424,58.2155649],[24.4650017,58.2155954],[24.464935,58.2156783],[24.464934,58.2156984],[24.4649388,58.2157163],[24.4649467,58.2157241],[24.4649516,58.2157289],[24.4649656,58.2157393],[24.4649814,58.215748],[24.4649958,58.2157544],[24.4650094,58.2157565],[24.4654177,58.2158484],[24.465492,58.2158423],[24.4657184,58.2157452],[24.4657798,58.2157299],[24.465847,58.2157059],[24.4660029,58.2156984],[24.4660168,58.2156965],[24.4660492,58.215696],[24.4660967,58.2156967],[24.4661489,58.2156958],[24.4662049,58.2156937],[24.4662526,58.2156945],[24.4663389,58.2156915],[24.466371,58.2156877],[24.4667173,58.2156673],[24.466863,58.215664],[24.4669338,58.2156602],[24.4669764,58.2156565],[24.4670203,58.2156511],[24.4670564,58.2156492],[24.4671002,58.2156479],[24.4671886,58.2156461],[24.4675546,58.2156255],[24.4675883,58.2156254],[24.4676407,58.2156276],[24.4677227,58.2156272],[24.4677535,58.2156292],[24.4678002,58.2156347],[24.4678361,58.2156407],[24.4678773,58.2156544],[24.4679333,58.2156659],[24.4679661,58.2156837],[24.4680287,58.215663],[24.4682168,58.215815],[24.46873,58.2157395],[24.4691793,58.2156346],[24.4700452,58.2156025],[24.4708545,58.2157513],[24.4709158,58.215869],[24.4716612,58.2151577],[24.4716078,58.2151431],[24.4718945,58.2148005],[24.4715663,58.2147848],[24.4712755,58.2147198],[24.4708729,58.2152929],[24.4707205,58.2153154],[24.4700466,58.2153732],[24.4692356,58.2151768],[24.4689195,58.2149332],[24.4690008,58.2148877],[24.4686552,58.2147522],[24.468518,58.2147415],[24.4680469,58.2144391]]]},"properties":{"osm_id":1138039007,"osm_type":"way","seamark_type":"harbour","display_class":"OTHER","min_zoom":12,"importance":1,"name":"Võiste sadam","ref":null,"common":{"type":"harbour"},"children":{"harbour":{"category":"marina"}},"osm_tags":{"addr:city":"Võiste alevik","addr:country":"EE","addr:housenumber":"1","addr:postcode":"86501","addr:street":"Kaluri","alt_name":"Võiste kalasadam","fee":"yes","leisure":"marina","maxdraft":"0.9","maxdraught":"0.9","maxlength":"12.0","maxwidth":"4.0","name":"Võiste sadam","name:en":"Võiste Marina","name:et":"Võiste sadam","operator":"Võiste Sadamaarendus MTÜ","phone":"+3725527892","power_supply":"yes","ref:LOCODE":"EEVOI","sadamaregister:code":"EE VOI","sadamaregister:ref":"398","sadamaregister:url":"https://www.sadamaregister.ee/sadam/398","sanitary_dump_station":"yes","seamark:harbour:category":"marina","seamark:type":"harbour"}}}],"type":"FeatureCollection"}