{"type":"FeatureCollection","features":[{"type":"Feature","geometry":{"type":"Point","coordinates":[10.9901766,58.8324941]},"properties":{"osm_id":1531161364,"osm_type":"node","seamark_type":"light_major","display_class":"LIGHTHOUSE","min_zoom":7,"importance":5,"name":"Ursholmen","ref":null,"common":{"name":"Ursholmen","type":"light_major"},"children":{"light":{"1:character":"LFl","1:colour":"red","1:group":"2","1:height":"33","1:period":"15","1:range":"8","1:sector_end":"36","1:sector_start":"349","2:character":"LFl","2:colour":"white","2:group":"2","2:height":"33","2:period":"15","2:range":"10","2:sector_end":"169","2:sector_start":"36","3:character":"LFl","3:colour":"red","3:group":"2","3:height":"33","3:period":"15","3:range":"8","3:sector_end":"174","3:sector_start":"169","4:character":"LFl","4:colour":"white","4:group":"2","4:height":"33","4:period":"15","4:range":"10","4:sector_end":"337","4:sector_start":"174","5:character":"LFl","5:colour":"green","5:group":"2","5:height":"33","5:period":"15","5:range":"6","5:sector_end":"341","5:sector_start":"337","6:character":"LFl","6:colour":"white","6:group":"2","6:height":"33","6:period":"15","6:range":"10","6:sector_end":"349","6:sector_start":"341","reference":"C 0304"}},"osm_tags":{"seamark:light:1:character":"LFl","seamark:light:1:colour":"red","seamark:light:1:group":"2","seamark:light:1:height":"33","seamark:light:1:period":"15","seamark:light:1:range":"8","seamark:light:1:sector_end":"36","seamark:light:1:sector_start":"349","seamark:light:2:character":"LFl","seamark:light:2:colour":"white","seamark:light:2:group":"2","seamark:light:2:height":"33","seamark:light:2:period":"15","seamark:light:2:range":"10","seamark:light:2:sector_end":"169","seamark:light:2:sector_start":"36","seamark:light:3:character":"LFl","seamark:light:3:colour":"red","seamark:light:3:group":"2","seamark:light:3:height":"33","seamark:light:3:period":"15","seamark:light:3:range":"8","seamark:light:3:sector_end":"174","seamark:light:3:sector_start":"169","seamark:light:4:character":"LFl","seamark:light:4:colour":"white","seamark:light:4:group":"2","seamark:light:4:height":"33","seamark:light:4:period":"15","seamark:light:4:range":"10","seamark:light:4:sector_end":"337","seamark:light:4:sector_start":"174","seamark:light:5:character":"LFl","seamark:light:5:colour":"green","seamark:light:5:group":"2","seamark:light:5:height":"33","seamark:light:5:period":"15","seamark:light:5:range":"6","seamark:light:5:sector_end":"341","seamark:light:5:sector_start":"337","seamark:light:6:character":"LFl","seamark:light:6:colour":"white","seamark:light:6:group":"2","seamark:light:6:height":"33","seamark:light:6:period":"15","seamark:light:6:range":"10","seamark:light:6:sector_end":"349","seamark:light:6:sector_start":"341","seamark:light:reference":"C 0304","seamark:name":"Ursholmen","seamark:type":"light_major","source":"US NGA Pub. 116. 2011-07-07."}}},{"type":"Feature","geometry":{"type":"Point","coordinates":[10.9984667,58.8559833]},"properties":{"osm_id":4275400216,"osm_type":"node","seamark_type":"beacon_isolated_danger","display_class":"BEACON","min_zoom":9,"importance":4,"name":null,"ref":null,"common":{"type":"beacon_isolated_danger"},"children":{"beacon_isolated_danger":{"colour":"black","shape":"pile"}},"osm_tags":{"seamark:beacon_isolated_danger:colour":"black","seamark:beacon_isolated_danger:shape":"pile","seamark:type":"beacon_isolated_danger"}}},{"type":"Feature","geometry":{"type":"Point","coordinates":[10.9949585,58.8679376]},"properties":{"osm_id":4275402602,"osm_type":"node","seamark_type":"beacon_isolated_danger","display_class":"BEACON","min_zoom":9,"importance":4,"name":null,"ref":null,"common":{"type":"beacon_isolated_danger"},"children":{"beacon_isolated_danger":{"colour":"black","shape":"pile"}},"osm_tags":{"seamark:beacon_isolated_danger:colour":"black","seamark:beacon_isolated_danger:shape":"pile","seamark:type":"beacon_isolated_danger"}}},{"type":"Feature","geometry":{"type":"Point","coordinates":[10.9865833,58.8927667]},"properties":{"osm_id":4275409406,"osm_type":"node","seamark_type":"beacon_isolated_danger","display_class":"BEACON","min_zoom":9,"importance":4,"name":null,"ref":null,"common":{"type":"beacon_isolated_danger"},"children":{"beacon_isolated_danger":{"colour":"black","shape":"pile"}},"osm_tags":{"seamark:beacon_isolated_danger:colour":"black","seamark:beacon_isolated_danger:shape":"pile","seamark:type":"beacon_isolated_danger"}}},{"type":"Feature","geometry":{"type":"Point","coordinates":[10.9581167,58.8969167]},"properties":{"osm_id":4275411898,"osm_type":"node","seamark_type":"beacon_isolated_danger","display_class":"BEACON","min_zoom":9,"importance":4,"name":null,"ref":null,"common":{"type":"beacon_isolated_danger"},"children":{"beacon_isolated_danger":{"colour":"black","shape":"pile"}},"osm_tags":{"seamark:beacon_isolated_danger:colour":"black","seamark:beacon_isolated_danger:shape":"pile","seamark:type":"beacon_isolated_danger"}}},{"type":"Feature","geometry":{"type":"Point","coordinates":[10.9230273,58.9881509]},"properties":{"osm_id":5323950061,"osm_type":"node","seamark_type":"beacon_isolated_danger","display_class":"BEACON","min_zoom":9,"importance":4,"name":"Alna","ref":null,"common":{"name":"Alna","type":"beacon_isolated_danger"},"children":{"beacon_isolated_danger":{"shape":"tower"}},"osm_tags":{"man_made":"beacon","name":"Alna","ref:kystverket":"02280M","seamark:beacon_isolated_danger:shape":"tower","seamark:name":"Alna","seamark:type":"beacon_isolated_danger"}}},{"type":"Feature","geometry":{"type":"Point","coordinates":[10.2577382,58.9855302]},"properties":{"osm_id":5323933363,"osm_type":"node","seamark_type":"beacon_isolated_danger","display_class":"BEACON","min_zoom":9,"importance":4,"name":"Bonden","ref":null,"common":{"name":"Bonden","type":"beacon_isolated_danger"},"children":{"topmark":{"shape":"sphere"}},"osm_tags":{"ref:kystverket":"06077M","seamark:name":"Bonden","seamark:topmark:shape":"sphere","seamark:type":"beacon_isolated_danger"}}},{"type":"Feature","geometry":{"type":"Point","coordinates":[10.25776,58.9854646]},"properties":{"osm_id":5323958637,"osm_type":"node","seamark_type":"beacon_isolated_danger","display_class":"BEACON","min_zoom":9,"importance":4,"name":"Bonden","ref":null,"common":{"name":"Bonden","type":"beacon_isolated_danger"},"children":{"beacon_isolated_danger":{"shape":"tower"}},"osm_tags":{"man_made":"beacon","name":"Bonden","ref:kystverket":"02319M","seamark:beacon_isolated_danger:shape":"tower","seamark:name":"Bonden","seamark:type":"beacon_isolated_danger"}}},{"type":"Feature","geometry":{"type":"Point","coordinates":[10.0312223,58.9606068]},"properties":{"osm_id":5323949017,"osm_type":"node","seamark_type":"beacon_isolated_danger","display_class":"BEACON","min_zoom":9,"importance":4,"name":"Brattbåen","ref":null,"common":{"name":"Brattbåen","type":"beacon_isolated_danger"},"children":{"beacon_isolated_danger":{"depth":"2.8","shape":"stake","vertical_length":"7.8"},"retro_reflector":{"colour":"red"}},"osm_tags":{"ref:kystverket":"06075M","seamark:beacon_isolated_danger:depth":"2.8","seamark:beacon_isolated_danger:shape":"stake","seamark:beacon_isolated_danger:vertical_length":"7.8","seamark:name":"Brattbåen","seamark:retro_reflector:colour":"red","seamark:type":"beacon_isolated_danger"}}},{"type":"Feature","geometry":{"type":"Point","coordinates":[10.9526934,58.9947644]},"properties":{"osm_id":5105289513,"osm_type":"node","seamark_type":"beacon_lateral","display_class":"BEACON","min_zoom":9,"importance":4,"name":"Båane","ref":null,"common":{"name":"Båane","type":"beacon_lateral"},"children":{"beacon_lateral":{"category":"starboard","colour":"green","system":"iala-a"},"light":{"1:character":"Fl","1:colour":"green","1:height":"8.2","1:period":"3","1:range":"3","2:category":"floodlight","2:character":"F","2:colour":"yellow"},"retro_reflector":{"colour":"green"},"topmark":{"information":"01","shape":"triangle, point up"}},"osm_tags":{"ref:kystverket":"005101","seamark:beacon_lateral:category":"starboard","seamark:beacon_lateral:colour":"green","seamark:beacon_lateral:system":"iala-a","seamark:light:1:character":"Fl","seamark:light:1:colour":"green","seamark:light:1:height":"8.2","seamark:light:1:period":"3","seamark:light:1:range":"3","seamark:light:2:category":"floodlight","seamark:light:2:character":"F","seamark:light:2:colour":"yellow","seamark:name":"Båane","seamark:retro_reflector:colour":"green","seamark:topmark:information":"01","seamark:topmark:shape":"triangle, point up","seamark:type":"beacon_lateral"}}},{"type":"Feature","geometry":{"type":"Point","coordinates":[10.0177747,58.9697263]},"properties":{"osm_id":5324112801,"osm_type":"node","seamark_type":"beacon_isolated_danger","display_class":"BEACON","min_zoom":9,"importance":4,"name":"Fiskebåen","ref":null,"common":{"name":"Fiskebåen","type":"beacon_isolated_danger"},"children":{"beacon_isolated_danger":{"shape":"stake"},"retro_reflector":{"colour":"green"},"topmark":{"information":"Arrow","national_information":"Viser","orientation":"350","shape":"arrow"}},"osm_tags":{"ref:kystverket":"05860M","seamark:beacon_isolated_danger:shape":"stake","seamark:name":"Fiskebåen","seamark:retro_reflector:colour":"green","seamark:topmark:information":"Arrow","seamark:topmark:national_information":"Viser","seamark:topmark:orientation":"350","seamark:topmark:shape":"arrow","seamark:type":"beacon_isolated_danger"}}},{"type":"Feature","geometry":{"type":"Point","coordinates":[10.032001,58.9718473]},"properties":{"osm_id":5324112799,"osm_type":"node","seamark_type":"beacon_isolated_danger","display_class":"BEACON","min_zoom":9,"importance":4,"name":"Foner, NV","ref":null,"common":{"name":"Foner, NV","type":"beacon_isolated_danger"},"children":{"beacon_isolated_danger":{"shape":"stake"},"retro_reflector":{"colour":"red"},"topmark":{"information":"Arrow","national_information":"Viser","orientation":"110","shape":"arrow"}},"osm_tags":{"ref:kystverket":"05858M","seamark:beacon_isolated_danger:shape":"stake","seamark:name":"Foner, NV","seamark:retro_reflector:colour":"red","seamark:topmark:information":"Arrow","seamark:topmark:national_information":"Viser","seamark:topmark:orientation":"110","seamark:topmark:shape":"arrow","seamark:type":"beacon_isolated_danger"}}},{"type":"Feature","geometry":{"type":"Point","coordinates":[10.0341951,58.9717094]},"properties":{"osm_id":5324112800,"osm_type":"node","seamark_type":"beacon_isolated_danger","display_class":"BEACON","min_zoom":9,"importance":4,"name":"Foner, V","ref":null,"common":{"name":"Foner, V","type":"beacon_isolated_danger"},"children":{"beacon_isolated_danger":{"shape":"stake"},"retro_reflector":{"colour":"green"},"topmark":{"information":"Arrow","national_information":"Viser","orientation":"270","shape":"arrow"}},"osm_tags":{"ref:kystverket":"05857M","seamark:beacon_isolated_danger:shape":"stake","seamark:name":"Foner, V","seamark:retro_reflector:colour":"green","seamark:topmark:information":"Arrow","seamark:topmark:national_information":"Viser","seamark:topmark:orientation":"270","seamark:topmark:shape":"arrow","seamark:type":"beacon_isolated_danger"}}},{"type":"Feature","geometry":{"type":"Point","coordinates":[10.8765405,58.9598979]},"properties":{"osm_id":5323951758,"osm_type":"node","seamark_type":"beacon_isolated_danger","display_class":"BEACON","min_zoom":9,"importance":4,"name":"Heia Båthavn","ref":null,"common":{"name":"Heia Båthavn","type":"beacon_isolated_danger"},"children":{"beacon_isolated_danger":{"shape":"stake"},"retro_reflector":{"colour":"red"}},"osm_tags":{"ref:kystverket":"02435M","seamark:beacon_isolated_danger:shape":"stake","seamark:name":"Heia Båthavn","seamark:retro_reflector:colour":"red","seamark:type":"beacon_isolated_danger"}}},{"type":"Feature","geometry":{"type":"Point","coordinates":[10.8724285,58.9583756]},"properties":{"osm_id":5323941917,"osm_type":"node","seamark_type":"beacon_isolated_danger","display_class":"BEACON","min_zoom":9,"importance":4,"name":"Heia, 1","ref":null,"common":{"name":"Heia, 1","type":"beacon_isolated_danger"},"children":{"beacon_isolated_danger":{"shape":"tower"}},"osm_tags":{"man_made":"beacon","name":"Heia, 1","ref:kystverket":"02278M","seamark:beacon_isolated_danger:shape":"tower","seamark:name":"Heia, 1","seamark:type":"beacon_isolated_danger"}}},{"type":"Feature","geometry":{"type":"Point","coordinates":[10.8734031,58.9572643]},"properties":{"osm_id":5323952904,"osm_type":"node","seamark_type":"beacon_isolated_danger","display_class":"BEACON","min_zoom":9,"importance":4,"name":"Heia, 2","ref":null,"common":{"name":"Heia, 2","type":"beacon_isolated_danger"},"children":{"beacon_isolated_danger":{"shape":"tower"}},"osm_tags":{"man_made":"beacon","name":"Heia, 2","ref:kystverket":"02034M","seamark:beacon_isolated_danger:shape":"tower","seamark:name":"Heia, 2","seamark:type":"beacon_isolated_danger"}}},{"type":"Feature","geometry":{"type":"Point","coordinates":[10.8727447,58.9566911]},"properties":{"osm_id":5323950062,"osm_type":"node","seamark_type":"beacon_isolated_danger","display_class":"BEACON","min_zoom":9,"importance":4,"name":"Heia, 3","ref":null,"common":{"name":"Heia, 3","type":"beacon_isolated_danger"},"children":{"beacon_isolated_danger":{"shape":"tower"}},"osm_tags":{"man_made":"beacon","name":"Heia, 3","ref:kystverket":"02279M","seamark:beacon_isolated_danger:shape":"tower","seamark:name":"Heia, 3","seamark:type":"beacon_isolated_danger"}}},{"type":"Feature","geometry":{"type":"Point","coordinates":[10.0439146,58.9657435]},"properties":{"osm_id":5323960471,"osm_type":"node","seamark_type":"beacon_isolated_danger","display_class":"BEACON","min_zoom":9,"importance":4,"name":"Kirkeberget","ref":null,"common":{"name":"Kirkeberget","type":"beacon_isolated_danger"},"children":{"beacon_isolated_danger":{"shape":"stake"}},"osm_tags":{"ref:kystverket":"06074M","seamark:beacon_isolated_danger:shape":"stake","seamark:name":"Kirkeberget","seamark:type":"beacon_isolated_danger"}}},{"type":"Feature","geometry":{"type":"Point","coordinates":[10.0239311,58.9712123]},"properties":{"osm_id":5324143921,"osm_type":"node","seamark_type":"beacon_isolated_danger","display_class":"BEACON","min_zoom":9,"importance":4,"name":"Kråka","ref":null,"common":{"name":"Kråka","type":"beacon_isolated_danger"},"children":{"beacon_isolated_danger":{"shape":"stake"},"retro_reflector":{"colour":"red"},"topmark":{"information":"Arrow","national_information":"Viser","orientation":"170","shape":"arrow"}},"osm_tags":{"ref:kystverket":"05859M","seamark:beacon_isolated_danger:shape":"stake","seamark:name":"Kråka","seamark:retro_reflector:colour":"red","seamark:topmark:information":"Arrow","seamark:topmark:national_information":"Viser","seamark:topmark:orientation":"170","seamark:topmark:shape":"arrow","seamark:type":"beacon_isolated_danger"}}},{"type":"Feature","geometry":{"type":"Point","coordinates":[10.8321328,58.9794395]},"properties":{"osm_id":5323950060,"osm_type":"node","seamark_type":"beacon_isolated_danger","display_class":"BEACON","min_zoom":9,"importance":4,"name":"Kuskjær","ref":null,"common":{"name":"Kuskjær","type":"beacon_isolated_danger"},"children":{"beacon_isolated_danger":{"shape":"tower"}},"osm_tags":{"man_made":"beacon","name":"Kuskjær","ref:kystverket":"02281M","seamark:beacon_isolated_danger:shape":"tower","seamark:name":"Kuskjær","seamark:type":"beacon_isolated_danger"}}},{"type":"Feature","geometry":{"type":"Point","coordinates":[10.0134252,58.9706297]},"properties":{"osm_id":5324143922,"osm_type":"node","seamark_type":"beacon_isolated_danger","display_class":"BEACON","min_zoom":9,"importance":4,"name":"Røvikbåen, N","ref":null,"common":{"name":"Røvikbåen, N","type":"beacon_isolated_danger"},"children":{"beacon_isolated_danger":{"shape":"stake"},"retro_reflector":{"colour":"red"},"topmark":{"information":"Arrow","national_information":"Viser","orientation":"130","shape":"arrow"}},"osm_tags":{"ref:kystverket":"05861M","seamark:beacon_isolated_danger:shape":"stake","seamark:name":"Røvikbåen, N","seamark:retro_reflector:colour":"red","seamark:topmark:information":"Arrow","seamark:topmark:national_information":"Viser","seamark:topmark:orientation":"130","seamark:topmark:shape":"arrow","seamark:type":"beacon_isolated_danger"}}},{"type":"Feature","geometry":{"type":"Point","coordinates":[10.9952814,58.8676171]},"properties":{"osm_id":2600966460,"osm_type":"node","seamark_type":"beacon_special_purpose","display_class":"BEACON","min_zoom":9,"importance":4,"name":"Stora Ärholmarna","ref":null,"common":{"information":"Former lighthouse","name":"Stora Ärholmarna","type":"beacon_special_purpose"},"children":{"beacon_special_purpose":{"category":"unknown_purpose","shape":"tower"}},"osm_tags":{"seamark:beacon_special_purpose:category":"unknown_purpose","seamark:beacon_special_purpose:shape":"tower","seamark:information":"Former lighthouse","seamark:name":"Stora Ärholmarna","seamark:type":"beacon_special_purpose"}}},{"type":"Feature","geometry":{"type":"Point","coordinates":[10.9745034,58.9727529]},"properties":{"osm_id":5323942271,"osm_type":"node","seamark_type":"beacon_isolated_danger","display_class":"BEACON","min_zoom":9,"importance":4,"name":"Svartskjær","ref":null,"common":{"name":"Svartskjær","type":"beacon_isolated_danger"},"children":{"beacon_isolated_danger":{"shape":"tower"}},"osm_tags":{"man_made":"beacon","name":"Svartskjær","ref:kystverket":"02282M","seamark:beacon_isolated_danger:shape":"tower","seamark:name":"Svartskjær","seamark:type":"beacon_isolated_danger"}}},{"type":"Feature","geometry":{"type":"Point","coordinates":[10.0399573,58.9743148]},"properties":{"osm_id":5324112798,"osm_type":"node","seamark_type":"beacon_isolated_danger","display_class":"BEACON","min_zoom":9,"importance":4,"name":"Svartskjæra","ref":null,"common":{"name":"Svartskjæra","type":"beacon_isolated_danger"},"children":{"beacon_isolated_danger":{"shape":"stake"},"retro_reflector":{"colour":"red"},"topmark":{"information":"Arrow","national_information":"Viser","orientation":"170","shape":"arrow"}},"osm_tags":{"ref:kystverket":"05856M","seamark:beacon_isolated_danger:shape":"stake","seamark:name":"Svartskjæra","seamark:retro_reflector:colour":"red","seamark:topmark:information":"Arrow","seamark:topmark:national_information":"Viser","seamark:topmark:orientation":"170","seamark:topmark:shape":"arrow","seamark:type":"beacon_isolated_danger"}}},{"type":"Feature","geometry":{"type":"Point","coordinates":[10.1510223,58.968435]},"properties":{"osm_id":5324096627,"osm_type":"node","seamark_type":"beacon_isolated_danger","display_class":"BEACON","min_zoom":9,"importance":4,"name":"Svenner havn","ref":null,"common":{"name":"Svenner havn","type":"beacon_isolated_danger"},"children":{"beacon_isolated_danger":{"shape":"stake"},"retro_reflector":{"colour":"red"},"topmark":{"information":"Arrow","national_information":"Viser","orientation":"360","shape":"arrow"}},"osm_tags":{"ref:kystverket":"06076M","seamark:beacon_isolated_danger:shape":"stake","seamark:name":"Svenner havn","seamark:retro_reflector:colour":"red","seamark:topmark:information":"Arrow","seamark:topmark:national_information":"Viser","seamark:topmark:orientation":"360","seamark:topmark:shape":"arrow","seamark:type":"beacon_isolated_danger"}}},{"type":"Feature","geometry":{"type":"Point","coordinates":[10.1470338,58.982512]},"properties":{"osm_id":5323957026,"osm_type":"node","seamark_type":"beacon_isolated_danger","display_class":"BEACON","min_zoom":9,"importance":4,"name":"Svennerflaten","ref":null,"common":{"name":"Svennerflaten","type":"beacon_isolated_danger"},"children":{"beacon_isolated_danger":{"shape":"tower"}},"osm_tags":{"man_made":"beacon","name":"Svennerflaten","ref:kystverket":"02320M","seamark:beacon_isolated_danger:shape":"tower","seamark:name":"Svennerflaten","seamark:type":"beacon_isolated_danger"}}},{"type":"Feature","geometry":{"type":"Point","coordinates":[10.0182591,58.9575853]},"properties":{"osm_id":5323947956,"osm_type":"node","seamark_type":"beacon_isolated_danger","display_class":"BEACON","min_zoom":9,"importance":4,"name":"Søre Hellene","ref":null,"common":{"name":"Søre Hellene","type":"beacon_isolated_danger"},"children":{"beacon_isolated_danger":{"depth":"2.8","shape":"stake","vertical_length":"7.8"},"retro_reflector":{"colour":"red"}},"osm_tags":{"ref:kystverket":"02777M","seamark:beacon_isolated_danger:depth":"2.8","seamark:beacon_isolated_danger:shape":"stake","seamark:beacon_isolated_danger:vertical_length":"7.8","seamark:name":"Søre Hellene","seamark:retro_reflector:colour":"red","seamark:type":"beacon_isolated_danger"}}},{"type":"Feature","geometry":{"type":"Point","coordinates":[10.9992003,58.8873833]},"properties":{"osm_id":1531161645,"osm_type":"node","seamark_type":"light_minor","display_class":"OTHER","min_zoom":12,"importance":1,"name":null,"ref":null,"common":{"information":"Fishing light.","type":"light_minor"},"children":{"light":{"category":"upper","character":"F","colour":"red","height":"18","range":"6","reference":"C 0298.01"}},"osm_tags":{"seamark:information":"Fishing light.","seamark:light:category":"upper","seamark:light:character":"F","seamark:light:colour":"red","seamark:light:height":"18","seamark:light:range":"6","seamark:light:reference":"C 0298.01","seamark:type":"light_minor","source":"US NGA Pub. 116. 2011-07-07."}}},{"type":"Feature","geometry":{"type":"Point","coordinates":[10.7868333,58.8068333]},"properties":{"osm_id":3582176393,"osm_type":"node","seamark_type":"wreck","display_class":"OTHER","min_zoom":12,"importance":1,"name":null,"ref":null,"common":{"type":"wreck"},"children":{"wreck":{"category":"non-dangerous","water_level":"submerged"}},"osm_tags":{"seamark:type":"wreck","seamark:wreck:category":"non-dangerous","seamark:wreck:water_level":"submerged","source":"http://www.sjofartsverket.se/UfsPdf/482SV.pdf"}}},{"type":"Feature","geometry":{"type":"Point","coordinates":[10.9932,58.6130667]},"properties":{"osm_id":4273724382,"osm_type":"node","seamark_type":"buoy_cardinal","display_class":"OTHER","min_zoom":12,"importance":1,"name":null,"ref":null,"common":{"type":"buoy_cardinal"},"children":{"buoy_cardinal":{"category":"west","colour":"yellow;black;yellow","colour_pattern":"horizontal","shape":"spar"},"topmark":{"colour":"black","shape":"2 cones point together"}},"osm_tags":{"seamark:buoy_cardinal:category":"west","seamark:buoy_cardinal:colour":"yellow;black;yellow","seamark:buoy_cardinal:colour_pattern":"horizontal","seamark:buoy_cardinal:shape":"spar","seamark:topmark:colour":"black","seamark:topmark:shape":"2 cones point together","seamark:type":"buoy_cardinal"}}},{"type":"Feature","geometry":{"type":"Point","coordinates":[10.8667667,58.7127]},"properties":{"osm_id":4273733032,"osm_type":"node","seamark_type":"buoy_cardinal","display_class":"OTHER","min_zoom":12,"importance":1,"name":null,"ref":null,"common":{"type":"buoy_cardinal"},"children":{"buoy_cardinal":{"category":"north","colour":"black;yellow","colour_pattern":"horizontal","shape":"spar"},"topmark":{"colour":"black","shape":"2 cones up"}},"osm_tags":{"seamark:buoy_cardinal:category":"north","seamark:buoy_cardinal:colour":"black;yellow","seamark:buoy_cardinal:colour_pattern":"horizontal","seamark:buoy_cardinal:shape":"spar","seamark:topmark:colour":"black","seamark:topmark:shape":"2 cones up","seamark:type":"buoy_cardinal"}}},{"type":"Feature","geometry":{"type":"Point","coordinates":[10.9947333,58.7428167]},"properties":{"osm_id":4273740696,"osm_type":"node","seamark_type":"buoy_cardinal","display_class":"OTHER","min_zoom":12,"importance":1,"name":null,"ref":null,"common":{"type":"buoy_cardinal"},"children":{"buoy_cardinal":{"category":"south","colour":"yellow;black","colour_pattern":"horizontal","shape":"spar"},"topmark":{"colour":"black","shape":"2 cones down"}},"osm_tags":{"seamark:buoy_cardinal:category":"south","seamark:buoy_cardinal:colour":"yellow;black","seamark:buoy_cardinal:colour_pattern":"horizontal","seamark:buoy_cardinal:shape":"spar","seamark:topmark:colour":"black","seamark:topmark:shape":"2 cones down","seamark:type":"buoy_cardinal"}}},{"type":"Feature","geometry":{"type":"Point","coordinates":[10.9319833,58.4882167]},"properties":{"osm_id":4274765375,"osm_type":"node","seamark_type":"buoy_special_purpose","display_class":"OTHER","min_zoom":12,"importance":1,"name":null,"ref":null,"common":{"type":"buoy_special_purpose"},"children":{"buoy_special_purpose":{"colour":"yellow","shape":"spherical"},"light":{"character":"Fl","colour":"yellow","group":"5","period":"20"},"topmark":{"colour":"yellow","shape":"x-shape"}},"osm_tags":{"seamark:buoy_special_purpose:colour":"yellow","seamark:buoy_special_purpose:shape":"spherical","seamark:light:character":"Fl","seamark:light:colour":"yellow","seamark:light:group":"5","seamark:light:period":"20","seamark:topmark:colour":"yellow","seamark:topmark:shape":"x-shape","seamark:type":"buoy_special_purpose"}}},{"type":"Feature","geometry":{"type":"Point","coordinates":[10.9523333,58.8388]},"properties":{"osm_id":4275396263,"osm_type":"node","seamark_type":"buoy_cardinal","display_class":"OTHER","min_zoom":12,"importance":1,"name":null,"ref":null,"common":{"type":"buoy_cardinal"},"children":{"buoy_cardinal":{"category":"west","colour":"yellow;black;yellow","colour_pattern":"horizontal","shape":"spar"},"topmark":{"colour":"black","shape":"2 cones point together"}},"osm_tags":{"seamark:buoy_cardinal:category":"west","seamark:buoy_cardinal:colour":"yellow;black;yellow","seamark:buoy_cardinal:colour_pattern":"horizontal","seamark:buoy_cardinal:shape":"spar","seamark:topmark:colour":"black","seamark:topmark:shape":"2 cones point together","seamark:type":"buoy_cardinal"}}},{"type":"Feature","geometry":{"type":"Point","coordinates":[10.8290833,58.8987]},"properties":{"osm_id":4275414646,"osm_type":"node","seamark_type":"buoy_cardinal","display_class":"OTHER","min_zoom":12,"importance":1,"name":null,"ref":null,"common":{"type":"buoy_cardinal"},"children":{"buoy_cardinal":{"category":"south","colour":"yellow;black","colour_pattern":"horizontal","shape":"pillar"},"light":{"character":"Q+LFl","colour":"white","group":"6","period":"15"},"topmark":{"colour":"black","shape":"2 cones down"}},"osm_tags":{"seamark:buoy_cardinal:category":"south","seamark:buoy_cardinal:colour":"yellow;black","seamark:buoy_cardinal:colour_pattern":"horizontal","seamark:buoy_cardinal:shape":"pillar","seamark:light:character":"Q+LFl","seamark:light:colour":"white","seamark:light:group":"6","seamark:light:period":"15","seamark:topmark:colour":"black","seamark:topmark:shape":"2 cones down","seamark:type":"buoy_cardinal"}}},{"type":"Feature","geometry":{"type":"Point","coordinates":[10.8955167,58.9044667]},"properties":{"osm_id":4275416613,"osm_type":"node","seamark_type":"buoy_cardinal","display_class":"OTHER","min_zoom":12,"importance":1,"name":null,"ref":null,"common":{"type":"buoy_cardinal"},"children":{"buoy_cardinal":{"category":"south","colour":"yellow;black","colour_pattern":"horizontal","shape":"spar"},"topmark":{"colour":"black","shape":"2 cones down"}},"osm_tags":{"seamark:buoy_cardinal:category":"south","seamark:buoy_cardinal:colour":"yellow;black","seamark:buoy_cardinal:colour_pattern":"horizontal","seamark:buoy_cardinal:shape":"spar","seamark:topmark:colour":"black","seamark:topmark:shape":"2 cones down","seamark:type":"buoy_cardinal"}}},{"type":"Feature","geometry":{"type":"Point","coordinates":[10.911332,58.8921656]},"properties":{"osm_id":4275418089,"osm_type":"node","seamark_type":"buoy_cardinal","display_class":"OTHER","min_zoom":12,"importance":1,"name":null,"ref":null,"common":{"type":"buoy_cardinal"},"children":{"buoy_cardinal":{"category":"north","colour":"black;yellow","colour_pattern":"horizontal","shape":"spar"},"topmark":{"colour":"black","shape":"2 cones up"}},"osm_tags":{"seamark:buoy_cardinal:category":"north","seamark:buoy_cardinal:colour":"black;yellow","seamark:buoy_cardinal:colour_pattern":"horizontal","seamark:buoy_cardinal:shape":"spar","seamark:topmark:colour":"black","seamark:topmark:shape":"2 cones up","seamark:type":"buoy_cardinal"}}},{"type":"Feature","geometry":{"type":"Point","coordinates":[10.9691667,58.9236167]},"properties":{"osm_id":4275419372,"osm_type":"node","seamark_type":"buoy_lateral","display_class":"OTHER","min_zoom":12,"importance":1,"name":null,"ref":null,"common":{"type":"buoy_lateral"},"children":{"buoy_lateral":{"category":"starboard","colour":"green","shape":"conical","system":"iala-a"},"light":{"character":"Q","colour":"green"}},"osm_tags":{"seamark:buoy_lateral:category":"starboard","seamark:buoy_lateral:colour":"green","seamark:buoy_lateral:shape":"conical","seamark:buoy_lateral:system":"iala-a","seamark:light:character":"Q","seamark:light:colour":"green","seamark:type":"buoy_lateral"}}},{"type":"Feature","geometry":{"type":"Point","coordinates":[10.9590333,58.9237]},"properties":{"osm_id":4275419399,"osm_type":"node","seamark_type":"buoy_lateral","display_class":"OTHER","min_zoom":12,"importance":1,"name":null,"ref":null,"common":{"type":"buoy_lateral"},"children":{"buoy_lateral":{"category":"port","colour":"red","shape":"spar","system":"iala-a"},"topmark":{"colour":"red","shape":"cylinder"}},"osm_tags":{"seamark:buoy_lateral:category":"port","seamark:buoy_lateral:colour":"red","seamark:buoy_lateral:shape":"spar","seamark:buoy_lateral:system":"iala-a","seamark:topmark:colour":"red","seamark:topmark:shape":"cylinder","seamark:type":"buoy_lateral"}}},{"type":"Feature","geometry":{"type":"Point","coordinates":[10.87355,58.9175833]},"properties":{"osm_id":4275565030,"osm_type":"node","seamark_type":"buoy_cardinal","display_class":"OTHER","min_zoom":12,"importance":1,"name":null,"ref":null,"common":{"type":"buoy_cardinal"},"children":{"buoy_cardinal":{"category":"east","colour":"black;yellow;black","colour_pattern":"horizontal","shape":"spar"},"topmark":{"colour":"black","shape":"2 cones base together"}},"osm_tags":{"seamark:buoy_cardinal:category":"east","seamark:buoy_cardinal:colour":"black;yellow;black","seamark:buoy_cardinal:colour_pattern":"horizontal","seamark:buoy_cardinal:shape":"spar","seamark:topmark:colour":"black","seamark:topmark:shape":"2 cones base together","seamark:type":"buoy_cardinal"}}},{"type":"Feature","geometry":{"type":"Point","coordinates":[10.8182667,58.91795]},"properties":{"osm_id":4275565159,"osm_type":"node","seamark_type":"buoy_cardinal","display_class":"OTHER","min_zoom":12,"importance":1,"name":null,"ref":null,"common":{"type":"buoy_cardinal"},"children":{"buoy_cardinal":{"category":"west","colour":"yellow;black;yellow","colour_pattern":"horizontal","shape":"spar"},"topmark":{"colour":"black","shape":"2 cones point together"}},"osm_tags":{"seamark:buoy_cardinal:category":"west","seamark:buoy_cardinal:colour":"yellow;black;yellow","seamark:buoy_cardinal:colour_pattern":"horizontal","seamark:buoy_cardinal:shape":"spar","seamark:topmark:colour":"black","seamark:topmark:shape":"2 cones point together","seamark:type":"buoy_cardinal"}}},{"type":"Feature","geometry":{"type":"Point","coordinates":[10.9612414,58.9878102]},"properties":{"osm_id":4847850756,"osm_type":"node","seamark_type":"rock","display_class":"OTHER","min_zoom":12,"importance":1,"name":null,"ref":null,"common":{"type":"rock"},"children":{},"osm_tags":{"seamark:type":"rock"}}},{"type":"Feature","geometry":{"type":"Point","coordinates":[10.0644887,58.9962953]},"properties":{"osm_id":5323258245,"osm_type":"node","seamark_type":"buoy_lateral","display_class":"OTHER","min_zoom":12,"importance":1,"name":null,"ref":null,"common":{"type":"buoy_lateral"},"children":{"buoy_lateral":{"category":"port","colour":"red","shape":"spar","system":"iala-a"}},"osm_tags":{"ref:kystverket":"208025","seamark:buoy_lateral:category":"port","seamark:buoy_lateral:colour":"red","seamark:buoy_lateral:shape":"spar","seamark:buoy_lateral:system":"iala-a","seamark:type":"buoy_lateral"}}},{"type":"Feature","geometry":{"type":"Point","coordinates":[10.1724112,58.9956487]},"properties":{"osm_id":5323260989,"osm_type":"node","seamark_type":"buoy_lateral","display_class":"OTHER","min_zoom":12,"importance":1,"name":null,"ref":null,"common":{"type":"buoy_lateral"},"children":{"buoy_lateral":{"category":"port","colour":"red","shape":"spar","system":"iala-a"}},"osm_tags":{"ref:kystverket":"208385","seamark:buoy_lateral:category":"port","seamark:buoy_lateral:colour":"red","seamark:buoy_lateral:shape":"spar","seamark:buoy_lateral:system":"iala-a","seamark:type":"buoy_lateral"}}},{"type":"Feature","geometry":{"type":"Point","coordinates":[10.0438414,58.9986725]},"properties":{"osm_id":5325947511,"osm_type":"node","seamark_type":"light_minor","display_class":"OTHER","min_zoom":12,"importance":1,"name":null,"ref":null,"common":{"type":"light_minor"},"children":{"light":{"character":"Fl","colour":"white","period":"2"}},"osm_tags":{"ref:kystverket":"0423P","seamark:light:character":"Fl","seamark:light:colour":"white","seamark:light:period":"2","seamark:type":"light_minor"}}},{"type":"Feature","geometry":{"type":"Point","coordinates":[10.983257,58.7762682]},"properties":{"osm_id":5976113906,"osm_type":"node","seamark_type":"rock","display_class":"OTHER","min_zoom":12,"importance":1,"name":null,"ref":null,"common":{"type":"rock"},"children":{"rock":{"water_level":"awash"}},"osm_tags":{"seamark:rock:water_level":"awash","seamark:type":"rock"}}},{"type":"Feature","geometry":{"type":"Point","coordinates":[10.9855369,58.771916]},"properties":{"osm_id":5976113907,"osm_type":"node","seamark_type":"rock","display_class":"OTHER","min_zoom":12,"importance":1,"name":null,"ref":null,"common":{"type":"rock"},"children":{"rock":{"water_level":"awash"}},"osm_tags":{"seamark:rock:water_level":"awash","seamark:type":"rock"}}},{"type":"Feature","geometry":{"type":"Point","coordinates":[10.9856468,58.7727865]},"properties":{"osm_id":5976113908,"osm_type":"node","seamark_type":"rock","display_class":"OTHER","min_zoom":12,"importance":1,"name":null,"ref":null,"common":{"type":"rock"},"children":{"rock":{"water_level":"awash"}},"osm_tags":{"seamark:rock:water_level":"awash","seamark:type":"rock"}}},{"type":"Feature","geometry":{"type":"Point","coordinates":[10.9849548,58.7713848]},"properties":{"osm_id":5976113909,"osm_type":"node","seamark_type":"rock","display_class":"OTHER","min_zoom":12,"importance":1,"name":null,"ref":null,"common":{"type":"rock"},"children":{"rock":{"water_level":"awash"}},"osm_tags":{"seamark:rock:water_level":"awash","seamark:type":"rock"}}},{"type":"Feature","geometry":{"type":"Point","coordinates":[10.9690466,58.8815068]},"properties":{"osm_id":7097778158,"osm_type":"node","seamark_type":"rock","display_class":"OTHER","min_zoom":12,"importance":1,"name":null,"ref":null,"common":{"type":"rock"},"children":{"rock":{"water_level":"awash"}},"osm_tags":{"seamark:rock:water_level":"awash","seamark:type":"rock"}}},{"type":"Feature","geometry":{"type":"Point","coordinates":[10.9831846,58.8746805]},"properties":{"osm_id":7099422577,"osm_type":"node","seamark_type":"rock","display_class":"OTHER","min_zoom":12,"importance":1,"name":null,"ref":null,"common":{"type":"rock"},"children":{"rock":{"water_level":"awash"}},"osm_tags":{"seamark:rock:water_level":"awash","seamark:type":"rock"}}},{"type":"Feature","geometry":{"type":"Polygon","coordinates":[[[10.9588207,58.9849516],[10.9588663,58.9849508],[10.9588649,58.9849301],[10.9588194,58.9849308],[10.9588207,58.9849516]]]},"properties":{"osm_id":492811506,"osm_type":"way","seamark_type":"small_craft_facility","display_class":"OTHER","min_zoom":12,"importance":1,"name":null,"ref":null,"common":{"type":"small_craft_facility"},"children":{"small_craft_facility":{"category":"refuse_bin;toilets"}},"osm_tags":{"building":"yes","seamark:small_craft_facility:category":"refuse_bin;toilets","seamark:type":"small_craft_facility"}}},{"type":"Feature","geometry":{"type":"LineString","coordinates":[[10.9992003,58.8873833],[10.9987,58.88655],[10.9962158,58.8824307]]},"properties":{"osm_id":932386009,"osm_type":"way","seamark_type":"navigation_line","display_class":"OTHER","min_zoom":12,"importance":1,"name":null,"ref":null,"common":{"type":"navigation_line"},"children":{"navigation_line":{"category":"leading","orientation":"15"}},"osm_tags":{"seamark:navigation_line:category":"leading","seamark:navigation_line:orientation":"15","seamark:type":"navigation_line"}}},{"type":"Feature","geometry":{"type":"LineString","coordinates":[[11.0722698,58.7749031],[10.8970639,58.6840764]]},"properties":{"osm_id":944605966,"osm_type":"way","seamark_type":"navigation_line","display_class":"OTHER","min_zoom":12,"importance":1,"name":null,"ref":null,"common":{"type":"navigation_line"},"children":{"navigation_line":{"category":"leading","orientation":"45"}},"osm_tags":{"seamark:navigation_line:category":"leading","seamark:navigation_line:orientation":"45","seamark:type":"navigation_line"}}},{"type":"Feature","geometry":{"type":"LineString","coordinates":[[10.7808333,59.0431667],[10.8053333,59.0446667],[10.858,59.0273333],[10.9173333,58.9811667],[10.9768333,58.9636667],[10.9906667,58.9656667],[11.003,58.9745],[11.023,58.9738333],[11.0338333,58.9766667],[11.0591667,58.9765],[11.0663333,58.9791667],[11.0806667,58.9768333],[11.0888333,58.971],[11.1108333,58.9698333],[11.114,58.965],[11.1191667,58.9645]]},"properties":{"osm_id":1256139120,"osm_type":"way","seamark_type":"cable_submarine","display_class":"OTHER","min_zoom":12,"importance":1,"name":null,"ref":null,"common":{"type":"cable_submarine"},"children":{},"osm_tags":{"seamark:type":"cable_submarine"}}},{"type":"Feature","geometry":{"type":"Polygon","coordinates":[[[10.9598264,58.8869171],[10.9595805,58.8872961],[10.9596032,58.8878125],[10.9599141,58.8881966],[10.9604469,58.8885079],[10.9610588,58.8886499],[10.9617126,58.8887378],[10.9621139,58.8895668],[10.9629086,58.8901748],[10.9632887,58.8906777],[10.9637514,58.8909807],[10.9647444,58.8913125],[10.9654914,58.8914157],[10.9662361,58.8913346],[10.9668555,58.8911084],[10.9672202,58.890727],[10.9686758,58.8902446],[10.9695715,58.8900884],[10.9701751,58.8897942],[10.9704745,58.8893616],[10.9706998,58.888853],[10.9702805,58.888177],[10.9708214,58.888114],[10.9715407,58.8881488],[10.9720158,58.8880408],[10.9726232,58.8878143],[10.9730523,58.88749],[10.9732337,58.8872563],[10.9736026,58.8870407],[10.9738193,58.8866055],[10.973678,58.8861898],[10.973198,58.8858311],[10.9725885,58.8855666],[10.9723017,58.8849745],[10.9725664,58.8845346],[10.9726162,58.8841065],[10.972795,58.8837929],[10.9728755,58.8836113],[10.9729243,58.8832936],[10.9727716,58.8829758],[10.9726226,58.88283],[10.9726138,58.8824982],[10.9721871,58.8819877],[10.9716124,58.8817304],[10.9710582,58.8816026],[10.9707343,58.8811259],[10.9702577,58.880841],[10.9696523,58.8806441],[10.9684134,58.8805931],[10.9676672,58.8807908],[10.9674632,58.8809133],[10.9668691,58.881128],[10.96639,58.8814752],[10.9660994,58.88173],[10.9661092,58.8819513],[10.9651744,58.8824438],[10.9648556,58.882839],[10.9648936,58.8831226],[10.9644392,58.8835626],[10.9644214,58.8839181],[10.9641521,58.8844989],[10.9637151,58.8848904],[10.963159,58.8853886],[10.9631295,58.8859463],[10.9620169,58.886335],[10.9615472,58.8864983],[10.9609551,58.8864921],[10.9603125,58.8866131],[10.9598264,58.8869171]]]},"properties":{"osm_id":1338676925,"osm_type":"way","seamark_type":"restricted_area","display_class":"OTHER","min_zoom":12,"importance":1,"name":null,"ref":null,"common":{"type":"restricted_area"},"children":{"restricted_area":{"category":"bird_sanctuary","period_end":"15 July","period_start":"1 March","restriction":"no_entry"}},"osm_tags":{"seamark:restricted_area:category":"bird_sanctuary","seamark:restricted_area:period_end":"15 July","seamark:restricted_area:period_start":"1 March","seamark:restricted_area:restriction":"no_entry","seamark:type":"restricted_area"}}},{"type":"Feature","geometry":{"type":"Point","coordinates":[10.3203832,58.997331]},"properties":{"osm_id":7426500079,"osm_type":"node","seamark_type":"wreck","display_class":"OTHER","min_zoom":12,"importance":1,"name":"DS Sigrun","ref":null,"common":{"type":"wreck"},"children":{},"osm_tags":{"historic":"wreck","name":"DS Sigrun","seamark:type":"wreck"}}},{"type":"Feature","geometry":{"type":"Point","coordinates":[10.8084035,58.967272]},"properties":{"osm_id":5323258200,"osm_type":"node","seamark_type":"buoy_lateral","display_class":"OTHER","min_zoom":12,"importance":1,"name":"Djupeflu","ref":null,"common":{"name":"Djupeflu","type":"buoy_lateral"},"children":{"buoy_lateral":{"category":"port","colour":"red","shape":"pillar","system":"iala-a"}},"osm_tags":{"ref:kystverket":"105783","seamark:buoy_lateral:category":"port","seamark:buoy_lateral:colour":"red","seamark:buoy_lateral:shape":"pillar","seamark:buoy_lateral:system":"iala-a","seamark:name":"Djupeflu","seamark:type":"buoy_lateral"}}},{"type":"Feature","geometry":{"type":"Point","coordinates":[10.1223986,58.9527837]},"properties":{"osm_id":5323261770,"osm_type":"node","seamark_type":"buoy_lateral","display_class":"OTHER","min_zoom":12,"importance":1,"name":"Djupeskaten","ref":null,"common":{"name":"Djupeskaten","type":"buoy_lateral"},"children":{"buoy_lateral":{"category":"port","colour":"red","shape":"spar","system":"iala-a"}},"osm_tags":{"ref:kystverket":"00357M","seamark:buoy_lateral:category":"port","seamark:buoy_lateral:colour":"red","seamark:buoy_lateral:shape":"spar","seamark:buoy_lateral:system":"iala-a","seamark:name":"Djupeskaten","seamark:type":"buoy_lateral"}}},{"type":"Feature","geometry":{"type":"Point","coordinates":[10.0482191,58.9986972]},"properties":{"osm_id":5323261765,"osm_type":"node","seamark_type":"buoy_lateral","display_class":"OTHER","min_zoom":12,"importance":1,"name":"Flueskjerfluene 1","ref":null,"common":{"name":"Flueskjerfluene 1","type":"buoy_lateral"},"children":{"buoy_lateral":{"category":"port","colour":"red","shape":"spar","system":"iala-a"}},"osm_tags":{"ref:kystverket":"00364M","seamark:buoy_lateral:category":"port","seamark:buoy_lateral:colour":"red","seamark:buoy_lateral:shape":"spar","seamark:buoy_lateral:system":"iala-a","seamark:name":"Flueskjerfluene 1","seamark:type":"buoy_lateral"}}},{"type":"Feature","geometry":{"type":"Point","coordinates":[10.0468226,58.9983129]},"properties":{"osm_id":5323258215,"osm_type":"node","seamark_type":"buoy_lateral","display_class":"OTHER","min_zoom":12,"importance":1,"name":"Flueskjerfluene 2","ref":null,"common":{"name":"Flueskjerfluene 2","type":"buoy_lateral"},"children":{"buoy_lateral":{"category":"port","colour":"red","shape":"spar","system":"iala-a"}},"osm_tags":{"ref:kystverket":"106528","seamark:buoy_lateral:category":"port","seamark:buoy_lateral:colour":"red","seamark:buoy_lateral:shape":"spar","seamark:buoy_lateral:system":"iala-a","seamark:name":"Flueskjerfluene 2","seamark:type":"buoy_lateral"}}},{"type":"Feature","geometry":{"type":"Point","coordinates":[10.9518782,58.9518631]},"properties":{"osm_id":5323259041,"osm_type":"node","seamark_type":"buoy_special_purpose","display_class":"OTHER","min_zoom":12,"importance":1,"name":"Grensebøye 1","ref":null,"common":{"name":"Grensebøye 1","type":"buoy_special_purpose"},"children":{"buoy_special_purpose":{"category":"control","colour":"yellow","shape":"spar"}},"osm_tags":{"ref:kystverket":"105772","seamark:buoy_special_purpose:category":"control","seamark:buoy_special_purpose:colour":"yellow","seamark:buoy_special_purpose:shape":"spar","seamark:name":"Grensebøye 1","seamark:type":"buoy_special_purpose"}}},{"type":"Feature","geometry":{"type":"Point","coordinates":[10.9180586,58.9423422]},"properties":{"osm_id":5323258202,"osm_type":"node","seamark_type":"buoy_special_purpose","display_class":"OTHER","min_zoom":12,"importance":1,"name":"Grensebøye 2","ref":null,"common":{"name":"Grensebøye 2","type":"buoy_special_purpose"},"children":{"buoy_special_purpose":{"category":"control","colour":"yellow","shape":"spar"}},"osm_tags":{"ref:kystverket":"105773","seamark:buoy_special_purpose:category":"control","seamark:buoy_special_purpose:colour":"yellow","seamark:buoy_special_purpose:shape":"spar","seamark:name":"Grensebøye 2","seamark:type":"buoy_special_purpose"}}},{"type":"Feature","geometry":{"type":"Point","coordinates":[10.8770758,58.935141]},"properties":{"osm_id":5323259030,"osm_type":"node","seamark_type":"buoy_special_purpose","display_class":"OTHER","min_zoom":12,"importance":1,"name":"Grensebøye 3","ref":null,"common":{"name":"Grensebøye 3","type":"buoy_special_purpose"},"children":{"buoy_special_purpose":{"category":"control","colour":"yellow","shape":"spar"}},"osm_tags":{"ref:kystverket":"00003M","seamark:buoy_special_purpose:category":"control","seamark:buoy_special_purpose:colour":"yellow","seamark:buoy_special_purpose:shape":"spar","seamark:name":"Grensebøye 3","seamark:type":"buoy_special_purpose"}}},{"type":"Feature","geometry":{"type":"Point","coordinates":[10.8438032,58.9294975]},"properties":{"osm_id":5323258129,"osm_type":"node","seamark_type":"buoy_special_purpose","display_class":"OTHER","min_zoom":12,"importance":1,"name":"Grensebøye 4","ref":null,"common":{"name":"Grensebøye 4","type":"buoy_special_purpose"},"children":{"buoy_special_purpose":{"category":"control","colour":"yellow","shape":"spar"}},"osm_tags":{"ref:kystverket":"00004M","seamark:buoy_special_purpose:category":"control","seamark:buoy_special_purpose:colour":"yellow","seamark:buoy_special_purpose:shape":"spar","seamark:name":"Grensebøye 4","seamark:type":"buoy_special_purpose"}}},{"type":"Feature","geometry":{"type":"Point","coordinates":[10.9950957,58.984089]},"properties":{"osm_id":5323262138,"osm_type":"node","seamark_type":"buoy_lateral","display_class":"OTHER","min_zoom":12,"importance":1,"name":"Hatten","ref":null,"common":{"name":"Hatten","type":"buoy_lateral"},"children":{"buoy_lateral":{"category":"starboard","colour":"green","shape":"spar","system":"iala-a"}},"osm_tags":{"ref:kystverket":"105788","seamark:buoy_lateral:category":"starboard","seamark:buoy_lateral:colour":"green","seamark:buoy_lateral:shape":"spar","seamark:buoy_lateral:system":"iala-a","seamark:name":"Hatten","seamark:type":"buoy_lateral"}}},{"type":"Feature","geometry":{"type":"Point","coordinates":[10.0471188,58.961682]},"properties":{"osm_id":5323258027,"osm_type":"node","seamark_type":"buoy_lateral","display_class":"OTHER","min_zoom":12,"importance":1,"name":"Herregårdsbåen","ref":null,"common":{"name":"Herregårdsbåen","type":"buoy_lateral"},"children":{"buoy_lateral":{"category":"starboard","colour":"green","shape":"spar","system":"iala-a"}},"osm_tags":{"ref:kystverket":"00366M","seamark:buoy_lateral:category":"starboard","seamark:buoy_lateral:colour":"green","seamark:buoy_lateral:shape":"spar","seamark:buoy_lateral:system":"iala-a","seamark:name":"Herregårdsbåen","seamark:type":"buoy_lateral"}}},{"type":"Feature","geometry":{"type":"LineString","coordinates":[[10.0447658,59.0416058],[10.0414078,59.0406826],[10.0368523,59.0401633],[10.0345682,59.0393795],[10.0337463,59.0378136],[10.0338337,59.035654],[10.0390761,59.0297014],[10.046759,59.0224147],[10.0593809,59.010493],[10.0680515,59.002524],[10.0720027,58.9977757],[10.0731524,58.994345],[10.0737183,58.9912358],[9.9592057,57.600666],[9.9598384,57.5973073],[9.9651805,57.5943739],[9.9661762,57.5940144],[9.9668688,57.5928455]]},"properties":{"osm_id":53843494,"osm_type":"way","seamark_type":"ferry_route","display_class":"OTHER","min_zoom":12,"importance":1,"name":"Hirtshals - Larvik","ref":null,"common":{"type":"ferry_route"},"children":{"ferry_route":{"category":"free"}},"osm_tags":{"bicycle":"yes","duration":"03:45","foot":"yes","motor_vehicle":"yes","name":"Hirtshals - Larvik","operator":"Color Line","route":"ferry","seamark:ferry_route:category":"free","seamark:type":"ferry_route"}}},{"type":"Feature","geometry":{"type":"Point","coordinates":[10.0415013,58.9991768]},"properties":{"osm_id":8334170323,"osm_type":"node","seamark_type":"rescue_station","display_class":"OTHER","min_zoom":12,"importance":1,"name":"Horn Rescue","ref":"RS 160","common":{"name":"Horn Rescue","type":"rescue_station"},"children":{"radio_station":{"category":"ais","mmsi":"257641000"},"rescue_station":{"category":"lifeboat_on_mooring"}},"osm_tags":{"amenity":"lifeboat","emergency":"marine_rescue","lifeboat":"offshore","lifeboat:class":"RS Petter C. G. Sundt-klassen","name":"Horn Rescue","operator":"Redningsselskapet","operator:short":"RS","operator:wikidata":"Q1462950","operator:wikipedia":"no:Redningsselskapet","ref":"RS 160","seamark:name":"Horn Rescue","seamark:radio_station:category":"ais","seamark:radio_station:mmsi":"257641000","seamark:rescue_station:category":"lifeboat_on_mooring","seamark:type":"rescue_station","start_date":"2015","website":"https://www.redningsselskapet.no/om-oss/redningsskoytene/rs-160-horn-rescue/"}}},{"type":"Feature","geometry":{"type":"Point","coordinates":[10.1389482,58.9945709]},"properties":{"osm_id":5323261218,"osm_type":"node","seamark_type":"buoy_lateral","display_class":"OTHER","min_zoom":12,"importance":1,"name":"Kattebåen","ref":null,"common":{"name":"Kattebåen","type":"buoy_lateral"},"children":{"buoy_lateral":{"category":"port","colour":"red","shape":"spar","system":"iala-a"}},"osm_tags":{"ref:kystverket":"00347M","seamark:buoy_lateral:category":"port","seamark:buoy_lateral:colour":"red","seamark:buoy_lateral:shape":"spar","seamark:buoy_lateral:system":"iala-a","seamark:name":"Kattebåen","seamark:type":"buoy_lateral"}}},{"type":"Feature","geometry":{"type":"Point","coordinates":[10.98886,58.932495]},"properties":{"osm_id":1531169657,"osm_type":"node","seamark_type":"light_minor","display_class":"OTHER","min_zoom":12,"importance":1,"name":"Klövningarna","ref":null,"common":{"name":"Klövningarna","type":"light_minor"},"children":{"light":{"1:category":"lower","1:character":"Iso","1:colour":"green","1:height":"11","1:period":"4","1:range":"7","1:sector_end":"51","1:sector_start":"327","2:category":"lower","2:character":"Iso","2:colour":"white","2:height":"11","2:period":"4","2:range":"11","2:sector_end":"59","2:sector_start":"51","3:category":"lower","3:character":"Iso","3:colour":"red","3:height":"11","3:period":"4","3:range":"8","3:sector_end":"132","3:sector_start":"59","4:category":"lower","4:character":"Iso","4:colour":"green","4:height":"11","4:period":"4","4:range":"7","4:sector_end":"140.5","4:sector_start":"132","5:category":"lower","5:character":"Iso","5:colour":"white","5:height":"11","5:period":"4","5:range":"11","5:sector_end":"145","5:sector_start":"140.5","6:category":"lower","6:character":"Iso","6:colour":"red","6:height":"11","6:period":"4","6:range":"8","6:sector_end":"216","6:sector_start":"145","7:category":"lower","7:character":"Iso","7:colour":"green","7:height":"11","7:period":"4","7:range":"7","7:sector_end":"242","7:sector_start":"216","8:category":"lower","8:character":"Iso","8:colour":"white","8:height":"11","8:period":"4","8:range":"11","8:sector_end":"255.5","8:sector_start":"242","9:category":"lower","9:character":"Iso","9:colour":"red","9:height":"11","9:period":"4","9:range":"8","9:sector_end":"327","9:sector_start":"255.5","reference":"C 0280"},"radar_transponder":{"category":"racon","group":"K"}},"osm_tags":{"man_made":"lighthouse","name":"Klövningarna","seamark:light:1:category":"lower","seamark:light:1:character":"Iso","seamark:light:1:colour":"green","seamark:light:1:height":"11","seamark:light:1:period":"4","seamark:light:1:range":"7","seamark:light:1:sector_end":"51","seamark:light:1:sector_start":"327","seamark:light:2:category":"lower","seamark:light:2:character":"Iso","seamark:light:2:colour":"white","seamark:light:2:height":"11","seamark:light:2:period":"4","seamark:light:2:range":"11","seamark:light:2:sector_end":"59","seamark:light:2:sector_start":"51","seamark:light:3:category":"lower","seamark:light:3:character":"Iso","seamark:light:3:colour":"red","seamark:light:3:height":"11","seamark:light:3:period":"4","seamark:light:3:range":"8","seamark:light:3:sector_end":"132","seamark:light:3:sector_start":"59","seamark:light:4:category":"lower","seamark:light:4:character":"Iso","seamark:light:4:colour":"green","seamark:light:4:height":"11","seamark:light:4:period":"4","seamark:light:4:range":"7","seamark:light:4:sector_end":"140.5","seamark:light:4:sector_start":"132","seamark:light:5:category":"lower","seamark:light:5:character":"Iso","seamark:light:5:colour":"white","seamark:light:5:height":"11","seamark:light:5:period":"4","seamark:light:5:range":"11","seamark:light:5:sector_end":"145","seamark:light:5:sector_start":"140.5","seamark:light:6:category":"lower","seamark:light:6:character":"Iso","seamark:light:6:colour":"red","seamark:light:6:height":"11","seamark:light:6:period":"4","seamark:light:6:range":"8","seamark:light:6:sector_end":"216","seamark:light:6:sector_start":"145","seamark:light:7:category":"lower","seamark:light:7:character":"Iso","seamark:light:7:colour":"green","seamark:light:7:height":"11","seamark:light:7:period":"4","seamark:light:7:range":"7","seamark:light:7:sector_end":"242","seamark:light:7:sector_start":"216","seamark:light:8:category":"lower","seamark:light:8:character":"Iso","seamark:light:8:colour":"white","seamark:light:8:height":"11","seamark:light:8:period":"4","seamark:light:8:range":"11","seamark:light:8:sector_end":"255.5","seamark:light:8:sector_start":"242","seamark:light:9:category":"lower","seamark:light:9:character":"Iso","seamark:light:9:colour":"red","seamark:light:9:height":"11","seamark:light:9:period":"4","seamark:light:9:range":"8","seamark:light:9:sector_end":"327","seamark:light:9:sector_start":"255.5","seamark:light:reference":"C 0280","seamark:name":"Klövningarna","seamark:radar_transponder:category":"racon","seamark:radar_transponder:group":"K","seamark:type":"light_minor","source":"US NGA Pub. 116. 2011-07-07.","wikidata":"Q10546561"}}},{"type":"Feature","geometry":{"type":"Point","coordinates":[10.994611,58.930192]},"properties":{"osm_id":4359395454,"osm_type":"node","seamark_type":"buoy_lateral","display_class":"OTHER","min_zoom":12,"importance":1,"name":"Klövningsgrund","ref":null,"common":{"name":"Klövningsgrund","type":"buoy_lateral"},"children":{"buoy_lateral":{"category":"starboard","colour":"green","shape":"conical","system":"iala-a"},"light":{"character":"Fl","colour":"green","group":"2","period":"6"}},"osm_tags":{"seamark:buoy_lateral:category":"starboard","seamark:buoy_lateral:colour":"green","seamark:buoy_lateral:shape":"conical","seamark:buoy_lateral:system":"iala-a","seamark:light:character":"Fl","seamark:light:colour":"green","seamark:light:group":"2","seamark:light:period":"6","seamark:name":"Klövningsgrund","seamark:type":"buoy_lateral"}}},{"type":"Feature","geometry":{"type":"Point","coordinates":[10.9987,58.88655]},"properties":{"osm_id":1531161646,"osm_type":"node","seamark_type":"light_minor","display_class":"OTHER","min_zoom":12,"importance":1,"name":"Kostersundet Sodra","ref":null,"common":{"information":"Fishing light.","name":"Kostersundet Sodra","type":"light_minor"},"children":{"light":{"category":"lower","character":"F","colour":"red","height":"12","range":"6","reference":"C 0298"}},"osm_tags":{"seamark:information":"Fishing light.","seamark:light:category":"lower","seamark:light:character":"F","seamark:light:colour":"red","seamark:light:height":"12","seamark:light:range":"6","seamark:light:reference":"C 0298","seamark:name":"Kostersundet Sodra","seamark:type":"light_minor","source":"US NGA Pub. 116. 2011-07-07."}}},{"type":"Feature","geometry":{"type":"LineString","coordinates":[[12.5950114,55.7015161],[12.5951714,55.7015931],[12.596895,55.7025744],[12.5973223,55.7028193],[12.5992188,55.7037687],[12.6007487,55.7045396],[12.6025527,55.7053627],[12.6097781,55.7077432],[12.6163538,55.7103018],[12.6421798,55.7215396],[12.664259,55.7333568],[12.6801002,55.7528855],[12.6895372,55.7723442],[12.6952935,55.7949799],[12.6929238,55.8139966],[12.6495773,55.9160962],[12.6523598,55.9288967],[12.6684819,55.9498625],[12.6929172,55.9832553],[12.6787944,56.0131957],[12.6561457,56.0544205],[12.615618,56.0776979],[12.5705722,56.1015395],[12.5311111,56.125785],[12.4626111,56.1584461],[12.4332222,56.180946],[10.6561589,58.5848429],[10.6476375,59.1640974],[10.5583779,59.428752],[10.5587845,59.4490342],[10.6265897,59.5653426],[10.6311387,59.5814256],[10.6145465,59.6668265],[10.6119898,59.6777464],[10.6032395,59.6907336],[10.5970635,59.7001129],[10.5954679,59.7020342],[10.5949871,59.7026131],[10.5927651,59.7049307],[10.5873642,59.7085327],[10.5853593,59.7108039],[10.5850511,59.7153336],[10.5820447,59.7213369],[10.5809325,59.7281376],[10.5765462,59.7409455],[10.5757319,59.7449633],[10.5743748,59.7620634],[10.5746978,59.7988752],[10.57671,59.8094544],[10.5799643,59.8186967],[10.6472942,59.878353],[10.6943391,59.8949175],[10.7041141,59.8968262],[10.7185787,59.8984405],[10.7334467,59.9010017],[10.7429546,59.9007112],[10.7443472,59.9008296],[10.74494,59.9014567],[10.7448976,59.9020053],[10.7437407,59.9036979]]},"properties":{"osm_id":299847757,"osm_type":"way","seamark_type":"ferry_route","display_class":"OTHER","min_zoom":12,"importance":1,"name":"København (DK) – Oslo (N)","ref":null,"common":{"type":"ferry_route"},"children":{"ferry_route":{"category":"free"}},"osm_tags":{"duration":"17:30","ferry":"cruiseferry","name":"København (DK) – Oslo (N)","name:de":"Kopenhagen - Oslo","name:en":"Copenhagen – Oslo","name:ru":"Копенгаген — Осло","network":"international","operator":"Alvina Shipping","operator:wikidata":"Q131822284","route":"ferry","seamark:ferry_route:category":"free","seamark:type":"ferry_route","wikidata":"Q19384910"}}},{"type":"Feature","geometry":{"type":"Point","coordinates":[10.823774,58.9366047]},"properties":{"osm_id":5323257835,"osm_type":"node","seamark_type":"buoy_lateral","display_class":"OTHER","min_zoom":12,"importance":1,"name":"Midtre Skjøttgrunnen G","ref":null,"common":{"name":"Midtre Skjøttgrunnen G","type":"buoy_lateral"},"children":{"buoy_lateral":{"category":"starboard","colour":"green","shape":"spar","system":"iala-a"}},"osm_tags":{"ref:kystverket":"00812M","seamark:buoy_lateral:category":"starboard","seamark:buoy_lateral:colour":"green","seamark:buoy_lateral:shape":"spar","seamark:buoy_lateral:system":"iala-a","seamark:name":"Midtre Skjøttgrunnen G","seamark:type":"buoy_lateral"}}},{"type":"Feature","geometry":{"type":"Point","coordinates":[10.2649701,58.9874699]},"properties":{"osm_id":5323257867,"osm_type":"node","seamark_type":"buoy_lateral","display_class":"OTHER","min_zoom":12,"importance":1,"name":"Mitre Bondeskaten","ref":null,"common":{"name":"Mitre Bondeskaten","type":"buoy_lateral"},"children":{"buoy_lateral":{"category":"starboard","colour":"green","shape":"spar","system":"iala-a"}},"osm_tags":{"ref:kystverket":"208382","seamark:buoy_lateral:category":"starboard","seamark:buoy_lateral:colour":"green","seamark:buoy_lateral:shape":"spar","seamark:buoy_lateral:system":"iala-a","seamark:name":"Mitre Bondeskaten","seamark:type":"buoy_lateral"}}},{"type":"Feature","geometry":{"type":"Point","coordinates":[10.1254622,58.9931978]},"properties":{"osm_id":5323259969,"osm_type":"node","seamark_type":"buoy_lateral","display_class":"OTHER","min_zoom":12,"importance":1,"name":"Nordre Kaupangbåen","ref":null,"common":{"name":"Nordre Kaupangbåen","type":"buoy_lateral"},"children":{"buoy_lateral":{"category":"port","colour":"red","shape":"spar","system":"iala-a"}},"osm_tags":{"ref:kystverket":"106495","seamark:buoy_lateral:category":"port","seamark:buoy_lateral:colour":"red","seamark:buoy_lateral:shape":"spar","seamark:buoy_lateral:system":"iala-a","seamark:name":"Nordre Kaupangbåen","seamark:type":"buoy_lateral"}}},{"type":"Feature","geometry":{"type":"Point","coordinates":[10.84935,58.6979]},"properties":{"osm_id":4273731711,"osm_type":"node","seamark_type":"buoy_cardinal","display_class":"OTHER","min_zoom":12,"importance":1,"name":"Persgrunden","ref":null,"common":{"name":"Persgrunden","type":"buoy_cardinal"},"children":{"buoy_cardinal":{"category":"south","colour":"yellow;black","colour_pattern":"horizontal","shape":"pillar"},"light":{"character":"Q+LFl","colour":"white","group":"6","period":"15"},"topmark":{"colour":"black","shape":"2 cones down"}},"osm_tags":{"seamark:buoy_cardinal:category":"south","seamark:buoy_cardinal:colour":"yellow;black","seamark:buoy_cardinal:colour_pattern":"horizontal","seamark:buoy_cardinal:shape":"pillar","seamark:light:character":"Q+LFl","seamark:light:colour":"white","seamark:light:group":"6","seamark:light:period":"15","seamark:name":"Persgrunden","seamark:topmark:colour":"black","seamark:topmark:shape":"2 cones down","seamark:type":"buoy_cardinal"}}},{"type":"Feature","geometry":{"type":"Point","coordinates":[10.0684274,58.9482412]},"properties":{"osm_id":5324479942,"osm_type":"node","seamark_type":"buoy_cardinal","display_class":"OTHER","min_zoom":12,"importance":1,"name":"Rakkebåene","ref":null,"common":{"name":"Rakkebåene","type":"buoy_cardinal"},"children":{"buoy_cardinal":{"category":"east","colour":"black;yellow;black","colour_pattern":"horizontal","shape":"spar"},"light":{"character":"Q","colour":"white","group":"3","period":"10","sequence":"5+(1)+1+(1)+1+(1)"}},"osm_tags":{"ref:kystverket":"042100","seamark:buoy_cardinal:category":"east","seamark:buoy_cardinal:colour":"black;yellow;black","seamark:buoy_cardinal:colour_pattern":"horizontal","seamark:buoy_cardinal:shape":"spar","seamark:light:character":"Q","seamark:light:colour":"white","seamark:light:group":"3","seamark:light:period":"10","seamark:light:sequence":"5+(1)+1+(1)+1+(1)","seamark:name":"Rakkebåene","seamark:type":"buoy_cardinal"}}},{"type":"Feature","geometry":{"type":"Point","coordinates":[10.0614678,58.9962513]},"properties":{"osm_id":1211582181,"osm_type":"node","seamark_type":"pile","display_class":"OTHER","min_zoom":12,"importance":1,"name":"Ramsholmflu","ref":null,"common":{"name":"Ramsholmflu","type":"pile"},"children":{"light":{"character":"Iso","colour":"red","height":"10.4","period":"2","range":"2.5","sequence":"1+(1)"}},"osm_tags":{"ref:kystverket":"042200","seamark:light:character":"Iso","seamark:light:colour":"red","seamark:light:height":"10.4","seamark:light:period":"2","seamark:light:range":"2.5","seamark:light:sequence":"1+(1)","seamark:name":"Ramsholmflu","seamark:type":"pile"}}},{"type":"Feature","geometry":{"type":"Point","coordinates":[10.9927481,58.7582354]},"properties":{"osm_id":1531161050,"osm_type":"node","seamark_type":"light_minor","display_class":"OTHER","min_zoom":12,"importance":1,"name":"Ramskar","ref":null,"common":{"name":"Ramskar","type":"light_minor"},"children":{"light":{"10:character":"Fl","10:colour":"red","10:group":"3","10:height":"19","10:period":"9","10:range":"6","10:sector_end":"279","10:sector_start":"272","10:sequence":"0.7+(1)+0.7+(1)+0.7+(4.9)","11:character":"Fl","11:colour":"white","11:group":"3","11:height":"19","11:period":"9","11:range":"9","11:sector_end":"338","11:sector_start":"279","11:sequence":"0.7+(1)+0.7+(1)+0.7+(4.9)","12:character":"Fl","12:colour":"red","12:group":"3","12:height":"19","12:period":"9","12:range":"6","12:sector_end":"346.5","12:sector_start":"338","12:sequence":"0.7+(1)+0.7+(1)+0.7+(4.9)","1:character":"Fl","1:colour":"green","1:group":"3","1:height":"19","1:period":"9","1:range":"5","1:sector_end":"2","1:sector_start":"346.5","1:sequence":"0.7+(1)+0.7+(1)+0.7+(4.9)","2:character":"Fl","2:colour":"white","2:group":"3","2:height":"19","2:period":"9","2:range":"9","2:sector_end":"46","2:sector_start":"2","2:sequence":"0.7+(1)+0.7+(1)+0.7+(4.9)","3:character":"Fl","3:colour":"red","3:group":"3","3:height":"19","3:period":"9","3:range":"6","3:sector_end":"78","3:sector_start":"46","3:sequence":"0.7+(1)+0.7+(1)+0.7+(4.9)","4:character":"Fl","4:colour":"green","4:group":"3","4:height":"19","4:period":"9","4:range":"5","4:sector_end":"108","4:sector_start":"78","4:sequence":"0.7+(1)+0.7+(1)+0.7+(4.9)","5:character":"Fl","5:colour":"white","5:group":"3","5:height":"19","5:period":"9","5:range":"9","5:sector_end":"143","5:sector_start":"108","5:sequence":"0.7+(1)+0.7+(1)+0.7+(4.9)","6:character":"Fl","6:colour":"red","6:group":"3","6:height":"19","6:period":"9","6:range":"6","6:sector_end":"189","6:sector_start":"143","6:sequence":"0.7+(1)+0.7+(1)+0.7+(4.9)","7:character":"Fl","7:colour":"green","7:group":"3","7:height":"19","7:period":"9","7:range":"5","7:sector_end":"220","7:sector_start":"189","7:sequence":"0.7+(1)+0.7+(1)+0.7+(4.9)","8:character":"Fl","8:colour":"white","8:group":"3","8:height":"19","8:period":"9","8:range":"9","8:sector_end":"263","8:sector_start":"220","8:sequence":"0.7+(1)+0.7+(1)+0.7+(4.9)","9:character":"Fl","9:colour":"green","9:group":"3","9:height":"19","9:period":"9","9:range":"5","9:sector_end":"272","9:sector_start":"263","9:sequence":"0.7+(1)+0.7+(1)+0.7+(4.9)","reference":"C 0308"},"radar_transponder":{"category":"racon","group":"M"}},"osm_tags":{"man_made":"lighthouse","name":"Ramskär fyr","seamark:light:10:character":"Fl","seamark:light:10:colour":"red","seamark:light:10:group":"3","seamark:light:10:height":"19","seamark:light:10:period":"9","seamark:light:10:range":"6","seamark:light:10:sector_end":"279","seamark:light:10:sector_start":"272","seamark:light:10:sequence":"0.7+(1)+0.7+(1)+0.7+(4.9)","seamark:light:11:character":"Fl","seamark:light:11:colour":"white","seamark:light:11:group":"3","seamark:light:11:height":"19","seamark:light:11:period":"9","seamark:light:11:range":"9","seamark:light:11:sector_end":"338","seamark:light:11:sector_start":"279","seamark:light:11:sequence":"0.7+(1)+0.7+(1)+0.7+(4.9)","seamark:light:12:character":"Fl","seamark:light:12:colour":"red","seamark:light:12:group":"3","seamark:light:12:height":"19","seamark:light:12:period":"9","seamark:light:12:range":"6","seamark:light:12:sector_end":"346.5","seamark:light:12:sector_start":"338","seamark:light:12:sequence":"0.7+(1)+0.7+(1)+0.7+(4.9)","seamark:light:1:character":"Fl","seamark:light:1:colour":"green","seamark:light:1:group":"3","seamark:light:1:height":"19","seamark:light:1:period":"9","seamark:light:1:range":"5","seamark:light:1:sector_end":"2","seamark:light:1:sector_start":"346.5","seamark:light:1:sequence":"0.7+(1)+0.7+(1)+0.7+(4.9)","seamark:light:2:character":"Fl","seamark:light:2:colour":"white","seamark:light:2:group":"3","seamark:light:2:height":"19","seamark:light:2:period":"9","seamark:light:2:range":"9","seamark:light:2:sector_end":"46","seamark:light:2:sector_start":"2","seamark:light:2:sequence":"0.7+(1)+0.7+(1)+0.7+(4.9)","seamark:light:3:character":"Fl","seamark:light:3:colour":"red","seamark:light:3:group":"3","seamark:light:3:height":"19","seamark:light:3:period":"9","seamark:light:3:range":"6","seamark:light:3:sector_end":"78","seamark:light:3:sector_start":"46","seamark:light:3:sequence":"0.7+(1)+0.7+(1)+0.7+(4.9)","seamark:light:4:character":"Fl","seamark:light:4:colour":"green","seamark:light:4:group":"3","seamark:light:4:height":"19","seamark:light:4:period":"9","seamark:light:4:range":"5","seamark:light:4:sector_end":"108","seamark:light:4:sector_start":"78","seamark:light:4:sequence":"0.7+(1)+0.7+(1)+0.7+(4.9)","seamark:light:5:character":"Fl","seamark:light:5:colour":"white","seamark:light:5:group":"3","seamark:light:5:height":"19","seamark:light:5:period":"9","seamark:light:5:range":"9","seamark:light:5:sector_end":"143","seamark:light:5:sector_start":"108","seamark:light:5:sequence":"0.7+(1)+0.7+(1)+0.7+(4.9)","seamark:light:6:character":"Fl","seamark:light:6:colour":"red","seamark:light:6:group":"3","seamark:light:6:height":"19","seamark:light:6:period":"9","seamark:light:6:range":"6","seamark:light:6:sector_end":"189","seamark:light:6:sector_start":"143","seamark:light:6:sequence":"0.7+(1)+0.7+(1)+0.7+(4.9)","seamark:light:7:character":"Fl","seamark:light:7:colour":"green","seamark:light:7:group":"3","seamark:light:7:height":"19","seamark:light:7:period":"9","seamark:light:7:range":"5","seamark:light:7:sector_end":"220","seamark:light:7:sector_start":"189","seamark:light:7:sequence":"0.7+(1)+0.7+(1)+0.7+(4.9)","seamark:light:8:character":"Fl","seamark:light:8:colour":"white","seamark:light:8:group":"3","seamark:light:8:height":"19","seamark:light:8:period":"9","seamark:light:8:range":"9","seamark:light:8:sector_end":"263","seamark:light:8:sector_start":"220","seamark:light:8:sequence":"0.7+(1)+0.7+(1)+0.7+(4.9)","seamark:light:9:character":"Fl","seamark:light:9:colour":"green","seamark:light:9:group":"3","seamark:light:9:height":"19","seamark:light:9:period":"9","seamark:light:9:range":"5","seamark:light:9:sector_end":"272","seamark:light:9:sector_start":"263","seamark:light:9:sequence":"0.7+(1)+0.7+(1)+0.7+(4.9)","seamark:light:reference":"C 0308","seamark:name":"Ramskar","seamark:radar_transponder:category":"racon","seamark:radar_transponder:group":"M","seamark:type":"light_minor","source":"US NGA Pub. 116. 202103-27.","start_date":"1917","wikidata":"Q10649188"}}},{"type":"Feature","geometry":{"type":"Point","coordinates":[10.0413629,58.9600801]},"properties":{"osm_id":5323261875,"osm_type":"node","seamark_type":"buoy_lateral","display_class":"OTHER","min_zoom":12,"importance":1,"name":"Rukkelen","ref":null,"common":{"name":"Rukkelen","type":"buoy_lateral"},"children":{"buoy_lateral":{"category":"port","colour":"red","shape":"spar","system":"iala-a"}},"osm_tags":{"ref:kystverket":"00367M","seamark:buoy_lateral:category":"port","seamark:buoy_lateral:colour":"red","seamark:buoy_lateral:shape":"spar","seamark:buoy_lateral:system":"iala-a","seamark:name":"Rukkelen","seamark:type":"buoy_lateral"}}},{"type":"Feature","geometry":{"type":"Point","coordinates":[10.134744,58.9889102]},"properties":{"osm_id":5323261828,"osm_type":"node","seamark_type":"buoy_isolated_danger","display_class":"OTHER","min_zoom":12,"importance":1,"name":"Seibåen","ref":null,"common":{"name":"Seibåen","type":"buoy_isolated_danger"},"children":{"buoy_isolated_danger":{"colour":"black;red;black","colour_pattern":"horizontal","shape":"spar"}},"osm_tags":{"ref:kystverket":"106496","seamark:buoy_isolated_danger:colour":"black;red;black","seamark:buoy_isolated_danger:colour_pattern":"horizontal","seamark:buoy_isolated_danger:shape":"spar","seamark:name":"Seibåen","seamark:type":"buoy_isolated_danger"}}},{"type":"Feature","geometry":{"type":"Point","coordinates":[10.0432694,58.9989862]},"properties":{"osm_id":5359784996,"osm_type":"node","seamark_type":"harbour","display_class":"OTHER","min_zoom":12,"importance":1,"name":"Stavern","ref":null,"common":{"name":"Stavern","type":"harbour"},"children":{"harbour":{"category":"fishing"}},"osm_tags":{"harbour":"yes","seamark:harbour:category":"fishing","seamark:name":"Stavern","seamark:type":"harbour","source":"Kystverket"}}},{"type":"Feature","geometry":{"type":"Point","coordinates":[10.0425165,58.9993874]},"properties":{"osm_id":5107367928,"osm_type":"node","seamark_type":"harbour","display_class":"OTHER","min_zoom":12,"importance":1,"name":"Stavern gjestehavn","ref":null,"common":{"type":"harbour"},"children":{"harbour":{"category":"marina"}},"osm_tags":{"leisure":"marina","name":"Stavern gjestehavn","seamark:harbour:category":"marina","seamark:type":"harbour"}}},{"type":"Feature","geometry":{"type":"Point","coordinates":[10.0413025,58.9991939]},"properties":{"osm_id":12057515618,"osm_type":"node","seamark_type":"small_craft_facility","display_class":"OTHER","min_zoom":12,"importance":1,"name":"Stavern gjestehavn","ref":null,"common":{"type":"small_craft_facility"},"children":{"small_craft_facility":{"category":"fuel_station"}},"osm_tags":{"fuel:octane_95":"yes","fuel:taxfree_diesel":"yes","name":"Stavern gjestehavn","ref:marina":"9271","seamark:small_craft_facility:category":"fuel_station","seamark:type":"small_craft_facility","waterway":"fuel"}}},{"type":"Feature","geometry":{"type":"Point","coordinates":[10.0522759,58.9873903]},"properties":{"osm_id":1211582179,"osm_type":"node","seamark_type":"landmark","display_class":"OTHER","min_zoom":12,"importance":1,"name":"Stavernsodden","ref":null,"common":{"name":"Stavernsodden","type":"landmark"},"children":{"landmark":{"category":"column"},"light":{"1:character":"Oc","1:colour":"red","1:group":"3","1:height":"43.9","1:period":"10","1:range":"8.2","1:sector_end":"245.5","1:sector_start":"172.0","1:sequence":"(5)+1+(1)+1+(1)+1","2:character":"Oc","2:colour":"green","2:group":"3","2:height":"43.9","2:period":"10","2:range":"7.8","2:sector_end":"263.5","2:sector_start":"245.5","2:sequence":"(5)+1+(1)+1+(1)+1","3:character":"Oc","3:colour":"white","3:group":"3","3:height":"43.9","3:period":"10","3:range":"10.6","3:sector_end":"267.0","3:sector_start":"263.5","3:sequence":"(5)+1+(1)+1+(1)+1","4:character":"Oc","4:colour":"red","4:group":"3","4:height":"43.9","4:period":"10","4:range":"8.2","4:sector_end":"310.0","4:sector_start":"267.0","4:sequence":"(5)+1+(1)+1+(1)+1","5:character":"Oc","5:colour":"green","5:group":"3","5:height":"43.9","5:period":"10","5:range":"7.8","5:sector_end":"316.0","5:sector_start":"310.0","5:sequence":"(5)+1+(1)+1+(1)+1","6:character":"Oc","6:colour":"white","6:group":"3","6:height":"43.9","6:period":"10","6:range":"10.6","6:sector_end":"345.5","6:sector_start":"316.0","6:sequence":"(5)+1+(1)+1+(1)+1","7:character":"Oc","7:colour":"red","7:group":"3","7:height":"43.9","7:period":"10","7:range":"8.2","7:sector_end":"040.0","7:sector_start":"345.5","7:sequence":"(5)+1+(1)+1+(1)+1"}},"osm_tags":{"man_made":"lighthouse","name":"Stavernsodden fyr","ref:kystverket":"042000","seamark:landmark:category":"column","seamark:light:1:character":"Oc","seamark:light:1:colour":"red","seamark:light:1:group":"3","seamark:light:1:height":"43.9","seamark:light:1:period":"10","seamark:light:1:range":"8.2","seamark:light:1:sector_end":"245.5","seamark:light:1:sector_start":"172.0","seamark:light:1:sequence":"(5)+1+(1)+1+(1)+1","seamark:light:2:character":"Oc","seamark:light:2:colour":"green","seamark:light:2:group":"3","seamark:light:2:height":"43.9","seamark:light:2:period":"10","seamark:light:2:range":"7.8","seamark:light:2:sector_end":"263.5","seamark:light:2:sector_start":"245.5","seamark:light:2:sequence":"(5)+1+(1)+1+(1)+1","seamark:light:3:character":"Oc","seamark:light:3:colour":"white","seamark:light:3:group":"3","seamark:light:3:height":"43.9","seamark:light:3:period":"10","seamark:light:3:range":"10.6","seamark:light:3:sector_end":"267.0","seamark:light:3:sector_start":"263.5","seamark:light:3:sequence":"(5)+1+(1)+1+(1)+1","seamark:light:4:character":"Oc","seamark:light:4:colour":"red","seamark:light:4:group":"3","seamark:light:4:height":"43.9","seamark:light:4:period":"10","seamark:light:4:range":"8.2","seamark:light:4:sector_end":"310.0","seamark:light:4:sector_start":"267.0","seamark:light:4:sequence":"(5)+1+(1)+1+(1)+1","seamark:light:5:character":"Oc","seamark:light:5:colour":"green","seamark:light:5:group":"3","seamark:light:5:height":"43.9","seamark:light:5:period":"10","seamark:light:5:range":"7.8","seamark:light:5:sector_end":"316.0","seamark:light:5:sector_start":"310.0","seamark:light:5:sequence":"(5)+1+(1)+1+(1)+1","seamark:light:6:character":"Oc","seamark:light:6:colour":"white","seamark:light:6:group":"3","seamark:light:6:height":"43.9","seamark:light:6:period":"10","seamark:light:6:range":"10.6","seamark:light:6:sector_end":"345.5","seamark:light:6:sector_start":"316.0","seamark:light:6:sequence":"(5)+1+(1)+1+(1)+1","seamark:light:7:character":"Oc","seamark:light:7:colour":"red","seamark:light:7:group":"3","seamark:light:7:height":"43.9","seamark:light:7:period":"10","seamark:light:7:range":"8.2","seamark:light:7:sector_end":"040.0","seamark:light:7:sector_start":"345.5","seamark:light:7:sequence":"(5)+1+(1)+1+(1)+1","seamark:name":"Stavernsodden","seamark:type":"landmark","wikidata":"Q4567676"}}},{"type":"Feature","geometry":{"type":"Point","coordinates":[10.8410926,58.9740779]},"properties":{"osm_id":5323258201,"osm_type":"node","seamark_type":"buoy_lateral","display_class":"OTHER","min_zoom":12,"importance":1,"name":"Storeriba","ref":null,"common":{"name":"Storeriba","type":"buoy_lateral"},"children":{"buoy_lateral":{"category":"starboard","colour":"green","shape":"spar","system":"iala-a"}},"osm_tags":{"ref:kystverket":"105781","seamark:buoy_lateral:category":"starboard","seamark:buoy_lateral:colour":"green","seamark:buoy_lateral:shape":"spar","seamark:buoy_lateral:system":"iala-a","seamark:name":"Storeriba","seamark:type":"buoy_lateral"}}},{"type":"Feature","geometry":{"type":"Point","coordinates":[10.14788,58.9691825]},"properties":{"osm_id":1211582178,"osm_type":"node","seamark_type":"landmark","display_class":"OTHER","min_zoom":12,"importance":1,"name":"Svenner","ref":null,"common":{"name":"Svenner","type":"landmark"},"children":{"landmark":{"category":"tower","conspicuity":"conspicuous","vertical_length":"18.7"},"light":{"1:character":"Oc","1:colour":"red","1:height":"40.3","1:national_information":"Fra godt klar SØ av Lyngholmhausen stang til klar S av Sydøstgrunnen lysbøye","1:period":"10","1:range":"9.2","1:sector_end":"261.3","1:sector_start":"231.7","2:character":"Oc","2:colour":"white","2:height":"40.3","2:national_information":"Til godt klar S av Skaldberghausen og S av Rakkebåene lysbøye","2:period":"10","2:range":"11.7","2:sector_end":"58.5","2:sector_start":"261.3","3:character":"Oc","3:colour":"red","3:height":"40.3","3:national_information":"TIl godt klar S av Hellene østligste stang","3:period":"10","3:range":"9.2","3:sector_end":"76.5","3:sector_start":"58.5","4:character":"Oc","4:colour":"white","4:height":"40.3","4:national_information":"Til første grense","4:period":"10","4:range":"11.7","4:sector_end":"231.7","4:sector_start":"76.5"},"radar_transponder":{"category":"racon","group":"N","height":"42","period":"30","range":"24.8","sequence":"18+(12)","wavelength":"0.03-X;0.10-S"}},"osm_tags":{"man_made":"lighthouse","name":"Svenner fyr","ref:kystverket":"041700","seamark:landmark:category":"tower","seamark:landmark:conspicuity":"conspicuous","seamark:landmark:vertical_length":"18.7","seamark:light:1:character":"Oc","seamark:light:1:colour":"red","seamark:light:1:height":"40.3","seamark:light:1:national_information":"Fra godt klar SØ av Lyngholmhausen stang til klar S av Sydøstgrunnen lysbøye","seamark:light:1:period":"10","seamark:light:1:range":"9.2","seamark:light:1:sector_end":"261.3","seamark:light:1:sector_start":"231.7","seamark:light:2:character":"Oc","seamark:light:2:colour":"white","seamark:light:2:height":"40.3","seamark:light:2:national_information":"Til godt klar S av Skaldberghausen og S av Rakkebåene lysbøye","seamark:light:2:period":"10","seamark:light:2:range":"11.7","seamark:light:2:sector_end":"58.5","seamark:light:2:sector_start":"261.3","seamark:light:3:character":"Oc","seamark:light:3:colour":"red","seamark:light:3:height":"40.3","seamark:light:3:national_information":"TIl godt klar S av Hellene østligste stang","seamark:light:3:period":"10","seamark:light:3:range":"9.2","seamark:light:3:sector_end":"76.5","seamark:light:3:sector_start":"58.5","seamark:light:4:character":"Oc","seamark:light:4:colour":"white","seamark:light:4:height":"40.3","seamark:light:4:national_information":"Til første grense","seamark:light:4:period":"10","seamark:light:4:range":"11.7","seamark:light:4:sector_end":"231.7","seamark:light:4:sector_start":"76.5","seamark:name":"Svenner","seamark:radar_transponder:category":"racon","seamark:radar_transponder:group":"N","seamark:radar_transponder:height":"42","seamark:radar_transponder:period":"30","seamark:radar_transponder:range":"24.8","seamark:radar_transponder:sequence":"18+(12)","seamark:radar_transponder:wavelength":"0.03-X;0.10-S","seamark:type":"landmark"}}},{"type":"Feature","geometry":{"type":"Polygon","coordinates":[[[10.1478947,58.9692011],[10.1478781,58.9692035],[10.147861,58.969203],[10.1478451,58.9691996],[10.1478323,58.9691937],[10.1478239,58.9691861],[10.1478208,58.9691775],[10.1478233,58.9691688],[10.1478309,58.9691611],[10.1478431,58.969155],[10.1478584,58.9691512],[10.1478752,58.9691502],[10.1478917,58.9691521],[10.1479062,58.9691565],[10.1479173,58.9691633],[10.1479235,58.9691716],[10.1479241,58.9691805],[10.147919,58.9691889],[10.1479089,58.9691961],[10.1478947,58.9692011]]]},"properties":{"osm_id":967462646,"osm_type":"way","seamark_type":"landmark","display_class":"OTHER","min_zoom":12,"importance":1,"name":"Svenner","ref":null,"common":{"name":"Svenner","type":"landmark"},"children":{"landmark":{"category":"tower","vertical_length":"18.7"},"light":{"1:character":"Oc","1:colour":"red","1:height":"40.3","1:national_information":"Fra 315m SØ av Lyngholmhausen stang til klar S av Sydostgrunnen LB","1:period":"10","1:range":"12.5","1:sector_end":"261.2","1:sector_start":"231.8","2:character":"Oc","2:colour":"white","2:height":"40.3","2:national_information":"Til godt klar S av Skaldberghausen og S av Rakkebåene LB","2:period":"10","2:range":"15.2","2:sector_end":"58.6","2:sector_start":"261.2","3:character":"Oc","3:colour":"red","3:height":"40.3","3:national_information":"TIl 370m S av Hellene øst stang","3:period":"10","3:range":"12.5","3:sector_end":"76.6","3:sector_start":"58.6","4:character":"Oc","4:colour":"white","4:height":"40.3","4:national_information":"Til første grense","4:period":"10","4:range":"15.2","4:sector_end":"231.8","4:sector_start":"76.6"},"radar_transponder":{"category":"racon","group":"N","height":"42","period":"30","range":"24.8","sequence":"18+(12)","wavelength":"0.03-X;0.10-S"}},"osm_tags":{"building":"yes","kystverket:information":"FS/NA","kystverket:racon_information":"(FA) Frequency Agile","man_made":"lighthouse","name":"Svenner fyr","note":"Fyrstasjon","ref:kystverket":"041700","seamark:landmark:category":"tower","seamark:landmark:vertical_length":"18.7","seamark:light:1:character":"Oc","seamark:light:1:colour":"red","seamark:light:1:height":"40.3","seamark:light:1:national_information":"Fra 315m SØ av Lyngholmhausen stang til klar S av Sydostgrunnen LB","seamark:light:1:period":"10","seamark:light:1:range":"12.5","seamark:light:1:sector_end":"261.2","seamark:light:1:sector_start":"231.8","seamark:light:2:character":"Oc","seamark:light:2:colour":"white","seamark:light:2:height":"40.3","seamark:light:2:national_information":"Til godt klar S av Skaldberghausen og S av Rakkebåene LB","seamark:light:2:period":"10","seamark:light:2:range":"15.2","seamark:light:2:sector_end":"58.6","seamark:light:2:sector_start":"261.2","seamark:light:3:character":"Oc","seamark:light:3:colour":"red","seamark:light:3:height":"40.3","seamark:light:3:national_information":"TIl 370m S av Hellene øst stang","seamark:light:3:period":"10","seamark:light:3:range":"12.5","seamark:light:3:sector_end":"76.6","seamark:light:3:sector_start":"58.6","seamark:light:4:character":"Oc","seamark:light:4:colour":"white","seamark:light:4:height":"40.3","seamark:light:4:national_information":"Til første grense","seamark:light:4:period":"10","seamark:light:4:range":"15.2","seamark:light:4:sector_end":"231.8","seamark:light:4:sector_start":"76.6","seamark:name":"Svenner","seamark:radar_transponder:category":"racon","seamark:radar_transponder:group":"N","seamark:radar_transponder:height":"42","seamark:radar_transponder:period":"30","seamark:radar_transponder:range":"24.8","seamark:radar_transponder:sequence":"18+(12)","seamark:radar_transponder:wavelength":"0.03-X;0.10-S","seamark:type":"landmark","source:seamark":"Kystverket","wikidata":"Q1772547","wikipedia":"no:Svenner fyr"}}},{"type":"Feature","geometry":{"type":"Point","coordinates":[10.3193355,58.983571]},"properties":{"osm_id":5324479953,"osm_type":"node","seamark_type":"buoy_cardinal","display_class":"OTHER","min_zoom":12,"importance":1,"name":"Sydostgrunnen","ref":null,"common":{"name":"Sydostgrunnen","type":"buoy_cardinal"},"children":{"buoy_cardinal":{"category":"south","colour":"yellow;black","colour_pattern":"horizontal","shape":"pillar"},"light":{"character":"Q+LFl","colour":"white","period":"15","sequence":"0.3+(0.7)+0.3+(0.7)+0.3+(0.7)+0.3+(0.7)+0.3+(0.7)+0.3+(0.7)+2+(7)"}},"osm_tags":{"ref:kystverket":"041600","seamark:buoy_cardinal:category":"south","seamark:buoy_cardinal:colour":"yellow;black","seamark:buoy_cardinal:colour_pattern":"horizontal","seamark:buoy_cardinal:shape":"pillar","seamark:light:character":"Q+LFl","seamark:light:colour":"white","seamark:light:period":"15","seamark:light:sequence":"0.3+(0.7)+0.3+(0.7)+0.3+(0.7)+0.3+(0.7)+0.3+(0.7)+0.3+(0.7)+2+(7)","seamark:name":"Sydostgrunnen","seamark:type":"buoy_cardinal"}}},{"type":"Feature","geometry":{"type":"Point","coordinates":[10.3270303,58.9891996]},"properties":{"osm_id":5323261086,"osm_type":"node","seamark_type":"buoy_lateral","display_class":"OTHER","min_zoom":12,"importance":1,"name":"Sydostgrunnen 1","ref":null,"common":{"name":"Sydostgrunnen 1","type":"buoy_lateral"},"children":{"buoy_lateral":{"category":"port","colour":"red","shape":"spar","system":"iala-a"}},"osm_tags":{"ref:kystverket":"208384","seamark:buoy_lateral:category":"port","seamark:buoy_lateral:colour":"red","seamark:buoy_lateral:shape":"spar","seamark:buoy_lateral:system":"iala-a","seamark:name":"Sydostgrunnen 1","seamark:type":"buoy_lateral"}}},{"type":"Feature","geometry":{"type":"Point","coordinates":[10.3179498,58.9896892]},"properties":{"osm_id":5323261014,"osm_type":"node","seamark_type":"buoy_lateral","display_class":"OTHER","min_zoom":12,"importance":1,"name":"Sydostgrunnen 2","ref":null,"common":{"name":"Sydostgrunnen 2","type":"buoy_lateral"},"children":{"buoy_lateral":{"category":"starboard","colour":"green","shape":"spar","system":"iala-a"}},"osm_tags":{"ref:kystverket":"00343M","seamark:buoy_lateral:category":"starboard","seamark:buoy_lateral:colour":"green","seamark:buoy_lateral:shape":"spar","seamark:buoy_lateral:system":"iala-a","seamark:name":"Sydostgrunnen 2","seamark:type":"buoy_lateral"}}},{"type":"Feature","geometry":{"type":"Point","coordinates":[10.0384842,58.9505239]},"properties":{"osm_id":5323261160,"osm_type":"node","seamark_type":"buoy_lateral","display_class":"OTHER","min_zoom":12,"importance":1,"name":"Søre Muleberget","ref":null,"common":{"name":"Søre Muleberget","type":"buoy_lateral"},"children":{"buoy_lateral":{"category":"port","colour":"red","shape":"spar","system":"iala-a"}},"osm_tags":{"ref:kystverket":"106531","seamark:buoy_lateral:category":"port","seamark:buoy_lateral:colour":"red","seamark:buoy_lateral:shape":"spar","seamark:buoy_lateral:system":"iala-a","seamark:name":"Søre Muleberget","seamark:type":"buoy_lateral"}}},{"type":"Feature","geometry":{"type":"Point","coordinates":[10.0412813,58.9992363]},"properties":{"osm_id":8334170341,"osm_type":"node","seamark_type":"rescue_station","display_class":"OTHER","min_zoom":12,"importance":1,"name":"TBN","ref":"RS 171","common":{"name":"TBN","type":"rescue_station"},"children":{"radio_station":{"category":"ais","mmsi":"257089480"},"rescue_station":{"category":"lifeboat_on_mooring"}},"osm_tags":{"amenity":"lifeboat","comment":"at Djupviks varv 2020-02-02","emergency":"marine_rescue","lifeboat":"offshore","lifeboat:class":"RS Petter C. G. Sundt-klassen","name":"TBN","operator":"Redningsselskapet","operator:short":"RS","operator:wikidata":"Q1462950","operator:wikipedia":"no:Redningsselskapet","ref":"RS 171","seamark:name":"TBN","seamark:radio_station:category":"ais","seamark:radio_station:mmsi":"257089480","seamark:rescue_station:category":"lifeboat_on_mooring","seamark:type":"rescue_station","start_date":"2020","website":"https://www.redningsselskapet.no/om-oss/redningsskoytene/rs-171-tbn/"}}},{"type":"Feature","geometry":{"type":"Point","coordinates":[10.9570947,58.9854339]},"properties":{"osm_id":5359784728,"osm_type":"node","seamark_type":"harbour","display_class":"OTHER","min_zoom":12,"importance":1,"name":"Tisler","ref":null,"common":{"name":"Tisler","type":"harbour"},"children":{"harbour":{"category":"fishing"}},"osm_tags":{"harbour":"yes","seamark:harbour:category":"fishing","seamark:name":"Tisler","seamark:type":"harbour","source":"Kystverket"}}},{"type":"Feature","geometry":{"type":"Point","coordinates":[10.781702,58.996325]},"properties":{"osm_id":1115686041,"osm_type":"node","seamark_type":"landmark","display_class":"OTHER","min_zoom":12,"importance":1,"name":"Torbjørnskjær","ref":null,"common":{"name":"Torbjørnskjær","type":"landmark"},"children":{"landmark":{"category":"tower","conspicuity":"conspicuous","vertical_length":"18"},"light":{"1:character":"Fl","1:colour":"white","1:height":"25.5","1:national_information":"Rundtlysende","1:period":"10","1:range":"10.4","1:sector_end":"360.0","1:sector_start":"0.0"}},"osm_tags":{"man_made":"lighthouse","name":"Torbjørnskjær fyr","ref:kystverket":"000200","seamark:landmark:category":"tower","seamark:landmark:conspicuity":"conspicuous","seamark:landmark:vertical_length":"18","seamark:light:1:character":"Fl","seamark:light:1:colour":"white","seamark:light:1:height":"25.5","seamark:light:1:national_information":"Rundtlysende","seamark:light:1:period":"10","seamark:light:1:range":"10.4","seamark:light:1:sector_end":"360.0","seamark:light:1:sector_start":"0.0","seamark:name":"Torbjørnskjær","seamark:type":"landmark","wikidata":"Q3428706"}}},{"type":"Feature","geometry":{"type":"Polygon","coordinates":[[[10.9899013,58.8328137],[10.9899082,58.8328119],[10.9899159,58.8328117],[10.9899232,58.8328129],[10.9899289,58.8328156],[10.9899323,58.8328191],[10.9899328,58.8328231],[10.9899304,58.8328269],[10.9899253,58.8328299],[10.9899184,58.8328316],[10.9899107,58.8328319],[10.9899035,58.8328306],[10.9898977,58.832828],[10.9898943,58.8328244],[10.9898938,58.8328204],[10.9898963,58.8328167],[10.9899013,58.8328137]]]},"properties":{"osm_id":944581706,"osm_type":"way","seamark_type":"landmark","display_class":"OTHER","min_zoom":12,"importance":1,"name":"Ursholmen norra torn","ref":null,"common":{"type":"landmark"},"children":{"landmark":{"category":"tower"}},"osm_tags":{"building":"lighthouse","disused:man_made":"lighthouse","end_date":"1931","name":"Ursholmen norra torn","seamark:landmark:category":"tower","seamark:type":"landmark","start_date":"1891"}}},{"type":"Feature","geometry":{"type":"Point","coordinates":[10.0446073,58.9932611]},"properties":{"osm_id":1211582180,"osm_type":"node","seamark_type":"light_minor","display_class":"OTHER","min_zoom":12,"importance":1,"name":"Vadholmen","ref":null,"common":{"conspicuity":"conspicuous","name":"Vadholmen","type":"light_minor","vertical_length":"3"},"children":{"light":{"1:character":"Oc","1:colour":"red","1:height":"7.5","1:national_information":"Fra innover Tollbodkaia til midt på Floskjær (skjæret ligger i moloen)","1:period":"6","1:range":"3.9","1:sector_end":"189.6","1:sector_start":"154.0","1:sequence":"(5)+1","2:character":"Oc","2:colour":"green","2:height":"7.5","2:national_information":"Til 38m SØ av Risøy","2:period":"6","2:range":"3.7","2:sector_end":"201.6","2:sector_start":"189.6","2:sequence":"(5)+1","3:character":"Oc","3:colour":"white","3:height":"7.5","3:national_information":"Til 45m NV av Tilsleøya","3:period":"6","3:range":"5.7","3:sector_end":"206.6","3:sector_start":"201.6","3:sequence":"(5)+1","4:character":"Oc","4:colour":"red","4:height":"7.5","4:national_information":"Til 64m V av skjær V av Stavernodden","4:period":"6","4:range":"3.9","4:sector_end":"342.7","4:sector_start":"206.6","4:sequence":"(5)+1","5:character":"Oc","5:colour":"white","5:height":"7.5","5:national_information":"Til klar Ø av Trollhetteflu og så vidt klar 6,9m grunne Ranson","5:period":"6","5:range":"5.7","5:sector_end":"348.9","5:sector_start":"342.7","5:sequence":"(5)+1","6:character":"Oc","6:colour":"green","6:height":"7.5","6:national_information":"Til innover Trollhettene","6:period":"6","6:range":"3.7","6:sector_end":"359.1","6:sector_start":"348.9","6:sequence":"(5)+1"}},"osm_tags":{"name":"Vadholmen","ref:kystverket":"042300","seamark:conspicuity":"conspicuous","seamark:light:1:character":"Oc","seamark:light:1:colour":"red","seamark:light:1:height":"7.5","seamark:light:1:national_information":"Fra innover Tollbodkaia til midt på Floskjær (skjæret ligger i moloen)","seamark:light:1:period":"6","seamark:light:1:range":"3.9","seamark:light:1:sector_end":"189.6","seamark:light:1:sector_start":"154.0","seamark:light:1:sequence":"(5)+1","seamark:light:2:character":"Oc","seamark:light:2:colour":"green","seamark:light:2:height":"7.5","seamark:light:2:national_information":"Til 38m SØ av Risøy","seamark:light:2:period":"6","seamark:light:2:range":"3.7","seamark:light:2:sector_end":"201.6","seamark:light:2:sector_start":"189.6","seamark:light:2:sequence":"(5)+1","seamark:light:3:character":"Oc","seamark:light:3:colour":"white","seamark:light:3:height":"7.5","seamark:light:3:national_information":"Til 45m NV av Tilsleøya","seamark:light:3:period":"6","seamark:light:3:range":"5.7","seamark:light:3:sector_end":"206.6","seamark:light:3:sector_start":"201.6","seamark:light:3:sequence":"(5)+1","seamark:light:4:character":"Oc","seamark:light:4:colour":"red","seamark:light:4:height":"7.5","seamark:light:4:national_information":"Til 64m V av skjær V av Stavernodden","seamark:light:4:period":"6","seamark:light:4:range":"3.9","seamark:light:4:sector_end":"342.7","seamark:light:4:sector_start":"206.6","seamark:light:4:sequence":"(5)+1","seamark:light:5:character":"Oc","seamark:light:5:colour":"white","seamark:light:5:height":"7.5","seamark:light:5:national_information":"Til klar Ø av Trollhetteflu og så vidt klar 6,9m grunne Ranson","seamark:light:5:period":"6","seamark:light:5:range":"5.7","seamark:light:5:sector_end":"348.9","seamark:light:5:sector_start":"342.7","seamark:light:5:sequence":"(5)+1","seamark:light:6:character":"Oc","seamark:light:6:colour":"green","seamark:light:6:height":"7.5","seamark:light:6:national_information":"Til innover Trollhettene","seamark:light:6:period":"6","seamark:light:6:range":"3.7","seamark:light:6:sector_end":"359.1","seamark:light:6:sector_start":"348.9","seamark:light:6:sequence":"(5)+1","seamark:name":"Vadholmen","seamark:type":"light_minor","seamark:vertical_length":"3"}}}],"type":"FeatureCollection"}