{"type":"FeatureCollection","features":[{"type":"Feature","geometry":{"type":"Polygon","coordinates":[[[39.9898337,59.8678215],[39.98987,59.86785],[39.990192,59.8677274],[39.9901554,59.8677024],[39.9898337,59.8678215]]]},"properties":{"osm_id":1023356772,"osm_type":"way","seamark_type":"harbour","display_class":"OTHER","min_zoom":12,"importance":1,"name":null,"ref":null,"common":{"type":"harbour"},"children":{"harbour":{"category":"marina"}},"osm_tags":{"leisure":"marina","seamark:harbour:category":"marina","seamark:type":"harbour"}}},{"type":"Feature","geometry":{"type":"Polygon","coordinates":[[[39.988978,59.8689368],[39.9891239,59.8689357],[39.9896978,59.8689119],[39.9901783,59.8688131],[39.9901496,59.8687827],[39.9896612,59.8688822],[39.9891055,59.8689018],[39.9889746,59.8689053],[39.988978,59.8689368]]]},"properties":{"osm_id":1023356773,"osm_type":"way","seamark_type":"harbour","display_class":"OTHER","min_zoom":12,"importance":1,"name":null,"ref":null,"common":{"type":"harbour"},"children":{"harbour":{"category":"marina"}},"osm_tags":{"leisure":"marina","seamark:harbour:category":"marina","seamark:type":"harbour"}}}],"type":"FeatureCollection"}