{"type":"FeatureCollection","features":[{"type":"Feature","geometry":{"type":"Point","coordinates":[143.4808215,59.3198809]},"properties":{"osm_id":1271041303,"osm_type":"node","seamark_type":"light_major","display_class":"LIGHTHOUSE","min_zoom":7,"importance":5,"name":"Mys Marekan","ref":null,"common":{"information":"Reserve light Fl.W. 12s 10M.Radiobeacon.","name":"Mys Marekan","type":"light_major"},"children":{"light":{"character":"LFl","colour":"white","height":"53","period":"12","range":"20","reference":"M 8007","sequence":"4.5+(7.5)"}},"osm_tags":{"man_made":"lighthouse","seamark:information":"Reserve light Fl.W. 12s 10M.Radiobeacon.","seamark:light:character":"LFl","seamark:light:colour":"white","seamark:light:height":"53","seamark:light:period":"12","seamark:light:range":"20","seamark:light:reference":"M 8007","seamark:light:sequence":"4.5+(7.5)","seamark:name":"Mys Marekan","seamark:type":"light_major","source":"US NGA Pub. 112. 2009-11-12."}}},{"type":"Feature","geometry":{"type":"Point","coordinates":[143.1782456,59.3508096]},"properties":{"osm_id":9964840399,"osm_type":"node","seamark_type":"berth","display_class":"OTHER","min_zoom":12,"importance":1,"name":null,"ref":null,"common":{"type":"berth"},"children":{"berth":{"minimum_depth":"3,14","name":"N 5"}},"osm_tags":{"description":"59°21'01\" N 143°10'35\" E /пулково42","seamark:berth:minimum_depth":"3,14","seamark:berth:name":"N 5","seamark:type":"berth"}}},{"type":"Feature","geometry":{"type":"Point","coordinates":[143.1793568,59.3510874]},"properties":{"osm_id":9964840400,"osm_type":"node","seamark_type":"berth","display_class":"OTHER","min_zoom":12,"importance":1,"name":null,"ref":null,"common":{"type":"berth"},"children":{"berth":{"minimum_depth":"3,86","name":"N 4"}},"osm_tags":{"description":"59°21'02\" N 143°10'39\" E /пулково42","seamark:berth:minimum_depth":"3,86","seamark:berth:name":"N 4","seamark:type":"berth"}}},{"type":"Feature","geometry":{"type":"Point","coordinates":[143.1813013,59.3513652]},"properties":{"osm_id":9964840401,"osm_type":"node","seamark_type":"berth","display_class":"OTHER","min_zoom":12,"importance":1,"name":null,"ref":null,"common":{"type":"berth"},"children":{"berth":{"minimum_depth":"3,86","name":"N 3"}},"osm_tags":{"description":"59°21'03\" N 143°10'46\" E /пулково42","seamark:berth:minimum_depth":"3,86","seamark:berth:name":"N 3","seamark:type":"berth"}}},{"type":"Feature","geometry":{"type":"Point","coordinates":[143.1835236,59.3513651]},"properties":{"osm_id":9964840402,"osm_type":"node","seamark_type":"berth","display_class":"OTHER","min_zoom":12,"importance":1,"name":null,"ref":null,"common":{"type":"berth"},"children":{"berth":{"minimum_depth":"3,86","name":"N 2"}},"osm_tags":{"description":"59°21'03\" N 143°10'54\" E /пулково42","seamark:berth:minimum_depth":"3,86","seamark:berth:name":"N 2","seamark:type":"berth"}}},{"type":"Feature","geometry":{"type":"Point","coordinates":[143.1846348,59.3521985]},"properties":{"osm_id":9964840403,"osm_type":"node","seamark_type":"berth","display_class":"OTHER","min_zoom":12,"importance":1,"name":null,"ref":null,"common":{"type":"berth"},"children":{"berth":{"minimum_depth":"3,14","name":"N 1"}},"osm_tags":{"description":"59°21'06\" N 143\"10'58\" E /пулково42","seamark:berth:minimum_depth":"3,14","seamark:berth:name":"N 1","seamark:type":"berth"}}},{"type":"Feature","geometry":{"type":"Point","coordinates":[143.1518545,59.3221983]},"properties":{"osm_id":9964870544,"osm_type":"node","seamark_type":"pilot_boarding","display_class":"OTHER","min_zoom":12,"importance":1,"name":null,"ref":null,"common":{"type":"pilot_boarding"},"children":{},"osm_tags":{"description":"59°19'18\" N 143°09'00\" E /пулково42","seamark:type":"pilot_boarding"}}},{"type":"Feature","geometry":{"type":"Polygon","coordinates":[[[143.0815967,59.3171987],[143.0816063,59.3170651],[143.081635,59.3169321],[143.0816826,59.3168006],[143.0817489,59.3166712],[143.0818335,59.3165447],[143.0819361,59.3164216],[143.0820559,59.3163027],[143.0821925,59.3161885],[143.082345,59.3160797],[143.0825126,59.3159769],[143.0826946,59.3158807],[143.0828898,59.3157914],[143.0830972,59.3157097],[143.0833158,59.3156359],[143.0835444,59.3155705],[143.0837817,59.3155137],[143.0840265,59.3154659],[143.0842774,59.3154274],[143.0845333,59.3153983],[143.0847926,59.3153789],[143.0850539,59.3153691],[143.085316,59.3153691],[143.0855774,59.3153789],[143.0858367,59.3153984],[143.0860925,59.3154275],[143.0863435,59.315466],[143.0865883,59.3155138],[143.0868255,59.3155706],[143.0870541,59.3156361],[143.0872727,59.3157099],[143.0874801,59.3157916],[143.0876753,59.3158809],[143.0878571,59.3159772],[143.0880248,59.31608],[143.0881773,59.3161887],[143.0883138,59.3163029],[143.0884336,59.3164218],[143.0885361,59.3165449],[143.0886207,59.3166715],[143.0886869,59.3168009],[143.0887345,59.3169324],[143.0887632,59.3170654],[143.0887727,59.317199],[143.0887631,59.3173327],[143.0887344,59.3174656],[143.0886868,59.3175971],[143.0886205,59.3177265],[143.0885359,59.3178531],[143.0884333,59.3179761],[143.0883135,59.3180951],[143.0881769,59.3182092],[143.0880244,59.318318],[143.0878568,59.3184208],[143.0876749,59.318517],[143.0874796,59.3186063],[143.0872722,59.318688],[143.0870536,59.3187618],[143.086825,59.3188272],[143.0865877,59.318884],[143.0863429,59.3189317],[143.086092,59.3189702],[143.0858361,59.3189993],[143.0855769,59.3190188],[143.0853155,59.3190285],[143.0850534,59.3190285],[143.084792,59.3190187],[143.0845327,59.3189993],[143.0842769,59.3189702],[143.0840259,59.3189316],[143.0837812,59.3188838],[143.0835439,59.3188271],[143.0833153,59.3187616],[143.0830968,59.3186878],[143.0828893,59.3186061],[143.0826942,59.3185168],[143.0825123,59.3184205],[143.0823446,59.3183177],[143.0821921,59.318209],[143.0820556,59.3180948],[143.0819358,59.3179759],[143.0818333,59.3178528],[143.0817487,59.3177262],[143.0816825,59.3175968],[143.0816349,59.3174653],[143.0816062,59.3173324],[143.0815967,59.3171987]]]},"properties":{"osm_id":1087601304,"osm_type":"way","seamark_type":"anchorage","display_class":"OTHER","min_zoom":12,"importance":1,"name":null,"ref":null,"common":{"type":"anchorage"},"children":{"anchorage":{"name":"N 10"}},"osm_tags":{"description":"радиусом 1,1 кабельтова с центром в точке 59°19' N 143°05' E /пулково42","seamark:anchorage:name":"N 10","seamark:type":"anchorage"}}},{"type":"Feature","geometry":{"type":"Polygon","coordinates":[[[143.0815969,59.3088657],[143.0816065,59.308732],[143.0816352,59.308599],[143.0816828,59.3084675],[143.0817491,59.3083381],[143.0818338,59.3082115],[143.0819363,59.3080884],[143.0820561,59.3079694],[143.0821927,59.3078552],[143.0823452,59.3077464],[143.0825129,59.3076436],[143.0826948,59.3075473],[143.08289,59.307458],[143.0830974,59.3073763],[143.083316,59.3073025],[143.0835446,59.307237],[143.0837819,59.3071802],[143.0840267,59.3071325],[143.0842777,59.3070939],[143.0845335,59.3070649],[143.0847928,59.3070454],[143.0850542,59.3070356],[143.0853163,59.3070356],[143.0855776,59.3070454],[143.0858369,59.3070649],[143.0860927,59.307094],[143.0863437,59.3071326],[143.0865885,59.3071804],[143.0868258,59.3072372],[143.0870543,59.3073026],[143.0872729,59.3073765],[143.0874803,59.3074582],[143.0876755,59.3075475],[143.0878574,59.3076438],[143.088025,59.3077466],[143.0881775,59.3078554],[143.088314,59.3079696],[143.0884338,59.3080886],[143.0885363,59.3082117],[143.0886209,59.3083384],[143.0886872,59.3084678],[143.0887348,59.3085993],[143.0887634,59.3087323],[143.088773,59.308866],[143.0887634,59.3089997],[143.0887347,59.3091326],[143.0886871,59.3092642],[143.0886207,59.3093936],[143.0885361,59.3095202],[143.0884336,59.3096433],[143.0883137,59.3097622],[143.0881772,59.3098764],[143.0880247,59.3099852],[143.087857,59.310088],[143.0876751,59.3101843],[143.0874799,59.3102736],[143.0872724,59.3103553],[143.0870538,59.3104291],[143.0868253,59.3104946],[143.086588,59.3105513],[143.0863432,59.3105991],[143.0860922,59.3106376],[143.0858364,59.3106667],[143.0855771,59.3106862],[143.0853157,59.3106959],[143.0850536,59.3106959],[143.0847922,59.3106861],[143.0845329,59.3106667],[143.0842771,59.3106376],[143.0840262,59.310599],[143.0837814,59.3105512],[143.0835441,59.3104944],[143.0833156,59.310429],[143.083097,59.3103551],[143.0828896,59.3102734],[143.0826944,59.3101841],[143.0825125,59.3100878],[143.0823449,59.309985],[143.0821924,59.3098762],[143.0820559,59.309762],[143.0819361,59.309643],[143.0818336,59.3095199],[143.081749,59.3093933],[143.0816827,59.3092639],[143.0816351,59.3091323],[143.0816065,59.3089994],[143.0815969,59.3088657]]]},"properties":{"osm_id":1087601305,"osm_type":"way","seamark_type":"anchorage","display_class":"OTHER","min_zoom":12,"importance":1,"name":null,"ref":null,"common":{"type":"anchorage"},"children":{"anchorage":{"name":"N 9"}},"osm_tags":{"description":"радиусом 1,1 кабельтова с центром в точке 59°18'30\" N 143°05' E /пулково42","seamark:anchorage:name":"N 9","seamark:type":"anchorage"}}},{"type":"Feature","geometry":{"type":"Polygon","coordinates":[[[143.1969668,59.3171971],[143.1969761,59.3170435],[143.1970039,59.3168905],[143.1970502,59.3167387],[143.1971146,59.3165886],[143.197197,59.3164408],[143.1972971,59.3162959],[143.1974145,59.3161544],[143.1975487,59.3160168],[143.1976993,59.3158838],[143.1978657,59.3157557],[143.1980471,59.3156331],[143.1982431,59.3155164],[143.1984527,59.3154061],[143.1986752,59.3153026],[143.1989099,59.3152062],[143.1991556,59.3151175],[143.1994117,59.3150366],[143.1996769,59.3149639],[143.1999505,59.3148997],[143.2002313,59.3148442],[143.2005182,59.3147976],[143.2008103,59.3147601],[143.2011063,59.3147319],[143.2014051,59.314713],[143.2017056,59.3147036],[143.2020067,59.3147036],[143.2023073,59.3147131],[143.2026061,59.314732],[143.2029021,59.3147602],[143.2031941,59.3147977],[143.203481,59.3148443],[143.2037618,59.3148998],[143.2040353,59.3149641],[143.2043006,59.3150368],[143.2045566,59.3151177],[143.2048024,59.3152065],[143.2050369,59.3153028],[143.2052595,59.3154063],[143.2054691,59.3155167],[143.2056649,59.3156334],[143.2058464,59.315756],[143.2060127,59.3158841],[143.2061632,59.3160172],[143.2062974,59.3161547],[143.2064148,59.3162962],[143.2065148,59.3164412],[143.2065972,59.316589],[143.2066616,59.3167391],[143.2067078,59.3168909],[143.2067355,59.3170439],[143.2067448,59.3171975],[143.2067355,59.3173511],[143.2067077,59.317504],[143.2066615,59.3176559],[143.206597,59.317806],[143.2065146,59.3179537],[143.2064145,59.3180987],[143.2062971,59.3182402],[143.2061629,59.3183777],[143.2060123,59.3185107],[143.2058459,59.3186388],[143.2056645,59.3187614],[143.2054685,59.3188781],[143.2052589,59.3189884],[143.2050364,59.3190919],[143.2048018,59.3191882],[143.204556,59.319277],[143.2043,59.3193578],[143.2040347,59.3194305],[143.2037611,59.3194947],[143.2034803,59.3195502],[143.2031934,59.3195968],[143.2029013,59.3196342],[143.2026054,59.3196625],[143.2023065,59.3196813],[143.202006,59.3196908],[143.2017049,59.3196908],[143.2014043,59.3196813],[143.2011055,59.3196624],[143.2008095,59.3196342],[143.2005175,59.3195967],[143.2002306,59.3195501],[143.1999498,59.3194946],[143.1996763,59.3194303],[143.199411,59.3193576],[143.199155,59.3192767],[143.1989092,59.319188],[143.1986747,59.3190916],[143.1984522,59.3189881],[143.1982426,59.3188778],[143.1980467,59.3187611],[143.1978652,59.3186385],[143.1976989,59.3185104],[143.1975484,59.3183773],[143.1974142,59.3182398],[143.1972968,59.3180983],[143.1971968,59.3179534],[143.1971144,59.3178056],[143.19705,59.3176555],[143.1970038,59.3175037],[143.1969761,59.3173507],[143.1969668,59.3171971]]]},"properties":{"osm_id":1087601306,"osm_type":"way","seamark_type":"anchorage","display_class":"OTHER","min_zoom":12,"importance":1,"name":null,"ref":null,"common":{"type":"anchorage"},"children":{"anchorage":{"name":"N 8"}},"osm_tags":{"description":"радиусом 1,5 кабельтова с центром в точке 59°19' N 143°12' E /пулково42","seamark:anchorage:name":"N 8","seamark:type":"anchorage"}}},{"type":"Feature","geometry":{"type":"Polygon","coordinates":[[[143.1982682,59.3338644],[143.1982778,59.3337308],[143.1983064,59.3335979],[143.1983541,59.3334665],[143.1984204,59.3333372],[143.198505,59.3332107],[143.1986075,59.3330876],[143.1987274,59.3329688],[143.1988639,59.3328547],[143.1990165,59.3327459],[143.1991841,59.3326432],[143.199366,59.332547],[143.1995612,59.3324578],[143.1997687,59.3323761],[143.1999873,59.3323023],[143.2002158,59.3322369],[143.2004532,59.3321802],[143.200698,59.3321324],[143.2009489,59.3320939],[143.2012048,59.3320649],[143.201464,59.3320454],[143.2017254,59.3320357],[143.2019875,59.3320357],[143.2022489,59.3320455],[143.2025082,59.3320649],[143.202764,59.332094],[143.203015,59.3321325],[143.2032597,59.3321803],[143.203497,59.3322371],[143.2037256,59.3323025],[143.2039441,59.3323763],[143.2041516,59.332458],[143.2043467,59.3325472],[143.2045286,59.3326434],[143.2046963,59.3327462],[143.2048487,59.3328549],[143.2049853,59.332969],[143.2051051,59.3330879],[143.2052076,59.3332109],[143.2052922,59.3333374],[143.2053584,59.3334668],[143.205406,59.3335982],[143.2054347,59.3337311],[143.2054442,59.3338647],[143.2054346,59.3339983],[143.2054059,59.3341311],[143.2053583,59.3342626],[143.205292,59.3343919],[143.2052074,59.3345184],[143.2051048,59.3346414],[143.204985,59.3347603],[143.2048484,59.3348744],[143.2046959,59.3349831],[143.2045283,59.3350858],[143.2043463,59.335182],[143.2041511,59.3352712],[143.2039437,59.3353529],[143.2037251,59.3354267],[143.2034965,59.3354921],[143.2032592,59.3355488],[143.2030144,59.3355965],[143.2027634,59.335635],[143.2025076,59.3356641],[143.2022483,59.3356835],[143.2019869,59.3356933],[143.2017249,59.3356933],[143.2014635,59.3356835],[143.2012042,59.335664],[143.2009484,59.335635],[143.2006974,59.3355964],[143.2004526,59.3355487],[143.2002153,59.3354919],[143.1999868,59.3354265],[143.1997682,59.3353528],[143.1995608,59.335271],[143.1993656,59.3351818],[143.1991837,59.3350856],[143.1990161,59.3349829],[143.1988636,59.3348741],[143.1987271,59.33476],[143.1986073,59.3346412],[143.1985048,59.3345181],[143.1984202,59.3343916],[143.198354,59.3342623],[143.1983064,59.3341308],[143.1982777,59.333998],[143.1982682,59.3338644]]]},"properties":{"osm_id":1087601307,"osm_type":"way","seamark_type":"anchorage","display_class":"OTHER","min_zoom":12,"importance":1,"name":null,"ref":null,"common":{"type":"anchorage"},"children":{"anchorage":{"name":"N 7"}},"osm_tags":{"description":"радиусом 1,1 кабельтова с центром в точке 59°20' N 143°12' E /пулково42","seamark:anchorage:name":"N 7","seamark:type":"anchorage"}}},{"type":"Feature","geometry":{"type":"Polygon","coordinates":[[[143.1816019,59.3338646],[143.1816115,59.333731],[143.1816401,59.3335982],[143.1816878,59.3334667],[143.1817541,59.3333374],[143.1818387,59.3332109],[143.1819412,59.3330879],[143.1820611,59.332969],[143.1821976,59.3328549],[143.1823502,59.3327462],[143.1825178,59.3326434],[143.1826997,59.3325472],[143.1828949,59.332458],[143.1831024,59.3323763],[143.183321,59.3323026],[143.1835495,59.3322372],[143.1837869,59.3321804],[143.1840316,59.3321327],[143.1842826,59.3320942],[143.1845384,59.3320651],[143.1847977,59.3320457],[143.1850591,59.3320359],[143.1853212,59.3320359],[143.1855826,59.3320457],[143.1858419,59.3320652],[143.1860977,59.3320942],[143.1863486,59.3321328],[143.1865934,59.3321805],[143.1868307,59.3322373],[143.1870593,59.3323027],[143.1872778,59.3323765],[143.1874853,59.3324582],[143.1876804,59.3325474],[143.1878623,59.3326436],[143.18803,59.3327464],[143.1881824,59.3328551],[143.1883189,59.3329692],[143.1884388,59.3330881],[143.1885412,59.3332112],[143.1886259,59.3333377],[143.1886921,59.333467],[143.1887397,59.3335985],[143.1887683,59.3337313],[143.1887779,59.3338649],[143.1887683,59.3339985],[143.1887396,59.3341314],[143.188692,59.3342628],[143.1886257,59.3343921],[143.188541,59.3345186],[143.1884385,59.3346416],[143.1883187,59.3347605],[143.1881821,59.3348746],[143.1880296,59.3349833],[143.1878619,59.3350861],[143.18768,59.3351823],[143.1874848,59.3352715],[143.1872774,59.3353531],[143.1870588,59.3354269],[143.1868302,59.3354923],[143.1865929,59.335549],[143.1863481,59.3355968],[143.1860971,59.3356353],[143.1858413,59.3356643],[143.185582,59.3356838],[143.1853206,59.3356935],[143.1850586,59.3356935],[143.1847972,59.3356837],[143.1845379,59.3356643],[143.1842821,59.3356352],[143.1840311,59.3355967],[143.1837863,59.3355489],[143.183549,59.3354922],[143.1833205,59.3354267],[143.1831019,59.335353],[143.1828945,59.3352713],[143.1826993,59.3351821],[143.1825174,59.3350858],[143.1823498,59.3349831],[143.1821973,59.3348744],[143.1820608,59.3347603],[143.181941,59.3346414],[143.1818385,59.3345184],[143.1817539,59.3343918],[143.1816876,59.3342625],[143.1816401,59.3341311],[143.1816114,59.3339982],[143.1816019,59.3338646]]]},"properties":{"osm_id":1087601308,"osm_type":"way","seamark_type":"anchorage","display_class":"OTHER","min_zoom":12,"importance":1,"name":null,"ref":null,"common":{"type":"anchorage"},"children":{"anchorage":{"name":"N 6"}},"osm_tags":{"description":"радиусом 1,1 кабельтова с центром в точке 59°20' N 143°11' E /пулково42","seamark:anchorage:name":"N 6","seamark:type":"anchorage"}}},{"type":"Feature","geometry":{"type":"Polygon","coordinates":[[[143.1649343,59.3338648],[143.1649439,59.3337313],[143.1649725,59.3335984],[143.1650202,59.3334669],[143.1650865,59.3333376],[143.1651711,59.3332111],[143.1652736,59.3330881],[143.1653935,59.3329692],[143.16553,59.3328551],[143.1656826,59.3327464],[143.1658502,59.3326437],[143.1660321,59.3325474],[143.1662273,59.3324582],[143.1664348,59.3323765],[143.1666534,59.3323028],[143.1668819,59.3322374],[143.1671193,59.3321806],[143.1673641,59.3321329],[143.167615,59.3320944],[143.1678708,59.3320653],[143.1681301,59.3320459],[143.1683915,59.3320361],[143.1686536,59.3320362],[143.168915,59.3320459],[143.1691743,59.3320654],[143.1694301,59.3320945],[143.1696811,59.332133],[143.1699258,59.3321808],[143.1701631,59.3322375],[143.1703917,59.3323029],[143.1706102,59.3323767],[143.1708177,59.3324584],[143.1710128,59.3325476],[143.1711947,59.3326439],[143.1713624,59.3327466],[143.1715148,59.3328554],[143.1716514,59.3329695],[143.1717712,59.3330884],[143.1718737,59.3332114],[143.1719583,59.3333379],[143.1720245,59.3334672],[143.1720721,59.3335987],[143.1721008,59.3337316],[143.1721103,59.3338651],[143.1721007,59.3339987],[143.172072,59.3341316],[143.1720244,59.334263],[143.1719581,59.3343923],[143.1718735,59.3345189],[143.1717709,59.3346419],[143.1716511,59.3347607],[143.1715145,59.3348748],[143.171362,59.3349835],[143.1711944,59.3350863],[143.1710124,59.3351825],[143.1708172,59.3352717],[143.1706098,59.3353534],[143.1703912,59.3354271],[143.1701626,59.3354925],[143.1699253,59.3355493],[143.1696805,59.335597],[143.1694295,59.3356355],[143.1691737,59.3356645],[143.1689144,59.335684],[143.168653,59.3356937],[143.168391,59.3356937],[143.1681296,59.335684],[143.1678703,59.3356645],[143.1676145,59.3356354],[143.1673635,59.3355969],[143.1671187,59.3355491],[143.1668814,59.3354924],[143.1666529,59.335427],[143.1664343,59.3353532],[143.1662269,59.3352715],[143.1660317,59.3351823],[143.1658498,59.3350861],[143.1656822,59.3349833],[143.1655297,59.3348746],[143.1653932,59.3347605],[143.1652734,59.3346416],[143.1651709,59.3345186],[143.1650863,59.3343921],[143.16502,59.3342627],[143.1649725,59.3341313],[143.1649438,59.3339984],[143.1649343,59.3338648]]]},"properties":{"osm_id":1087601309,"osm_type":"way","seamark_type":"anchorage","display_class":"OTHER","min_zoom":12,"importance":1,"name":null,"ref":null,"common":{"type":"anchorage"},"children":{"anchorage":{"name":"N 5"}},"osm_tags":{"description":"радиусом 1,1 кабельтова с центром в точке 59°20' N 143°10' E /пулково42","seamark:anchorage:name":"N 5","seamark:type":"anchorage"}}},{"type":"Feature","geometry":{"type":"Polygon","coordinates":[[[143.1302976,59.317198],[143.1303069,59.3170444],[143.1303347,59.3168914],[143.130381,59.3167396],[143.1304454,59.3165895],[143.1305278,59.3164417],[143.1306279,59.3162968],[143.1307453,59.3161553],[143.1308796,59.3160177],[143.1310301,59.3158847],[143.1311965,59.3157566],[143.131378,59.315634],[143.1315739,59.3155173],[143.1317835,59.315407],[143.1320061,59.3153035],[143.1322407,59.3152071],[143.1324864,59.3151184],[143.1327425,59.3150375],[143.1330078,59.3149648],[143.1332813,59.3149006],[143.1335621,59.3148451],[143.133849,59.3147985],[143.1341411,59.3147611],[143.1344371,59.3147328],[143.1347359,59.314714],[143.1350364,59.3147045],[143.1353375,59.3147045],[143.1356381,59.314714],[143.1359369,59.3147329],[143.1362329,59.3147611],[143.1365249,59.3147986],[143.1368118,59.3148452],[143.1370926,59.3149007],[143.1373662,59.314965],[143.1376314,59.3150377],[143.1378874,59.3151186],[143.1381332,59.3152074],[143.1383677,59.3153037],[143.1385903,59.3154073],[143.1387999,59.3155176],[143.1389957,59.3156343],[143.1391772,59.3157569],[143.1393435,59.315885],[143.139494,59.3160181],[143.1396282,59.3161556],[143.1397456,59.3162971],[143.1398456,59.3164421],[143.139928,59.3165899],[143.1399924,59.31674],[143.1400386,59.3168918],[143.1400663,59.3170448],[143.1400756,59.3171984],[143.1400663,59.317352],[143.1400385,59.317505],[143.1399923,59.3176568],[143.1399278,59.3178069],[143.1398454,59.3179547],[143.1397453,59.3180996],[143.1396279,59.3182411],[143.1394937,59.3183786],[143.1393431,59.3185117],[143.1391767,59.3186397],[143.1389953,59.3187623],[143.1387993,59.318879],[143.1385897,59.3189893],[143.1383672,59.3190928],[143.1381326,59.3191891],[143.1378868,59.3192779],[143.1376308,59.3193587],[143.1373655,59.3194314],[143.1370919,59.3194956],[143.1368111,59.3195511],[143.1365242,59.3195977],[143.1362321,59.3196351],[143.1359362,59.3196634],[143.1356373,59.3196822],[143.1353368,59.3196917],[143.1350357,59.3196917],[143.1347351,59.3196822],[143.1344363,59.3196633],[143.1341403,59.3196351],[143.1338483,59.3195976],[143.1335614,59.319551],[143.1332806,59.3194955],[143.1330071,59.3194312],[143.1327418,59.3193585],[143.1324858,59.3192777],[143.13224,59.3191889],[143.1320055,59.3190925],[143.131783,59.318989],[143.1315734,59.3188787],[143.1313775,59.318762],[143.131196,59.3186394],[143.1310297,59.3185113],[143.1308792,59.3183783],[143.130745,59.3182407],[143.1306276,59.3180992],[143.1305276,59.3179543],[143.1304452,59.3178065],[143.1303808,59.3176564],[143.1303347,59.3175046],[143.1303069,59.3173516],[143.1302976,59.317198]]]},"properties":{"osm_id":1087601310,"osm_type":"way","seamark_type":"anchorage","display_class":"OTHER","min_zoom":12,"importance":1,"name":null,"ref":null,"common":{"type":"anchorage"},"children":{"anchorage":{"name":"N 4"}},"osm_tags":{"description":"радиусом 1,5 кабельтова с центром в точке 59°19' N 143°08' E /пулково42","seamark:anchorage:name":"N 4","seamark:type":"anchorage"}}},{"type":"Feature","geometry":{"type":"Polygon","coordinates":[[[143.1636322,59.3171975],[143.1636415,59.317044],[143.1636693,59.316891],[143.1637156,59.3167391],[143.16378,59.316589],[143.1638624,59.3164412],[143.1639625,59.3162963],[143.1640799,59.3161548],[143.1642141,59.3160173],[143.1643647,59.3158842],[143.1645311,59.3157561],[143.1647125,59.3156335],[143.1649085,59.3155168],[143.1651181,59.3154065],[143.1653406,59.315303],[143.1655753,59.3152067],[143.165821,59.3151179],[143.1660771,59.315037],[143.1663423,59.3149643],[143.1666159,59.3149001],[143.1668967,59.3148446],[143.1671836,59.3147981],[143.1674757,59.3147606],[143.1677717,59.3147324],[143.1680705,59.3147135],[143.168371,59.3147041],[143.1686721,59.3147041],[143.1689727,59.3147135],[143.1692715,59.3147324],[143.1695675,59.3147607],[143.1698595,59.3147982],[143.1701464,59.3148448],[143.1704272,59.3149003],[143.1707007,59.3149645],[143.170966,59.3150372],[143.171222,59.3151181],[143.1714678,59.3152069],[143.1717023,59.3153033],[143.1719249,59.3154068],[143.1721344,59.3155171],[143.1723303,59.3156338],[143.1725118,59.3157565],[143.1726781,59.3158845],[143.1728286,59.3160176],[143.1729628,59.3161552],[143.1730802,59.3162967],[143.1731802,59.3164416],[143.1732626,59.3165894],[143.173327,59.3167395],[143.1733732,59.3168913],[143.1734009,59.3170443],[143.1734102,59.3171979],[143.1734009,59.3173515],[143.1733731,59.3175045],[143.1733269,59.3176563],[143.1732624,59.3178064],[143.17318,59.3179542],[143.1730799,59.3180991],[143.1729625,59.3182406],[143.1728283,59.3183781],[143.1726777,59.3185112],[143.1725113,59.3186393],[143.1723299,59.3187619],[143.1721339,59.3188785],[143.1719243,59.3189888],[143.1717018,59.3190923],[143.1714672,59.3191887],[143.1712214,59.3192774],[143.1709654,59.3193583],[143.1707001,59.319431],[143.1704265,59.3194952],[143.1701457,59.3195507],[143.1698588,59.3195972],[143.1695667,59.3196347],[143.1692707,59.3196629],[143.1689719,59.3196818],[143.1686714,59.3196912],[143.1683703,59.3196912],[143.1680697,59.3196817],[143.1677709,59.3196629],[143.1674749,59.3196346],[143.1671829,59.3195971],[143.166896,59.3195505],[143.1666152,59.319495],[143.1663417,59.3194308],[143.1660764,59.3193581],[143.1658204,59.3192772],[143.1655746,59.3191884],[143.1653401,59.3190921],[143.1651176,59.3189886],[143.164908,59.3188783],[143.1647121,59.3187616],[143.1645306,59.3186389],[143.1643643,59.3185109],[143.1642138,59.3183778],[143.1640796,59.3182402],[143.1639622,59.3180987],[143.1638622,59.3179538],[143.1637798,59.317806],[143.1637154,59.3176559],[143.1636692,59.3175041],[143.1636415,59.3173511],[143.1636322,59.3171975]]]},"properties":{"osm_id":1087601311,"osm_type":"way","seamark_type":"anchorage","display_class":"OTHER","min_zoom":12,"importance":1,"name":null,"ref":null,"common":{"type":"anchorage"},"children":{"anchorage":{"name":"N 3"}},"osm_tags":{"description":"радиусом 1,5 кабельтова с центром в точке 59°19' N 143°10' E /пулково42","seamark:anchorage:name":"N 3","seamark:type":"anchorage"}}},{"type":"Feature","geometry":{"type":"Polygon","coordinates":[[[143.1302977,59.307198],[143.130307,59.3070444],[143.1303348,59.3068913],[143.130381,59.3067395],[143.1304455,59.3065893],[143.1305279,59.3064415],[143.130628,59.3062965],[143.1307454,59.306155],[143.1308796,59.3060174],[143.1310302,59.3058843],[143.1311965,59.3057562],[143.131378,59.3056335],[143.1315739,59.3055168],[143.1317836,59.3054065],[143.1320061,59.3053029],[143.1322407,59.3052066],[143.1324865,59.3051178],[143.1327425,59.3050369],[143.1330078,59.3049642],[143.1332814,59.3048999],[143.1335622,59.3048444],[143.1338491,59.3047978],[143.1341411,59.3047604],[143.1344371,59.3047321],[143.134736,59.3047133],[143.1350365,59.3047038],[143.1353376,59.3047038],[143.1356381,59.3047133],[143.135937,59.3047322],[143.136233,59.3047604],[143.136525,59.3047979],[143.1368119,59.3048446],[143.1370927,59.3049001],[143.1373662,59.3049643],[143.1376315,59.3050371],[143.1378875,59.305118],[143.1381332,59.3052068],[143.1383678,59.3053032],[143.1385903,59.3054068],[143.1387999,59.3055171],[143.1389958,59.3056338],[143.1391772,59.3057565],[143.1393436,59.3058846],[143.1394941,59.3060178],[143.1396283,59.3061554],[143.1397456,59.3062969],[143.1398457,59.3064419],[143.1399281,59.3065897],[143.1399925,59.3067399],[143.1400386,59.3068917],[143.1400664,59.3070448],[143.1400756,59.3071984],[143.1400663,59.307352],[143.1400385,59.3075051],[143.1399923,59.3076569],[143.1399279,59.3078071],[143.1398455,59.3079549],[143.1397454,59.3080999],[143.139628,59.3082414],[143.1394937,59.308379],[143.1393431,59.3085121],[143.1391768,59.3086402],[143.1389953,59.3087628],[143.1387994,59.3088795],[143.1385898,59.3089898],[143.1383672,59.3090934],[143.1381326,59.3091897],[143.1378868,59.3092785],[143.1376308,59.3093594],[143.1373655,59.3094321],[143.137092,59.3094963],[143.1368112,59.3095518],[143.1365242,59.3095984],[143.1362322,59.3096359],[143.1359362,59.3096641],[143.1356374,59.309683],[143.1353368,59.3096924],[143.1350357,59.3096924],[143.1347352,59.309683],[143.1344364,59.3096641],[143.1341404,59.3096358],[143.1338484,59.3095983],[143.1335614,59.3095517],[143.1332807,59.3094962],[143.1330071,59.3094319],[143.1327419,59.3093592],[143.1324859,59.3092783],[143.1322401,59.3091895],[143.1320055,59.3090931],[143.131783,59.3089896],[143.1315734,59.3088792],[143.1313775,59.3087625],[143.1311961,59.3086399],[143.1310298,59.3085117],[143.1308793,59.3083786],[143.1307451,59.308241],[143.1306277,59.3080995],[143.1305277,59.3079545],[143.1304453,59.3078067],[143.1303809,59.3076566],[143.1303347,59.3075047],[143.130307,59.3073516],[143.1302977,59.307198]]]},"properties":{"osm_id":1087601312,"osm_type":"way","seamark_type":"anchorage","display_class":"OTHER","min_zoom":12,"importance":1,"name":null,"ref":null,"common":{"type":"anchorage"},"children":{"anchorage":{"name":"N 2"}},"osm_tags":{"description":"радиусом 1,5 кабельтова с центром в точке 59°18'24\" N 143°08' E /пулково42","seamark:anchorage:name":"N 2","seamark:type":"anchorage"}}},{"type":"Feature","geometry":{"type":"Polygon","coordinates":[[[143.163632,59.3071976],[143.1636413,59.307044],[143.1636692,59.306891],[143.1637154,59.3067391],[143.1637798,59.3065889],[143.1638622,59.3064411],[143.1639623,59.3062962],[143.1640797,59.3061546],[143.164214,59.306017],[143.1643645,59.3058839],[143.1645309,59.3057558],[143.1647124,59.3056331],[143.1649083,59.3055164],[143.1651179,59.3054061],[143.1653405,59.3053026],[143.1655751,59.3052062],[143.1658208,59.3051174],[143.1660769,59.3050365],[143.1663422,59.3049638],[143.1666157,59.3048996],[143.1668965,59.304844],[143.1671835,59.3047975],[143.1674755,59.30476],[143.1677715,59.3047317],[143.1680703,59.3047129],[143.1683708,59.3047034],[143.168672,59.3047034],[143.1689725,59.3047129],[143.1692713,59.3047318],[143.1695673,59.3047601],[143.1698593,59.3047976],[143.1701462,59.3048442],[143.170427,59.3048997],[143.1707006,59.304964],[143.1709658,59.3050367],[143.1712218,59.3051176],[143.1714676,59.3052064],[143.1717022,59.3053028],[143.1719247,59.3054064],[143.1721343,59.3055167],[143.1723302,59.3056335],[143.1725116,59.3057561],[143.1726779,59.3058843],[143.1728284,59.3060174],[143.1729626,59.306155],[143.17308,59.3062965],[143.17318,59.3064415],[143.1732624,59.3065893],[143.1733268,59.3067395],[143.173373,59.3068913],[143.1734007,59.3070444],[143.17341,59.307198],[143.1734007,59.3073516],[143.1733729,59.3075047],[143.1733267,59.3076566],[143.1732622,59.3078067],[143.1731798,59.3079545],[143.1730797,59.3080995],[143.1729623,59.308241],[143.1728281,59.3083786],[143.1726775,59.3085117],[143.1725111,59.3086398],[143.1723297,59.3087624],[143.1721337,59.3088791],[143.1719241,59.3089895],[143.1717016,59.309093],[143.171467,59.3091893],[143.1712212,59.3092781],[143.1709652,59.309359],[143.1706999,59.3094317],[143.1704263,59.3094959],[143.1701455,59.3095514],[143.1698586,59.309598],[143.1695665,59.3096355],[143.1692706,59.3096637],[143.1689717,59.3096826],[143.1686712,59.3096921],[143.1683701,59.309692],[143.1680695,59.3096826],[143.1677707,59.3096637],[143.1674747,59.3096354],[143.1671827,59.3095979],[143.1668958,59.3095513],[143.166615,59.3094958],[143.1663415,59.3094315],[143.1660762,59.3093588],[143.1658202,59.3092779],[143.1655744,59.3091891],[143.1653399,59.3090927],[143.1651174,59.3089892],[143.1649078,59.3088788],[143.1647119,59.3087621],[143.1645304,59.3086395],[143.1643641,59.3085113],[143.1642136,59.3083782],[143.1640794,59.3082406],[143.1639621,59.3080991],[143.163862,59.3079541],[143.1637796,59.3078063],[143.1637152,59.3076562],[143.1636691,59.3075043],[143.1636413,59.3073513],[143.163632,59.3071976]]]},"properties":{"osm_id":1087601313,"osm_type":"way","seamark_type":"anchorage","display_class":"OTHER","min_zoom":12,"importance":1,"name":null,"ref":null,"common":{"type":"anchorage"},"children":{"anchorage":{"name":"N 1"}},"osm_tags":{"description":"радиусом 1,5 кабельтова с центром в точке 59°18'24\" N 143°10' E /пулково42","seamark:anchorage:name":"N 1","seamark:type":"anchorage"}}}],"type":"FeatureCollection"}