{"type":"FeatureCollection","features":[{"type":"Feature","geometry":{"type":"Point","coordinates":[149.0479178,59.2043706]},"properties":{"osm_id":1271041290,"osm_type":"node","seamark_type":"light_minor","display_class":"OTHER","min_zoom":12,"importance":1,"name":null,"ref":null,"common":{"type":"light_minor"},"children":{"light":{"1:character":"Fl","1:colour":"white","1:period":"3","1:range":"8","1:sector_end":"260","1:sector_start":"27"}},"osm_tags":{"seamark:light:1:character":"Fl","seamark:light:1:colour":"white","seamark:light:1:period":"3","seamark:light:1:range":"8","seamark:light:1:sector_end":"260","seamark:light:1:sector_start":"27","seamark:type":"light_minor","source":"US NGA Pub. 112. 2009-11-12."}}}],"type":"FeatureCollection"}