{"type":"FeatureCollection","features":[{"type":"Feature","geometry":{"type":"Point","coordinates":[33.5254599,59.6534027]},"properties":{"osm_id":10831185229,"osm_type":"node","seamark_type":"gate","display_class":"OTHER","min_zoom":12,"importance":1,"name":null,"ref":null,"common":{"type":"gate"},"children":{},"osm_tags":{"seamark:type":"gate","waterway":"lock_gate"}}},{"type":"Feature","geometry":{"type":"Point","coordinates":[33.5254209,59.6533627]},"properties":{"osm_id":10831185230,"osm_type":"node","seamark_type":"gate","display_class":"OTHER","min_zoom":12,"importance":1,"name":null,"ref":null,"common":{"type":"gate"},"children":{},"osm_tags":{"seamark:type":"gate","waterway":"lock_gate"}}}],"type":"FeatureCollection"}