{"type":"FeatureCollection","features":[{"type":"Feature","geometry":{"type":"Point","coordinates":[-133.7036569,59.5692887]},"properties":{"osm_id":7738633534,"osm_type":"node","seamark_type":"harbour","display_class":"OTHER","min_zoom":12,"importance":1,"name":null,"ref":null,"common":{"type":"harbour"},"children":{"harbour":{"category":"marina"}},"osm_tags":{"leisure":"marina","seamark:harbour:category":"marina","seamark:type":"harbour"}}},{"type":"Feature","geometry":{"type":"Polygon","coordinates":[[[-133.7099626,59.5748505],[-133.7096949,59.5744737],[-133.708878,59.5741093],[-133.7084608,59.5739966],[-133.7072788,59.5742448],[-133.7074839,59.5745582],[-133.7078941,59.5749684],[-133.7080697,59.57513],[-133.7081889,59.5751815],[-133.7085129,59.5751832],[-133.7088154,59.5751779],[-133.7089753,59.5751445],[-133.70925,59.5750424],[-133.7095907,59.5749314],[-133.7099626,59.5748505]]]},"properties":{"osm_id":1423648383,"osm_type":"way","seamark_type":"harbour","display_class":"OTHER","min_zoom":12,"importance":1,"name":"Brewery Bay Marina","ref":null,"common":{"type":"harbour"},"children":{"harbour":{"category":"marina"}},"osm_tags":{"leisure":"marina","name":"Brewery Bay Marina","operator":"Brewery Bay Marina Association","seamark:harbour:category":"marina","seamark:type":"harbour"}}}],"type":"FeatureCollection"}