{"type":"FeatureCollection","features":[{"type":"Feature","geometry":{"type":"Polygon","coordinates":[[[-146.3567127,59.4273549],[-146.3566497,59.4273036],[-146.356881,59.4271645],[-146.3570571,59.4270957],[-146.357352,59.4270127],[-146.3578061,59.4269164],[-146.3579533,59.427049],[-146.3573856,59.4272309],[-146.3571038,59.427295],[-146.3567127,59.4273549]]]},"properties":{"osm_id":665637588,"osm_type":"way","seamark_type":"wreck","display_class":"OTHER","min_zoom":12,"importance":1,"name":"USS Coldbrook","ref":null,"common":{"type":"wreck"},"children":{},"osm_tags":{"historic":"wreck","name":"USS Coldbrook","seamark:type":"wreck","wreck:visible_at_high_tide":"yes","wreck:visible_at_low_tide":"yes"}}}],"type":"FeatureCollection"}