{"type":"FeatureCollection","features":[{"type":"Feature","geometry":{"type":"LineString","coordinates":[[1.6983737,61.0200752],[1.696149,61.0136072],[1.6942023,61.0110914],[1.6867864,61.0052955],[1.6815953,61.0018804],[1.6731598,60.9981503],[1.6657439,60.9928016],[1.6614798,60.9859682],[1.6002989,60.8336366],[1.5452361,60.7377195],[1.5378202,60.7281119],[1.5315167,60.7217658],[1.5209491,60.7150556],[0.8359085,60.3844451],[0.818852,60.370791],[0.710395,60.2164425],[0.0565407,59.7981908],[-0.0838442,59.7076994],[-0.1402048,59.65173],[-0.1921159,59.6072998],[-0.2236333,59.5911629],[-0.2447685,59.5695724],[-0.2699824,59.5380066],[-0.2896345,59.5173224],[-0.5310209,59.2847918],[-0.5985053,59.2379802],[-0.790947,59.065342],[-0.8013292,59.0464664],[-0.8446268,58.9537003],[-0.8969137,58.8413411],[-0.9536417,58.7190247],[-1.0133707,58.5897715],[-1.0586598,58.4914467],[-1.1263454,58.3830131],[-1.1810889,58.2950683],[-1.2547307,58.1764183],[-1.3235073,58.065248],[-1.3768004,57.9788666],[-1.4179353,57.914957],[-1.4685924,57.8360968],[-1.5188501,57.7576873]]},"properties":{"osm_id":174152570,"osm_type":"way","seamark_type":"pipeline_submarine","display_class":"OTHER","min_zoom":12,"importance":1,"name":"FLAGS","ref":null,"common":{"type":"pipeline_submarine"},"children":{"pipeline_submarine":{"category":"supply","product":"gas"}},"osm_tags":{"location":"underwater","man_made":"pipeline","name":"FLAGS","operator":"Shell","seamark:pipeline_submarine:category":"supply","seamark:pipeline_submarine:product":"gas","seamark:type":"pipeline_submarine","source":"Gassco","substance":"gas","usage":"transmission"}}}],"type":"FeatureCollection"}