{"type":"FeatureCollection","features":[{"type":"Feature","geometry":{"type":"Point","coordinates":[3.4158468,60.3123065]},"properties":{"osm_id":10252336258,"osm_type":"node","seamark_type":"wreck","display_class":"OTHER","min_zoom":12,"importance":1,"name":null,"ref":null,"common":{"type":"wreck"},"children":{"wreck":{"category":"non-dangerous"}},"osm_tags":{"seamark:type":"wreck","seamark:wreck:category":"non-dangerous"}}},{"type":"Feature","geometry":{"type":"Point","coordinates":[3.2305383,60.3112012]},"properties":{"osm_id":10252336259,"osm_type":"node","seamark_type":"wreck","display_class":"OTHER","min_zoom":12,"importance":1,"name":null,"ref":null,"common":{"type":"wreck"},"children":{"wreck":{"category":"non-dangerous"}},"osm_tags":{"seamark:type":"wreck","seamark:wreck:category":"non-dangerous"}}},{"type":"Feature","geometry":{"type":"Point","coordinates":[3.0307674,60.3178748]},"properties":{"osm_id":10252336260,"osm_type":"node","seamark_type":"wreck","display_class":"OTHER","min_zoom":12,"importance":1,"name":null,"ref":null,"common":{"type":"wreck"},"children":{"wreck":{"category":"non-dangerous"}},"osm_tags":{"seamark:type":"wreck","seamark:wreck:category":"non-dangerous"}}},{"type":"Feature","geometry":{"type":"Point","coordinates":[3.110075,60.8161083]},"properties":{"osm_id":10252341290,"osm_type":"node","seamark_type":"wreck","display_class":"OTHER","min_zoom":12,"importance":1,"name":null,"ref":null,"common":{"type":"wreck"},"children":{"wreck":{"category":"non-dangerous"}},"osm_tags":{"seamark:type":"wreck","seamark:wreck:category":"non-dangerous"}}},{"type":"Feature","geometry":{"type":"Point","coordinates":[3.1047535,60.7995096]},"properties":{"osm_id":10252341291,"osm_type":"node","seamark_type":"wreck","display_class":"OTHER","min_zoom":12,"importance":1,"name":null,"ref":null,"common":{"type":"wreck"},"children":{"wreck":{"category":"non-dangerous"}},"osm_tags":{"seamark:type":"wreck","seamark:wreck:category":"non-dangerous"}}},{"type":"Feature","geometry":{"type":"Point","coordinates":[3.045423,60.6748916]},"properties":{"osm_id":10252341567,"osm_type":"node","seamark_type":"wreck","display_class":"OTHER","min_zoom":12,"importance":1,"name":null,"ref":null,"common":{"type":"wreck"},"children":{"wreck":{"category":"non-dangerous"}},"osm_tags":{"seamark:type":"wreck","seamark:wreck:category":"non-dangerous"}}},{"type":"Feature","geometry":{"type":"Point","coordinates":[3.1364894,60.5152301]},"properties":{"osm_id":10252341569,"osm_type":"node","seamark_type":"wreck","display_class":"OTHER","min_zoom":12,"importance":1,"name":null,"ref":null,"common":{"type":"wreck"},"children":{"wreck":{"category":"non-dangerous"}},"osm_tags":{"seamark:type":"wreck","seamark:wreck:category":"non-dangerous"}}},{"type":"Feature","geometry":{"type":"Point","coordinates":[3.1365323,60.5319021]},"properties":{"osm_id":10252341570,"osm_type":"node","seamark_type":"wreck","display_class":"OTHER","min_zoom":12,"importance":1,"name":null,"ref":null,"common":{"type":"wreck"},"children":{"wreck":{"category":"non-dangerous"}},"osm_tags":{"seamark:type":"wreck","seamark:wreck:category":"non-dangerous"}}},{"type":"Feature","geometry":{"type":"Point","coordinates":[3.2168054,60.5626578]},"properties":{"osm_id":10252341571,"osm_type":"node","seamark_type":"wreck","display_class":"OTHER","min_zoom":12,"importance":1,"name":null,"ref":null,"common":{"type":"wreck"},"children":{"wreck":{"category":"non-dangerous"}},"osm_tags":{"seamark:type":"wreck","seamark:wreck:category":"non-dangerous"}}},{"type":"Feature","geometry":{"type":"Point","coordinates":[3.0836606,60.5904131]},"properties":{"osm_id":10252341572,"osm_type":"node","seamark_type":"wreck","display_class":"OTHER","min_zoom":12,"importance":1,"name":null,"ref":null,"common":{"type":"wreck"},"children":{"wreck":{"category":"non-dangerous"}},"osm_tags":{"seamark:type":"wreck","seamark:wreck:category":"non-dangerous"}}},{"type":"Feature","geometry":{"type":"Point","coordinates":[3.1713152,60.5780511]},"properties":{"osm_id":10252341573,"osm_type":"node","seamark_type":"wreck","display_class":"OTHER","min_zoom":12,"importance":1,"name":null,"ref":null,"common":{"type":"wreck"},"children":{"wreck":{"category":"non-dangerous"}},"osm_tags":{"seamark:type":"wreck","seamark:wreck:category":"non-dangerous"}}},{"type":"Feature","geometry":{"type":"Point","coordinates":[3.1376052,60.6328063]},"properties":{"osm_id":10252341574,"osm_type":"node","seamark_type":"wreck","display_class":"OTHER","min_zoom":12,"importance":1,"name":null,"ref":null,"common":{"type":"wreck"},"children":{"wreck":{"category":"non-dangerous"}},"osm_tags":{"seamark:type":"wreck","seamark:wreck:category":"non-dangerous"}}},{"type":"Feature","geometry":{"type":"Point","coordinates":[3.0928659,60.6356158]},"properties":{"osm_id":10252341575,"osm_type":"node","seamark_type":"wreck","display_class":"OTHER","min_zoom":12,"importance":1,"name":null,"ref":null,"common":{"type":"wreck"},"children":{"wreck":{"category":"non-dangerous"}},"osm_tags":{"seamark:type":"wreck","seamark:wreck:category":"non-dangerous"}}},{"type":"Feature","geometry":{"type":"Point","coordinates":[3.2029437,60.681039]},"properties":{"osm_id":10252341576,"osm_type":"node","seamark_type":"wreck","display_class":"OTHER","min_zoom":12,"importance":1,"name":null,"ref":null,"common":{"type":"wreck"},"children":{"wreck":{"category":"non-dangerous"}},"osm_tags":{"seamark:type":"wreck","seamark:wreck:category":"non-dangerous"}}},{"type":"Feature","geometry":{"type":"Point","coordinates":[3.1883525,60.6651902]},"properties":{"osm_id":10252341577,"osm_type":"node","seamark_type":"wreck","display_class":"OTHER","min_zoom":12,"importance":1,"name":null,"ref":null,"common":{"type":"wreck"},"children":{"wreck":{"category":"non-dangerous"}},"osm_tags":{"seamark:type":"wreck","seamark:wreck:category":"non-dangerous"}}},{"type":"Feature","geometry":{"type":"Point","coordinates":[3.1383132,60.6764575]},"properties":{"osm_id":10252341578,"osm_type":"node","seamark_type":"wreck","display_class":"OTHER","min_zoom":12,"importance":1,"name":null,"ref":null,"common":{"type":"wreck"},"children":{"wreck":{"category":"non-dangerous"}},"osm_tags":{"seamark:type":"wreck","seamark:wreck:category":"non-dangerous"}}},{"type":"Feature","geometry":{"type":"LineString","coordinates":[[3.97,60.3333333],[3.9705,60.25]]},"properties":{"osm_id":179980708,"osm_type":"way","seamark_type":"separation_boundary","display_class":"OTHER","min_zoom":12,"importance":1,"name":null,"ref":null,"common":{"type":"separation_boundary"},"children":{},"osm_tags":{"seamark:type":"separation_boundary"}}},{"type":"Feature","geometry":{"type":"LineString","coordinates":[[3.6194372,60.8779688],[3.6255741,60.8725381],[3.627634,60.8712012],[3.6383628,60.8675243],[3.6446714,60.864641],[3.6611079,60.8542339],[3.6655711,60.8509313],[3.6732101,60.8434889],[3.684368,60.8322383],[3.6900329,60.8262559],[3.6957835,60.8180962],[3.7086581,60.8035711],[3.7184428,60.7907148],[3.7328624,60.7752973],[3.7598991,60.7464532],[3.7821292,60.712797],[3.7890386,60.7043145],[3.7941026,60.6985392],[3.7983083,60.6930989],[3.8007545,60.6872796],[3.8008403,60.6814802],[3.7981796,60.6742716],[3.7904548,60.665863],[3.7798547,60.658777],[3.7691259,60.6533931],[3.7613153,60.6505326],[3.7531614,60.6484922],[3.74269,60.6467041],[3.7286996,60.6452525]]},"properties":{"osm_id":685329869,"osm_type":"way","seamark_type":"pipeline_submarine","display_class":"OTHER","min_zoom":12,"importance":1,"name":null,"ref":null,"common":{"type":"pipeline_submarine"},"children":{"pipeline_submarine":{"category":"supply","product":"gas"}},"osm_tags":{"location":"underwater","man_made":"pipeline","operator":"Equinor","seamark:pipeline_submarine:category":"supply","seamark:pipeline_submarine:product":"gas","seamark:type":"pipeline_submarine","substance":"gas"}}},{"type":"Feature","geometry":{"type":"LineString","coordinates":[[3.5242938,60.7701006],[3.5504722,60.7708549],[3.5638618,60.7723847],[3.5765218,60.7747944],[3.5933661,60.7784924],[3.6013484,60.7799799],[3.6091804,60.7810692],[3.6205745,60.7817815],[3.6288356,60.7816872],[3.6396503,60.7809331],[3.6478471,60.7797599],[3.6545848,60.778461],[3.6647558,60.7759887],[3.6734247,60.7726361],[3.6843252,60.7671246],[3.7257384,60.744356],[3.7502002,60.7285804],[3.7716579,60.7140986],[3.7860774,60.7042305],[3.7924289,60.6983922],[3.7962054,60.6927629],[3.798437,60.6870065],[3.7986087,60.6815433],[3.7958621,60.6744818],[3.7887382,60.6662835],[3.7782668,60.6592607],[3.767023,60.6543396],[3.759427,60.6515002],[3.7521743,60.6496071],[3.7423467,60.6476297],[3.7283134,60.6455576]]},"properties":{"osm_id":685329870,"osm_type":"way","seamark_type":"pipeline_submarine","display_class":"OTHER","min_zoom":12,"importance":1,"name":null,"ref":null,"common":{"type":"pipeline_submarine"},"children":{"pipeline_submarine":{"category":"supply","product":"gas"}},"osm_tags":{"location":"underwater","man_made":"pipeline","operator":"Equinor","seamark:pipeline_submarine:category":"supply","seamark:pipeline_submarine:product":"gas","seamark:type":"pipeline_submarine","substance":"gas"}}},{"type":"Feature","geometry":{"type":"LineString","coordinates":[[3.6553877,60.573665],[3.6490925,60.5727261],[3.6477392,60.5725622],[3.6463658,60.5723264],[3.6410783,60.5715705],[3.6406569,60.5714828],[3.6404927,60.5714928],[3.6377294,60.5710658],[3.6367972,60.5709717],[3.6338328,60.5705098],[3.6325711,60.5703722],[3.6313994,60.5701712],[3.6263683,60.5694498],[3.6262411,60.5694592],[3.6262035,60.5694233],[3.6256012,60.5693633],[3.6223797,60.5688398],[3.61885,60.5683533],[3.6154466,60.5678303],[3.6151547,60.5678136],[3.6126115,60.5674122],[3.6123002,60.567369],[3.6121546,60.5673965],[3.6090263,60.5669081],[3.607838,60.5667608],[3.5998805,60.5655756],[3.5975752,60.5651908],[3.5882478,60.5638225],[3.5841503,60.5631672],[3.5829247,60.5629928],[3.5826516,60.563012],[3.5810419,60.5627409],[3.5797072,60.562567],[3.5790666,60.562435],[3.5783536,60.5623572],[3.5775669,60.5622169],[3.5771466,60.5621919],[3.5767436,60.5620859],[3.5751714,60.5618773],[3.5740374,60.5616845],[3.5597053,60.5597881],[3.5592847,60.5597],[3.5577858,60.5595089],[3.5533236,60.5588092],[3.5520628,60.5586526],[3.5511844,60.5584856],[3.5465411,60.5578133],[3.545133,60.5575767],[3.5444203,60.5574989],[3.5442553,60.5574456],[3.542427,60.5571659],[3.5340545,60.5559426],[3.5308933,60.5555331],[3.5307116,60.5555697],[3.5307655,60.5555244],[3.5306556,60.5554981],[3.5291397,60.5553603],[3.52267,60.5544701],[3.5193631,60.554052],[3.5133867,60.5531861],[3.5071905,60.5522311],[3.5022202,60.5515317],[3.5004289,60.551233],[3.5000819,60.5512164],[3.498382,60.5509356],[3.4925356,60.5501311],[3.4902328,60.5497534],[3.4854639,60.5490705],[3.4846961,60.5489298],[3.48413,60.5488781],[3.4778092,60.548012],[3.4664989,60.5462469],[3.4652208,60.5460901],[3.4637773,60.5458614],[3.4634125,60.5458539],[3.458425,60.5450989],[3.4537828,60.5442437],[3.4481706,60.5430955],[3.4441142,60.5423817],[3.4430003,60.5422239],[3.4420683,60.5420473],[3.4313661,60.5404842],[3.4211391,60.5389364],[3.4155154,60.538128],[3.4117372,60.5376998],[3.4098034,60.5375442],[3.4056062,60.5370992],[3.398597,60.5362225],[3.3956575,60.5357734],[3.395457,60.5357739],[3.3944705,60.5355881],[3.3909286,60.5350331],[3.3879533,60.5346106],[3.3811797,60.5335436],[3.3741703,60.532495],[3.3715236,60.5321253],[3.3686226,60.5317742],[3.3683122,60.5317303],[3.3682385,60.5316675],[3.3680194,60.5316323],[3.3617795,60.5308861],[3.361743,60.5308773],[3.3517995,60.5296828],[3.3490634,60.5293936],[3.3415466,60.5284703],[3.3395406,60.52826],[3.3388106,60.528145],[3.3369136,60.5279253],[3.3367863,60.5279617],[3.3353998,60.5277856],[3.3324636,60.5275145],[3.3284138,60.5270128],[3.3253847,60.5265175],[3.3197806,60.5254086],[3.30717,60.523095],[3.3031186,60.522305],[3.3004547,60.5218353],[3.2983011,60.5213911],[3.2979911,60.5213648],[3.297389,60.5212314],[3.2956191,60.5209481],[3.2890164,60.5199389],[3.2889798,60.5199392],[3.2863723,60.5195944],[3.2829066,60.5190634],[3.2816123,60.5189133],[3.2783297,60.5184445],[3.2778552,60.5183375],[3.2773995,60.5182937],[3.27594,60.5180364],[3.2738069,60.5177714],[3.2715453,60.5173989],[3.2711808,60.5173725],[3.2703964,60.5172217],[3.2702684,60.5171681],[3.2697945,60.5171331],[3.2691926,60.5170086],[3.2689739,60.517],[3.2688278,60.5169464],[3.2681897,60.5168759],[3.2666392,60.5165917],[3.2657092,60.5164678],[3.2646511,60.5162545],[3.2577231,60.5153253],[3.2501375,60.5141456],[3.2465831,60.5137031],[3.2421358,60.5132264],[3.2275764,60.5119772],[3.2251525,60.5117209],[3.2211245,60.5111889],[3.208147,60.5092883],[3.208092,60.5092794],[3.2041917,60.508675],[3.1982134,60.5076783],[3.1963545,60.5074117],[3.1737245,60.5044623],[3.1729048,60.5043198],[3.1671839,60.5035547],[3.1621558,60.5029414],[3.1620286,60.5029236],[3.1620465,60.5028339],[3.1615909,60.5027717],[3.1609717,60.5027184],[3.1594778,60.5025047],[3.1588584,60.5024786],[3.1578748,60.5023631],[3.1564539,60.5021403],[3.1504609,60.5013392],[3.1497138,60.5012681],[3.1400805,60.5000041],[3.1381115,60.4997273],[3.129497,60.4986225],[3.1257092,60.4982133],[3.1164392,60.4969556],[3.1095378,60.4960906],[3.1071158,60.4957514],[3.1070974,60.4956886],[3.1068606,60.4956439],[3.1044573,60.4953675],[3.1026181,60.4950725],[3.1007245,60.4948406],[3.0989946,60.4945725],[3.0922213,60.4937153],[3.0892362,60.4934212],[3.0875622,60.4933021],[3.085561,60.4931852],[3.0830285,60.493057],[3.0812814,60.4930312],[3.0798101,60.4930262],[3.0784062,60.4930239],[3.0764672,60.4930757],[3.0747335,60.4931544],[3.0731833,60.4932423],[3.0707449,60.4933964],[3.0679061,60.4936492],[3.0607553,60.4946133],[3.0563333,60.4951631],[3.0557147,60.4952531],[3.055642,60.4953247],[3.052112,60.49582],[3.0469076,60.4964687],[3.0423759,60.4970895],[3.0339315,60.4981695],[3.0267243,60.4992306],[3.0203864,60.5],[3.0159303,60.5005608],[3.0115797,60.5011809],[3.0092133,60.5014595],[3.0076842,60.5016839],[3.0030967,60.5022139],[2.9996198,60.5026897],[2.9989277,60.5027437],[2.9989095,60.5027798],[2.9962516,60.5031478],[2.9953958,60.5032283],[2.989752,60.5040272],[2.9882408,60.5041886],[2.9791553,60.5054355],[2.9754225,60.5058839],[2.9729097,60.5062248],[2.9701419,60.5065295],[2.9676652,60.5069239],[2.9650251,60.5072375],[2.9610915,60.5077931],[2.9489441,60.5094139],[2.9385808,60.5107923],[2.9288538,60.5120445],[2.8988489,60.5159756],[2.8946225,60.5165112],[2.8910875,60.5168853],[2.8888472,60.5170092],[2.8876042,60.5170545],[2.886789,60.5170703],[2.8848947,60.5170778],[2.8816708,60.5170119],[2.878885,60.51683],[2.8774469,60.516685],[2.8738969,60.5162058],[2.8716222,60.5157817],[2.8697661,60.5153578],[2.8651642,60.5140425],[2.8637894,60.5135695],[2.8628181,60.513223],[2.8607275,60.5123859],[2.8594372,60.511765],[2.8514811,60.5074109],[2.8479939,60.5055572],[2.8397869,60.5010134],[2.8362464,60.4991956],[2.8323058,60.4972784],[2.8290761,60.4953886],[2.8281689,60.4947947],[2.8271025,60.4940072],[2.8276309,60.493797],[2.8268942,60.4932225],[2.826858,60.4931184]]},"properties":{"osm_id":1118733048,"osm_type":"way","seamark_type":"pipeline_submarine","display_class":"OTHER","min_zoom":12,"importance":1,"name":null,"ref":null,"common":{"type":"pipeline_submarine"},"children":{},"osm_tags":{"location":"underwater","man_made":"pipeline","seamark:type":"pipeline_submarine"}}},{"type":"Feature","geometry":{"type":"Polygon","coordinates":[[[3.0375125,60.5395386],[3.0377555,60.539369],[3.0380142,60.539205],[3.038288,60.5390471],[3.0385763,60.5388956],[3.0388785,60.5387509],[3.039194,60.5386131],[3.0395222,60.5384826],[3.0398622,60.5383598],[3.0402134,60.5382448],[3.040575,60.5381378],[3.0409462,60.5380393],[3.0413264,60.5379492],[3.0417145,60.5378679],[3.0421099,60.5377955],[3.0425117,60.5377321],[3.042919,60.537678],[3.043331,60.5376331],[3.0437467,60.5375977],[3.0441653,60.5375717],[3.0445859,60.5375553],[3.0450075,60.5375484],[3.0454294,60.5375512],[3.0458506,60.5375635],[3.0462702,60.5375853],[3.0466872,60.5376167],[3.0471009,60.5376575],[3.0475103,60.5377077],[3.0479146,60.5377671],[3.0483128,60.5378356],[3.0487042,60.5379131],[3.0490879,60.5379995],[3.0494631,60.5380944],[3.0498289,60.5381978],[3.0501847,60.5383093],[3.0505296,60.5384288],[3.0508629,60.538556],[3.0511839,60.5386907],[3.051492,60.5388325],[3.0517863,60.5389812],[3.0520665,60.5391363],[3.0523317,60.5392977],[3.0525815,60.5394649],[3.0528154,60.5396377],[3.0530327,60.5398155],[3.0532332,60.5399981],[3.0534162,60.5401851],[3.0535816,60.540376],[3.0537288,60.5405704],[3.0538576,60.540768],[3.0539677,60.5409683],[3.0540589,60.5411709],[3.0541309,60.5413754],[3.0541837,60.5415812],[3.0542171,60.5417881],[3.0542311,60.5419955],[3.0542255,60.5422029],[3.0542005,60.5424101],[3.054156,60.5426164],[3.0540922,60.5428215],[3.0540093,60.5430249],[3.0539073,60.5432263],[3.0537865,60.5434251],[3.0536471,60.5436209],[3.0534896,60.5438134],[3.0533141,60.5440021],[3.0531211,60.5441865],[3.0529109,60.5443665],[3.0526841,60.5445414],[3.0524411,60.544711],[3.0521824,60.5448749],[3.0519086,60.5450328],[3.0516203,60.5451843],[3.0513181,60.545329],[3.0510026,60.5454668],[3.0506745,60.5455972],[3.0503344,60.54572],[3.0499833,60.545835],[3.0496216,60.5459419],[3.0492504,60.5460405],[3.0488703,60.5461305],[3.0484821,60.5462118],[3.0480867,60.5462842],[3.0476849,60.5463475],[3.0472776,60.5464016],[3.0468657,60.5464465],[3.04645,60.5464819],[3.0460314,60.5465079],[3.0456108,60.5465243],[3.0451891,60.5465311],[3.0447672,60.5465284],[3.044346,60.5465161],[3.0439265,60.5464942],[3.0435094,60.5464629],[3.0430957,60.5464221],[3.0426863,60.5463719],[3.0422821,60.5463125],[3.0418838,60.546244],[3.0414924,60.5461665],[3.0411087,60.5460802],[3.0407336,60.5459853],[3.0403677,60.545882],[3.0400119,60.5457705],[3.039667,60.545651],[3.0393337,60.5455238],[3.0390127,60.5453891],[3.0387047,60.5452474],[3.0384103,60.5450987],[3.0381302,60.5449436],[3.0378649,60.5447823],[3.0376151,60.5446151],[3.0373813,60.5444424],[3.0371639,60.5442645],[3.0369635,60.544082],[3.0367804,60.543895],[3.0366151,60.5437041],[3.0364678,60.5435097],[3.036339,60.5433121],[3.0362289,60.5431118],[3.0361377,60.5429093],[3.0360657,60.5427048],[3.0360129,60.542499],[3.0359795,60.5422921],[3.0359656,60.5420847],[3.0359711,60.5418773],[3.0359961,60.5416701],[3.0360406,60.5414638],[3.0361044,60.5412587],[3.0361874,60.5410552],[3.0362894,60.5408539],[3.0364101,60.5406551],[3.0365495,60.5404592],[3.0367071,60.5402667],[3.0368825,60.540078],[3.0370756,60.5398935],[3.0372857,60.5397136],[3.0375125,60.5395386]]]},"properties":{"osm_id":1120920146,"osm_type":"way","seamark_type":"restricted_area","display_class":"OTHER","min_zoom":12,"importance":1,"name":null,"ref":null,"common":{"type":"restricted_area"},"children":{"restricted_area":{"category":"safety"}},"osm_tags":{"seamark:restricted_area:category":"safety","seamark:type":"restricted_area"}}},{"type":"Feature","geometry":{"type":"Point","coordinates":[3.045098,60.54204]},"properties":{"osm_id":1042145927,"osm_type":"node","seamark_type":"platform","display_class":"OTHER","min_zoom":12,"importance":1,"name":"Brage","ref":null,"common":{"name":"Brage","type":"platform"},"children":{"light":{"character":"Mo","colour":"red","group":"U","period":"15"},"platform":{"category":"production"}},"osm_tags":{"aeroway":"helipad","icao":"ENQD","man_made":"offshore_platform","name":"Brage","note":"Lanterne","ref:kystverket":"1018op","scheduled":"no","seamark:light:character":"Mo","seamark:light:colour":"red","seamark:light:group":"U","seamark:light:period":"15","seamark:name":"Brage","seamark:platform:category":"production","seamark:type":"platform","source:ourairports":"OurAirports 2025-10-04"}}},{"type":"Feature","geometry":{"type":"LineString","coordinates":[[4.8420498,60.5439665],[4.8354864,60.5393853],[4.828856,60.5366941],[4.8212814,60.5337071],[4.8190069,60.5308782],[4.8115396,60.5281123],[4.8060035,60.5246916],[4.8006391,60.5231712],[4.7942447,60.5224743],[4.792099,60.5216296],[4.7899961,60.5184406],[4.7860479,60.516772],[4.7796535,60.5143007],[4.7748041,60.5130544],[4.7735166,60.5114489],[4.7694397,60.510794],[4.7657489,60.5092096],[4.7584962,60.5080899],[4.7486686,60.5056179],[4.7350215,60.503357],[4.7315024,60.4982008],[4.713993,60.4955379],[4.7025775,60.4946924],[4.6879005,60.4919869],[4.6783733,60.4896617],[4.6671294,60.4883087],[4.6525382,60.4878014],[3.9729295,60.4748192],[3.2821642,60.4592498],[2.7936169,60.4441805],[2.7730175,60.4401159],[2.758598,60.4355425],[2.7325055,60.4331708],[2.6731106,60.4330014],[2.6140591,60.4368976],[2.0640561,60.4824314],[2.0513531,60.4869982],[2.0412253,60.4980741],[2.0316122,60.502216],[2.0238875,60.5039909],[2.0157336,60.5054277]]},"properties":{"osm_id":637350364,"osm_type":"way","seamark_type":"cable_submarine","display_class":"OTHER","min_zoom":12,"importance":1,"name":"Kollsnes - Martin Linge","ref":null,"common":{"type":"cable_submarine"},"children":{"cable_submarine":{"category":"power"}},"osm_tags":{"location":"underwater","name":"Kollsnes - Martin Linge","power":"cable","seamark:cable_submarine:category":"power","seamark:type":"cable_submarine","voltage":"100000"}}},{"type":"Feature","geometry":{"type":"LineString","coordinates":[[2.5000001,61.0797065],[2.5125449,61.073461],[2.5155988,61.0720213],[2.5257824,61.0676916],[2.5341942,61.0641148],[2.5377978,61.0626507],[2.5394078,61.0621203],[2.5412618,61.0616114],[2.5619547,61.0565636],[2.5634409,61.056163],[2.5646785,61.0557784],[2.5657413,61.0554017],[2.56712,61.0548302],[2.5795198,61.0491276],[2.5906217,61.0440739],[2.5921339,61.0433979],[2.5936614,61.0427974],[2.5944895,61.0425189],[2.5955488,61.0422151],[2.6275647,61.0336157],[2.6290591,61.0331717],[2.6304615,61.0326773],[2.6403103,61.0285144],[2.6571172,61.0213142],[2.6737841,61.0142329],[2.6747709,61.013737],[2.6757828,61.0131593],[2.68242,61.0090561],[2.683559,61.0083716],[2.6855037,61.0072833],[2.687532,61.0062307],[2.6895807,61.0052567],[2.6913868,61.0044609],[2.6934522,61.003609],[2.6967973,61.0023579],[2.7028393,61.0003246],[2.7037481,61.0000001],[2.7058716,60.9992417],[2.7120564,60.9968105],[2.724641,60.9919432],[2.7344142,60.9879549],[2.7443947,60.9837854],[2.756794,60.9787624],[2.7743408,60.9715348],[2.7904657,60.9649911],[2.801113,60.961033],[2.810734,60.957393],[2.8220786,60.9532015],[2.8298294,60.9502626],[2.8396194,60.9466273],[2.8508203,60.942417],[2.8663569,60.9366746],[2.8801079,60.9314784],[2.8914903,60.9272707],[2.8978139,60.9248757],[2.8986186,60.9245314],[2.8991435,60.9243575],[2.9013956,60.9234839],[2.9130169,60.9191269],[2.9246265,60.914534],[2.9341961,60.9109007],[2.9453071,60.9066195],[2.9637498,60.8994044],[2.9755241,60.894883],[2.9899886,60.8892433],[3.0000001,60.8853109],[3.0136922,60.8799327],[3.0189487,60.8779198],[3.0244827,60.8758888],[3.0278475,60.8745424],[3.036118,60.871085],[3.043614,60.8679295],[3.0484646,60.8658465],[3.0681335,60.8578037],[3.1000535,60.8445343],[3.1108011,60.8404425],[3.1234321,60.8355576],[3.144264,60.8275975],[3.1545734,60.8236177],[3.1557006,60.8231498],[3.1576438,60.82244],[3.1584927,60.8220801],[3.1641988,60.8199026],[3.1725507,60.8166537],[3.1909596,60.8096329],[3.2143194,60.8006362],[3.2167049,60.7997449],[3.2232479,60.7974455],[3.2266272,60.7962049],[3.2469547,60.78861],[3.2848651,60.7746014],[3.2990731,60.7692815],[3.3239209,60.7600958],[3.3407185,60.7537988],[3.3435881,60.7525956],[3.3539269,60.7479876],[3.3687699,60.7413167],[3.374889,60.7385163],[3.3794861,60.736485],[3.4048714,60.7250739],[3.4094706,60.7230367],[3.4123707,60.7218584],[3.4142606,60.7211472],[3.4356119,60.7133962],[3.4387503,60.7121373],[3.4473539,60.7085297],[3.4494626,60.7076866],[3.4684963,60.7004605],[3.47719,60.697117],[3.4874813,60.6932557],[3.4907549,60.6921323],[3.4951075,60.6908084],[3.4987824,60.6898048],[3.5000001,60.6895033],[3.5033065,60.6886851],[3.5085395,60.687575],[3.5126587,60.6868036],[3.5222306,60.6851794],[3.5271442,60.6843775],[3.5396258,60.6822485],[3.5462019,60.6810938],[3.5616126,60.6781463],[3.5788939,60.6747664],[3.5943987,60.6718114],[3.5971666,60.6713579],[3.6004048,60.6709129],[3.6134092,60.6694125],[3.6170724,60.6689562],[3.6198905,60.6685457],[3.6328464,60.666365],[3.6660579,60.6606588],[3.6716844,60.6597795],[3.6756472,60.65929],[3.6796952,60.6588869],[3.6955312,60.657546],[3.757349,60.6521212],[3.7666875,60.651202],[3.7960818,60.6481988],[3.814605,60.6463579],[3.8257695,60.6451915],[3.8279154,60.6449421],[3.8318325,60.6444095],[3.8623154,60.6399376],[3.8817892,60.6369883],[3.9074477,60.6332063],[3.9294231,60.6298834],[3.9665663,60.6243716],[3.9782125,60.6228708],[3.9796522,60.6226608],[3.9844865,60.6220961],[3.9999512,60.6201588],[4.0,60.6201525],[4.0264809,60.6167551],[4.0506307,60.6137128],[4.0715386,60.6113236],[4.074582,60.6109049],[4.0875339,60.6089953],[4.1025315,60.6070729],[4.1068047,60.606451],[4.1643147,60.5970382],[4.1799869,60.5945013],[4.1983664,60.5914541],[4.2147496,60.5887992],[4.2290938,60.5864175],[4.2499999,60.5830033],[4.2671463,60.5802032],[4.289947,60.5765155],[4.3310486,60.5697504],[4.3315801,60.5696631],[4.3365224,60.5688496],[4.362546,60.5642867],[4.3818768,60.5609357],[4.3949227,60.5589265],[4.4116298,60.5564679],[4.4160414,60.5557918],[4.427955,60.5538293],[4.4516955,60.5498508],[4.479013,60.5453559],[4.4907887,60.5433649],[4.5000012,60.5416131],[4.5091535,60.5398728],[4.5196417,60.5378038],[4.5370868,60.5344207],[4.5593304,60.5301407],[4.5691263,60.5281747],[4.5748244,60.5269156],[4.5798835,60.5256914],[4.5844791,60.524503],[4.5907761,60.5227829],[4.5943037,60.5217579],[4.6061882,60.5180392],[4.6089585,60.5171576],[4.6095354,60.5169425],[4.6166189,60.5147107],[4.625001,60.5120272],[4.6332073,60.5094001],[4.635838,60.5086022],[4.63838,60.5078951],[4.6401249,60.5074373],[4.6423912,60.5068927],[4.6446563,60.5063947],[4.6464449,60.5060373],[4.6498158,60.5054473],[4.6522647,60.5050559],[4.6566275,60.5044292],[4.6596798,60.5040549],[4.6626564,60.5037601],[4.6675204,60.5034006],[4.6714926,60.503213],[4.6753518,60.503115],[4.6780504,60.5030984],[4.6822996,60.5031836],[4.6859008,60.503337],[4.689287,60.5035522],[4.6930915,60.5038897],[4.6964537,60.504268],[4.7007332,60.5048562],[4.7051913,60.5055352],[4.7104967,60.5063803],[4.7136979,60.5069371],[4.7168958,60.5075833],[4.7204621,60.5084058],[4.7235589,60.509188],[4.7264572,60.5100117],[4.7265741,60.5100397],[4.7266074,60.5100237],[4.7267097,60.5100829],[4.729093,60.5108122],[4.7313748,60.5115616],[4.7339118,60.5124671],[4.7372691,60.5137997],[4.7400668,60.5150278],[4.7414409,60.5156916],[4.7435289,60.5167684],[4.7462273,60.5182237],[4.7484404,60.5195335],[4.7485384,60.5196617],[4.7487862,60.5197364],[4.7495826,60.5201693],[4.749694,60.5202876],[4.7499994,60.5203977],[4.7500008,60.5203985],[4.7516791,60.5212401],[4.7517884,60.5213087],[4.751828,60.521397],[4.7521243,60.5214654],[4.7535866,60.5220939],[4.7552389,60.5226354],[4.7555846,60.5227804],[4.7575349,60.5233146],[4.7576177,60.523393],[4.7577808,60.5233937],[4.7581741,60.5234783],[4.7596773,60.5238622],[4.7617077,60.5242782],[4.7667625,60.5253911],[4.7690138,60.5258501],[4.773196,60.5266235],[4.774604,60.5269179],[4.7758063,60.5272157],[4.7787502,60.528038],[4.7798606,60.5284118],[4.7811228,60.5289219],[4.788008,60.5320857],[4.7893376,60.5327865],[4.7901947,60.5333197],[4.7910987,60.5339907],[4.7918476,60.5344816],[4.7928287,60.5349898],[4.7938696,60.5354238],[4.7955064,60.5360075],[4.797463,60.536889],[4.7986195,60.5373272],[4.7998757,60.537707],[4.8004896,60.5378592],[4.8026123,60.5383333],[4.8037722,60.5385924],[4.8048115,60.5387624],[4.8068345,60.5389885],[4.8075891,60.5391034],[4.8087016,60.5393101],[4.8116889,60.5399526],[4.8127323,60.5401289],[4.8162495,60.5406387],[4.8179363,60.5409725],[4.8188131,60.5412215],[4.819969,60.5416816],[4.8208036,60.5420991],[4.8223086,60.5429505]]},"properties":{"osm_id":1118096582,"osm_type":"way","seamark_type":"pipeline_submarine","display_class":"OTHER","min_zoom":12,"importance":1,"name":"Kvitebjørn Gas Export","ref":null,"common":{"name":"Kvitebjørn Gas Export","type":"pipeline_submarine"},"children":{"pipeline_submarine":{"category":"supply","product":"gas"}},"osm_tags":{"diameter":"762","location":"underwater","man_made":"pipeline","name":"Kvitebjørn Gas Export","operator":"Gassco","seamark:name":"Kvitebjørn Gas Export","seamark:pipeline_submarine:category":"supply","seamark:pipeline_submarine:product":"gas","seamark:type":"pipeline_submarine","substance":"gas","usage":"transmission"}}},{"type":"Feature","geometry":{"type":"LineString","coordinates":[[2.5069427,61.0786311],[2.5271129,61.0742309],[2.5415324,61.0731515],[2.5687407,61.0729025],[2.5905417,61.0690828],[2.6205824,61.0660931],[2.6535414,61.0670066],[2.6992033,61.062854],[2.7350805,61.0567071],[3.0545422,61.0225452],[3.1558224,61.0112328],[3.3044812,60.9980855],[3.4119412,60.987264],[3.5156247,60.9764388],[3.55957,60.9724409],[3.6055752,60.9671096],[3.6254879,60.9631105],[3.7525174,60.9294315],[3.8846966,60.8950489],[4.0498781,60.8508686]]},"properties":{"osm_id":637286674,"osm_type":"way","seamark_type":"pipeline_submarine","display_class":"OTHER","min_zoom":12,"importance":1,"name":"Kvitebjørn gas condensate","ref":null,"common":{"name":"Kvitebjørn gas condensate","type":"pipeline_submarine"},"children":{"pipeline_submarine":{"category":"supply","product":"gas"}},"osm_tags":{"diameter":"406","location":"underwater","man_made":"pipeline","name":"Kvitebjørn gas condensate","operator":"Equinor","seamark:name":"Kvitebjørn gas condensate","seamark:pipeline_submarine:category":"supply","seamark:pipeline_submarine:product":"gas","seamark:type":"pipeline_submarine","source":"NPD","substance":"gas"}}},{"type":"Feature","geometry":{"type":"LineString","coordinates":[[2.8268786,60.4913184],[2.8271664,60.4914045],[2.8269689,60.4917842],[2.8270461,60.4918475],[2.8362583,60.493162],[2.8409692,60.4937423],[2.8482086,60.4946486],[2.8512825,60.4950561],[2.8553392,60.4956261],[2.8607052,60.4963503],[2.8649258,60.4969112],[2.8703472,60.4975989],[2.8730031,60.4979336],[2.8774406,60.4985061],[2.8857955,60.4997803],[2.8954106,60.5009883],[2.9050947,60.502265],[2.9076808,60.5026373],[2.9137874,60.5034248],[2.9166009,60.5038298],[2.9287195,60.5054398],[2.9361503,60.5062925],[2.9428245,60.5069775],[2.9447439,60.5071011],[2.9477097,60.5071869],[2.9531536,60.5072248],[2.956613,60.5071719],[2.9583247,60.5070917],[2.9596903,60.5069933],[2.9612384,60.5068322],[2.967557,60.5060081],[2.9690139,60.5058017],[2.9690686,60.5057658],[2.9720366,60.5054075],[2.9753143,60.5049322],[2.9783547,60.5046006],[2.9805213,60.5043225],[2.9957422,60.5022767],[3.0005665,60.5017111],[3.0031148,60.5013609],[3.0067375,60.5009298],[3.0090311,60.5006064],[3.0111971,60.5003639],[3.017459,60.4994564],[3.0254495,60.4983778],[3.0308548,60.4977212],[3.0395178,60.4965517],[3.0486351,60.4953995],[3.0521653,60.4948684],[3.0578969,60.4941117],[3.0619909,60.4934995],[3.0667216,60.4928597],[3.0695055,60.4925531],[3.0729628,60.4922817],[3.0763115,60.4921361],[3.0807333,60.4920886],[3.0836999,60.4921587],[3.0865941,60.4923006],[3.0896703,60.492532],[3.0912906,60.4927103],[3.1043818,60.4944158],[3.1069127,60.4947908],[3.1121569,60.4954778],[3.1217714,60.4966725],[3.135303,60.4985092],[3.1604209,60.5017406],[3.1679078,60.502737],[3.1762334,60.5037497],[3.180679,60.5043634],[3.1972413,60.5065125],[3.2049498,60.5076234],[3.2095428,60.5083436],[3.2149753,60.5092506],[3.2192958,60.5100158],[3.2221031,60.51046],[3.2271514,60.5110531],[3.232216,60.5114036],[3.2355312,60.5115056],[3.23839,60.5115006],[3.2474017,60.5111967],[3.2526273,60.5110792],[3.2547387,60.5109675],[3.257597,60.5108812],[3.2585795,60.5107894],[3.2593441,60.5107789],[3.2629477,60.5105656],[3.2678072,60.5102325],[3.2681895,60.5102586],[3.2699915,60.5101294],[3.2711928,60.510082],[3.2930498,60.5087069],[3.2965812,60.5085645],[3.2972183,60.5085811],[3.2991301,60.508532],[3.3020983,60.508588],[3.3061425,60.5087764],[3.3133575,60.5092267],[3.3168179,60.5092992],[3.3204592,60.5092456],[3.3240628,60.5090842],[3.3269009,60.5088259],[3.3306103,60.5083231],[3.3334636,60.5078042],[3.3357164,60.5073137],[3.3390413,60.5066589],[3.3430588,60.5060381],[3.3466784,60.5056964],[3.3497536,60.5055178],[3.3519739,60.50544],[3.3544678,60.5054067],[3.3578186,60.5054695],[3.3620637,60.5057095],[3.3648336,60.5059534],[3.3701758,60.5066119],[3.3729278,60.5068467],[3.3762072,60.5070081],[3.3813795,60.5071192],[3.3843295,60.5071375],[3.3848031,60.5071723],[3.3856405,60.5071609],[3.3912314,60.5072611],[3.3963317,60.5074167],[3.3988444,60.5074272],[3.4025761,60.507353],[3.4066159,60.5071434],[3.4087626,60.5069933],[3.4123451,60.5066589],[3.4153627,60.5062814],[3.4183448,60.5059848],[3.4213094,60.5057512],[3.4234206,60.5056725],[3.4257326,60.5056383],[3.431687,60.5056909],[3.4378045,60.5056889],[3.445503,60.5054839],[3.4503275,60.5054498],[3.454277,60.5053467],[3.4593539,60.5051406],[3.4640312,60.5050167],[3.4697447,60.5047814],[3.4757869,60.5046161],[3.4852311,60.5042951],[3.4910374,60.5042019],[3.4912922,60.5041739],[3.4934589,60.5041839],[3.5027836,60.5043736],[3.507408,60.5043919],[3.5102838,60.5043453],[3.513068,60.5042447],[3.5160877,60.5040714],[3.5182874,60.5038745],[3.5247983,60.5034539],[3.52911,60.5032753],[3.5349516,60.5031353],[3.5404284,60.5029337],[3.5459575,60.5026058],[3.5542297,60.5019522],[3.5583028,60.5016747],[3.5616858,60.50149],[3.5656522,60.5013386],[3.577408,60.5011176],[3.588108,60.5008553],[3.5997013,60.500705],[3.629038,60.5002378],[3.634118,60.5002856],[3.6373785,60.5003959],[3.6414244,60.5006098],[3.647203,60.501004],[3.6507195,60.5011483],[3.6670944,60.5015883],[3.6739964,60.5016705],[3.6787826,60.5015922],[3.6819294,60.5014686],[3.6897112,60.5009975],[3.6906919,60.5009028],[3.6948014,60.5006659],[3.696839,60.5006014],[3.69751,60.5004811],[3.701876,60.5003684],[3.7058985,60.5003114],[3.7168037,60.5003339],[3.7259809,60.5004281],[3.7383608,60.5004769],[3.7444223,60.5004433],[3.7519023,60.5003475],[3.7552519,60.5003556],[3.7607303,60.5002975],[3.7610589,60.5003403],[3.7621139,60.5002983],[3.7702666,60.5001797],[3.7752542,60.5001509],[3.7792784,60.5002084],[3.7849631,60.5003994],[3.7947141,60.5008806],[3.7995976,60.5010489],[3.8023655,60.5010862],[3.8134167,60.5011181],[3.8153092,60.5010795],[3.8189145,60.5011025],[3.8219717,60.5010566],[3.8356508,60.5006306],[3.8475486,60.5003131],[3.8509313,60.5001836],[3.877675,60.4995437],[3.8975686,60.4994023],[3.9049756,60.4993164],[3.9140583,60.4992814],[3.9147312,60.49925],[3.9239772,60.4991953],[3.931747,60.4990694],[3.937207,60.4990222],[3.9416689,60.4990895],[3.9471555,60.4993381],[3.9502202,60.4995497],[3.9528489,60.4997914],[3.9550036,60.5000184],[3.9585304,60.50046],[3.9596647,60.5006583],[3.9626988,60.5010675],[3.9671249,60.5017539],[3.9715919,60.5025744],[4.0033431,60.5092773],[4.0082625,60.5103981],[4.0349242,60.5159919],[4.0524561,60.5188895],[4.0616433,60.52024],[4.0733231,60.5221864],[4.1114797,60.5293698],[4.1609695,60.538778],[4.2259781,60.5507381],[4.2346288,60.5522464],[4.2397375,60.5529911],[4.2440461,60.5535089],[4.2502106,60.5540966],[4.2554026,60.5544162],[4.3379791,60.5570904],[4.4568442,60.5611603],[4.5910834,60.5647037],[4.6793174,60.5679514],[4.7020625,60.5684153],[4.7093581,60.5688793],[4.7165679,60.5699758],[4.7238635,60.5719579],[4.7308158,60.5741929],[4.7355794,60.5763645],[4.739871,60.5785359],[4.74442,60.5810024],[4.7471881,60.5829311],[4.750278,60.5851232]]},"properties":{"osm_id":1118733032,"osm_type":"way","seamark_type":"pipeline_submarine","display_class":"OTHER","min_zoom":12,"importance":1,"name":"Oseberg oil transport","ref":null,"common":{"name":"Oseberg oil transport","type":"pipeline_submarine"},"children":{"pipeline_submarine":{"category":"supply","product":"oil"}},"osm_tags":{"diameter":"533","location":"underwater","man_made":"pipeline","name":"Oseberg oil transport","operator":"Equinor","seamark:name":"Oseberg oil transport","seamark:pipeline_submarine:category":"supply","seamark:pipeline_submarine:product":"oil","seamark:type":"pipeline_submarine","substance":"oil","usage":"transmission","wikidata":"Q7106460"}}},{"type":"Feature","geometry":{"type":"LineString","coordinates":[[1.8290681,61.2056758],[1.8471545,61.1821201],[1.8493793,61.1789027],[1.8621717,61.1665218],[1.8774669,61.1590999],[1.9504205,61.1307374],[2.0584604,61.0717836],[2.076861,61.0615586],[2.1067562,61.0445768],[2.7810438,60.6678068],[2.8959991,60.5599853],[2.9234284,60.5336585],[3.001295,60.487479],[3.135893,60.4096649],[3.1512809,60.4006004],[3.1651856,60.3946475],[3.1844669,60.3897013],[3.3503149,60.3767936],[3.3637045,60.3752662],[3.3758925,60.371787],[3.3875654,60.365761],[3.4383772,60.3334907],[3.5101315,60.2692799],[3.5784527,60.2203782],[3.6103817,60.2051987],[3.7806698,60.0913853],[3.7964627,60.0826536],[3.8321682,60.0651833],[3.8922497,60.0243832],[4.0972134,59.8885926],[4.1336056,59.8611953],[4.20742,59.8101313],[4.2719647,59.7697077],[4.3777081,59.6994548],[4.4151303,59.6746753],[4.4686886,59.6477958],[4.4837948,59.6365173],[4.5366667,59.5828493],[4.5502279,59.5758088],[4.5697973,59.5671147],[4.5967482,59.5556352],[4.6085928,59.549807],[4.6207808,59.5404101],[4.6686743,59.49905],[4.6791456,59.4881574],[4.6942518,59.4631345],[4.7057532,59.452841],[4.7222326,59.4442025],[4.9320157,59.3456619],[4.9488868,59.3387608],[4.9648309,59.334506],[4.980775,59.332142],[5.0269387,59.3271298],[5.0421413,59.3264204],[5.051651,59.3265018],[5.0595474,59.3270381],[5.0673552,59.3278864],[5.0792206,59.329967],[5.0951647,59.3325203],[5.1146777,59.3358534],[5.1234377,59.3368226],[5.1333564,59.3372953],[5.1415602,59.3371299],[5.1463128,59.3367692],[5.1491749,59.3365092],[5.1583984,59.3351736],[5.1664632,59.3340389],[5.170623,59.3334361],[5.1727087,59.3332411],[5.1742498,59.3331406],[5.1765093,59.3331406],[5.1814687,59.3334006],[5.1927339,59.3345007],[5.1944932,59.3346764]]},"properties":{"osm_id":174152606,"osm_type":"way","seamark_type":"pipeline_submarine","display_class":"OTHER","min_zoom":12,"importance":1,"name":"Statpipe","ref":null,"common":{"name":"Statpipe","type":"pipeline_submarine"},"children":{"pipeline_submarine":{"category":"supply","product":"gas"}},"osm_tags":{"diameter":"762","location":"underwater","man_made":"pipeline","name":"Statpipe","operator":"Gassco","seamark:name":"Statpipe","seamark:pipeline_submarine:category":"supply","seamark:pipeline_submarine:product":"gas","seamark:type":"pipeline_submarine","source":"Gassco","substance":"gas","usage":"transmission","wikidata":"Q4579273"}}},{"type":"Feature","geometry":{"type":"LineString","coordinates":[[2.8243762,60.4914715],[2.8239231,60.4914536],[2.8234904,60.4913849],[2.8220315,60.4908521],[2.8209125,60.4906661],[2.8199167,60.4904467],[2.8195368,60.4903243],[2.8195167,60.4901967],[2.8196756,60.4899875],[2.8196119,60.4899047],[2.8181791,60.4897903],[2.8147395,60.4892081],[2.8125427,60.4889206],[2.8067866,60.488084],[2.8054115,60.4878494],[2.7950314,60.4863584],[2.7924907,60.4860308],[2.7891645,60.4855673],[2.7879095,60.4854309],[2.7859622,60.4852987],[2.7835872,60.4852423],[2.7805885,60.4852956],[2.7777092,60.4854986],[2.7760863,60.4856819],[2.7744341,60.4859251],[2.7724257,60.4862925],[2.7710223,60.4866016],[2.7699923,60.4868764],[2.7689409,60.4871724],[2.7679217,60.4874842],[2.76671,60.4879275],[2.7656472,60.4883616],[2.7647763,60.4887412],[2.7633315,60.4894213],[2.7617868,60.4903032],[2.7571916,60.4927907],[2.7544604,60.4941711],[2.7482624,60.4975105],[2.7446634,60.4993484],[2.731669,60.506284],[2.7278542,60.5083883],[2.7246522,60.5108363],[2.7214336,60.5127164],[2.7188382,60.5141375],[2.7153825,60.5156737],[2.7101415,60.5178554],[2.7071735,60.5193739],[2.7055089,60.5203255],[2.7041249,60.5210393],[2.7020767,60.5221815],[2.6983072,60.5240627],[2.6947178,60.5260915],[2.6914815,60.5277942],[2.6872987,60.5299787],[2.6839298,60.5317941],[2.6830156,60.5322943],[2.6823484,60.5329811],[2.6820072,60.5334925],[2.6818968,60.533802],[2.6811313,60.5373723],[2.6810621,60.5380444],[2.6807529,60.539156],[2.6801893,60.5418337],[2.6801752,60.5425965],[2.6798466,60.5436148],[2.6798183,60.5441976],[2.6795921,60.5445857],[2.6794983,60.5449417],[2.679413,60.5460171],[2.6797711,60.5468507],[2.6804188,60.5475925],[2.6811524,60.5486069],[2.6825873,60.550256],[2.6831163,60.5510667],[2.6837686,60.5517586],[2.6846243,60.5529897],[2.6858068,60.5543508],[2.6886695,60.55804],[2.6911974,60.5610694],[2.6924507,60.5628021],[2.6942211,60.564966],[2.6944905,60.5654412],[2.6956172,60.566618],[2.6963091,60.5675905],[2.696618,60.5677534],[2.6968425,60.5679481],[2.6972847,60.5686791],[2.6979835,60.5695072],[2.6995315,60.5716633],[2.7003648,60.5725608],[2.7016657,60.574237],[2.7022948,60.574884],[2.7026963,60.5756202],[2.7031228,60.5762121],[2.7048964,60.5783251],[2.7081681,60.582309],[2.7131969,60.5888081],[2.7169983,60.5935641],[2.7198265,60.5972026],[2.7218441,60.5996945],[2.7250854,60.6037756],[2.7282217,60.60764],[2.7305703,60.6104599],[2.7338653,60.6146781],[2.7358256,60.6171905],[2.7400025,60.6224478],[2.7430362,60.6261514],[2.745789,60.6296485],[2.7467701,60.6308081],[2.748899,60.6335302],[2.7507924,60.635815],[2.7535019,60.6393401],[2.7541066,60.639993],[2.7549656,60.6411275],[2.7571954,60.6438271],[2.7596471,60.6469077],[2.7614104,60.6491205],[2.7652861,60.6539039],[2.7682301,60.6575759],[2.7696416,60.6595199],[2.7718936,60.662265],[2.7735051,60.6642658],[2.7751381,60.6663593],[2.7760017,60.6674443],[2.7783645,60.6704443],[2.7805762,60.6730448],[2.7854283,60.6791389],[2.7875641,60.6819084],[2.7896901,60.6845331],[2.7911015,60.686238],[2.7921894,60.6877146],[2.7950769,60.691202],[2.8014059,60.699177],[2.8027954,60.7008831],[2.8060122,60.7048874],[2.8090474,60.7085755],[2.812665,60.7130349],[2.8151827,60.7161632],[2.8183391,60.7200858],[2.8216967,60.7242088],[2.8236611,60.7267706],[2.825186,60.7286936],[2.8275602,60.7317034],[2.8321356,60.7372782],[2.835733,60.7416489],[2.8384096,60.7450376],[2.8410613,60.7485259],[2.8437666,60.7517648],[2.8486935,60.7579012],[2.8499818,60.759477],[2.8516019,60.7616119],[2.856399,60.7674342],[2.8594416,60.7712794],[2.863411,60.7763921],[2.8646367,60.7782587],[2.8672229,60.7821403],[2.868105,60.7836502],[2.869436,60.7856089],[2.8705251,60.7869884],[2.8710818,60.7876042],[2.8725123,60.7890551],[2.8729447,60.7894511],[2.8739087,60.7901616],[2.8745141,60.7904991],[2.8747853,60.7906194],[2.8753442,60.7907734],[2.8758525,60.7910313],[2.8769673,60.7918508],[2.8775351,60.7922437],[2.8795498,60.7933462],[2.8810812,60.7939176],[2.8839797,60.7948658],[2.8846635,60.7949957],[2.8903409,60.7957353],[2.8908845,60.7957733],[2.8967448,60.7955632],[2.898007,60.7954481],[2.8989561,60.7952814],[2.8995044,60.7952671],[2.9035204,60.7947993],[2.9040397,60.7947089],[2.9092037,60.7935379],[2.9131103,60.7925451],[2.9150972,60.7922005],[2.9179432,60.7917643],[2.9208236,60.7913331],[2.9231782,60.7909914],[2.9243346,60.7908469],[2.9271267,60.7904063],[2.9283563,60.7901042],[2.9296372,60.7898577],[2.9308986,60.7897381],[2.9321974,60.7895172],[2.9337944,60.7893111],[2.9377006,60.7886575],[2.9418334,60.7880673],[2.9466104,60.7872769],[2.9478447,60.7869815],[2.9493033,60.7867135],[2.9508186,60.7862973],[2.9524221,60.78597],[2.9542924,60.7857468],[2.9574513,60.7852968],[2.959169,60.7851555],[2.9628897,60.7846724],[2.9688557,60.7837133],[2.9730273,60.783029],[2.9795712,60.782004],[2.9852959,60.781043],[2.9890715,60.7803656],[2.9900831,60.7801526],[2.9967264,60.7789867],[3.0111921,60.7767076],[3.0208824,60.7753461],[3.0256922,60.7746355],[3.0330033,60.7736377],[3.0397668,60.7726647],[3.0439228,60.772105],[3.0483389,60.7715234],[3.0522031,60.7709745],[3.0564105,60.7703837],[3.0603156,60.7697499],[3.062366,60.7693574],[3.0640264,60.7690979],[3.0722217,60.7676509],[3.0773553,60.766817],[3.0789411,60.7665915],[3.0828535,60.7659477],[3.0834366,60.7658166],[3.0856581,60.7655398],[3.0890177,60.7649386],[3.0912307,60.7646437],[3.092588,60.7643715],[3.0960789,60.7638215],[3.0974219,60.763533],[3.099302,60.7633366],[3.1012415,60.7629314],[3.1023907,60.7627795],[3.1040899,60.7624435],[3.1049855,60.7623468],[3.1068234,60.7620682],[3.1088006,60.7617096],[3.1110008,60.7613969],[3.1119169,60.7611915],[3.1127251,60.7611098],[3.113781,60.7609578],[3.1143697,60.7608344],[3.1151757,60.7607496],[3.1158363,60.7605949],[3.1167066,60.7604529],[3.118394,60.7602408],[3.1200135,60.7599289],[3.1249233,60.7591943],[3.1283643,60.7585771],[3.130152,60.7583782],[3.1314159,60.7580181],[3.1328619,60.7579019],[3.1336187,60.7577414],[3.1350272,60.7575395],[3.1360533,60.7573449],[3.1407936,60.7566465],[3.143405,60.7560996],[3.1444777,60.7559835],[3.145698,60.75579],[3.1464248,60.7557432],[3.1473934,60.7556051],[3.149067,60.755241],[3.1511825,60.7549436],[3.1541268,60.7544455],[3.1565165,60.7541351],[3.1589317,60.7537136],[3.1604293,60.7535056],[3.16595,60.7525457],[3.1674462,60.7523482],[3.1680205,60.7522096],[3.1698282,60.751894],[3.172127,60.7515886],[3.1745092,60.7511311],[3.1760306,60.7509788],[3.1783385,60.7505554],[3.1812168,60.75011],[3.1823195,60.7498899],[3.1827696,60.7498476],[3.1836154,60.7496749],[3.1855337,60.7493829],[3.1858628,60.7493037],[3.1873426,60.7490665],[3.1885867,60.7489182],[3.189173,60.7487919],[3.1900185,60.7485234],[3.1915509,60.7482332],[3.1929541,60.7478105],[3.1964265,60.7470077],[3.1995033,60.746578],[3.2039103,60.7458241],[3.2058579,60.7455773],[3.2073959,60.7452873],[3.2137164,60.7442243],[3.2181805,60.7435575],[3.2239957,60.7426078],[3.2271969,60.7419676],[3.2301923,60.7412101],[3.2344058,60.7401329],[3.2347666,60.739932],[3.2354129,60.7393899],[3.2369602,60.7384469],[3.238797,60.7381777],[3.2412685,60.7382007],[3.2425419,60.7382614],[3.2449197,60.7382779],[3.246561,60.7383367],[3.2527076,60.7379174],[3.2538959,60.737688],[3.2546094,60.7376053],[3.2567673,60.7372328],[3.2579164,60.7370799],[3.2601535,60.7366824],[3.2620871,60.7364052],[3.2625867,60.7362927],[3.2647001,60.7360011],[3.2655376,60.7358213],[3.2671867,60.7355502],[3.2680759,60.7354436],[3.2705043,60.73504],[3.2719355,60.7347388],[3.2730606,60.7345478],[3.2778016,60.7338606],[3.280746,60.7333626],[3.2815421,60.7332572],[3.2821817,60.7332446],[3.2835383,60.7331358],[3.2856576,60.7328734],[3.2862967,60.7328677],[3.2870028,60.732775],[3.2874605,60.7327753],[3.2879891,60.7327057],[3.2886283,60.7326908],[3.2899298,60.7324765],[3.290748,60.7322755],[3.2917449,60.7322074],[3.2925382,60.7320972],[3.2936614,60.7319072],[3.2979606,60.7310275],[3.3007623,60.730375],[3.3036381,60.7297972],[3.3060381,60.7293543],[3.3109411,60.7283654],[3.3153992,60.7274468],[3.3193599,60.7266237],[3.3221718,60.7262216],[3.3280611,60.7252307],[3.3298124,60.7249669],[3.3313082,60.7247558],[3.3318526,60.7247372],[3.3400808,60.7235054],[3.350317,60.7218591],[3.3534316,60.7213415],[3.360183,60.7202064],[3.3633382,60.7196036],[3.3649242,60.7192525],[3.3725872,60.7181222],[3.3780698,60.7172645],[3.3863434,60.7158565],[3.3948949,60.7143231],[3.4011089,60.7131569],[3.4033111,60.7127148],[3.4040231,60.7126315],[3.4045715,60.7126184],[3.4063082,60.712673],[3.4100624,60.7126783],[3.4120084,60.712433],[3.414519,60.7120173],[3.4175223,60.711499],[3.4215596,60.7105604],[3.4248187,60.7098572],[3.4266372,60.7094443],[3.4323346,60.7082221],[3.4341398,60.7080809],[3.4380627,60.7079178],[3.4392278,60.7078002],[3.4410381,60.7075377],[3.4428597,60.707186],[3.4445632,60.7068561],[3.4465662,60.7065384],[3.449141,60.7060693],[3.4504935,60.7057933],[3.4565442,60.70476],[3.4578692,60.7045831],[3.4631851,60.7041103],[3.465766,60.703804],[3.4668723,60.7035895],[3.4688762,60.703047],[3.4720836,60.7022775],[3.4765984,60.7013176],[3.4814775,60.7004081],[3.4874861,60.6994507],[3.4890172,60.6991523],[3.4912996,60.6988239],[3.4984715,60.6975933],[3.5016898,60.6970764],[3.5037498,60.6967012],[3.5081795,60.6959787],[3.5093402,60.6958503],[3.5110744,60.6957897],[3.512782,60.6956277],[3.5138365,60.6954766],[3.5144307,60.6953595],[3.5162074,60.6948947],[3.5176541,60.6946137],[3.5188736,60.6944212],[3.5200519,60.6941739],[3.5249076,60.6933717],[3.5265379,60.6930758],[3.527447,60.6928641],[3.5287891,60.6927294],[3.5316447,60.6922491],[3.5325556,60.6922071],[3.5341113,60.6922069],[3.5357409,60.6920874],[3.5370821,60.6919433],[3.5377209,60.6919215],[3.5395752,60.6916752],[3.54332,60.6912513],[3.547578,60.6901127],[3.5488054,60.6897217],[3.5522373,60.6889836],[3.5540005,60.6887488],[3.5567551,60.6882633],[3.5574818,60.6880743],[3.5581833,60.6879717],[3.5590225,60.6877016],[3.5604938,60.6874598],[3.5634531,60.6865639],[3.5642772,60.6863688],[3.5650469,60.6862247],[3.5664578,60.6860335],[3.5743244,60.6846961],[3.5760669,60.6844228],[3.5801489,60.6841741],[3.5829345,60.6839186],[3.5933771,60.6824123],[3.5969411,60.6824332],[3.5980124,60.6823194],[3.6004008,60.6818656],[3.6020683,60.6816244],[3.6037914,60.6813227],[3.6105033,60.6794003],[3.6110055,60.679292],[3.6149758,60.678608],[3.616986,60.6783049],[3.6174398,60.6782787],[3.6201837,60.678288],[3.6208106,60.6782296],[3.625221,60.6769519],[3.6269326,60.6765235],[3.6300715,60.6756031],[3.6358192,60.6750725],[3.6373299,60.6748922],[3.6399457,60.6746802],[3.6441481,60.6742423],[3.648282,60.6731864],[3.6512918,60.672811],[3.6524415,60.6725344],[3.6590442,60.6712109],[3.6642093,60.6699601],[3.665508,60.6697447],[3.6680924,60.6694659],[3.6699213,60.6691827],[3.672601,60.6688953],[3.6734612,60.6687432],[3.6759697,60.6681991],[3.6769341,60.6680621],[3.6784253,60.6677238],[3.6795863,60.6676017],[3.6816237,60.6672016],[3.6840377,60.6669545],[3.6857097,60.6667301],[3.6871644,60.6666588],[3.6880894,60.6664712],[3.6893597,60.6664067],[3.6904292,60.6661528],[3.691707,60.665908],[3.6956315,60.6653084],[3.6992525,60.6644482],[3.7018259,60.6639837],[3.7027986,60.6638594],[3.7040908,60.6636345],[3.7055246,60.663339],[3.7067475,60.6631559],[3.7073332,60.6630298],[3.7108517,60.6625411],[3.7122663,60.6622273],[3.7142294,60.6618614],[3.7147911,60.6617122],[3.7179165,60.6613759],[3.7209704,60.6607817],[3.7236909,60.6603917],[3.7266257,60.6598898],[3.7282784,60.6594115],[3.7290458,60.6592666],[3.7310083,60.6590525],[3.7329788,60.6586919],[3.7359804,60.6582953],[3.7377286,60.6580325],[3.7391844,60.6577647],[3.7410016,60.6573416],[3.7420215,60.657043],[3.7430928,60.6566236],[3.7467464,60.6549297],[3.7472905,60.6545689],[3.7482067,60.6538445],[3.7498138,60.6523322],[3.7503074,60.6517525],[3.7507337,60.651357],[3.7511206,60.6508548],[3.7510891,60.6501838],[3.7505296,60.6495702],[3.7503164,60.6494245],[3.749773,60.6491848],[3.7485761,60.6488585],[3.7451373,60.6482544],[3.7444157,60.6482019],[3.7426799,60.6479214],[3.7403632,60.6476614],[3.7393445,60.6474631],[3.7381914,60.6473219],[3.7359365,60.6469538],[3.7348716,60.6468243],[3.7339623,60.6466156],[3.7316598,60.6463288],[3.7311146,60.6463422],[3.7306905,60.6464219],[3.7300353,60.6466657],[3.7293215,60.6470743],[3.7289363,60.6471939],[3.7275834,60.6472957],[3.7272207,60.6472834],[3.7255519,60.6470492],[3.7246285,60.646854],[3.7242659,60.6467192],[3.7240546,60.6465215],[3.7240337,60.6463434],[3.7244651,60.6457055]]},"properties":{"osm_id":1118733011,"osm_type":"way","seamark_type":"cable_submarine","display_class":"OTHER","min_zoom":12,"importance":1,"name":"Tampnet","ref":null,"common":{"type":"cable_submarine"},"children":{"cable_submarine":{"category":"fibre_optic"}},"osm_tags":{"communication":"line","location":"underwater","name":"Tampnet","operator":"Tampnet","seamark:cable_submarine:category":"fibre_optic","seamark:type":"cable_submarine","submarine":"yes","website":"https://www.tampnet.com/"}}},{"type":"Feature","geometry":{"type":"Point","coordinates":[3.7248112,60.6451321]},"properties":{"osm_id":1042145924,"osm_type":"node","seamark_type":"platform","display_class":"OTHER","min_zoom":12,"importance":1,"name":"Troll A","ref":null,"common":{"name":"Troll A","type":"platform"},"children":{"light":{"character":"Fl"},"platform":{"category":"production"}},"osm_tags":{"aeroway":"helipad","icao":"ENQA","man_made":"offshore_platform","name":"Troll A","note":"Lanterne","ref:kystverket":"1092op","scheduled":"no","seamark:light:character":"Fl","seamark:name":"Troll A","seamark:platform:category":"production","seamark:type":"platform","source:ourairports":"OurAirports 2025-10-04"}}},{"type":"Feature","geometry":{"type":"Point","coordinates":[3.50139,60.7738991]},"properties":{"osm_id":1042145925,"osm_type":"node","seamark_type":"platform","display_class":"OTHER","min_zoom":12,"importance":1,"name":"Troll B","ref":null,"common":{"name":"Troll B","type":"platform"},"children":{"platform":{"category":"production"}},"osm_tags":{"aeroway":"helipad","icao":"ENQB","man_made":"offshore_platform","name":"Troll B","scheduled":"no","seamark:name":"Troll B","seamark:platform:category":"production","seamark:type":"platform","source:ourairports":"OurAirports 2025-10-04"}}},{"type":"Feature","geometry":{"type":"Point","coordinates":[3.5014831,60.7738718]},"properties":{"osm_id":5326009461,"osm_type":"node","seamark_type":"platform","display_class":"OTHER","min_zoom":12,"importance":1,"name":"Troll B","ref":null,"common":{"name":"Troll B","type":"platform"},"children":{"light":{"character":"Fl","colour":"red","range":"3"},"platform":{"category":"production"}},"osm_tags":{"note":"Lanterne","ref:kystverket":"1014op","seamark:light:character":"Fl","seamark:light:colour":"red","seamark:light:range":"3","seamark:name":"Troll B","seamark:platform:category":"production","seamark:type":"platform","source":"Kystverket"}}},{"type":"Feature","geometry":{"type":"Point","coordinates":[3.6097442,60.8858247]},"properties":{"osm_id":1042145926,"osm_type":"node","seamark_type":"platform","display_class":"OTHER","min_zoom":12,"importance":1,"name":"Troll C","ref":null,"common":{"name":"Troll C","type":"platform"},"children":{"light":{"character":"Fl","colour":"red","range":"3"},"platform":{"category":"production"}},"osm_tags":{"aeroway":"helipad","icao":"ENQC","man_made":"offshore_platform","name":"Troll C Platform","note":"Lanterne","ref:kystverket":"1017op","scheduled":"no","seamark:light:character":"Fl","seamark:light:colour":"red","seamark:light:range":"3","seamark:name":"Troll C","seamark:platform:category":"production","seamark:type":"platform","source:ourairports":"OurAirports 2025-10-04"}}}],"type":"FeatureCollection"}