{"type":"FeatureCollection","features":[{"type":"Feature","geometry":{"type":"Point","coordinates":[6.310565,61.0481371]},"properties":{"osm_id":5323940471,"osm_type":"node","seamark_type":"beacon_isolated_danger","display_class":"BEACON","min_zoom":9,"importance":4,"name":null,"ref":null,"common":{"type":"beacon_isolated_danger"},"children":{"beacon_isolated_danger":{"shape":"stake"}},"osm_tags":{"ref:kystverket":"22180M","seamark:beacon_isolated_danger:shape":"stake","seamark:type":"beacon_isolated_danger"}}},{"type":"Feature","geometry":{"type":"Point","coordinates":[6.137788,61.1138267]},"properties":{"osm_id":5324093139,"osm_type":"node","seamark_type":"beacon_isolated_danger","display_class":"BEACON","min_zoom":9,"importance":4,"name":null,"ref":null,"common":{"type":"beacon_isolated_danger"},"children":{"beacon_isolated_danger":{"shape":"stake"},"topmark":{"information":"Arrow","national_information":"Viser","shape":"arrow"}},"osm_tags":{"ref:kystverket":"22172M","seamark:beacon_isolated_danger:shape":"stake","seamark:topmark:information":"Arrow","seamark:topmark:national_information":"Viser","seamark:topmark:shape":"arrow","seamark:type":"beacon_isolated_danger"}}},{"type":"Feature","geometry":{"type":"Point","coordinates":[6.8239844,61.8693318]},"properties":{"osm_id":5323957512,"osm_type":"node","seamark_type":"beacon_isolated_danger","display_class":"BEACON","min_zoom":9,"importance":4,"name":"Engasteinen","ref":null,"common":{"name":"Engasteinen","type":"beacon_isolated_danger"},"children":{"beacon_isolated_danger":{"shape":"stake"}},"osm_tags":{"ref:kystverket":"28063M","seamark:beacon_isolated_danger:shape":"stake","seamark:name":"Engasteinen","seamark:type":"beacon_isolated_danger"}}},{"type":"Feature","geometry":{"type":"Point","coordinates":[6.9603655,61.1542271]},"properties":{"osm_id":10119029543,"osm_type":"node","seamark_type":"beacon_lateral","display_class":"BEACON","min_zoom":9,"importance":4,"name":"Grunnane","ref":null,"common":{"name":"Grunnane","type":"beacon_lateral"},"children":{"beacon_lateral":{"category":"starboard","colour":"green","conspicuity":"conspicuous","system":"iala-a","vertical_length":"15.5"},"light":{"1:character":"Q","1:colour":"green","1:height":"6.5","1:period":"1","1:range":"2.2","1:sequence":"0.2+(0.8)","2:category":"floodlight","2:character":"F","2:colour":"yellow","2:height":"6.5"},"retro_reflector":{"colour":"green"},"topmark":{"information":"01","shape":"triangle, point up"}},"osm_tags":{"ref:kystverket":"222601","seamark:beacon_lateral:category":"starboard","seamark:beacon_lateral:colour":"green","seamark:beacon_lateral:conspicuity":"conspicuous","seamark:beacon_lateral:system":"iala-a","seamark:beacon_lateral:vertical_length":"15.5","seamark:light:1:character":"Q","seamark:light:1:colour":"green","seamark:light:1:height":"6.5","seamark:light:1:period":"1","seamark:light:1:range":"2.2","seamark:light:1:sequence":"0.2+(0.8)","seamark:light:2:category":"floodlight","seamark:light:2:character":"F","seamark:light:2:colour":"yellow","seamark:light:2:height":"6.5","seamark:name":"Grunnane","seamark:retro_reflector:colour":"green","seamark:topmark:information":"01","seamark:topmark:shape":"triangle, point up","seamark:type":"beacon_lateral"}}},{"type":"Feature","geometry":{"type":"Point","coordinates":[6.8511334,61.1781228]},"properties":{"osm_id":5323957058,"osm_type":"node","seamark_type":"beacon_isolated_danger","display_class":"BEACON","min_zoom":9,"importance":4,"name":"Nokkanes V","ref":null,"common":{"name":"Nokkanes V","type":"beacon_isolated_danger"},"children":{"beacon_isolated_danger":{"depth":"1.5","shape":"stake","vertical_length":"7.2"},"retro_reflector":{"colour":"red"},"topmark":{"information":"Arrow","national_information":"Viser","orientation":"270","shape":"arrow"}},"osm_tags":{"ref:kystverket":"22250M","seamark:beacon_isolated_danger:depth":"1.5","seamark:beacon_isolated_danger:shape":"stake","seamark:beacon_isolated_danger:vertical_length":"7.2","seamark:name":"Nokkanes V","seamark:retro_reflector:colour":"red","seamark:topmark:information":"Arrow","seamark:topmark:national_information":"Viser","seamark:topmark:orientation":"270","seamark:topmark:shape":"arrow","seamark:type":"beacon_isolated_danger"}}},{"type":"Feature","geometry":{"type":"Point","coordinates":[6.1409577,61.1152767]},"properties":{"osm_id":5323954488,"osm_type":"node","seamark_type":"beacon_isolated_danger","display_class":"BEACON","min_zoom":9,"importance":4,"name":"Ortnevika 1","ref":null,"common":{"name":"Ortnevika 1","type":"beacon_isolated_danger"},"children":{"beacon_isolated_danger":{"depth":"4","shape":"stake","vertical_length":"7"},"retro_reflector":{"colour":"green"},"topmark":{"information":"Arrow","national_information":"Viser","orientation":"80","shape":"arrow"}},"osm_tags":{"ref:kystverket":"22170M","seamark:beacon_isolated_danger:depth":"4","seamark:beacon_isolated_danger:shape":"stake","seamark:beacon_isolated_danger:vertical_length":"7","seamark:name":"Ortnevika 1","seamark:retro_reflector:colour":"green","seamark:topmark:information":"Arrow","seamark:topmark:national_information":"Viser","seamark:topmark:orientation":"80","seamark:topmark:shape":"arrow","seamark:type":"beacon_isolated_danger"}}},{"type":"Feature","geometry":{"type":"Point","coordinates":[6.9227978,61.1593392]},"properties":{"osm_id":5323954489,"osm_type":"node","seamark_type":"beacon_isolated_danger","display_class":"BEACON","min_zoom":9,"importance":4,"name":"Saltskjerflu","ref":null,"common":{"name":"Saltskjerflu","type":"beacon_isolated_danger"},"children":{"beacon_isolated_danger":{"shape":"stake"}},"osm_tags":{"ref:kystverket":"22270M","seamark:beacon_isolated_danger:shape":"stake","seamark:name":"Saltskjerflu","seamark:type":"beacon_isolated_danger"}}},{"type":"Feature","geometry":{"type":"Point","coordinates":[6.310565,61.0481371]},"properties":{"osm_id":12086553597,"osm_type":"node","seamark_type":"beacon_isolated_danger","display_class":"BEACON","min_zoom":9,"importance":4,"name":"Straumen","ref":null,"common":{"name":"Straumen","type":"beacon_isolated_danger"},"children":{"beacon_isolated_danger":{"shape":"stake","vertical_length":"1"},"retro_reflector":{"colour":"green"},"topmark":{"information":"Arrow","national_information":"Viser","orientation":"270","shape":"arrow"}},"osm_tags":{"ref:kystverket":"22180M","seamark:beacon_isolated_danger:shape":"stake","seamark:beacon_isolated_danger:vertical_length":"1","seamark:name":"Straumen","seamark:retro_reflector:colour":"green","seamark:topmark:information":"Arrow","seamark:topmark:national_information":"Viser","seamark:topmark:orientation":"270","seamark:topmark:shape":"arrow","seamark:type":"beacon_isolated_danger"}}},{"type":"Feature","geometry":{"type":"Point","coordinates":[6.5453636,61.2120475]},"properties":{"osm_id":5323954443,"osm_type":"node","seamark_type":"beacon_isolated_danger","display_class":"BEACON","min_zoom":9,"importance":4,"name":"Tressnesflaket","ref":null,"common":{"name":"Tressnesflaket","type":"beacon_isolated_danger"},"children":{"beacon_isolated_danger":{"shape":"lattice"}},"osm_tags":{"man_made":"beacon","name":"Tressnesflaket","ref:kystverket":"22213M","seamark:beacon_isolated_danger:shape":"lattice","seamark:name":"Tressnesflaket","seamark:type":"beacon_isolated_danger"}}},{"type":"Feature","geometry":{"type":"Point","coordinates":[6.6308369,61.1733178]},"properties":{"osm_id":5323957059,"osm_type":"node","seamark_type":"beacon_isolated_danger","display_class":"BEACON","min_zoom":9,"importance":4,"name":"Vangsnes","ref":null,"common":{"name":"Vangsnes","type":"beacon_isolated_danger"},"children":{"beacon_isolated_danger":{"shape":"stake"}},"osm_tags":{"ref:kystverket":"22231M","seamark:beacon_isolated_danger:shape":"stake","seamark:name":"Vangsnes","seamark:type":"beacon_isolated_danger"}}},{"type":"Feature","geometry":{"type":"Point","coordinates":[6.4812683,61.570675]},"properties":{"osm_id":1270148317,"osm_type":"node","seamark_type":"harbour","display_class":"OTHER","min_zoom":12,"importance":1,"name":null,"ref":null,"common":{"type":"harbour"},"children":{"harbour":{"category":"marina"}},"osm_tags":{"leisure":"marina","seamark:harbour:category":"marina","seamark:type":"harbour"}}},{"type":"Feature","geometry":{"type":"Point","coordinates":[6.9898308,61.1501017]},"properties":{"osm_id":3889938652,"osm_type":"node","seamark_type":"rock","display_class":"OTHER","min_zoom":12,"importance":1,"name":null,"ref":null,"common":{"type":"rock"},"children":{},"osm_tags":{"seamark:type":"rock","source":"Kartverket N50","source:date":"1987-07-15"}}},{"type":"Feature","geometry":{"type":"Point","coordinates":[6.9888708,61.1504215]},"properties":{"osm_id":3889938693,"osm_type":"node","seamark_type":"rock","display_class":"OTHER","min_zoom":12,"importance":1,"name":null,"ref":null,"common":{"type":"rock"},"children":{},"osm_tags":{"seamark:type":"rock","source":"Kartverket N50","source:date":"1987-07-15"}}},{"type":"Feature","geometry":{"type":"Point","coordinates":[6.9903901,61.1504616]},"properties":{"osm_id":3889938699,"osm_type":"node","seamark_type":"rock","display_class":"OTHER","min_zoom":12,"importance":1,"name":null,"ref":null,"common":{"type":"rock"},"children":{},"osm_tags":{"seamark:type":"rock","source":"Kartverket N50","source:date":"1987-07-15"}}},{"type":"Feature","geometry":{"type":"Point","coordinates":[6.9886582,61.1509326]},"properties":{"osm_id":3889938753,"osm_type":"node","seamark_type":"rock","display_class":"OTHER","min_zoom":12,"importance":1,"name":null,"ref":null,"common":{"type":"rock"},"children":{},"osm_tags":{"seamark:type":"rock","source":"Kartverket N50","source:date":"2005-07-01"}}},{"type":"Feature","geometry":{"type":"Point","coordinates":[6.9950887,61.1513701]},"properties":{"osm_id":3889938775,"osm_type":"node","seamark_type":"rock","display_class":"OTHER","min_zoom":12,"importance":1,"name":null,"ref":null,"common":{"type":"rock"},"children":{},"osm_tags":{"seamark:type":"rock","source":"Kartverket N50","source:date":"2006-07-01"}}},{"type":"Feature","geometry":{"type":"Point","coordinates":[6.9954811,61.1514652]},"properties":{"osm_id":3889938787,"osm_type":"node","seamark_type":"rock","display_class":"OTHER","min_zoom":12,"importance":1,"name":null,"ref":null,"common":{"type":"rock"},"children":{},"osm_tags":{"seamark:type":"rock","source":"Kartverket N50","source:date":"2006-07-01"}}},{"type":"Feature","geometry":{"type":"Point","coordinates":[6.9957784,61.151596]},"properties":{"osm_id":3889938798,"osm_type":"node","seamark_type":"rock","display_class":"OTHER","min_zoom":12,"importance":1,"name":null,"ref":null,"common":{"type":"rock"},"children":{},"osm_tags":{"seamark:type":"rock","source":"Kartverket N50","source:date":"2006-07-01"}}},{"type":"Feature","geometry":{"type":"Point","coordinates":[6.9590124,61.1528089]},"properties":{"osm_id":3889938881,"osm_type":"node","seamark_type":"rock","display_class":"OTHER","min_zoom":12,"importance":1,"name":null,"ref":null,"common":{"type":"rock"},"children":{},"osm_tags":{"seamark:type":"rock","source":"Kartverket N50","source:date":"2006-07-01"}}},{"type":"Feature","geometry":{"type":"Point","coordinates":[6.9594643,61.1528326]},"properties":{"osm_id":3889938883,"osm_type":"node","seamark_type":"rock","display_class":"OTHER","min_zoom":12,"importance":1,"name":null,"ref":null,"common":{"type":"rock"},"children":{},"osm_tags":{"seamark:type":"rock","source":"Kartverket N50","source:date":"2006-07-01"}}},{"type":"Feature","geometry":{"type":"Point","coordinates":[6.9987035,61.1535342]},"properties":{"osm_id":3889938935,"osm_type":"node","seamark_type":"rock","display_class":"OTHER","min_zoom":12,"importance":1,"name":null,"ref":null,"common":{"type":"rock"},"children":{},"osm_tags":{"seamark:type":"rock","source":"Kartverket N50","source:date":"2006-07-01"}}},{"type":"Feature","geometry":{"type":"Point","coordinates":[6.9992028,61.1537958]},"properties":{"osm_id":3889938943,"osm_type":"node","seamark_type":"rock","display_class":"OTHER","min_zoom":12,"importance":1,"name":null,"ref":null,"common":{"type":"rock"},"children":{},"osm_tags":{"seamark:type":"rock","source":"Kartverket N50","source:date":"2006-07-01"}}},{"type":"Feature","geometry":{"type":"Point","coordinates":[6.9661329,61.1594887]},"properties":{"osm_id":3889939228,"osm_type":"node","seamark_type":"rock","display_class":"OTHER","min_zoom":12,"importance":1,"name":null,"ref":null,"common":{"type":"rock"},"children":{},"osm_tags":{"seamark:type":"rock","source":"Kartverket N50","source:date":"2006-07-01"}}},{"type":"Feature","geometry":{"type":"Point","coordinates":[6.9646825,61.1600811]},"properties":{"osm_id":3889939314,"osm_type":"node","seamark_type":"rock","display_class":"OTHER","min_zoom":12,"importance":1,"name":null,"ref":null,"common":{"type":"rock"},"children":{},"osm_tags":{"seamark:type":"rock","source":"Kartverket N50","source:date":"2006-07-01"}}},{"type":"Feature","geometry":{"type":"Point","coordinates":[6.9936621,61.1647494]},"properties":{"osm_id":3889939744,"osm_type":"node","seamark_type":"rock","display_class":"OTHER","min_zoom":12,"importance":1,"name":null,"ref":null,"common":{"type":"rock"},"children":{},"osm_tags":{"seamark:type":"rock","source":"Kartverket N50","source:date":"2006-07-01"}}},{"type":"Feature","geometry":{"type":"Point","coordinates":[6.1470657,61.1162185]},"properties":{"osm_id":3911481092,"osm_type":"node","seamark_type":"rock","display_class":"OTHER","min_zoom":12,"importance":1,"name":null,"ref":null,"common":{"type":"rock"},"children":{},"osm_tags":{"seamark:type":"rock","source":"Kartverket N50","source:date":"2001-05-13"}}},{"type":"Feature","geometry":{"type":"Point","coordinates":[6.0786352,61.1477774]},"properties":{"osm_id":3911483254,"osm_type":"node","seamark_type":"rock","display_class":"OTHER","min_zoom":12,"importance":1,"name":null,"ref":null,"common":{"type":"rock"},"children":{},"osm_tags":{"seamark:type":"rock","source":"Kartverket N50","source:date":"2001-05-13"}}},{"type":"Feature","geometry":{"type":"Point","coordinates":[6.0762085,61.1479289]},"properties":{"osm_id":3911483293,"osm_type":"node","seamark_type":"rock","display_class":"OTHER","min_zoom":12,"importance":1,"name":null,"ref":null,"common":{"type":"rock"},"children":{},"osm_tags":{"seamark:type":"rock","source":"Kartverket N50","source:date":"2001-05-13"}}},{"type":"Feature","geometry":{"type":"Point","coordinates":[6.0736559,61.2154211]},"properties":{"osm_id":3911487053,"osm_type":"node","seamark_type":"rock","display_class":"OTHER","min_zoom":12,"importance":1,"name":null,"ref":null,"common":{"type":"rock"},"children":{},"osm_tags":{"seamark:type":"rock","source":"Kartverket N50","source:date":"2006-07-01"}}},{"type":"Feature","geometry":{"type":"Point","coordinates":[6.8460886,61.8685364]},"properties":{"osm_id":3950356035,"osm_type":"node","seamark_type":"rock","display_class":"OTHER","min_zoom":12,"importance":1,"name":null,"ref":null,"common":{"type":"rock"},"children":{},"osm_tags":{"seamark:type":"rock","source":"Kartverket N50","source:date":"2006-04-29"}}},{"type":"Feature","geometry":{"type":"Point","coordinates":[6.8466036,61.8687162]},"properties":{"osm_id":3950356040,"osm_type":"node","seamark_type":"rock","display_class":"OTHER","min_zoom":12,"importance":1,"name":null,"ref":null,"common":{"type":"rock"},"children":{},"osm_tags":{"seamark:type":"rock","source":"Kartverket N50","source:date":"2006-04-29"}}},{"type":"Feature","geometry":{"type":"Point","coordinates":[6.8455604,61.8699474]},"properties":{"osm_id":3950356177,"osm_type":"node","seamark_type":"rock","display_class":"OTHER","min_zoom":12,"importance":1,"name":null,"ref":null,"common":{"type":"rock"},"children":{},"osm_tags":{"seamark:type":"rock","source":"Kartverket N50","source:date":"1992-04-29"}}},{"type":"Feature","geometry":{"type":"Point","coordinates":[6.7049628,61.8995135]},"properties":{"osm_id":3950357346,"osm_type":"node","seamark_type":"rock","display_class":"OTHER","min_zoom":12,"importance":1,"name":null,"ref":null,"common":{"type":"rock"},"children":{},"osm_tags":{"seamark:type":"rock","source":"Kartverket N50","source:date":"1995-05-14"}}},{"type":"Feature","geometry":{"type":"Point","coordinates":[6.7046199,61.8996555]},"properties":{"osm_id":3950357350,"osm_type":"node","seamark_type":"rock","display_class":"OTHER","min_zoom":12,"importance":1,"name":null,"ref":null,"common":{"type":"rock"},"children":{},"osm_tags":{"seamark:type":"rock","source":"Kartverket N50","source:date":"1995-05-14"}}},{"type":"Feature","geometry":{"type":"Point","coordinates":[6.6993774,61.9008275]},"properties":{"osm_id":3950357517,"osm_type":"node","seamark_type":"rock","display_class":"OTHER","min_zoom":12,"importance":1,"name":null,"ref":null,"common":{"type":"rock"},"children":{},"osm_tags":{"seamark:type":"rock","source":"Kartverket N50","source:date":"1995-05-14"}}},{"type":"Feature","geometry":{"type":"Point","coordinates":[6.6976464,61.9021249]},"properties":{"osm_id":3950357838,"osm_type":"node","seamark_type":"rock","display_class":"OTHER","min_zoom":12,"importance":1,"name":null,"ref":null,"common":{"type":"rock"},"children":{},"osm_tags":{"seamark:type":"rock","source":"Kartverket N50","source:date":"1995-05-14"}}},{"type":"Feature","geometry":{"type":"Point","coordinates":[6.5476906,61.213959]},"properties":{"osm_id":4327493832,"osm_type":"node","seamark_type":"harbour","display_class":"OTHER","min_zoom":12,"importance":1,"name":null,"ref":null,"common":{"type":"harbour"},"children":{"harbour":{"category":"marina"}},"osm_tags":{"leisure":"marina","seamark:harbour:category":"marina","seamark:type":"harbour"}}},{"type":"Feature","geometry":{"type":"Point","coordinates":[6.7974492,61.1825346]},"properties":{"osm_id":4375700836,"osm_type":"node","seamark_type":"harbour","display_class":"OTHER","min_zoom":12,"importance":1,"name":null,"ref":null,"common":{"type":"harbour"},"children":{},"osm_tags":{"harbour":"yes","port_of_entry":"no","seamark:type":"harbour"}}},{"type":"Feature","geometry":{"type":"Point","coordinates":[6.6308154,61.1643376]},"properties":{"osm_id":4755020006,"osm_type":"node","seamark_type":"rock","display_class":"OTHER","min_zoom":12,"importance":1,"name":null,"ref":null,"common":{"type":"rock"},"children":{},"osm_tags":{"seamark:type":"rock","source":"Kartverket N50","source:date":"2009-05-13"}}},{"type":"Feature","geometry":{"type":"Point","coordinates":[6.6302456,61.1620138]},"properties":{"osm_id":4755020007,"osm_type":"node","seamark_type":"rock","display_class":"OTHER","min_zoom":12,"importance":1,"name":null,"ref":null,"common":{"type":"rock"},"children":{},"osm_tags":{"seamark:type":"rock","source":"Kartverket N50","source:date":"2009-05-13"}}},{"type":"Feature","geometry":{"type":"Point","coordinates":[6.6197892,61.1443949]},"properties":{"osm_id":4755020008,"osm_type":"node","seamark_type":"rock","display_class":"OTHER","min_zoom":12,"importance":1,"name":null,"ref":null,"common":{"type":"rock"},"children":{},"osm_tags":{"seamark:type":"rock","source":"Kartverket N50","source:date":"2009-05-13"}}},{"type":"Feature","geometry":{"type":"Point","coordinates":[6.6046477,61.1243313]},"properties":{"osm_id":4755020009,"osm_type":"node","seamark_type":"rock","display_class":"OTHER","min_zoom":12,"importance":1,"name":null,"ref":null,"common":{"type":"rock"},"children":{},"osm_tags":{"seamark:type":"rock","source":"Kartverket N50","source:date":"2009-05-13"}}},{"type":"Feature","geometry":{"type":"Point","coordinates":[6.4601821,61.0812181]},"properties":{"osm_id":4755020010,"osm_type":"node","seamark_type":"rock","display_class":"OTHER","min_zoom":12,"importance":1,"name":null,"ref":null,"common":{"type":"rock"},"children":{},"osm_tags":{"seamark:type":"rock","source":"Kartverket N50","source:date":"2009-07-01"}}},{"type":"Feature","geometry":{"type":"Point","coordinates":[6.4646927,61.0815264]},"properties":{"osm_id":4755020011,"osm_type":"node","seamark_type":"rock","display_class":"OTHER","min_zoom":12,"importance":1,"name":null,"ref":null,"common":{"type":"rock"},"children":{},"osm_tags":{"seamark:type":"rock","source":"Kartverket N50","source:date":"2009-07-01"}}},{"type":"Feature","geometry":{"type":"Point","coordinates":[6.4581921,61.0810191]},"properties":{"osm_id":4755020012,"osm_type":"node","seamark_type":"rock","display_class":"OTHER","min_zoom":12,"importance":1,"name":null,"ref":null,"common":{"type":"rock"},"children":{},"osm_tags":{"seamark:type":"rock","source":"Kartverket N50","source:date":"2009-07-01"}}},{"type":"Feature","geometry":{"type":"Point","coordinates":[6.4599478,61.0810713]},"properties":{"osm_id":4755020013,"osm_type":"node","seamark_type":"rock","display_class":"OTHER","min_zoom":12,"importance":1,"name":null,"ref":null,"common":{"type":"rock"},"children":{},"osm_tags":{"seamark:type":"rock","source":"Kartverket N50","source:date":"2009-05-13"}}},{"type":"Feature","geometry":{"type":"Point","coordinates":[6.4701572,61.081698]},"properties":{"osm_id":4755020014,"osm_type":"node","seamark_type":"rock","display_class":"OTHER","min_zoom":12,"importance":1,"name":null,"ref":null,"common":{"type":"rock"},"children":{},"osm_tags":{"seamark:type":"rock","source":"Kartverket N50","source:date":"2009-07-01"}}},{"type":"Feature","geometry":{"type":"Point","coordinates":[6.3042408,61.048391]},"properties":{"osm_id":4755020015,"osm_type":"node","seamark_type":"rock","display_class":"OTHER","min_zoom":12,"importance":1,"name":null,"ref":null,"common":{"type":"rock"},"children":{},"osm_tags":{"seamark:type":"rock","source":"Kartverket N50","source:date":"2005-07-01"}}},{"type":"Feature","geometry":{"type":"Point","coordinates":[6.2965864,61.0426375]},"properties":{"osm_id":4755020016,"osm_type":"node","seamark_type":"rock","display_class":"OTHER","min_zoom":12,"importance":1,"name":null,"ref":null,"common":{"type":"rock"},"children":{},"osm_tags":{"seamark:type":"rock","source":"Kartverket N50","source:date":"2005-07-01"}}},{"type":"Feature","geometry":{"type":"Point","coordinates":[6.267184,61.0362991]},"properties":{"osm_id":4755020017,"osm_type":"node","seamark_type":"rock","display_class":"OTHER","min_zoom":12,"importance":1,"name":null,"ref":null,"common":{"type":"rock"},"children":{},"osm_tags":{"seamark:type":"rock","source":"Kartverket N50","source:date":"2005-07-01"}}},{"type":"Feature","geometry":{"type":"Point","coordinates":[6.4246405,61.0431493]},"properties":{"osm_id":4755020018,"osm_type":"node","seamark_type":"rock","display_class":"OTHER","min_zoom":12,"importance":1,"name":null,"ref":null,"common":{"type":"rock"},"children":{},"osm_tags":{"seamark:type":"rock","source":"Kartverket N50","source:date":"2009-05-13"}}},{"type":"Feature","geometry":{"type":"Point","coordinates":[6.3706594,61.0142737]},"properties":{"osm_id":4755020019,"osm_type":"node","seamark_type":"rock","display_class":"OTHER","min_zoom":12,"importance":1,"name":null,"ref":null,"common":{"type":"rock"},"children":{},"osm_tags":{"seamark:type":"rock","source":"Kartverket N50","source:date":"2009-05-13"}}},{"type":"Feature","geometry":{"type":"Point","coordinates":[6.3700028,61.0141586]},"properties":{"osm_id":4755020020,"osm_type":"node","seamark_type":"rock","display_class":"OTHER","min_zoom":12,"importance":1,"name":null,"ref":null,"common":{"type":"rock"},"children":{},"osm_tags":{"seamark:type":"rock","source":"Kartverket N50","source:date":"2009-05-13"}}},{"type":"Feature","geometry":{"type":"Point","coordinates":[6.3956653,61.0090145]},"properties":{"osm_id":4755020021,"osm_type":"node","seamark_type":"rock","display_class":"OTHER","min_zoom":12,"importance":1,"name":null,"ref":null,"common":{"type":"rock"},"children":{},"osm_tags":{"seamark:type":"rock","source":"Kartverket N50","source:date":"2009-05-13"}}},{"type":"Feature","geometry":{"type":"Point","coordinates":[6.4100701,61.0061357]},"properties":{"osm_id":4755020023,"osm_type":"node","seamark_type":"rock","display_class":"OTHER","min_zoom":12,"importance":1,"name":null,"ref":null,"common":{"type":"rock"},"children":{},"osm_tags":{"seamark:type":"rock","source":"Kartverket N50","source:date":"2009-05-13"}}},{"type":"Feature","geometry":{"type":"Point","coordinates":[6.8617304,61.1764726]},"properties":{"osm_id":4886634641,"osm_type":"node","seamark_type":"small_craft_facility","display_class":"OTHER","min_zoom":12,"importance":1,"name":null,"ref":null,"common":{"type":"small_craft_facility"},"children":{"small_craft_facility":{"category":"slipway"}},"osm_tags":{"leisure":"slipway","seamark:small_craft_facility:category":"slipway","seamark:type":"small_craft_facility"}}},{"type":"Feature","geometry":{"type":"Point","coordinates":[6.6978685,61.8972958]},"properties":{"osm_id":5326057636,"osm_type":"node","seamark_type":"notice","display_class":"OTHER","min_zoom":12,"importance":1,"name":null,"ref":null,"common":{"type":"notice"},"children":{"notice":{"category":"no_anchoring","function":"prohibition","information":"Avløpsledning","system":"cevni"}},"osm_tags":{"seamark:notice:category":"no_anchoring","seamark:notice:function":"prohibition","seamark:notice:information":"Avløpsledning","seamark:notice:system":"cevni","seamark:type":"notice","source":"Kystverket"}}},{"type":"Feature","geometry":{"type":"Point","coordinates":[6.493052,61.8050597]},"properties":{"osm_id":5326057637,"osm_type":"node","seamark_type":"notice","display_class":"OTHER","min_zoom":12,"importance":1,"name":null,"ref":null,"common":{"type":"notice"},"children":{"notice":{"category":"no_anchoring","function":"prohibition","information":"Avløpslening","system":"cevni"}},"osm_tags":{"seamark:notice:category":"no_anchoring","seamark:notice:function":"prohibition","seamark:notice:information":"Avløpslening","seamark:notice:system":"cevni","seamark:type":"notice","source":"Kystverket"}}},{"type":"Feature","geometry":{"type":"Point","coordinates":[6.4861871,61.1309676]},"properties":{"osm_id":11028684699,"osm_type":"node","seamark_type":"rock","display_class":"OTHER","min_zoom":12,"importance":1,"name":null,"ref":null,"common":{"type":"rock"},"children":{},"osm_tags":{"seamark:type":"rock"}}},{"type":"Feature","geometry":{"type":"Point","coordinates":[6.4874751,61.1291156]},"properties":{"osm_id":11028684700,"osm_type":"node","seamark_type":"rock","display_class":"OTHER","min_zoom":12,"importance":1,"name":null,"ref":null,"common":{"type":"rock"},"children":{},"osm_tags":{"seamark:type":"rock"}}},{"type":"Feature","geometry":{"type":"Point","coordinates":[6.4595755,61.1144809]},"properties":{"osm_id":11028684701,"osm_type":"node","seamark_type":"rock","display_class":"OTHER","min_zoom":12,"importance":1,"name":null,"ref":null,"common":{"type":"rock"},"children":{},"osm_tags":{"seamark:type":"rock"}}},{"type":"Feature","geometry":{"type":"Point","coordinates":[6.5100791,61.2193587]},"properties":{"osm_id":11028684702,"osm_type":"node","seamark_type":"rock","display_class":"OTHER","min_zoom":12,"importance":1,"name":null,"ref":null,"common":{"type":"rock"},"children":{},"osm_tags":{"seamark:type":"rock"}}},{"type":"Feature","geometry":{"type":"Point","coordinates":[6.3870114,61.1110195]},"properties":{"osm_id":11028684703,"osm_type":"node","seamark_type":"rock","display_class":"OTHER","min_zoom":12,"importance":1,"name":null,"ref":null,"common":{"type":"rock"},"children":{},"osm_tags":{"seamark:type":"rock"}}},{"type":"Feature","geometry":{"type":"Point","coordinates":[6.3785354,61.1098823]},"properties":{"osm_id":11028684704,"osm_type":"node","seamark_type":"rock","display_class":"OTHER","min_zoom":12,"importance":1,"name":null,"ref":null,"common":{"type":"rock"},"children":{},"osm_tags":{"seamark:type":"rock"}}},{"type":"Feature","geometry":{"type":"Point","coordinates":[6.5256198,61.2712366]},"properties":{"osm_id":11028684705,"osm_type":"node","seamark_type":"rock","display_class":"OTHER","min_zoom":12,"importance":1,"name":null,"ref":null,"common":{"type":"rock"},"children":{},"osm_tags":{"seamark:type":"rock"}}},{"type":"Feature","geometry":{"type":"Point","coordinates":[6.5601781,61.2155013]},"properties":{"osm_id":11028684706,"osm_type":"node","seamark_type":"rock","display_class":"OTHER","min_zoom":12,"importance":1,"name":null,"ref":null,"common":{"type":"rock"},"children":{},"osm_tags":{"seamark:type":"rock"}}},{"type":"Feature","geometry":{"type":"Point","coordinates":[6.7276803,61.1811411]},"properties":{"osm_id":11031328087,"osm_type":"node","seamark_type":"rock","display_class":"OTHER","min_zoom":12,"importance":1,"name":null,"ref":null,"common":{"type":"rock"},"children":{},"osm_tags":{"seamark:type":"rock"}}},{"type":"Feature","geometry":{"type":"Point","coordinates":[6.8514781,61.1783781]},"properties":{"osm_id":11031328088,"osm_type":"node","seamark_type":"rock","display_class":"OTHER","min_zoom":12,"importance":1,"name":null,"ref":null,"common":{"type":"rock"},"children":{},"osm_tags":{"seamark:type":"rock"}}},{"type":"Feature","geometry":{"type":"LineString","coordinates":[[6.539298,61.2149333],[6.5329465,61.2111708],[6.5329264,61.2111236]]},"properties":{"osm_id":625061416,"osm_type":"way","seamark_type":"cable_submarine","display_class":"OTHER","min_zoom":12,"importance":1,"name":null,"ref":null,"common":{"type":"cable_submarine"},"children":{"cable_submarine":{"category":"power"}},"osm_tags":{"cables":"6","circuits":"2","location":"underwater","operator":"Sygnir","power":"cable","seamark:cable_submarine:category":"power","seamark:type":"cable_submarine","voltage":"22000"}}},{"type":"Feature","geometry":{"type":"LineString","coordinates":[[6.5867664,61.8648228],[6.5856171,61.8654413],[6.5535687,61.8803924],[6.553051,61.8806408]]},"properties":{"osm_id":914299601,"osm_type":"way","seamark_type":"cable_overhead","display_class":"OTHER","min_zoom":12,"importance":1,"name":null,"ref":null,"common":{"type":"cable_overhead"},"children":{"cable_overhead":{"category":"transmission","clearance_height_safe":"60"}},"osm_tags":{"cables":"1","operator":"Stryn energi","power":"minor_line","seamark:cable_overhead:category":"transmission","seamark:cable_overhead:clearance_height_safe":"60","seamark:type":"cable_overhead","voltage":"22000"}}},{"type":"Feature","geometry":{"type":"LineString","coordinates":[[6.5462154,61.2759522],[6.546776,61.2759296],[6.5656212,61.2733566]]},"properties":{"osm_id":1379387724,"osm_type":"way","seamark_type":"cable_submarine","display_class":"OTHER","min_zoom":12,"importance":1,"name":null,"ref":null,"common":{"type":"cable_submarine"},"children":{"cable_submarine":{"category":"power"}},"osm_tags":{"cables":"3","location":"underwater","operator":"Sygnir","power":"cable","seamark:cable_submarine:category":"power","seamark:type":"cable_submarine","voltage":"22000"}}},{"type":"Feature","geometry":{"type":"Point","coordinates":[6.0786362,61.8467705]},"properties":{"osm_id":1211590098,"osm_type":"node","seamark_type":"light_minor","display_class":"OTHER","min_zoom":12,"importance":1,"name":"Anden","ref":null,"common":{"conspicuity":"conspicuous","name":"Anden","type":"light_minor","vertical_length":"6.5"},"children":{"light":{"1:character":"Oc","1:colour":"green","1:height":"5","1:national_information":"Fra klar V av Staveneset til klar N av Hammaren (Kabuneset)","1:period":"6","1:range":"7.2","1:sector_end":"100.3","1:sector_start":"4.4","1:sequence":"(5)+1","2:character":"Oc","2:colour":"white","2:height":"5","2:national_information":"Til midt i fjorden N om Kabuneset","2:period":"6","2:range":"8.2","2:sector_end":"106.2","2:sector_start":"100.3","2:sequence":"(5)+1","3:character":"Oc","3:colour":"red","3:height":"5","3:national_information":"Til klar SV av Hamarodden","3:period":"6","3:range":"7.2","3:sector_end":"114.0","3:sector_start":"106.2","3:sequence":"(5)+1","4:character":"Oc","4:colour":"green","4:height":"5","4:national_information":"Til klar S av Åseneset og 138m S av Åsneset lanterne","4:period":"6","4:range":"7.2","4:sector_end":"273.0","4:sector_start":"114.0","4:sequence":"(5)+1","5:character":"Oc","5:colour":"red","5:height":"5","5:national_information":"Til innover fergekaien Anda","5:period":"6","5:range":"7.2","5:sector_end":"276.1","5:sector_start":"273.0","5:sequence":"(5)+1"}},"osm_tags":{"name":"Anden","ref:kystverket":"280400","seamark:conspicuity":"conspicuous","seamark:light:1:character":"Oc","seamark:light:1:colour":"green","seamark:light:1:height":"5","seamark:light:1:national_information":"Fra klar V av Staveneset til klar N av Hammaren (Kabuneset)","seamark:light:1:period":"6","seamark:light:1:range":"7.2","seamark:light:1:sector_end":"100.3","seamark:light:1:sector_start":"4.4","seamark:light:1:sequence":"(5)+1","seamark:light:2:character":"Oc","seamark:light:2:colour":"white","seamark:light:2:height":"5","seamark:light:2:national_information":"Til midt i fjorden N om Kabuneset","seamark:light:2:period":"6","seamark:light:2:range":"8.2","seamark:light:2:sector_end":"106.2","seamark:light:2:sector_start":"100.3","seamark:light:2:sequence":"(5)+1","seamark:light:3:character":"Oc","seamark:light:3:colour":"red","seamark:light:3:height":"5","seamark:light:3:national_information":"Til klar SV av Hamarodden","seamark:light:3:period":"6","seamark:light:3:range":"7.2","seamark:light:3:sector_end":"114.0","seamark:light:3:sector_start":"106.2","seamark:light:3:sequence":"(5)+1","seamark:light:4:character":"Oc","seamark:light:4:colour":"green","seamark:light:4:height":"5","seamark:light:4:national_information":"Til klar S av Åseneset og 138m S av Åsneset lanterne","seamark:light:4:period":"6","seamark:light:4:range":"7.2","seamark:light:4:sector_end":"273.0","seamark:light:4:sector_start":"114.0","seamark:light:4:sequence":"(5)+1","seamark:light:5:character":"Oc","seamark:light:5:colour":"red","seamark:light:5:height":"5","seamark:light:5:national_information":"Til innover fergekaien Anda","seamark:light:5:period":"6","seamark:light:5:range":"7.2","seamark:light:5:sector_end":"276.1","seamark:light:5:sector_start":"273.0","seamark:light:5:sequence":"(5)+1","seamark:name":"Anden","seamark:type":"light_minor","seamark:vertical_length":"6.5"}}},{"type":"Feature","geometry":{"type":"Point","coordinates":[6.4343143,61.0700472]},"properties":{"osm_id":1211587905,"osm_type":"node","seamark_type":"light_minor","display_class":"OTHER","min_zoom":12,"importance":1,"name":"Arnafjord","ref":null,"common":{"conspicuity":"conspicuous","name":"Arnafjord","type":"light_minor","vertical_length":"6.2"},"children":{"light":{"1:character":"Iso","1:colour":"green","1:height":"9.7","1:national_information":"Fra innover Naustvollen til 82m V av Naustvollen","1:period":"2","1:range":"6.3","1:sector_end":"20.4","1:sector_start":"15.3","1:sequence":"1+(1)","2:character":"Iso","2:colour":"white","2:height":"9.7","2:national_information":"Til 87m Ø av Kalhaganeset","2:period":"2","2:range":"7.8","2:sector_end":"23.0","2:sector_start":"20.4","2:sequence":"1+(1)","3:character":"Iso","3:colour":"red","3:height":"9.7","3:national_information":"Til 72m N av Husstavenes","3:period":"2","3:range":"6.3","3:sector_end":"94.0","3:sector_start":"23.0","3:sequence":"1+(1)","4:character":"Iso","4:colour":"green","4:height":"9.7","4:national_information":"Til klar N av Bjørkviki","4:period":"2","4:range":"6.3","4:sector_end":"113.4","4:sector_start":"94.0","4:sequence":"1+(1)","5:character":"Iso","5:colour":"white","5:height":"9.7","5:national_information":"Til klar SV av Osneset","5:period":"2","5:range":"7.8","5:sector_end":"127.5","5:sector_start":"113.4","5:sequence":"1+(1)","6:character":"Iso","6:colour":"red","6:height":"9.7","6:national_information":"Til 125m Ø av Daneneset","6:period":"2","6:range":"6.3","6:sector_end":"205.1","6:sector_start":"127.5","6:sequence":"1+(1)","7:character":"Iso","7:colour":"green","7:height":"9.7","7:national_information":"Til klar SØ av Målhaugen","7:period":"2","7:range":"6.3","7:sector_end":"218.5","7:sector_start":"205.1","7:sequence":"1+(1)","8:character":"Iso","8:colour":"white","8:height":"9.7","8:national_information":"Til klar NV av Vangsnes LA","8:period":"2","8:range":"7.8","8:sector_end":"221.7","8:sector_start":"218.5","8:sequence":"1+(1)","9:character":"Iso","9:colour":"red","9:height":"9.7","9:national_information":"Til innover Nyskredgjelet N av lykta","9:period":"2","9:range":"6.3","9:sector_end":"223.9","9:sector_start":"221.7","9:sequence":"1+(1)"}},"osm_tags":{"name":"Arnafjord","ref:kystverket":"221800","seamark:conspicuity":"conspicuous","seamark:light:1:character":"Iso","seamark:light:1:colour":"green","seamark:light:1:height":"9.7","seamark:light:1:national_information":"Fra innover Naustvollen til 82m V av Naustvollen","seamark:light:1:period":"2","seamark:light:1:range":"6.3","seamark:light:1:sector_end":"20.4","seamark:light:1:sector_start":"15.3","seamark:light:1:sequence":"1+(1)","seamark:light:2:character":"Iso","seamark:light:2:colour":"white","seamark:light:2:height":"9.7","seamark:light:2:national_information":"Til 87m Ø av Kalhaganeset","seamark:light:2:period":"2","seamark:light:2:range":"7.8","seamark:light:2:sector_end":"23.0","seamark:light:2:sector_start":"20.4","seamark:light:2:sequence":"1+(1)","seamark:light:3:character":"Iso","seamark:light:3:colour":"red","seamark:light:3:height":"9.7","seamark:light:3:national_information":"Til 72m N av Husstavenes","seamark:light:3:period":"2","seamark:light:3:range":"6.3","seamark:light:3:sector_end":"94.0","seamark:light:3:sector_start":"23.0","seamark:light:3:sequence":"1+(1)","seamark:light:4:character":"Iso","seamark:light:4:colour":"green","seamark:light:4:height":"9.7","seamark:light:4:national_information":"Til klar N av Bjørkviki","seamark:light:4:period":"2","seamark:light:4:range":"6.3","seamark:light:4:sector_end":"113.4","seamark:light:4:sector_start":"94.0","seamark:light:4:sequence":"1+(1)","seamark:light:5:character":"Iso","seamark:light:5:colour":"white","seamark:light:5:height":"9.7","seamark:light:5:national_information":"Til klar SV av Osneset","seamark:light:5:period":"2","seamark:light:5:range":"7.8","seamark:light:5:sector_end":"127.5","seamark:light:5:sector_start":"113.4","seamark:light:5:sequence":"1+(1)","seamark:light:6:character":"Iso","seamark:light:6:colour":"red","seamark:light:6:height":"9.7","seamark:light:6:national_information":"Til 125m Ø av Daneneset","seamark:light:6:period":"2","seamark:light:6:range":"6.3","seamark:light:6:sector_end":"205.1","seamark:light:6:sector_start":"127.5","seamark:light:6:sequence":"1+(1)","seamark:light:7:character":"Iso","seamark:light:7:colour":"green","seamark:light:7:height":"9.7","seamark:light:7:national_information":"Til klar SØ av Målhaugen","seamark:light:7:period":"2","seamark:light:7:range":"6.3","seamark:light:7:sector_end":"218.5","seamark:light:7:sector_start":"205.1","seamark:light:7:sequence":"1+(1)","seamark:light:8:character":"Iso","seamark:light:8:colour":"white","seamark:light:8:height":"9.7","seamark:light:8:national_information":"Til klar NV av Vangsnes LA","seamark:light:8:period":"2","seamark:light:8:range":"7.8","seamark:light:8:sector_end":"221.7","seamark:light:8:sector_start":"218.5","seamark:light:8:sequence":"1+(1)","seamark:light:9:character":"Iso","seamark:light:9:colour":"red","seamark:light:9:height":"9.7","seamark:light:9:national_information":"Til innover Nyskredgjelet N av lykta","seamark:light:9:period":"2","seamark:light:9:range":"6.3","seamark:light:9:sector_end":"223.9","seamark:light:9:sector_start":"221.7","seamark:light:9:sequence":"1+(1)","seamark:name":"Arnafjord","seamark:type":"light_minor","seamark:vertical_length":"6.2"}}},{"type":"Feature","geometry":{"type":"Point","coordinates":[6.9920475,61.1059034]},"properties":{"osm_id":1211588038,"osm_type":"node","seamark_type":"light_minor","display_class":"OTHER","min_zoom":12,"importance":1,"name":"Gagersnes","ref":null,"common":{"conspicuity":"conspicuous","name":"Gagersnes","type":"light_minor","vertical_length":"3"},"children":{"light":{"1:character":"Iso","1:colour":"green","1:height":"9.5","1:national_information":"Fra innover land ved Klovsteinen til klar S av Klovsteinen","1:period":"2","1:range":"5.9","1:sector_end":"247.9","1:sector_start":"247.1","1:sequence":"1+(1)","2:character":"Iso","2:colour":"white","2:height":"9.5","2:national_information":"Til klar N av Revsnestangen","2:period":"2","2:range":"7.4","2:sector_end":"250.0","2:sector_start":"247.9","2:sequence":"1+(1)","3:character":"Iso","3:colour":"red","3:height":"9.5","3:national_information":"Til 128m N av Lemmaneset","3:period":"2","3:range":"5.9","3:sector_end":"258.3","3:sector_start":"250.0","3:sequence":"1+(1)","4:character":"Iso","4:colour":"green","4:height":"9.5","4:national_information":"Til klar V av Breisnes","4:period":"2","4:range":"5.9","4:sector_end":"343.1","4:sector_start":"258.3","4:sequence":"1+(1)","5:character":"Iso","5:colour":"white","5:height":"9.5","5:national_information":"Til 168m Ø av Simlenes","5:period":"2","5:range":"7.4","5:sector_end":"345.7","5:sector_start":"343.1","5:sequence":"1+(1)","6:character":"Iso","6:colour":"red","6:height":"9.5","6:national_information":"Til innover land ved Staven","6:period":"2","6:range":"5.9","6:sector_end":"11.0","6:sector_start":"345.7","6:sequence":"1+(1)","7:character":"Iso","7:colour":"green","7:height":"9.5","7:national_information":"Til 127m NV av Saltkjelneset","7:period":"2","7:range":"5.9","7:sector_end":"50.4","7:sector_start":"11.0","7:sequence":"1+(1)","8:character":"Iso","8:colour":"white","8:height":"9.5","8:national_information":"Til 213m S av Hønsaneset","8:period":"2","8:range":"7.4","8:sector_end":"101.8","8:sector_start":"50.4","8:sequence":"1+(1)","9:character":"Iso","9:colour":"red","9:height":"9.5","9:national_information":"Til innmot land ved Hønsaneset","9:period":"2","9:range":"5.9","9:sector_end":"104.5","9:sector_start":"101.8","9:sequence":"1+(1)"}},"osm_tags":{"name":"Gagersnes","ref:kystverket":"223700","seamark:conspicuity":"conspicuous","seamark:light:1:character":"Iso","seamark:light:1:colour":"green","seamark:light:1:height":"9.5","seamark:light:1:national_information":"Fra innover land ved Klovsteinen til klar S av Klovsteinen","seamark:light:1:period":"2","seamark:light:1:range":"5.9","seamark:light:1:sector_end":"247.9","seamark:light:1:sector_start":"247.1","seamark:light:1:sequence":"1+(1)","seamark:light:2:character":"Iso","seamark:light:2:colour":"white","seamark:light:2:height":"9.5","seamark:light:2:national_information":"Til klar N av Revsnestangen","seamark:light:2:period":"2","seamark:light:2:range":"7.4","seamark:light:2:sector_end":"250.0","seamark:light:2:sector_start":"247.9","seamark:light:2:sequence":"1+(1)","seamark:light:3:character":"Iso","seamark:light:3:colour":"red","seamark:light:3:height":"9.5","seamark:light:3:national_information":"Til 128m N av Lemmaneset","seamark:light:3:period":"2","seamark:light:3:range":"5.9","seamark:light:3:sector_end":"258.3","seamark:light:3:sector_start":"250.0","seamark:light:3:sequence":"1+(1)","seamark:light:4:character":"Iso","seamark:light:4:colour":"green","seamark:light:4:height":"9.5","seamark:light:4:national_information":"Til klar V av Breisnes","seamark:light:4:period":"2","seamark:light:4:range":"5.9","seamark:light:4:sector_end":"343.1","seamark:light:4:sector_start":"258.3","seamark:light:4:sequence":"1+(1)","seamark:light:5:character":"Iso","seamark:light:5:colour":"white","seamark:light:5:height":"9.5","seamark:light:5:national_information":"Til 168m Ø av Simlenes","seamark:light:5:period":"2","seamark:light:5:range":"7.4","seamark:light:5:sector_end":"345.7","seamark:light:5:sector_start":"343.1","seamark:light:5:sequence":"1+(1)","seamark:light:6:character":"Iso","seamark:light:6:colour":"red","seamark:light:6:height":"9.5","seamark:light:6:national_information":"Til innover land ved Staven","seamark:light:6:period":"2","seamark:light:6:range":"5.9","seamark:light:6:sector_end":"11.0","seamark:light:6:sector_start":"345.7","seamark:light:6:sequence":"1+(1)","seamark:light:7:character":"Iso","seamark:light:7:colour":"green","seamark:light:7:height":"9.5","seamark:light:7:national_information":"Til 127m NV av Saltkjelneset","seamark:light:7:period":"2","seamark:light:7:range":"5.9","seamark:light:7:sector_end":"50.4","seamark:light:7:sector_start":"11.0","seamark:light:7:sequence":"1+(1)","seamark:light:8:character":"Iso","seamark:light:8:colour":"white","seamark:light:8:height":"9.5","seamark:light:8:national_information":"Til 213m S av Hønsaneset","seamark:light:8:period":"2","seamark:light:8:range":"7.4","seamark:light:8:sector_end":"101.8","seamark:light:8:sector_start":"50.4","seamark:light:8:sequence":"1+(1)","seamark:light:9:character":"Iso","seamark:light:9:colour":"red","seamark:light:9:height":"9.5","seamark:light:9:national_information":"Til innmot land ved Hønsaneset","seamark:light:9:period":"2","seamark:light:9:range":"5.9","seamark:light:9:sector_end":"104.5","seamark:light:9:sector_start":"101.8","seamark:light:9:sequence":"1+(1)","seamark:name":"Gagersnes","seamark:type":"light_minor","seamark:vertical_length":"3"}}},{"type":"Feature","geometry":{"type":"LineString","coordinates":[[6.6115433,61.2398271],[6.5867543,61.2673421]]},"properties":{"osm_id":1002169607,"osm_type":"way","seamark_type":"cable_overhead","display_class":"OTHER","min_zoom":12,"importance":1,"name":"Grindsdalen - Mel","ref":null,"common":{"type":"cable_overhead"},"children":{"cable_overhead":{"category":"transmission","clearance_height_safe":"330"}},"osm_tags":{"cables":"1","name":"Grindsdalen - Mel","operator":"Statnett","power":"line","seamark:cable_overhead:category":"transmission","seamark:cable_overhead:clearance_height_safe":"330","seamark:type":"cable_overhead","voltage":"132000"}}},{"type":"Feature","geometry":{"type":"Polygon","coordinates":[[[6.1012002,61.8409666],[6.1022169,61.8407333],[6.1010336,61.8395833],[6.1000336,61.8398166],[6.1012002,61.8409666]]]},"properties":{"osm_id":556359920,"osm_type":"way","seamark_type":"marine_farm","display_class":"OTHER","min_zoom":12,"importance":1,"name":"Haneholmen","ref":null,"common":{"type":"marine_farm"},"children":{"marine_farm":{"category":"fish"}},"osm_tags":{"aquaculture":"fish","fish":"rainbow trout;salmon","landuse":"aquaculture","name":"Haneholmen","operator":"Nordfjord Laks AS","ref:fiskeridir":"31577","seamark:marine_farm:category":"fish","seamark:type":"marine_farm","source":"Fiskeridirektoratet"}}},{"type":"Feature","geometry":{"type":"Point","coordinates":[6.5368122,61.2111211]},"properties":{"osm_id":2392657999,"osm_type":"node","seamark_type":"harbour","display_class":"OTHER","min_zoom":12,"importance":1,"name":"Holmen","ref":null,"common":{"type":"harbour"},"children":{"harbour":{"category":"marina"}},"osm_tags":{"leisure":"marina","name":"Holmen","seamark:harbour:category":"marina","seamark:type":"harbour"}}},{"type":"Feature","geometry":{"type":"LineString","coordinates":[[6.8607393,61.1351209],[6.9443625,61.1405063]]},"properties":{"osm_id":164617049,"osm_type":"way","seamark_type":"cable_overhead","display_class":"OTHER","min_zoom":12,"importance":1,"name":"Hove-Sogndal","ref":"401","common":{"type":"cable_overhead"},"children":{"cable_overhead":{"category":"transmission","clearance_height_safe":"60"}},"osm_tags":{"cables":"1","name":"Hove-Sogndal","operator":"Statnett","operator:wikidata":"Q602621","operator:wikipedia":"no:Statnett","power":"line","ref":"401","seamark:cable_overhead:category":"transmission","seamark:cable_overhead:clearance_height_safe":"60","seamark:type":"cable_overhead","source":"NVE","voltage":"300000"}}},{"type":"Feature","geometry":{"type":"Point","coordinates":[6.0181636,61.1730985]},"properties":{"osm_id":1211587962,"osm_type":"node","seamark_type":"light_minor","display_class":"OTHER","min_zoom":12,"importance":1,"name":"Høyanger","ref":null,"common":{"conspicuity":"conspicuous","name":"Høyanger","type":"light_minor","vertical_length":"6.3"},"children":{"light":{"1:character":"Iso","1:colour":"green","1:height":"7.2","1:national_information":"Fra kloss i Fureneset til godt klar NV av Fureneset","1:period":"4","1:range":"3.9","1:sector_end":"40.4","1:sector_start":"34.7","1:sequence":"2+(2)","2:character":"Iso","2:colour":"white","2:height":"7.2","2:national_information":"Til 155m SØ av Austreimneset","2:period":"4","2:range":"5.1","2:sector_end":"69.1","2:sector_start":"40.4","2:sequence":"2+(2)","3:character":"Iso","3:colour":"red","3:height":"7.2","3:national_information":"Til innover land ved Bergsvika","3:period":"4","3:range":"3.9","3:sector_end":"130.2","3:sector_start":"69.1","3:sequence":"2+(2)","4:character":"Iso","4:colour":"green","4:height":"7.2","4:national_information":"Til klar SØ av landet ved Pylseteigen","4:period":"4","4:range":"3.9","4:sector_end":"219.6","4:sector_start":"130.2","4:sequence":"2+(2)","5:character":"Iso","5:colour":"white","5:height":"7.2","5:national_information":"Til godt klar SØ av landet ved Pylseteigen","5:period":"4","5:range":"5.1","5:sector_end":"226.6","5:sector_start":"219.6","5:sequence":"2+(2)","6:character":"Iso","6:colour":"red","6:height":"7.2","6:national_information":"Til innover land ved Engelsbøen NØ for lykta (skjermet av hus)","6:period":"4","6:range":"3.9","6:sector_end":"232.0","6:sector_start":"226.6","6:sequence":"2+(2)"}},"osm_tags":{"name":"Høyanger","ref:kystverket":"221600","seamark:conspicuity":"conspicuous","seamark:light:1:character":"Iso","seamark:light:1:colour":"green","seamark:light:1:height":"7.2","seamark:light:1:national_information":"Fra kloss i Fureneset til godt klar NV av Fureneset","seamark:light:1:period":"4","seamark:light:1:range":"3.9","seamark:light:1:sector_end":"40.4","seamark:light:1:sector_start":"34.7","seamark:light:1:sequence":"2+(2)","seamark:light:2:character":"Iso","seamark:light:2:colour":"white","seamark:light:2:height":"7.2","seamark:light:2:national_information":"Til 155m SØ av Austreimneset","seamark:light:2:period":"4","seamark:light:2:range":"5.1","seamark:light:2:sector_end":"69.1","seamark:light:2:sector_start":"40.4","seamark:light:2:sequence":"2+(2)","seamark:light:3:character":"Iso","seamark:light:3:colour":"red","seamark:light:3:height":"7.2","seamark:light:3:national_information":"Til innover land ved Bergsvika","seamark:light:3:period":"4","seamark:light:3:range":"3.9","seamark:light:3:sector_end":"130.2","seamark:light:3:sector_start":"69.1","seamark:light:3:sequence":"2+(2)","seamark:light:4:character":"Iso","seamark:light:4:colour":"green","seamark:light:4:height":"7.2","seamark:light:4:national_information":"Til klar SØ av landet ved Pylseteigen","seamark:light:4:period":"4","seamark:light:4:range":"3.9","seamark:light:4:sector_end":"219.6","seamark:light:4:sector_start":"130.2","seamark:light:4:sequence":"2+(2)","seamark:light:5:character":"Iso","seamark:light:5:colour":"white","seamark:light:5:height":"7.2","seamark:light:5:national_information":"Til godt klar SØ av landet ved Pylseteigen","seamark:light:5:period":"4","seamark:light:5:range":"5.1","seamark:light:5:sector_end":"226.6","seamark:light:5:sector_start":"219.6","seamark:light:5:sequence":"2+(2)","seamark:light:6:character":"Iso","seamark:light:6:colour":"red","seamark:light:6:height":"7.2","seamark:light:6:national_information":"Til innover land ved Engelsbøen NØ for lykta (skjermet av hus)","seamark:light:6:period":"4","seamark:light:6:range":"3.9","seamark:light:6:sector_end":"232.0","seamark:light:6:sector_start":"226.6","seamark:light:6:sequence":"2+(2)","seamark:name":"Høyanger","seamark:type":"light_minor","seamark:vertical_length":"6.3"}}},{"type":"Feature","geometry":{"type":"LineString","coordinates":[[6.5511713,61.2212022],[6.6075729,61.2203741]]},"properties":{"osm_id":547743460,"osm_type":"way","seamark_type":"cable_overhead","display_class":"OTHER","min_zoom":12,"importance":1,"name":"Høyanger - Sogndal","ref":null,"common":{"type":"cable_overhead"},"children":{"cable_overhead":{"category":"transmission","clearance_height_safe":"74"}},"osm_tags":{"cables":"1","circuits":"1/3","name":"Høyanger - Sogndal","operator":"Statnett","power":"line","seamark:cable_overhead:category":"transmission","seamark:cable_overhead:clearance_height_safe":"74","seamark:type":"cable_overhead","voltage":"420000"}}},{"type":"Feature","geometry":{"type":"Point","coordinates":[6.8595916,61.1766667]},"properties":{"osm_id":12066707351,"osm_type":"node","seamark_type":"small_craft_facility","display_class":"OTHER","min_zoom":12,"importance":1,"name":"Leikanger Båtlag","ref":null,"common":{"type":"small_craft_facility"},"children":{"small_craft_facility":{"category":"fuel_station"}},"osm_tags":{"fuel:octane_95":"yes","fuel:taxfree_diesel":"yes","name":"Leikanger Båtlag","ref:marina":"9223","seamark:small_craft_facility:category":"fuel_station","seamark:type":"small_craft_facility","waterway":"fuel"}}},{"type":"Feature","geometry":{"type":"Point","coordinates":[6.5179919,61.80659]},"properties":{"osm_id":12067519011,"osm_type":"node","seamark_type":"small_craft_facility","display_class":"OTHER","min_zoom":12,"importance":1,"name":"MH24 Utvik","ref":null,"common":{"type":"small_craft_facility"},"children":{"small_craft_facility":{"category":"fuel_station"}},"osm_tags":{"amenity":"fuel","brand":"MH24","fuel:diesel":"yes","fuel:octane_95":"yes","fuel:taxfree_diesel":"yes","name":"MH24 Utvik","ref:marina":"9634","seamark:small_craft_facility:category":"fuel_station","seamark:type":"small_craft_facility","waterway":"fuel"}}},{"type":"Feature","geometry":{"type":"Point","coordinates":[6.9269364,61.1410031]},"properties":{"osm_id":1211588037,"osm_type":"node","seamark_type":"pile","display_class":"OTHER","min_zoom":12,"importance":1,"name":"Meisaneset","ref":null,"common":{"name":"Meisaneset","type":"pile"},"children":{"light":{"character":"Fl","colour":"white","height":"7.6","period":"3","range":"4.4","sequence":"0.3+(2.7)"},"pile":{"category":"stake","conspicuity":"not_conspicuous"}},"osm_tags":{"ref:kystverket":"223500","seamark:light:character":"Fl","seamark:light:colour":"white","seamark:light:height":"7.6","seamark:light:period":"3","seamark:light:range":"4.4","seamark:light:sequence":"0.3+(2.7)","seamark:name":"Meisaneset","seamark:pile:category":"stake","seamark:pile:conspicuity":"not_conspicuous","seamark:type":"pile"}}},{"type":"Feature","geometry":{"type":"Polygon","coordinates":[[[6.0356716,61.1100486],[6.0359153,61.1131203],[6.048006,61.1128965],[6.0477623,61.1098247],[6.0356716,61.1100486]]]},"properties":{"osm_id":556565487,"osm_type":"way","seamark_type":"marine_farm","display_class":"OTHER","min_zoom":12,"importance":1,"name":"Mjølsvik","ref":null,"common":{"type":"marine_farm"},"children":{"marine_farm":{"category":"fish"}},"osm_tags":{"aquaculture":"fish","fish":"rainbow trout","landuse":"aquaculture","name":"Mjølsvik","operator":"Osland Havbruk AS, Sulefisk AS","ref:fiskeridir":"26435","seamark:marine_farm:category":"fish","seamark:type":"marine_farm","source":"Fiskeridirektoratet"}}},{"type":"Feature","geometry":{"type":"Polygon","coordinates":[[[6.1116483,61.1526903],[6.1208385,61.1537889],[6.1217851,61.1519455],[6.1125948,61.1508469],[6.1116483,61.1526903]]]},"properties":{"osm_id":556565449,"osm_type":"way","seamark_type":"marine_farm","display_class":"OTHER","min_zoom":12,"importance":1,"name":"Måren","ref":null,"common":{"type":"marine_farm"},"children":{"marine_farm":{"category":"fish"}},"osm_tags":{"aquaculture":"fish","fish":"rainbow trout","landuse":"aquaculture","name":"Måren","operator":"Ilsvåg Holding AS, Osland Havbruk AS, Osland Stamfisk AS","ref:fiskeridir":"32977","seamark:marine_farm:category":"fish","seamark:type":"marine_farm","source":"Fiskeridirektoratet"}}},{"type":"Feature","geometry":{"type":"LineString","coordinates":[[6.6031587,61.2190737],[6.5564816,61.2192487]]},"properties":{"osm_id":1002169616,"osm_type":"way","seamark_type":"cable_overhead","display_class":"OTHER","min_zoom":12,"importance":1,"name":"Njøs - Dragsvik","ref":null,"common":{"type":"cable_overhead"},"children":{"cable_overhead":{"category":"transmission","clearance_height_safe":"50"}},"osm_tags":{"cables":"1","name":"Njøs - Dragsvik","operator":"Sygnir","power":"line","seamark:cable_overhead:category":"transmission","seamark:cable_overhead:clearance_height_safe":"50","seamark:type":"cable_overhead","voltage":"66000"}}},{"type":"Feature","geometry":{"type":"LineString","coordinates":[[6.9046912,61.1748923],[6.8547544,61.1388837]]},"properties":{"osm_id":1002169652,"osm_type":"way","seamark_type":"cable_overhead","display_class":"OTHER","min_zoom":12,"importance":1,"name":"Njøs - Hove","ref":null,"common":{"type":"cable_overhead"},"children":{"cable_overhead":{"category":"transmission","clearance_height_safe":"60"}},"osm_tags":{"cables":"1","name":"Njøs - Hove","operator":"Sygnir","power":"line","seamark:cable_overhead:category":"transmission","seamark:cable_overhead:clearance_height_safe":"60","seamark:type":"cable_overhead","voltage":"66000"}}},{"type":"Feature","geometry":{"type":"Point","coordinates":[6.8529961,61.178015]},"properties":{"osm_id":1211588000,"osm_type":"node","seamark_type":"pile","display_class":"OTHER","min_zoom":12,"importance":1,"name":"Nokkanes","ref":null,"common":{"name":"Nokkanes","type":"pile"},"children":{"light":{"1:character":"Iso","1:colour":"green","1:height":"9.3","1:national_information":"Fra inn mot land ved Klovstein til klar SV av Hønsaneset","1:period":"6","1:range":"3.1","1:sector_end":"327.3","1:sector_start":"304.9","1:sequence":"3+(3)","2:character":"Iso","2:colour":"white","2:height":"9.3","2:national_information":"Til 183m Ø av Straumsneset","2:period":"6","2:range":"4.1","2:sector_end":"345.2","2:sector_start":"327.3","2:sequence":"3+(3)","3:character":"Iso","3:colour":"red","3:height":"9.3","3:national_information":"Til 153m NV av Rinde","3:period":"6","3:range":"3.1","3:sector_end":"60.9","3:sector_start":"345.2","3:sequence":"3+(3)","4:character":"Iso","4:colour":"green","4:height":"9.3","4:national_information":"Til klar N av Vangsnes","4:period":"6","4:range":"3.1","4:sector_end":"89.8","4:sector_start":"60.9","4:sequence":"3+(3)","5:character":"Iso","5:colour":"white","5:height":"9.3","5:national_information":"Til 156m S av Galtane","5:period":"6","5:range":"4.1","5:sector_end":"91.6","5:sector_start":"89.8","5:sequence":"3+(3)","6:character":"Iso","6:colour":"red","6:height":"9.3","6:national_information":"Til innover landet ved Leikanger/Hermansverk","6:period":"6","6:range":"3.1","6:sector_end":"151.9","6:sector_start":"91.6","6:sequence":"3+(3)"},"pile":{"conspicuity":"conspicuous","vertical_length":"6"}},"osm_tags":{"name":"Nokkanes","ref:kystverket":"222500","seamark:light:1:character":"Iso","seamark:light:1:colour":"green","seamark:light:1:height":"9.3","seamark:light:1:national_information":"Fra inn mot land ved Klovstein til klar SV av Hønsaneset","seamark:light:1:period":"6","seamark:light:1:range":"3.1","seamark:light:1:sector_end":"327.3","seamark:light:1:sector_start":"304.9","seamark:light:1:sequence":"3+(3)","seamark:light:2:character":"Iso","seamark:light:2:colour":"white","seamark:light:2:height":"9.3","seamark:light:2:national_information":"Til 183m Ø av Straumsneset","seamark:light:2:period":"6","seamark:light:2:range":"4.1","seamark:light:2:sector_end":"345.2","seamark:light:2:sector_start":"327.3","seamark:light:2:sequence":"3+(3)","seamark:light:3:character":"Iso","seamark:light:3:colour":"red","seamark:light:3:height":"9.3","seamark:light:3:national_information":"Til 153m NV av Rinde","seamark:light:3:period":"6","seamark:light:3:range":"3.1","seamark:light:3:sector_end":"60.9","seamark:light:3:sector_start":"345.2","seamark:light:3:sequence":"3+(3)","seamark:light:4:character":"Iso","seamark:light:4:colour":"green","seamark:light:4:height":"9.3","seamark:light:4:national_information":"Til klar N av Vangsnes","seamark:light:4:period":"6","seamark:light:4:range":"3.1","seamark:light:4:sector_end":"89.8","seamark:light:4:sector_start":"60.9","seamark:light:4:sequence":"3+(3)","seamark:light:5:character":"Iso","seamark:light:5:colour":"white","seamark:light:5:height":"9.3","seamark:light:5:national_information":"Til 156m S av Galtane","seamark:light:5:period":"6","seamark:light:5:range":"4.1","seamark:light:5:sector_end":"91.6","seamark:light:5:sector_start":"89.8","seamark:light:5:sequence":"3+(3)","seamark:light:6:character":"Iso","seamark:light:6:colour":"red","seamark:light:6:height":"9.3","seamark:light:6:national_information":"Til innover landet ved Leikanger/Hermansverk","seamark:light:6:period":"6","seamark:light:6:range":"3.1","seamark:light:6:sector_end":"151.9","seamark:light:6:sector_start":"91.6","seamark:light:6:sequence":"3+(3)","seamark:name":"Nokkanes","seamark:pile:conspicuity":"conspicuous","seamark:pile:vertical_length":"6","seamark:type":"pile"}}},{"type":"Feature","geometry":{"type":"Point","coordinates":[6.9959564,61.1575123]},"properties":{"osm_id":1211588012,"osm_type":"node","seamark_type":"pile","display_class":"OTHER","min_zoom":12,"importance":1,"name":"Nornes","ref":null,"common":{"name":"Nornes","type":"pile"},"children":{"light":{"1:character":"Oc","1:colour":"green","1:height":"5.5","1:national_information":"Fra innover Ylvisåker til 113m Ø av Ylvisåker","1:period":"6","1:range":"4.8","1:sector_end":"209.8","1:sector_start":"204.6","1:sequence":"(5)+1","2:character":"Oc","2:colour":"white","2:height":"5.5","2:national_information":"Til 125m V av Vinesholmane","2:period":"6","2:range":"6.2","2:sector_end":"214.9","2:sector_start":"209.8","2:sequence":"(5)+1","3:character":"Oc","3:colour":"red","3:height":"5.5","3:national_information":"Til innover land ved Klubben","3:period":"6","3:range":"4.8","3:sector_end":"320.6","3:sector_start":"214.9","3:sequence":"(5)+1","4:character":"Oc","4:colour":"green","4:height":"5.5","4:national_information":"Til klar N av 5,3m Grunnane utenfor Fimreite","4:period":"6","4:range":"4.8","4:sector_end":"82.0","4:sector_start":"320.6","4:sequence":"(5)+1","5:character":"Oc","5:colour":"white","5:height":"5.5","5:national_information":"Til 183m S av Saltskjerflu stang","5:period":"6","5:range":"6.2","5:sector_end":"90.3","5:sector_start":"82.0","5:sequence":"(5)+1","6:character":"Oc","6:colour":"red","6:height":"5.5","6:national_information":"Til innover land ved Slinde","6:period":"6","6:range":"4.8","6:sector_end":"99.4","6:sector_start":"90.3","6:sequence":"(5)+1"},"pile":{"conspicuity":"conspicuous","vertical_length":"6"}},"osm_tags":{"name":"Nornes","ref:kystverket":"222700","seamark:light:1:character":"Oc","seamark:light:1:colour":"green","seamark:light:1:height":"5.5","seamark:light:1:national_information":"Fra innover Ylvisåker til 113m Ø av Ylvisåker","seamark:light:1:period":"6","seamark:light:1:range":"4.8","seamark:light:1:sector_end":"209.8","seamark:light:1:sector_start":"204.6","seamark:light:1:sequence":"(5)+1","seamark:light:2:character":"Oc","seamark:light:2:colour":"white","seamark:light:2:height":"5.5","seamark:light:2:national_information":"Til 125m V av Vinesholmane","seamark:light:2:period":"6","seamark:light:2:range":"6.2","seamark:light:2:sector_end":"214.9","seamark:light:2:sector_start":"209.8","seamark:light:2:sequence":"(5)+1","seamark:light:3:character":"Oc","seamark:light:3:colour":"red","seamark:light:3:height":"5.5","seamark:light:3:national_information":"Til innover land ved Klubben","seamark:light:3:period":"6","seamark:light:3:range":"4.8","seamark:light:3:sector_end":"320.6","seamark:light:3:sector_start":"214.9","seamark:light:3:sequence":"(5)+1","seamark:light:4:character":"Oc","seamark:light:4:colour":"green","seamark:light:4:height":"5.5","seamark:light:4:national_information":"Til klar N av 5,3m Grunnane utenfor Fimreite","seamark:light:4:period":"6","seamark:light:4:range":"4.8","seamark:light:4:sector_end":"82.0","seamark:light:4:sector_start":"320.6","seamark:light:4:sequence":"(5)+1","seamark:light:5:character":"Oc","seamark:light:5:colour":"white","seamark:light:5:height":"5.5","seamark:light:5:national_information":"Til 183m S av Saltskjerflu stang","seamark:light:5:period":"6","seamark:light:5:range":"6.2","seamark:light:5:sector_end":"90.3","seamark:light:5:sector_start":"82.0","seamark:light:5:sequence":"(5)+1","seamark:light:6:character":"Oc","seamark:light:6:colour":"red","seamark:light:6:height":"5.5","seamark:light:6:national_information":"Til innover land ved Slinde","seamark:light:6:period":"6","seamark:light:6:range":"4.8","seamark:light:6:sector_end":"99.4","seamark:light:6:sector_start":"90.3","seamark:light:6:sequence":"(5)+1","seamark:name":"Nornes","seamark:pile:conspicuity":"conspicuous","seamark:pile:vertical_length":"6","seamark:type":"pile"}}},{"type":"Feature","geometry":{"type":"Point","coordinates":[6.1388081,61.1153364]},"properties":{"osm_id":5325947764,"osm_type":"node","seamark_type":"landmark","display_class":"OTHER","min_zoom":12,"importance":1,"name":"Ortna","ref":null,"common":{"name":"Ortna","type":"landmark"},"children":{"landmark":{"category":"cairn","conspicuity":"conspicuous"},"light":{"character":"Q","colour":"white","period":"1","range":"4.2","sequence":"0.2+(0.8)"}},"osm_tags":{"man_made":"beacon","name":"Ortna","ref:kystverket":"221710","seamark:landmark:category":"cairn","seamark:landmark:conspicuity":"conspicuous","seamark:light:character":"Q","seamark:light:colour":"white","seamark:light:period":"1","seamark:light:range":"4.2","seamark:light:sequence":"0.2+(0.8)","seamark:name":"Ortna","seamark:type":"landmark"}}},{"type":"Feature","geometry":{"type":"Point","coordinates":[6.1342367,61.1155955]},"properties":{"osm_id":5325528312,"osm_type":"node","seamark_type":"pile","display_class":"OTHER","min_zoom":12,"importance":1,"name":"Ortnevikneset","ref":null,"common":{"name":"Ortnevikneset","type":"pile"},"children":{"light":{"1:character":"F","1:colour":"green","1:height":"4.5","1:range":"1.9","2:category":"floodlight","2:character":"F","2:colour":"yellow"},"pile":{"category":"stake","vertical_length":"4"}},"osm_tags":{"ref:kystverket":"221701","seamark:light:1:character":"F","seamark:light:1:colour":"green","seamark:light:1:height":"4.5","seamark:light:1:range":"1.9","seamark:light:2:category":"floodlight","seamark:light:2:character":"F","seamark:light:2:colour":"yellow","seamark:name":"Ortnevikneset","seamark:pile:category":"stake","seamark:pile:vertical_length":"4","seamark:type":"pile"}}},{"type":"Feature","geometry":{"type":"Point","coordinates":[6.7939109,61.8692828]},"properties":{"osm_id":1211590107,"osm_type":"node","seamark_type":"light_minor","display_class":"OTHER","min_zoom":12,"importance":1,"name":"Rakenes","ref":null,"common":{"conspicuity":"conspicuous","name":"Rakenes","type":"light_minor","vertical_length":"6"},"children":{"light":{"1:character":"Oc","1:colour":"green","1:height":"5.5","1:national_information":"Fra innover land Solvik til klar S av Hella","1:period":"6","1:range":"3.7","1:sector_end":"256.3","1:sector_start":"254.2","1:sequence":"(5)+1","2:character":"Oc","2:colour":"white","2:height":"5.5","2:national_information":"Til klar N av Engasteinen og klar N av Engane","2:period":"6","2:range":"4.5","2:sector_end":"265.5","2:sector_start":"256.3","2:sequence":"(5)+1","3:character":"Oc","3:colour":"red","3:height":"5.5","3:national_information":"Til innover land ved Kråkeneset","3:period":"6","3:range":"3.7","3:sector_end":"314.6","3:sector_start":"265.5","3:sequence":"(5)+1","4:character":"Oc","4:colour":"green","4:height":"5.5","4:national_information":"Til klar V av Sandneset","4:period":"6","4:range":"3.7","4:sector_end":"347.2","4:sector_start":"314.6","4:sequence":"(5)+1","5:character":"Oc","5:colour":"white","5:height":"5.5","5:national_information":"Til klar Ø av Skarsteinneset","5:period":"6","5:range":"4.5","5:sector_end":"350.4","5:sector_start":"347.2","5:sequence":"(5)+1","6:character":"Oc","6:colour":"red","6:height":"5.5","6:national_information":"Til innover land ved Råaneset","6:period":"6","6:range":"3.7","6:sector_end":"5.1","6:sector_start":"350.4","6:sequence":"(5)+1","7:character":"Oc","7:colour":"green","7:height":"5.5","7:national_information":"Til klar N av land ved Treføttingen","7:period":"6","7:range":"3.7","7:sector_end":"95.9","7:sector_start":"5.1","7:sequence":"(5)+1","8:character":"Oc","8:colour":"white","8:height":"5.5","8:national_information":"Til klar S av 4m grunne Marsåvika og godt klar S av land ved Staveneset","8:period":"6","8:range":"4.5","8:sector_end":"99.0","8:sector_start":"95.9","8:sequence":"(5)+1","9:character":"Oc","9:colour":"red","9:height":"5.5","9:national_information":"Til godt klar S av Staveneset","9:period":"6","9:range":"3.7","9:sector_end":"102.3","9:sector_start":"99.0","9:sequence":"(5)+1"}},"osm_tags":{"name":"Rakenes","ref:kystverket":"280600","seamark:conspicuity":"conspicuous","seamark:light:1:character":"Oc","seamark:light:1:colour":"green","seamark:light:1:height":"5.5","seamark:light:1:national_information":"Fra innover land Solvik til klar S av Hella","seamark:light:1:period":"6","seamark:light:1:range":"3.7","seamark:light:1:sector_end":"256.3","seamark:light:1:sector_start":"254.2","seamark:light:1:sequence":"(5)+1","seamark:light:2:character":"Oc","seamark:light:2:colour":"white","seamark:light:2:height":"5.5","seamark:light:2:national_information":"Til klar N av Engasteinen og klar N av Engane","seamark:light:2:period":"6","seamark:light:2:range":"4.5","seamark:light:2:sector_end":"265.5","seamark:light:2:sector_start":"256.3","seamark:light:2:sequence":"(5)+1","seamark:light:3:character":"Oc","seamark:light:3:colour":"red","seamark:light:3:height":"5.5","seamark:light:3:national_information":"Til innover land ved Kråkeneset","seamark:light:3:period":"6","seamark:light:3:range":"3.7","seamark:light:3:sector_end":"314.6","seamark:light:3:sector_start":"265.5","seamark:light:3:sequence":"(5)+1","seamark:light:4:character":"Oc","seamark:light:4:colour":"green","seamark:light:4:height":"5.5","seamark:light:4:national_information":"Til klar V av Sandneset","seamark:light:4:period":"6","seamark:light:4:range":"3.7","seamark:light:4:sector_end":"347.2","seamark:light:4:sector_start":"314.6","seamark:light:4:sequence":"(5)+1","seamark:light:5:character":"Oc","seamark:light:5:colour":"white","seamark:light:5:height":"5.5","seamark:light:5:national_information":"Til klar Ø av Skarsteinneset","seamark:light:5:period":"6","seamark:light:5:range":"4.5","seamark:light:5:sector_end":"350.4","seamark:light:5:sector_start":"347.2","seamark:light:5:sequence":"(5)+1","seamark:light:6:character":"Oc","seamark:light:6:colour":"red","seamark:light:6:height":"5.5","seamark:light:6:national_information":"Til innover land ved Råaneset","seamark:light:6:period":"6","seamark:light:6:range":"3.7","seamark:light:6:sector_end":"5.1","seamark:light:6:sector_start":"350.4","seamark:light:6:sequence":"(5)+1","seamark:light:7:character":"Oc","seamark:light:7:colour":"green","seamark:light:7:height":"5.5","seamark:light:7:national_information":"Til klar N av land ved Treføttingen","seamark:light:7:period":"6","seamark:light:7:range":"3.7","seamark:light:7:sector_end":"95.9","seamark:light:7:sector_start":"5.1","seamark:light:7:sequence":"(5)+1","seamark:light:8:character":"Oc","seamark:light:8:colour":"white","seamark:light:8:height":"5.5","seamark:light:8:national_information":"Til klar S av 4m grunne Marsåvika og godt klar S av land ved Staveneset","seamark:light:8:period":"6","seamark:light:8:range":"4.5","seamark:light:8:sector_end":"99.0","seamark:light:8:sector_start":"95.9","seamark:light:8:sequence":"(5)+1","seamark:light:9:character":"Oc","seamark:light:9:colour":"red","seamark:light:9:height":"5.5","seamark:light:9:national_information":"Til godt klar S av Staveneset","seamark:light:9:period":"6","seamark:light:9:range":"3.7","seamark:light:9:sector_end":"102.3","seamark:light:9:sector_start":"99.0","seamark:light:9:sequence":"(5)+1","seamark:name":"Rakenes","seamark:type":"light_minor","seamark:vertical_length":"6"}}},{"type":"Feature","geometry":{"type":"Point","coordinates":[6.6732161,61.2033711]},"properties":{"osm_id":11031328086,"osm_type":"node","seamark_type":"rock","display_class":"OTHER","min_zoom":12,"importance":1,"name":"Skjer","ref":null,"common":{"type":"rock"},"children":{},"osm_tags":{"alt_name":"Skjær","name":"Skjer","place":"islet","seamark:type":"rock","ssr:stedsnr":"312977"}}},{"type":"Feature","geometry":{"type":"Point","coordinates":[6.7056857,61.893175]},"properties":{"osm_id":1270148250,"osm_type":"node","seamark_type":"harbour","display_class":"OTHER","min_zoom":12,"importance":1,"name":"Strynt","ref":null,"common":{"type":"harbour"},"children":{"harbour":{"category":"marina"}},"osm_tags":{"leisure":"marina","name":"Strynt","seamark:harbour:category":"marina","seamark:type":"harbour"}}},{"type":"Feature","geometry":{"type":"Point","coordinates":[6.3780941,61.1098916]},"properties":{"osm_id":1211587921,"osm_type":"node","seamark_type":"light_minor","display_class":"OTHER","min_zoom":12,"importance":1,"name":"Sæleneset","ref":null,"common":{"conspicuity":"conspicuous","name":"Sæleneset","type":"light_minor","vertical_length":"9"},"children":{"light":{"10:character":"Iso","10:colour":"green","10:height":"11.5","10:national_information":"Til klar N av Heggeneset","10:period":"6","10:range":"6.1","10:sector_end":"96.4","10:sector_start":"84.9","10:sequence":"3+(3)","11:character":"Iso","11:colour":"white","11:height":"11.5","11:national_information":"Til klar S av Skinnbrokneset","11:period":"6","11:range":"7.6","11:sector_end":"102.3","11:sector_start":"96.4","11:sequence":"3+(3)","12:character":"Iso","12:colour":"red","12:height":"11.5","12:national_information":"Til innover land vest av lykten","12:period":"6","12:range":"6.1","12:sector_end":"104.7","12:sector_start":"102.3","12:sequence":"3+(3)","1:character":"Iso","1:colour":"green","1:height":"11.5","1:national_information":"Fra innover Fureneset til 116 m S av neset øst for Fureneset","1:period":"6","1:range":"6.1","1:sector_end":"267.2","1:sector_start":"263.8","1:sequence":"3+(3)","2:character":"Iso","2:colour":"white","2:height":"11.5","2:national_information":"Til klar N av Lyktvorholmen","2:period":"6","2:range":"7.6","2:sector_end":"273.4","2:sector_start":"267.2","2:sequence":"3+(3)","3:character":"Iso","3:colour":"red","3:height":"11.5","3:national_information":"Til inn mot Svollsviki","3:period":"6","3:range":"6.1","3:sector_end":"291.7","3:sector_start":"273.4","3:sequence":"3+(3)","4:character":"Iso","4:colour":"green","4:height":"11.5","4:national_information":"Til klar SV av Arnafjord fyrlykt","4:period":"6","4:range":"6.1","4:sector_end":"329.1","4:sector_start":"291.7","4:sequence":"3+(3)","5:character":"Iso","5:colour":"white","5:height":"11.5","5:national_information":"Til klar Ø av Husstavnes","5:period":"6","5:range":"7.6","5:sector_end":"336.9","5:sector_start":"329.1","5:sequence":"3+(3)","6:character":"Iso","6:colour":"red","6:height":"11.5","6:national_information":"Til innover land ved Sopa","6:period":"6","6:range":"6.1","6:sector_end":"6.1","6:sector_start":"336.9","6:sequence":"3+(3)","7:character":"Iso","7:colour":"green","7:height":"11.5","7:national_information":"Til klar NV av Tåa","7:period":"6","7:range":"6.1","7:sector_end":"29.0","7:sector_start":"6.1","7:sequence":"3+(3)","8:character":"Iso","8:colour":"white","8:height":"11.5","8:national_information":"Til klar Ø av Elvaneset","8:period":"6","8:range":"7.6","8:sector_end":"30.0","8:sector_start":"29.0","8:sequence":"3+(3)","9:character":"Iso","9:colour":"red","9:height":"11.5","9:national_information":"Til klar N av Indrebø","9:period":"6","9:range":"6.1","9:sector_end":"84.9","9:sector_start":"30.0","9:sequence":"3+(3)"}},"osm_tags":{"name":"Sæleneset","ref:kystverket":"222000","seamark:conspicuity":"conspicuous","seamark:light:10:character":"Iso","seamark:light:10:colour":"green","seamark:light:10:height":"11.5","seamark:light:10:national_information":"Til klar N av Heggeneset","seamark:light:10:period":"6","seamark:light:10:range":"6.1","seamark:light:10:sector_end":"96.4","seamark:light:10:sector_start":"84.9","seamark:light:10:sequence":"3+(3)","seamark:light:11:character":"Iso","seamark:light:11:colour":"white","seamark:light:11:height":"11.5","seamark:light:11:national_information":"Til klar S av Skinnbrokneset","seamark:light:11:period":"6","seamark:light:11:range":"7.6","seamark:light:11:sector_end":"102.3","seamark:light:11:sector_start":"96.4","seamark:light:11:sequence":"3+(3)","seamark:light:12:character":"Iso","seamark:light:12:colour":"red","seamark:light:12:height":"11.5","seamark:light:12:national_information":"Til innover land vest av lykten","seamark:light:12:period":"6","seamark:light:12:range":"6.1","seamark:light:12:sector_end":"104.7","seamark:light:12:sector_start":"102.3","seamark:light:12:sequence":"3+(3)","seamark:light:1:character":"Iso","seamark:light:1:colour":"green","seamark:light:1:height":"11.5","seamark:light:1:national_information":"Fra innover Fureneset til 116 m S av neset øst for Fureneset","seamark:light:1:period":"6","seamark:light:1:range":"6.1","seamark:light:1:sector_end":"267.2","seamark:light:1:sector_start":"263.8","seamark:light:1:sequence":"3+(3)","seamark:light:2:character":"Iso","seamark:light:2:colour":"white","seamark:light:2:height":"11.5","seamark:light:2:national_information":"Til klar N av Lyktvorholmen","seamark:light:2:period":"6","seamark:light:2:range":"7.6","seamark:light:2:sector_end":"273.4","seamark:light:2:sector_start":"267.2","seamark:light:2:sequence":"3+(3)","seamark:light:3:character":"Iso","seamark:light:3:colour":"red","seamark:light:3:height":"11.5","seamark:light:3:national_information":"Til inn mot Svollsviki","seamark:light:3:period":"6","seamark:light:3:range":"6.1","seamark:light:3:sector_end":"291.7","seamark:light:3:sector_start":"273.4","seamark:light:3:sequence":"3+(3)","seamark:light:4:character":"Iso","seamark:light:4:colour":"green","seamark:light:4:height":"11.5","seamark:light:4:national_information":"Til klar SV av Arnafjord fyrlykt","seamark:light:4:period":"6","seamark:light:4:range":"6.1","seamark:light:4:sector_end":"329.1","seamark:light:4:sector_start":"291.7","seamark:light:4:sequence":"3+(3)","seamark:light:5:character":"Iso","seamark:light:5:colour":"white","seamark:light:5:height":"11.5","seamark:light:5:national_information":"Til klar Ø av Husstavnes","seamark:light:5:period":"6","seamark:light:5:range":"7.6","seamark:light:5:sector_end":"336.9","seamark:light:5:sector_start":"329.1","seamark:light:5:sequence":"3+(3)","seamark:light:6:character":"Iso","seamark:light:6:colour":"red","seamark:light:6:height":"11.5","seamark:light:6:national_information":"Til innover land ved Sopa","seamark:light:6:period":"6","seamark:light:6:range":"6.1","seamark:light:6:sector_end":"6.1","seamark:light:6:sector_start":"336.9","seamark:light:6:sequence":"3+(3)","seamark:light:7:character":"Iso","seamark:light:7:colour":"green","seamark:light:7:height":"11.5","seamark:light:7:national_information":"Til klar NV av Tåa","seamark:light:7:period":"6","seamark:light:7:range":"6.1","seamark:light:7:sector_end":"29.0","seamark:light:7:sector_start":"6.1","seamark:light:7:sequence":"3+(3)","seamark:light:8:character":"Iso","seamark:light:8:colour":"white","seamark:light:8:height":"11.5","seamark:light:8:national_information":"Til klar Ø av Elvaneset","seamark:light:8:period":"6","seamark:light:8:range":"7.6","seamark:light:8:sector_end":"30.0","seamark:light:8:sector_start":"29.0","seamark:light:8:sequence":"3+(3)","seamark:light:9:character":"Iso","seamark:light:9:colour":"red","seamark:light:9:height":"11.5","seamark:light:9:national_information":"Til klar N av Indrebø","seamark:light:9:period":"6","seamark:light:9:range":"6.1","seamark:light:9:sector_end":"84.9","seamark:light:9:sector_start":"30.0","seamark:light:9:sequence":"3+(3)","seamark:name":"Sæleneset","seamark:type":"light_minor","seamark:vertical_length":"9"}}},{"type":"Feature","geometry":{"type":"Point","coordinates":[6.860112,61.17651]},"properties":{"osm_id":8334401243,"osm_type":"node","seamark_type":"rescue_station","display_class":"OTHER","min_zoom":12,"importance":1,"name":"UNI Sognefjord","ref":"RS 167","common":{"name":"UNI Sognefjord","type":"rescue_station"},"children":{"radio_station":{"category":"ais","mmsi":"257037300"},"rescue_station":{"category":"lifeboat_on_mooring"}},"osm_tags":{"amenity":"lifeboat","emergency":"marine_rescue","lifeboat":"offshore","lifeboat:class":"RS Staff-klassen","name":"UNI Sognefjord","operator":"Redningsselskapet","operator:short":"RS","operator:wikidata":"Q1462950","operator:wikipedia":"no:Redningsselskapet","ref":"RS 167","seamark:name":"UNI Sognefjord","seamark:radio_station:category":"ais","seamark:radio_station:mmsi":"257037300","seamark:rescue_station:category":"lifeboat_on_mooring","seamark:type":"rescue_station","start_date":"2019","website":"https://www.redningsselskapet.no/om-oss/redningsskoytene/rs-167-uni-sognefjord/"}}},{"type":"Feature","geometry":{"type":"Point","coordinates":[6.6310645,61.1738016]},"properties":{"osm_id":1211587995,"osm_type":"node","seamark_type":"pile","display_class":"OTHER","min_zoom":12,"importance":1,"name":"Vangsnes","ref":null,"common":{"name":"Vangsnes","type":"pile"},"children":{"light":{"character":"Fl","colour":"green","height":"5.7","period":"3","range":"3","sequence":"0.3+(2.7)"},"pile":{"category":"stake","conspicuity":"not_conspicuous"}},"osm_tags":{"ref:kystverket":"222300","seamark:light:character":"Fl","seamark:light:colour":"green","seamark:light:height":"5.7","seamark:light:period":"3","seamark:light:range":"3","seamark:light:sequence":"0.3+(2.7)","seamark:name":"Vangsnes","seamark:pile:category":"stake","seamark:pile:conspicuity":"not_conspicuous","seamark:type":"pile"}}},{"type":"Feature","geometry":{"type":"Point","coordinates":[6.6323589,61.1738889]},"properties":{"osm_id":4375650627,"osm_type":"node","seamark_type":"harbour","display_class":"OTHER","min_zoom":12,"importance":1,"name":"Vangsnes","ref":null,"common":{"type":"harbour"},"children":{"harbour":{"category":"marina"}},"osm_tags":{"leisure":"marina","name":"Vangsnes","port_of_entry":"no","seamark:harbour:category":"marina","seamark:type":"harbour"}}},{"type":"Feature","geometry":{"type":"Point","coordinates":[6.5679221,61.2122391]},"properties":{"osm_id":1211587984,"osm_type":"node","seamark_type":"light_minor","display_class":"OTHER","min_zoom":12,"importance":1,"name":"Veganeset","ref":null,"common":{"conspicuity":"conspicuous","name":"Veganeset","type":"light_minor","vertical_length":"5"},"children":{"light":{"1:character":"Iso","1:colour":"green","1:height":"9","1:national_information":"Fra innover land nord for lykta til klar Ø av Kalven","1:period":"4","1:range":"5.9","1:sector_end":"184.3","1:sector_start":"181.8","1:sequence":"2+(2)","2:character":"Iso","2:colour":"white","2:height":"9","2:national_information":"Til 139m V av landet ved Frykjelen","2:period":"4","2:range":"7.3","2:sector_end":"197.3","2:sector_start":"184.3","2:sequence":"2+(2)","3:character":"Iso","3:colour":"red","3:height":"9","3:national_information":"Til innover land ved Tenningane","3:period":"4","3:range":"5.9","3:sector_end":"216.3","3:sector_start":"197.3","3:sequence":"2+(2)","4:character":"Iso","4:colour":"green","4:height":"9","4:national_information":"Til klar SV av Verkaneset","4:period":"4","4:range":"5.9","4:sector_end":"293.9","4:sector_start":"216.3","4:sequence":"2+(2)","5:character":"Iso","5:colour":"white","5:height":"9","5:national_information":"Til klar NØ av Håanes","5:period":"4","5:range":"7.3","5:sector_end":"304.2","5:sector_start":"293.9","5:sequence":"2+(2)","6:character":"Iso","6:colour":"red","6:height":"9","6:national_information":"Til 143m V av Vangsneset lanterne","6:period":"4","6:range":"5.9","6:sector_end":"323.2","6:sector_start":"304.2","6:sequence":"2+(2)","7:character":"Iso","7:colour":"green","7:height":"9","7:national_information":"Til klar Ø av neset ved Ytste Galden","7:period":"4","7:range":"5.9","7:sector_end":"357.1","7:sector_start":"323.2","7:sequence":"2+(2)","8:character":"Iso","8:colour":"white","8:height":"9","8:national_information":"Til klar Ø av Målsnes","8:period":"4","8:range":"7.3","8:sector_end":"7.4","8:sector_start":"357.1","8:sequence":"2+(2)","9:character":"Iso","9:colour":"red","9:height":"9","9:national_information":"Til innover landet vest for lykta","9:period":"4","9:range":"5.9","9:sector_end":"44.7","9:sector_start":"7.4","9:sequence":"2+(2)"}},"osm_tags":{"name":"Veganeset","ref:kystverket":"222100","seamark:conspicuity":"conspicuous","seamark:light:1:character":"Iso","seamark:light:1:colour":"green","seamark:light:1:height":"9","seamark:light:1:national_information":"Fra innover land nord for lykta til klar Ø av Kalven","seamark:light:1:period":"4","seamark:light:1:range":"5.9","seamark:light:1:sector_end":"184.3","seamark:light:1:sector_start":"181.8","seamark:light:1:sequence":"2+(2)","seamark:light:2:character":"Iso","seamark:light:2:colour":"white","seamark:light:2:height":"9","seamark:light:2:national_information":"Til 139m V av landet ved Frykjelen","seamark:light:2:period":"4","seamark:light:2:range":"7.3","seamark:light:2:sector_end":"197.3","seamark:light:2:sector_start":"184.3","seamark:light:2:sequence":"2+(2)","seamark:light:3:character":"Iso","seamark:light:3:colour":"red","seamark:light:3:height":"9","seamark:light:3:national_information":"Til innover land ved Tenningane","seamark:light:3:period":"4","seamark:light:3:range":"5.9","seamark:light:3:sector_end":"216.3","seamark:light:3:sector_start":"197.3","seamark:light:3:sequence":"2+(2)","seamark:light:4:character":"Iso","seamark:light:4:colour":"green","seamark:light:4:height":"9","seamark:light:4:national_information":"Til klar SV av Verkaneset","seamark:light:4:period":"4","seamark:light:4:range":"5.9","seamark:light:4:sector_end":"293.9","seamark:light:4:sector_start":"216.3","seamark:light:4:sequence":"2+(2)","seamark:light:5:character":"Iso","seamark:light:5:colour":"white","seamark:light:5:height":"9","seamark:light:5:national_information":"Til klar NØ av Håanes","seamark:light:5:period":"4","seamark:light:5:range":"7.3","seamark:light:5:sector_end":"304.2","seamark:light:5:sector_start":"293.9","seamark:light:5:sequence":"2+(2)","seamark:light:6:character":"Iso","seamark:light:6:colour":"red","seamark:light:6:height":"9","seamark:light:6:national_information":"Til 143m V av Vangsneset lanterne","seamark:light:6:period":"4","seamark:light:6:range":"5.9","seamark:light:6:sector_end":"323.2","seamark:light:6:sector_start":"304.2","seamark:light:6:sequence":"2+(2)","seamark:light:7:character":"Iso","seamark:light:7:colour":"green","seamark:light:7:height":"9","seamark:light:7:national_information":"Til klar Ø av neset ved Ytste Galden","seamark:light:7:period":"4","seamark:light:7:range":"5.9","seamark:light:7:sector_end":"357.1","seamark:light:7:sector_start":"323.2","seamark:light:7:sequence":"2+(2)","seamark:light:8:character":"Iso","seamark:light:8:colour":"white","seamark:light:8:height":"9","seamark:light:8:national_information":"Til klar Ø av Målsnes","seamark:light:8:period":"4","seamark:light:8:range":"7.3","seamark:light:8:sector_end":"7.4","seamark:light:8:sector_start":"357.1","seamark:light:8:sequence":"2+(2)","seamark:light:9:character":"Iso","seamark:light:9:colour":"red","seamark:light:9:height":"9","seamark:light:9:national_information":"Til innover landet vest for lykta","seamark:light:9:period":"4","seamark:light:9:range":"5.9","seamark:light:9:sector_end":"44.7","seamark:light:9:sector_start":"7.4","seamark:light:9:sequence":"2+(2)","seamark:name":"Veganeset","seamark:type":"light_minor","seamark:vertical_length":"5"}}},{"type":"Feature","geometry":{"type":"Point","coordinates":[6.576536,61.090277]},"properties":{"osm_id":12066707349,"osm_type":"node","seamark_type":"small_craft_facility","display_class":"OTHER","min_zoom":12,"importance":1,"name":"Vik Båthavn","ref":null,"common":{"type":"small_craft_facility"},"children":{"small_craft_facility":{"category":"fuel_station"}},"osm_tags":{"fuel:octane_95":"yes","fuel:taxfree_diesel":"yes","name":"Vik Båthavn","ref:marina":"9325","seamark:small_craft_facility:category":"fuel_station","seamark:type":"small_craft_facility","waterway":"fuel"}}},{"type":"Feature","geometry":{"type":"Point","coordinates":[6.5871233,61.0897433]},"properties":{"osm_id":12066707360,"osm_type":"node","seamark_type":"small_craft_facility","display_class":"OTHER","min_zoom":12,"importance":1,"name":"Vik i Sogn","ref":null,"common":{"type":"small_craft_facility"},"children":{"small_craft_facility":{"category":"fuel_station"}},"osm_tags":{"brand":"Tanken","fuel:octane_95":"yes","fuel:taxfree_diesel":"yes","name":"Vik i Sogn","ref:marina":"9340","seamark:small_craft_facility:category":"fuel_station","seamark:type":"small_craft_facility","waterway":"fuel"}}},{"type":"Feature","geometry":{"type":"Point","coordinates":[6.5771317,61.0902797]},"properties":{"osm_id":4375700837,"osm_type":"node","seamark_type":"harbour","display_class":"OTHER","min_zoom":12,"importance":1,"name":"Vikøyri","ref":null,"common":{"type":"harbour"},"children":{"harbour":{"category":"marina"}},"osm_tags":{"leisure":"marina","name":"Vikøyri","seamark:harbour:category":"marina","seamark:type":"harbour"}}},{"type":"Feature","geometry":{"type":"Point","coordinates":[6.1396805,61.8464923]},"properties":{"osm_id":5325944987,"osm_type":"node","seamark_type":"pile","display_class":"OTHER","min_zoom":12,"importance":1,"name":"Åsneset","ref":null,"common":{"name":"Åsneset","type":"pile"},"children":{"light":{"character":"Iso","colour":"red","height":"5.5","period":"4","range":"4.1"},"pile":{"vertical_length":"6"}},"osm_tags":{"ref:kystverket":"280442","seamark:light:character":"Iso","seamark:light:colour":"red","seamark:light:height":"5.5","seamark:light:period":"4","seamark:light:range":"4.1","seamark:name":"Åsneset","seamark:pile:vertical_length":"6","seamark:type":"pile"}}}],"type":"FeatureCollection"}