{"type":"FeatureCollection","features":[{"type":"Feature","geometry":{"type":"Polygon","coordinates":[[[4.14,62.9991667],[4.0678333,62.9195],[4.0678333,62.833],[4.1405,62.833],[4.1405,62.913],[4.2075,62.9863333],[4.14,62.9991667]]]},"properties":{"osm_id":179980724,"osm_type":"way","seamark_type":"separation_zone","display_class":"TSS","min_zoom":6,"importance":5,"name":"TSS Off Runde","ref":null,"common":{"name":"TSS Off Runde","type":"separation_zone"},"children":{},"osm_tags":{"seamark:name":"TSS Off Runde","seamark:type":"separation_zone"}}},{"type":"Feature","geometry":{"type":"Point","coordinates":[4.9856425,62.0347853]},"properties":{"osm_id":1115685554,"osm_type":"node","seamark_type":"light_major","display_class":"LIGHTHOUSE","min_zoom":7,"importance":5,"name":"Kråkenes","ref":null,"common":{"conspicuity":"conspicuous","name":"Kråkenes","type":"light_major","vertical_length":"10.5"},"children":{"light":{"1:character":"Oc","1:colour":"green","1:height":"45.2","1:national_information":"Fra V av Einevardfluene til 223m SØ av Taarnet","1:period":"6","1:range":"9.7","1:sector_end":"43.1","1:sector_start":"28.9","1:sequence":"(5)+1","2:character":"Oc","2:colour":"red","2:height":"45.2","2:national_information":"Til klar N av Nøreskallen","2:period":"6","2:range":"10.2","2:sector_end":"112.2","2:sector_start":"43.1","2:sequence":"(5)+1","3:character":"Oc","3:colour":"white","3:height":"45.2","3:national_information":"Til klar VSV av Torsflu","3:period":"6","3:range":"12.8","3:sector_end":"148.1","3:sector_start":"112.2","3:sequence":"(5)+1","4:character":"Oc","4:colour":"green","4:height":"45.2","4:national_information":"Til klar ØNØ av Torsflu","4:period":"6","4:range":"9.7","4:sector_end":"159.0","4:sector_start":"148.1","4:sequence":"(5)+1","5:character":"Oc","5:colour":"white","5:height":"45.2","5:national_information":"Til 940m V av Bukketjuvane","5:period":"6","5:range":"12.8","5:sector_end":"188.9","5:sector_start":"159.0","5:sequence":"(5)+1","6:character":"Oc","6:colour":"red","6:height":"45.2","6:national_information":"Til klar SØ av Utryggen og Ramsefluda","6:period":"6","6:range":"10.2","6:sector_end":"225.2","6:sector_start":"188.9","6:sequence":"(5)+1","7:character":"Oc","7:colour":"white","7:height":"45.2","7:national_information":"Til 671m NNV av Kraaka","7:period":"6","7:range":"12.8","7:sector_end":"240.6","7:sector_start":"225.2","7:sequence":"(5)+1","8:character":"Oc","8:colour":"green","8:height":"45.2","8:national_information":"Til 477m N av Skongenesholmen","8:period":"6","8:range":"9.7","8:sector_end":"266.5","8:sector_start":"240.6","8:sequence":"(5)+1","9:character":"Oc","9:colour":"red","9:height":"45.2","9:national_information":"Til 316m N av Skongenesholmen","9:period":"6","9:range":"10.2","9:sector_end":"267.7","9:sector_start":"266.5","9:sequence":"(5)+1"}},"osm_tags":{"man_made":"lighthouse","name":"Kråkenes fyr","ref:kystverket":"290500","seamark:conspicuity":"conspicuous","seamark:light:1:character":"Oc","seamark:light:1:colour":"green","seamark:light:1:height":"45.2","seamark:light:1:national_information":"Fra V av Einevardfluene til 223m SØ av Taarnet","seamark:light:1:period":"6","seamark:light:1:range":"9.7","seamark:light:1:sector_end":"43.1","seamark:light:1:sector_start":"28.9","seamark:light:1:sequence":"(5)+1","seamark:light:2:character":"Oc","seamark:light:2:colour":"red","seamark:light:2:height":"45.2","seamark:light:2:national_information":"Til klar N av Nøreskallen","seamark:light:2:period":"6","seamark:light:2:range":"10.2","seamark:light:2:sector_end":"112.2","seamark:light:2:sector_start":"43.1","seamark:light:2:sequence":"(5)+1","seamark:light:3:character":"Oc","seamark:light:3:colour":"white","seamark:light:3:height":"45.2","seamark:light:3:national_information":"Til klar VSV av Torsflu","seamark:light:3:period":"6","seamark:light:3:range":"12.8","seamark:light:3:sector_end":"148.1","seamark:light:3:sector_start":"112.2","seamark:light:3:sequence":"(5)+1","seamark:light:4:character":"Oc","seamark:light:4:colour":"green","seamark:light:4:height":"45.2","seamark:light:4:national_information":"Til klar ØNØ av Torsflu","seamark:light:4:period":"6","seamark:light:4:range":"9.7","seamark:light:4:sector_end":"159.0","seamark:light:4:sector_start":"148.1","seamark:light:4:sequence":"(5)+1","seamark:light:5:character":"Oc","seamark:light:5:colour":"white","seamark:light:5:height":"45.2","seamark:light:5:national_information":"Til 940m V av Bukketjuvane","seamark:light:5:period":"6","seamark:light:5:range":"12.8","seamark:light:5:sector_end":"188.9","seamark:light:5:sector_start":"159.0","seamark:light:5:sequence":"(5)+1","seamark:light:6:character":"Oc","seamark:light:6:colour":"red","seamark:light:6:height":"45.2","seamark:light:6:national_information":"Til klar SØ av Utryggen og Ramsefluda","seamark:light:6:period":"6","seamark:light:6:range":"10.2","seamark:light:6:sector_end":"225.2","seamark:light:6:sector_start":"188.9","seamark:light:6:sequence":"(5)+1","seamark:light:7:character":"Oc","seamark:light:7:colour":"white","seamark:light:7:height":"45.2","seamark:light:7:national_information":"Til 671m NNV av Kraaka","seamark:light:7:period":"6","seamark:light:7:range":"12.8","seamark:light:7:sector_end":"240.6","seamark:light:7:sector_start":"225.2","seamark:light:7:sequence":"(5)+1","seamark:light:8:character":"Oc","seamark:light:8:colour":"green","seamark:light:8:height":"45.2","seamark:light:8:national_information":"Til 477m N av Skongenesholmen","seamark:light:8:period":"6","seamark:light:8:range":"9.7","seamark:light:8:sector_end":"266.5","seamark:light:8:sector_start":"240.6","seamark:light:8:sequence":"(5)+1","seamark:light:9:character":"Oc","seamark:light:9:colour":"red","seamark:light:9:height":"45.2","seamark:light:9:national_information":"Til 316m N av Skongenesholmen","seamark:light:9:period":"6","seamark:light:9:range":"10.2","seamark:light:9:sector_end":"267.7","seamark:light:9:sector_start":"266.5","seamark:light:9:sequence":"(5)+1","seamark:name":"Kråkenes","seamark:type":"light_major","seamark:vertical_length":"10.5"}}},{"type":"Feature","geometry":{"type":"Point","coordinates":[4.9505,62.0386667]},"properties":{"osm_id":9864645576,"osm_type":"node","seamark_type":"calling-in_point","display_class":"OTHER","min_zoom":12,"importance":1,"name":null,"ref":null,"common":{"type":"calling-in_point"},"children":{"calling-in_point":{"channel":"18","orientation":"11","traffic_flow":"one-way"}},"osm_tags":{"seamark:calling-in_point:channel":"18","seamark:calling-in_point:orientation":"11","seamark:calling-in_point:traffic_flow":"one-way","seamark:type":"calling-in_point"}}},{"type":"Feature","geometry":{"type":"LineString","coordinates":[[4.195,62.8331667],[4.19525,62.9081671],[4.2580833,62.9769182]]},"properties":{"osm_id":179980714,"osm_type":"way","seamark_type":"separation_lane","display_class":"OTHER","min_zoom":12,"importance":1,"name":null,"ref":null,"common":{"type":"separation_lane"},"children":{},"osm_tags":{"seamark:type":"separation_lane"}}},{"type":"Feature","geometry":{"type":"LineString","coordinates":[[4.0893333,63.0089183],[4.0130833,62.9245838],[4.01325,62.8331667]]},"properties":{"osm_id":179980718,"osm_type":"way","seamark_type":"separation_lane","display_class":"OTHER","min_zoom":12,"importance":1,"name":null,"ref":null,"common":{"type":"separation_lane"},"children":{},"osm_tags":{"seamark:type":"separation_lane"}}},{"type":"Feature","geometry":{"type":"LineString","coordinates":[[4.3086667,62.9675],[4.25,62.9033333],[4.2495,62.8333333]]},"properties":{"osm_id":179980719,"osm_type":"way","seamark_type":"separation_boundary","display_class":"OTHER","min_zoom":12,"importance":1,"name":null,"ref":null,"common":{"type":"separation_boundary"},"children":{},"osm_tags":{"seamark:type":"separation_boundary"}}},{"type":"Feature","geometry":{"type":"LineString","coordinates":[[4.1041667,62.8333333],[4.1041667,62.6652598],[4.1041667,62.4962271],[4.1041667,62.326231],[4.1041667,62.1552678],[4.1041667,61.9833333]]},"properties":{"osm_id":179980725,"osm_type":"way","seamark_type":"separation_boundary","display_class":"OTHER","min_zoom":12,"importance":1,"name":null,"ref":null,"common":{"type":"separation_boundary"},"children":{},"osm_tags":{"seamark:type":"separation_boundary"}}},{"type":"Feature","geometry":{"type":"LineString","coordinates":[[4.2580833,62.9769182],[5.4966288,64.1685109]]},"properties":{"osm_id":993764454,"osm_type":"way","seamark_type":"recommended_traffic_lane","display_class":"OTHER","min_zoom":12,"importance":1,"name":null,"ref":null,"common":{"type":"recommended_traffic_lane"},"children":{},"osm_tags":{"seamark:type":"recommended_traffic_lane"}}},{"type":"Feature","geometry":{"type":"Point","coordinates":[4.9560524,62.0041844]},"properties":{"osm_id":5323259991,"osm_type":"node","seamark_type":"buoy_lateral","display_class":"OTHER","min_zoom":12,"importance":1,"name":"Einvardfluene","ref":null,"common":{"name":"Einvardfluene","type":"buoy_lateral"},"children":{"buoy_lateral":{"category":"starboard","colour":"green","shape":"spar","system":"iala-a"}},"osm_tags":{"ref:kystverket":"28451M","seamark:buoy_lateral:category":"starboard","seamark:buoy_lateral:colour":"green","seamark:buoy_lateral:shape":"spar","seamark:buoy_lateral:system":"iala-a","seamark:name":"Einvardfluene","seamark:type":"buoy_lateral"}}},{"type":"Feature","geometry":{"type":"Point","coordinates":[4.8580749,62.054761]},"properties":{"osm_id":5324480013,"osm_type":"node","seamark_type":"buoy_cardinal","display_class":"OTHER","min_zoom":12,"importance":1,"name":"Havfruskallen lysbøye","ref":null,"common":{"name":"Havfruskallen lysbøye","type":"buoy_cardinal"},"children":{"buoy_cardinal":{"category":"north","colour":"black;yellow","colour_pattern":"horizontal","shape":"pillar"},"light":{"character":"Q","colour":"white","height":"4","period":"1","range":"5","sequence":"0.2+(0.8)"}},"osm_tags":{"ref:kystverket":"285000","seamark:buoy_cardinal:category":"north","seamark:buoy_cardinal:colour":"black;yellow","seamark:buoy_cardinal:colour_pattern":"horizontal","seamark:buoy_cardinal:shape":"pillar","seamark:light:character":"Q","seamark:light:colour":"white","seamark:light:height":"4","seamark:light:period":"1","seamark:light:range":"5","seamark:light:sequence":"0.2+(0.8)","seamark:name":"Havfruskallen lysbøye","seamark:type":"buoy_cardinal"}}},{"type":"Feature","geometry":{"type":"Point","coordinates":[4.9948706,62.0347125]},"properties":{"osm_id":5359783909,"osm_type":"node","seamark_type":"harbour","display_class":"OTHER","min_zoom":12,"importance":1,"name":"Kråkenes","ref":null,"common":{"name":"Kråkenes","type":"harbour"},"children":{"harbour":{"category":"fishing"}},"osm_tags":{"harbour":"yes","seamark:harbour:category":"fishing","seamark:name":"Kråkenes","seamark:type":"harbour","source":"Kystverket"}}},{"type":"Feature","geometry":{"type":"Point","coordinates":[4.9446353,62.0185413]},"properties":{"osm_id":5323261070,"osm_type":"node","seamark_type":"buoy_lateral","display_class":"OTHER","min_zoom":12,"importance":1,"name":"Nipefluda","ref":null,"common":{"name":"Nipefluda","type":"buoy_lateral"},"children":{"buoy_lateral":{"category":"port","colour":"red","shape":"spar","system":"iala-a"}},"osm_tags":{"ref:kystverket":"28454M","seamark:buoy_lateral:category":"port","seamark:buoy_lateral:colour":"red","seamark:buoy_lateral:shape":"spar","seamark:buoy_lateral:system":"iala-a","seamark:name":"Nipefluda","seamark:type":"buoy_lateral"}}},{"type":"Feature","geometry":{"type":"LineString","coordinates":[[6.7913123,65.1105928],[6.7976157,65.1056766],[6.800065,65.0841739],[6.8006229,65.0715875],[6.7950438,65.0467952],[6.7811392,65.0073695],[6.7678356,64.9662511],[6.738052,64.8859741],[6.7177962,64.8310569],[6.712818,64.822952],[6.6989134,64.8074657],[6.6824339,64.7892653],[6.6649244,64.7639542],[6.6618345,64.7548774],[6.6606329,64.7485805],[6.6594313,64.7388392],[6.6553114,64.729241],[6.6336821,64.7041671],[6.6232107,64.6882456],[6.6008948,64.656154],[6.5821837,64.6299826],[6.5535162,64.5970121],[6.5464781,64.5892788],[6.5387533,64.5756482],[6.5363501,64.5696043],[6.5332602,64.5567013],[6.5363501,64.5334606],[6.5358351,64.5237895],[6.5234755,64.491799],[6.5092276,64.455256],[6.4882849,64.4111769],[6.4879416,64.4014625],[6.4918898,64.3831368],[6.4908598,64.3731155],[6.4759253,64.3432528],[6.4718054,64.3119439],[6.462364,64.2855156],[6.4514636,64.2671124],[6.4394903,64.2326202],[6.4149853,64.1597284],[6.3825415,64.0679211],[6.3775633,64.0594371],[6.3507841,64.0296099],[6.3037487,63.972195],[6.2956808,63.9612705],[6.2912176,63.9494371],[6.2908743,63.93164],[6.2865828,63.9219826],[6.2795447,63.9150393],[6.2501906,63.8936703],[6.2429808,63.8864933],[6.2295912,63.8691855],[6.2245273,63.8510348],[6.221094,63.8452846],[6.2156866,63.8386251],[6.2040137,63.8308284],[6.1899374,63.8233324],[6.1679648,63.8136377],[6.1616992,63.8093194],[6.1550902,63.8037881],[6.1494253,63.7965124],[6.1382672,63.7817278],[6.1355208,63.7727774],[6.1314009,63.757373],[6.1271094,63.7503131],[6.1204146,63.7425679],[6.0944937,63.7184074],[6.0630797,63.6898897],[6.0349272,63.657992],[6.0179327,63.6355127],[5.9401699,63.5300419],[5.8100506,63.3561327],[5.7452567,63.281048],[5.6631085,63.1817846],[5.6119534,63.1332622],[5.5865475,63.114793],[5.5494687,63.0829489],[5.4568524,63.0003555],[5.3606424,62.915139],[5.2207771,62.7908119],[5.06082,62.6479792],[4.9501269,62.5453608],[4.822964,62.4270361],[4.6870851,62.3000817],[4.5726633,62.1943155],[4.4390243,62.0703153],[4.3904305,61.9781952],[4.3400225,61.882341],[4.2869588,61.7633494],[4.2186618,61.609518],[4.1694575,61.498215],[4.1255032,61.3925986],[4.0732366,61.2665423],[4.0971528,61.1365054],[4.1033929,61.003079],[4.1083716,60.9591108],[4.1104315,60.9475258],[4.1466515,60.8666471],[4.1768639,60.7953641],[4.2345422,60.6640972],[4.2853539,60.5501906],[4.3265527,60.4578953],[4.3663781,60.3568477],[4.3972771,60.2813665],[4.4474023,60.1661093],[4.4872277,60.0734059],[4.5435326,59.9347208],[4.5661923,59.8853199],[4.5716854,59.862919],[4.5964047,59.8085775],[4.6235272,59.7422124],[4.6338269,59.7290621],[4.6492764,59.7153871],[4.6966549,59.6795287],[4.7258374,59.6569893],[4.7457501,59.6434584],[4.7993084,59.6030066],[4.8050593,59.5951014],[4.8106383,59.5834576],[4.819908,59.5727661],[4.8408507,59.5531126],[4.8490905,59.5432381],[4.867847,59.52424],[4.8890285,59.5021243],[4.896259,59.4963491],[4.9051812,59.489208],[4.9103723,59.4845484],[4.9272434,59.4657389],[4.9353082,59.458768],[4.9427241,59.4544576],[4.9495142,59.4511714],[4.9559104,59.4486506],[4.9691663,59.4445274],[4.9867558,59.4396732],[5.0014485,59.4346532],[5.0099072,59.4311058],[5.019432,59.4262615],[5.0296983,59.42065],[5.0338697,59.4179147],[5.036558,59.4158042],[5.0477745,59.4059806],[5.0545415,59.3984311],[5.0587592,59.3945613],[5.0679827,59.3880714],[5.1041351,59.3577175],[5.1119449,59.3513741],[5.1173214,59.3475817],[5.1205195,59.3457976],[5.1244129,59.3436589],[5.1299516,59.3414787],[5.1342505,59.3397179],[5.1382249,59.3386306],[5.1393489,59.3384001],[5.1407741,59.3379806],[5.1451743,59.3369869],[5.1513219,59.335816],[5.1723933,59.3329158],[5.174067,59.3328064],[5.1760411,59.3327845],[5.1784551,59.3328283],[5.1816201,59.3330034],[5.1945752,59.3344754],[5.1948415,59.3349369]]},"properties":{"osm_id":174152612,"osm_type":"way","seamark_type":"pipeline_submarine","display_class":"OTHER","min_zoom":12,"importance":1,"name":"Åsgard Transport","ref":null,"common":{"name":"Åsgard Transport","type":"pipeline_submarine"},"children":{"pipeline_submarine":{"category":"supply","product":"gas"}},"osm_tags":{"diameter":"1067","location":"underwater","man_made":"pipeline","name":"Åsgard Transport","operator":"Gassco","seamark:name":"Åsgard Transport","seamark:pipeline_submarine:category":"supply","seamark:pipeline_submarine:product":"gas","seamark:type":"pipeline_submarine","source":"Gassco","substance":"gas","usage":"transmission","wikidata":"Q12011664"}}}],"type":"FeatureCollection"}