{"type":"FeatureCollection","features":[{"type":"Feature","geometry":{"type":"Point","coordinates":[-49.6688059,62.0001983]},"properties":{"osm_id":13376428593,"osm_type":"node","seamark_type":"beacon_special_purpose","display_class":"BEACON","min_zoom":9,"importance":4,"name":"Entrance Rear","ref":null,"common":{"name":"Entrance Rear","type":"beacon_special_purpose"},"children":{"beacon_special_purpose":{"category":"leading","shape":"lattice"},"light":{"category":"rear","character":"Iso","colour":"white","height":"30","period":"4","range":"9.5"},"topmark":{"colour":"yellow","shape":"triangle, point down"}},"osm_tags":{"seamark:beacon_special_purpose:category":"leading","seamark:beacon_special_purpose:shape":"lattice","seamark:light:category":"rear","seamark:light:character":"Iso","seamark:light:colour":"white","seamark:light:height":"30","seamark:light:period":"4","seamark:light:range":"9.5","seamark:name":"Entrance Rear","seamark:topmark:colour":"yellow","seamark:topmark:shape":"triangle, point down","seamark:type":"beacon_special_purpose"}}}],"type":"FeatureCollection"}