{"type":"FeatureCollection","features":[{"type":"Feature","geometry":{"type":"Point","coordinates":[0.4,63.916667]},"properties":{"osm_id":6516967674,"osm_type":"node","seamark_type":"wreck","display_class":"OTHER","min_zoom":12,"importance":1,"name":"U-412","ref":null,"common":{"type":"wreck"},"children":{},"osm_tags":{"historic":"wreck","name":"U-412","seamark:type":"wreck","wikidata":"Q2790151","wikipedia":"en:German submarine U-412","wreck:date_commissioned":"1942-04-29","wreck:date_sunk":"1942-10","wreck:location":"estimate","wreck:type":"submarine"}}}],"type":"FeatureCollection"}