{"type":"FeatureCollection","features":[{"type":"Feature","geometry":{"type":"Point","coordinates":[-18.3085565,63.4552582]},"properties":{"osm_id":1806655715,"osm_type":"node","seamark_type":"light_major","display_class":"LIGHTHOUSE","min_zoom":7,"importance":5,"name":"Alvidhruhamrar","ref":null,"common":{"name":"Alvidhruhamrar","type":"light_major"},"children":{"light":{"character":"Mo","colour":"white","group":"R","height":"30","period":"20","range":"16","reference":"L 4776","sequence":"0.5+(2.5)+2+(2.5)+0.5+(12)"},"radar_transponder":{"category":"racon","group":"G","period":"60"}},"osm_tags":{"man_made":"lighthouse","name":"Mýrnatangi","seamark:light:character":"Mo","seamark:light:colour":"white","seamark:light:group":"R","seamark:light:height":"30","seamark:light:period":"20","seamark:light:range":"16","seamark:light:reference":"L 4776","seamark:light:sequence":"0.5+(2.5)+2+(2.5)+0.5+(12)","seamark:name":"Alvidhruhamrar","seamark:radar_transponder:category":"racon","seamark:radar_transponder:group":"G","seamark:radar_transponder:period":"60","seamark:type":"light_major","source":"US NGA Pub. 115. 2010-09-09."}}}],"type":"FeatureCollection"}