{"type":"FeatureCollection","features":[{"type":"Feature","geometry":{"type":"Polygon","coordinates":[[[-171.4910539,63.3186607],[-171.4909331,63.3186193],[-171.4908157,63.3186281],[-171.4907399,63.3186463],[-171.4906436,63.3187137],[-171.4905265,63.3187143],[-171.4904273,63.3187233],[-171.4904102,63.3187371],[-171.4903072,63.318751],[-171.49021,63.3187575],[-171.4901501,63.3187866],[-171.4901001,63.3188421],[-171.4901007,63.3189112],[-171.490239,63.3189692],[-171.4904861,63.3190059],[-171.4906083,63.3190144],[-171.4907261,63.3189974],[-171.4907881,63.318919],[-171.4909689,63.3188844],[-171.4910453,63.3188111],[-171.4909883,63.3187358],[-171.4910539,63.3186607]]]},"properties":{"osm_id":866970495,"osm_type":"way","seamark_type":"rock","display_class":"OTHER","min_zoom":12,"importance":1,"name":null,"ref":null,"common":{"type":"rock"},"children":{"rock":{"water_level":"submerged"}},"osm_tags":{"natural":"rock","seamark:rock:water_level":"submerged","seamark:type":"rock","source:position":"https://www.ngs.noaa.gov/NSDE/"}}},{"type":"Feature","geometry":{"type":"Polygon","coordinates":[[[-171.3627961,63.3317098],[-171.3628015,63.3317651],[-171.3628632,63.3318085],[-171.3629678,63.3318193],[-171.3630563,63.331794],[-171.3630992,63.3317507],[-171.3630483,63.3317037],[-171.3630053,63.3316748],[-171.3629249,63.3316797],[-171.3628686,63.3316893],[-171.3627961,63.3317098]]]},"properties":{"osm_id":866974782,"osm_type":"way","seamark_type":"rock","display_class":"OTHER","min_zoom":12,"importance":1,"name":null,"ref":null,"common":{"type":"rock"},"children":{"rock":{"water_level":"dry"}},"osm_tags":{"natural":"rock","seamark:rock:water_level":"dry","seamark:type":"rock","source:position":"https://www.ngs.noaa.gov/NSDE/"}}},{"type":"Feature","geometry":{"type":"Polygon","coordinates":[[[-171.35921,63.3330195],[-171.359387,63.333164],[-171.3596231,63.3332627],[-171.3597035,63.3334047],[-171.359894,63.3334661],[-171.3600254,63.333424],[-171.3598913,63.333188],[-171.3597733,63.3330725],[-171.3595909,63.3329714],[-171.3594192,63.3329377],[-171.3592368,63.3329425],[-171.35921,63.3330195]]]},"properties":{"osm_id":866974783,"osm_type":"way","seamark_type":"rock","display_class":"OTHER","min_zoom":12,"importance":1,"name":null,"ref":null,"common":{"type":"rock"},"children":{"rock":{"water_level":"awash"}},"osm_tags":{"natural":"rock","seamark:rock:water_level":"awash","seamark:type":"rock","source:position":"https://www.ngs.noaa.gov/NSDE/"}}}],"type":"FeatureCollection"}