{"type":"FeatureCollection","features":[{"type":"Feature","geometry":{"type":"Point","coordinates":[-77.9221878,63.0906311]},"properties":{"osm_id":12737088223,"osm_type":"node","seamark_type":"landmark","display_class":"OTHER","min_zoom":12,"importance":1,"name":"Nottingham Island Light","ref":null,"common":{"name":"Nottingham Island Light","reference":"H40","type":"landmark"},"children":{"light":{"character":"Fl","colour":"white","group":"6","height":"28","period":"1","range":"8","sequence":"1+(5)"}},"osm_tags":{"man_made":"lighthouse","seamark:light:character":"Fl","seamark:light:colour":"white","seamark:light:group":"6","seamark:light:height":"28","seamark:light:period":"1","seamark:light:range":"8","seamark:light:sequence":"1+(5)","seamark:name":"Nottingham Island Light","seamark:reference":"H40","seamark:type":"landmark"}}}],"type":"FeatureCollection"}