{"type":"FeatureCollection","features":[{"type":"Feature","geometry":{"type":"Polygon","coordinates":[[[5.505,64.3133333],[5.375,64.1933333],[5.445,64.1783333],[5.5733333,64.3],[5.505,64.3133333]]]},"properties":{"osm_id":993764461,"osm_type":"way","seamark_type":"separation_zone","display_class":"TSS","min_zoom":6,"importance":5,"name":null,"ref":null,"common":{"type":"separation_zone"},"children":{},"osm_tags":{"seamark:type":"separation_zone"}}},{"type":"Feature","geometry":{"type":"LineString","coordinates":[[5.3242486,64.2036884],[4.0893333,63.0089183]]},"properties":{"osm_id":993764455,"osm_type":"way","seamark_type":"recommended_traffic_lane","display_class":"OTHER","min_zoom":12,"importance":1,"name":null,"ref":null,"common":{"type":"recommended_traffic_lane"},"children":{},"osm_tags":{"seamark:type":"recommended_traffic_lane"}}},{"type":"Feature","geometry":{"type":"LineString","coordinates":[[5.4966288,64.1685109],[5.6249993,64.289612]]},"properties":{"osm_id":993764457,"osm_type":"way","seamark_type":"separation_lane","display_class":"OTHER","min_zoom":12,"importance":1,"name":null,"ref":null,"common":{"type":"separation_lane"},"children":{},"osm_tags":{"seamark:type":"separation_lane"}}},{"type":"Feature","geometry":{"type":"LineString","coordinates":[[5.4527781,64.3235508],[5.3242486,64.2036884]]},"properties":{"osm_id":993764458,"osm_type":"way","seamark_type":"separation_lane","display_class":"OTHER","min_zoom":12,"importance":1,"name":null,"ref":null,"common":{"type":"separation_lane"},"children":{},"osm_tags":{"seamark:type":"separation_lane"}}},{"type":"Feature","geometry":{"type":"LineString","coordinates":[[5.6766667,64.2783333],[5.5483333,64.1583333]]},"properties":{"osm_id":993764459,"osm_type":"way","seamark_type":"separation_boundary","display_class":"OTHER","min_zoom":12,"importance":1,"name":null,"ref":null,"common":{"type":"separation_boundary"},"children":{},"osm_tags":{"seamark:type":"separation_boundary"}}},{"type":"Feature","geometry":{"type":"LineString","coordinates":[[5.4016667,64.335],[5.2716667,64.2133333]]},"properties":{"osm_id":993764460,"osm_type":"way","seamark_type":"separation_boundary","display_class":"OTHER","min_zoom":12,"importance":1,"name":null,"ref":null,"common":{"type":"separation_boundary"},"children":{},"osm_tags":{"seamark:type":"separation_boundary"}}}],"type":"FeatureCollection"}