{"type":"FeatureCollection","features":[{"type":"Feature","geometry":{"type":"Point","coordinates":[39.8341651,64.659144]},"properties":{"osm_id":1895291469,"osm_type":"node","seamark_type":"light_minor","display_class":"OTHER","min_zoom":12,"importance":1,"name":null,"ref":null,"common":{"type":"light_minor"},"children":{"light":{"character":"Fl","period":"2","range":"18"}},"osm_tags":{"description":"H28m","man_made":"lighthouse","seamark:light:character":"Fl","seamark:light:period":"2","seamark:light:range":"18","seamark:type":"light_minor"}}},{"type":"Feature","geometry":{"type":"Point","coordinates":[39.8641808,64.5850919]},"properties":{"osm_id":3061344896,"osm_type":"node","seamark_type":"harbour","display_class":"OTHER","min_zoom":12,"importance":1,"name":null,"ref":null,"common":{"type":"harbour"},"children":{"harbour":{"category":"marina"}},"osm_tags":{"leisure":"marina","seamark:harbour:category":"marina","seamark:type":"harbour"}}},{"type":"Feature","geometry":{"type":"Point","coordinates":[39.0039708,64.7078957]},"properties":{"osm_id":9893117291,"osm_type":"node","seamark_type":"light_minor","display_class":"OTHER","min_zoom":12,"importance":1,"name":null,"ref":null,"common":{"type":"light_minor"},"children":{"light":{"character":"Fl","period":"2","range":"10"}},"osm_tags":{"man_made":"lighthouse","seamark:light:character":"Fl","seamark:light:period":"2","seamark:light:range":"10","seamark:type":"light_minor"}}},{"type":"Feature","geometry":{"type":"Point","coordinates":[39.2675949,64.6457254]},"properties":{"osm_id":9893117292,"osm_type":"node","seamark_type":"light_minor","display_class":"OTHER","min_zoom":12,"importance":1,"name":null,"ref":null,"common":{"type":"light_minor"},"children":{"light":{"character":"Fl","period":"4","range":"11"}},"osm_tags":{"man_made":"lighthouse","seamark:light:character":"Fl","seamark:light:period":"4","seamark:light:range":"11","seamark:type":"light_minor"}}},{"type":"Feature","geometry":{"type":"LineString","coordinates":[[39.8095952,64.5773477],[39.8099069,64.5769755]]},"properties":{"osm_id":91004037,"osm_type":"way","seamark_type":"gate","display_class":"OTHER","min_zoom":12,"importance":1,"name":null,"ref":null,"common":{"type":"gate"},"children":{},"osm_tags":{"seamark:type":"gate","waterway":"lock_gate"}}},{"type":"Feature","geometry":{"type":"LineString","coordinates":[[40.0102778,64.7522222],[39.9755556,64.7648611]]},"properties":{"osm_id":1073549271,"osm_type":"way","seamark_type":"recommended_track","display_class":"OTHER","min_zoom":12,"importance":1,"name":null,"ref":null,"common":{"type":"recommended_track"},"children":{"recommended_track":{"category":"no_fixed_marks"}},"osm_tags":{"seamark:recommended_track:category":"no_fixed_marks","seamark:type":"recommended_track","waterway":"fairway"}}},{"type":"Feature","geometry":{"type":"LineString","coordinates":[[39.9794882,64.756185],[39.983887,64.7555902],[40.0102778,64.7522222]]},"properties":{"osm_id":1073549272,"osm_type":"way","seamark_type":"navigation_line","display_class":"OTHER","min_zoom":12,"importance":1,"name":null,"ref":null,"common":{"type":"navigation_line"},"children":{"navigation_line":{"category":"leading"}},"osm_tags":{"seamark:navigation_line:category":"leading","seamark:type":"navigation_line"}}},{"type":"Feature","geometry":{"type":"LineString","coordinates":[[39.9755556,64.7648611],[39.9768635,64.7578977]]},"properties":{"osm_id":1074668891,"osm_type":"way","seamark_type":"navigation_line","display_class":"OTHER","min_zoom":12,"importance":1,"name":null,"ref":null,"common":{"type":"navigation_line"},"children":{"navigation_line":{"category":"leading"}},"osm_tags":{"seamark:navigation_line:category":"leading","seamark:type":"navigation_line"}}},{"type":"Feature","geometry":{"type":"LineString","coordinates":[[39.2635059,64.7050873],[39.5147712,64.7420267],[39.730946,64.773767],[39.9552489,64.8066613]]},"properties":{"osm_id":1080112639,"osm_type":"way","seamark_type":"recommended_track","display_class":"OTHER","min_zoom":12,"importance":1,"name":null,"ref":null,"common":{"type":"recommended_track"},"children":{"recommended_track":{"category":"no_fixed_marks","orientation":"251"}},"osm_tags":{"seamark:recommended_track:category":"no_fixed_marks","seamark:recommended_track:orientation":"251","seamark:type":"recommended_track"}}},{"type":"Feature","geometry":{"type":"LineString","coordinates":[[39.9755556,64.7648611],[39.9554373,64.8066912]]},"properties":{"osm_id":989341067,"osm_type":"way","seamark_type":"recommended_track","display_class":"OTHER","min_zoom":12,"importance":1,"name":"Входной","ref":null,"common":{"name":"Входной","type":"recommended_track"},"children":{"recommended_track":{"category":"fixed_marks","minimum_depth":"8.2","orientation":"348.3"}},"osm_tags":{"seamark:name":"Входной","seamark:recommended_track:category":"fixed_marks","seamark:recommended_track:minimum_depth":"8.2","seamark:recommended_track:orientation":"348.3","seamark:type":"recommended_track","waterway":"fairway"}}},{"type":"Feature","geometry":{"type":"Polygon","coordinates":[[[39.8748772,64.9764552],[39.9579613,64.9755839],[39.9572747,64.9252881],[39.8741906,64.9252881],[39.8748772,64.9764552]]]},"properties":{"osm_id":1080112636,"osm_type":"way","seamark_type":"restricted_area","display_class":"OTHER","min_zoom":12,"importance":1,"name":"Радиодевиационный полигон","ref":null,"common":{"name":"Радиодевиационный полигон","type":"restricted_area"},"children":{},"osm_tags":{"seamark:name":"Радиодевиационный полигон","seamark:type":"restricted_area"}}},{"type":"Feature","geometry":{"type":"Point","coordinates":[39.975,64.825]},"properties":{"osm_id":9896497194,"osm_type":"node","seamark_type":"restricted_area","display_class":"OTHER","min_zoom":12,"importance":1,"name":"Район № 145","ref":null,"common":{"name":"Район № 145","type":"restricted_area"},"children":{},"osm_tags":{"description":"64°49,5' N 39°58,5' E радиусом 5 кабельтовых","seamark:name":"Район № 145","seamark:type":"restricted_area"}}},{"type":"Feature","geometry":{"type":"Polygon","coordinates":[[[39.9611683,64.8191134],[39.9616484,64.8189158],[39.9621441,64.8187253],[39.9626549,64.8185421],[39.96318,64.8183664],[39.9637189,64.8181985],[39.9642709,64.8180384],[39.9648355,64.8178865],[39.965412,64.8177429],[39.9659996,64.8176077],[39.9665978,64.8174812],[39.9672057,64.8173634],[39.9678228,64.8172545],[39.9684482,64.8171546],[39.9690812,64.8170639],[39.9697212,64.8169824],[39.9703674,64.8169103],[39.9710189,64.8168476],[39.9716751,64.8167944],[39.9723352,64.8167507],[39.9729984,64.8167167],[39.973664,64.8166924],[39.9743311,64.8166777],[39.974999,64.8166727],[39.9756669,64.8166774],[39.9763341,64.8166918],[39.9769997,64.8167159],[39.9776629,64.8167497],[39.9783231,64.8167931],[39.9789794,64.816846],[39.9796311,64.8169085],[39.9802774,64.8169804],[39.9809176,64.8170616],[39.9815508,64.8171521],[39.9821765,64.8172517],[39.9827937,64.8173603],[39.9834019,64.8174779],[39.9840004,64.8176042],[39.9845883,64.8177392],[39.985165,64.8178826],[39.98573,64.8180343],[39.9862824,64.8181941],[39.9868216,64.8183618],[39.9873471,64.8185373],[39.9878582,64.8187203],[39.9883543,64.8189107],[39.9888349,64.8191081],[39.9892993,64.8193124],[39.9897471,64.8195233],[39.9901777,64.8197406],[39.9905906,64.819964],[39.9909853,64.8201933],[39.9913614,64.8204282],[39.9917185,64.8206684],[39.992056,64.8209136],[39.9923737,64.8211636],[39.9926711,64.8214181],[39.992948,64.8216768],[39.9932039,64.8219393],[39.9934386,64.8222053],[39.9936518,64.8224747],[39.9938433,64.8227469],[39.9940128,64.8230218],[39.9941601,64.823299],[39.9942852,64.8235781],[39.9943877,64.8238589],[39.9944677,64.8241411],[39.9945249,64.8244242],[39.9945594,64.824708],[39.9945711,64.8249921],[39.99456,64.8252762],[39.9945261,64.82556],[39.9944695,64.8258431],[39.9943901,64.8261253],[39.9942882,64.8264061],[39.9941637,64.8266853],[39.994017,64.8269625],[39.9938481,64.8272374],[39.9936572,64.8275097],[39.9934445,64.827779],[39.9932104,64.8280451],[39.992955,64.8283077],[39.9926788,64.8285664],[39.9923819,64.8288209],[39.9920647,64.8290709],[39.9917277,64.8293162],[39.9913712,64.8295565],[39.9909956,64.8297914],[39.9906013,64.8300208],[39.9901889,64.8302443],[39.9897588,64.8304617],[39.9893115,64.8306727],[39.9888475,64.830877],[39.9883673,64.8310746],[39.9878716,64.831265],[39.9873609,64.8314481],[39.9868358,64.8316237],[39.9862969,64.8317916],[39.9857448,64.8319515],[39.9851802,64.8321034],[39.9846038,64.8322469],[39.9840161,64.832382],[39.983418,64.8325085],[39.98281,64.8326262],[39.982193,64.8327351],[39.9815676,64.8328349],[39.9809345,64.8329255],[39.9802945,64.833007],[39.9796484,64.8330791],[39.9789968,64.8331417],[39.9783406,64.8331949],[39.9776805,64.8332385],[39.9770173,64.8332725],[39.9763518,64.8332968],[39.9756847,64.8333115],[39.9750168,64.8333165],[39.9743488,64.8333118],[39.9736817,64.8332974],[39.9730161,64.8332733],[39.9723528,64.8332395],[39.9716926,64.8331962],[39.9710363,64.8331433],[39.9703846,64.8330808],[39.9697383,64.833009],[39.9690982,64.8329278],[39.9684649,64.8328374],[39.9678393,64.8327378],[39.967222,64.8326292],[39.9666138,64.8325118],[39.9660154,64.8323855],[39.9654275,64.8322506],[39.9648507,64.8321073],[39.9642858,64.8319557],[39.9637334,64.8317959],[39.9631941,64.8316283],[39.9626686,64.8314529],[39.9621575,64.83127],[39.9616614,64.8310797],[39.9611808,64.8308824],[39.9607164,64.8306782],[39.9602686,64.8304674],[39.959838,64.8302501],[39.9594251,64.8300268],[39.9590304,64.8297976],[39.9586543,64.8295628],[39.9582973,64.8293227],[39.9579597,64.8290775],[39.957642,64.8288276],[39.9573446,64.8285732],[39.9570678,64.8283146],[39.9568119,64.8280521],[39.9565772,64.8277861],[39.9563639,64.8275169],[39.9561725,64.8272446],[39.956003,64.8269698],[39.9558556,64.8266927],[39.9557306,64.8264135],[39.955628,64.8261328],[39.9555481,64.8258507],[39.9554908,64.8255675],[39.9554563,64.8252838],[39.9554446,64.8249997],[39.9554557,64.8247155],[39.9554896,64.8244317],[39.9555463,64.8241486],[39.9556256,64.8238664],[39.9557276,64.8235856],[39.955852,64.8233064],[39.9559988,64.8230291],[39.9561677,64.8227542],[39.9563586,64.8224819],[39.9565712,64.8222125],[39.9568053,64.8219463],[39.9570607,64.8216837],[39.957337,64.8214249],[39.9576339,64.8211703],[39.957951,64.8209202],[39.958288,64.8206748],[39.9586446,64.8204345],[39.9590202,64.8201995],[39.9594144,64.81997],[39.9598268,64.8197464],[39.960257,64.819529],[39.9607043,64.8193179],[39.9611683,64.8191134]]]},"properties":{"osm_id":1079652443,"osm_type":"way","seamark_type":"restricted_area","display_class":"OTHER","min_zoom":12,"importance":1,"name":"Район № 145","ref":null,"common":{"name":"Район № 145","type":"restricted_area"},"children":{},"osm_tags":{"description":"64°49,5' N 39°58,5' E радиусом 5 кабельтовых","seamark:name":"Район № 145","seamark:type":"restricted_area"}}},{"type":"Feature","geometry":{"type":"Polygon","coordinates":[[[39.8419183,64.8681914],[40.0417321,64.868483],[39.9421685,64.8168172],[39.8419183,64.8162329],[39.8419183,64.8681914]]]},"properties":{"osm_id":1080112635,"osm_type":"way","seamark_type":"anchorage","display_class":"OTHER","min_zoom":12,"importance":1,"name":"Район № 804","ref":null,"common":{"name":"Район № 804","type":"anchorage"},"children":{},"osm_tags":{"seamark:name":"Район № 804","seamark:type":"anchorage"}}},{"type":"Feature","geometry":{"type":"Point","coordinates":[39.8465484,64.5860997]},"properties":{"osm_id":1236412281,"osm_type":"node","seamark_type":"harbour","display_class":"OTHER","min_zoom":12,"importance":1,"name":"Чайка","ref":null,"common":{"type":"harbour"},"children":{"harbour":{"category":"marina"}},"osm_tags":{"leisure":"marina","name":"Чайка","seamark:harbour:category":"marina","seamark:type":"harbour"}}}],"type":"FeatureCollection"}