{"type":"FeatureCollection","features":[{"type":"Feature","geometry":{"type":"Point","coordinates":[28.7802884,65.6235153]},"properties":{"osm_id":5217756803,"osm_type":"node","seamark_type":"harbour","display_class":"OTHER","min_zoom":12,"importance":1,"name":"Kunnanranta","ref":null,"common":{"type":"harbour"},"children":{"harbour":{"category":"marina"}},"osm_tags":{"leisure":"marina","name":"Kunnanranta","operator":"Kuusamon kaupunki","seamark:harbour:category":"marina","seamark:type":"harbour"}}},{"type":"Feature","geometry":{"type":"Point","coordinates":[28.4872282,65.7509196]},"properties":{"osm_id":11107965805,"osm_type":"node","seamark_type":"harbour","display_class":"OTHER","min_zoom":12,"importance":1,"name":"Venesatama","ref":null,"common":{"type":"harbour"},"children":{"harbour":{"category":"marina"}},"osm_tags":{"fee":"no","fixme":"name?","leisure":"marina","name":"Venesatama","seamark:harbour:category":"marina","seamark:type":"harbour"}}}],"type":"FeatureCollection"}