{"type":"FeatureCollection","features":[{"type":"Feature","geometry":{"type":"LineString","coordinates":[[20.8839585,66.2395385],[20.8862625,66.2397049],[20.8865415,66.2397265]]},"properties":{"osm_id":1307912593,"osm_type":"way","seamark_type":"shoreline_construction","display_class":"OTHER","min_zoom":12,"importance":1,"name":"Engelska kanalen","ref":null,"common":{"type":"shoreline_construction"},"children":{},"osm_tags":{"man_made":"groyne","material":"stone","name":"Engelska kanalen","opening_date":"1863","seamark:type":"shoreline_construction"}}},{"type":"Feature","geometry":{"type":"LineString","coordinates":[[20.8864423,66.2395417],[20.8862625,66.2397049]]},"properties":{"osm_id":1307912594,"osm_type":"way","seamark_type":"shoreline_construction","display_class":"OTHER","min_zoom":12,"importance":1,"name":"Engelska kanalen","ref":null,"common":{"type":"shoreline_construction"},"children":{},"osm_tags":{"man_made":"groyne","material":"stone","name":"Engelska kanalen","opening_date":"1863","seamark:type":"shoreline_construction"}}}],"type":"FeatureCollection"}