{"type":"FeatureCollection","features":[{"type":"Feature","geometry":{"type":"LineString","coordinates":[[58.233,68.8528333],[58.2323333,68.8545],[58.1940988,68.9525107],[58.1558333,69.0501667],[58.1535,69.0528333]]},"properties":{"osm_id":1081108252,"osm_type":"way","seamark_type":"pipeline_submarine","display_class":"OTHER","min_zoom":12,"importance":1,"name":"нитка 1","ref":null,"common":{"name":"нитка 1","type":"pipeline_submarine"},"children":{},"osm_tags":{"location":"underwater","man_made":"pipeline","seamark:name":"нитка 1","seamark:type":"pipeline_submarine","substance":"oil"}}},{"type":"Feature","geometry":{"type":"LineString","coordinates":[[58.2303333,68.853],[58.23,68.8541667],[58.1916658,68.9523865],[58.1533333,69.0501667],[58.1533333,69.0528333]]},"properties":{"osm_id":1081108251,"osm_type":"way","seamark_type":"pipeline_submarine","display_class":"OTHER","min_zoom":12,"importance":1,"name":"нитка 2","ref":null,"common":{"name":"нитка 2","type":"pipeline_submarine"},"children":{},"osm_tags":{"location":"underwater","man_made":"pipeline","seamark:name":"нитка 2","seamark:type":"pipeline_submarine","substance":"oil"}}}],"type":"FeatureCollection"}