{"type":"FeatureCollection","features":[{"type":"Feature","geometry":{"type":"Polygon","coordinates":[[[39.7526537,68.2993663],[39.6771227,68.3237269],[39.6469102,68.3115498],[39.7128282,68.2902243],[39.7526537,68.2993663]]]},"properties":{"osm_id":1081620723,"osm_type":"way","seamark_type":"separation_zone","display_class":"TSS","min_zoom":6,"importance":5,"name":null,"ref":null,"common":{"type":"separation_zone"},"children":{},"osm_tags":{"seamark:type":"separation_zone"}}},{"type":"Feature","geometry":{"type":"Polygon","coordinates":[[[39.8309312,68.2485313],[39.8886095,68.2643022],[39.8364244,68.2795541],[39.7759996,68.2663364],[39.8309312,68.2485313]]]},"properties":{"osm_id":1081620732,"osm_type":"way","seamark_type":"separation_zone","display_class":"TSS","min_zoom":6,"importance":5,"name":null,"ref":null,"common":{"type":"separation_zone"},"children":{},"osm_tags":{"seamark:type":"separation_zone"}}},{"type":"Feature","geometry":{"type":"Polygon","coordinates":[[[39.7675884,68.1357396],[39.7674481,68.1357132],[39.7672989,68.1357316],[39.7672283,68.1357838],[39.7672775,68.1358394],[39.7674177,68.1358657],[39.7675669,68.1358474],[39.7676376,68.1357951],[39.7675884,68.1357396]]]},"properties":{"osm_id":192756218,"osm_type":"way","seamark_type":"light_major","display_class":"LIGHTHOUSE","min_zoom":7,"importance":5,"name":"Святоносский маяк","ref":null,"common":{"type":"light_major"},"children":{"light":{"character":"Fl","period":"2","range":"22"},"name":{"ru":"Святоносский"}},"osm_tags":{"building":"yes","man_made":"lighthouse","name":"Святоносский маяк","name:cs":"Svatonosský maják","seamark:light:character":"Fl","seamark:light:period":"2","seamark:light:range":"22","seamark:name:ru":"Святоносский","seamark:type":"light_major","wikidata":"Q4411604","wikipedia":"ru:Святоносский маяк"}}},{"type":"Feature","geometry":{"type":"Point","coordinates":[39.603847,68.0627847]},"properties":{"osm_id":9894318686,"osm_type":"node","seamark_type":"light_minor","display_class":"OTHER","min_zoom":12,"importance":1,"name":null,"ref":null,"common":{"type":"light_minor"},"children":{},"osm_tags":{"man_made":"lighthouse","seamark:type":"light_minor"}}},{"type":"Feature","geometry":{"type":"Point","coordinates":[39.4403929,68.0928063]},"properties":{"osm_id":9894318687,"osm_type":"node","seamark_type":"light_minor","display_class":"OTHER","min_zoom":12,"importance":1,"name":null,"ref":null,"common":{"type":"light_minor"},"children":{},"osm_tags":{"man_made":"lighthouse","seamark:type":"light_minor"}}},{"type":"Feature","geometry":{"type":"Point","coordinates":[39.4363089,68.0794429]},"properties":{"osm_id":9894318688,"osm_type":"node","seamark_type":"light_minor","display_class":"OTHER","min_zoom":12,"importance":1,"name":null,"ref":null,"common":{"type":"light_minor"},"children":{"light":{"category":"upper"}},"osm_tags":{"man_made":"lighthouse","seamark:light:category":"upper","seamark:type":"light_minor"}}},{"type":"Feature","geometry":{"type":"Point","coordinates":[39.4615892,68.0810416]},"properties":{"osm_id":9894318705,"osm_type":"node","seamark_type":"buoy_lateral","display_class":"OTHER","min_zoom":12,"importance":1,"name":null,"ref":null,"common":{"type":"buoy_lateral"},"children":{},"osm_tags":{"seamark:type":"buoy_lateral"}}},{"type":"Feature","geometry":{"type":"Point","coordinates":[39.6204372,68.0383793]},"properties":{"osm_id":9894318731,"osm_type":"node","seamark_type":"light_minor","display_class":"OTHER","min_zoom":12,"importance":1,"name":null,"ref":null,"common":{"type":"light_minor"},"children":{"light":{"category":"front","period":"3"}},"osm_tags":{"man_made":"lighthouse","seamark:light:category":"front","seamark:light:period":"3","seamark:type":"light_minor"}}},{"type":"Feature","geometry":{"type":"Point","coordinates":[39.5556676,68.0414684]},"properties":{"osm_id":9894318732,"osm_type":"node","seamark_type":"light_minor","display_class":"OTHER","min_zoom":12,"importance":1,"name":null,"ref":null,"common":{"type":"light_minor"},"children":{},"osm_tags":{"man_made":"lighthouse","seamark:type":"light_minor"}}},{"type":"Feature","geometry":{"type":"Point","coordinates":[39.5513329,68.0379064]},"properties":{"osm_id":9894318733,"osm_type":"node","seamark_type":"light_minor","display_class":"OTHER","min_zoom":12,"importance":1,"name":null,"ref":null,"common":{"type":"light_minor"},"children":{},"osm_tags":{"man_made":"lighthouse","seamark:type":"light_minor"}}},{"type":"Feature","geometry":{"type":"Point","coordinates":[39.5490444,68.0360556]},"properties":{"osm_id":9894318734,"osm_type":"node","seamark_type":"light_minor","display_class":"OTHER","min_zoom":12,"importance":1,"name":null,"ref":null,"common":{"type":"light_minor"},"children":{},"osm_tags":{"man_made":"lighthouse","seamark:type":"light_minor"}}},{"type":"Feature","geometry":{"type":"Point","coordinates":[39.6383333,68.0341667]},"properties":{"osm_id":10143103630,"osm_type":"node","seamark_type":"light_minor","display_class":"OTHER","min_zoom":12,"importance":1,"name":null,"ref":null,"common":{"type":"light_minor"},"children":{"light":{"category":"rear","period":"3"}},"osm_tags":{"seamark:light:category":"rear","seamark:light:period":"3","seamark:type":"light_minor"}}},{"type":"Feature","geometry":{"type":"Polygon","coordinates":[[[39.5037392,68.0729784],[39.5053558,68.0730855],[39.5059119,68.0730512],[39.5059864,68.0730062],[39.5058144,68.0729784],[39.5040832,68.0728778],[39.5037966,68.0729099],[39.5037392,68.0729784]]]},"properties":{"osm_id":166915117,"osm_type":"way","seamark_type":"wreck","display_class":"OTHER","min_zoom":12,"importance":1,"name":null,"ref":null,"common":{"type":"wreck"},"children":{},"osm_tags":{"historic":"wreck","seamark:type":"wreck"}}},{"type":"Feature","geometry":{"type":"Polygon","coordinates":[[[39.4969463,68.0674586],[39.4974294,68.067536],[39.4967196,68.0670204],[39.4969365,68.0669946],[39.4966703,68.0667847],[39.4964731,68.066781],[39.4961379,68.0666043],[39.4961773,68.0668105],[39.4969463,68.0674586]]]},"properties":{"osm_id":1079348293,"osm_type":"way","seamark_type":"hulk","display_class":"OTHER","min_zoom":12,"importance":1,"name":null,"ref":null,"common":{"type":"hulk"},"children":{},"osm_tags":{"historic":"wreck","seamark:type":"hulk"}}},{"type":"Feature","geometry":{"type":"Polygon","coordinates":[[[39.4976266,68.066549],[39.4978435,68.0666153],[39.4979125,68.0667221],[39.4983857,68.0668584],[39.4984843,68.0668142],[39.4993716,68.0671272],[39.4990364,68.0669173],[39.4984646,68.0666853],[39.497804,68.0665343],[39.4976266,68.066549]]]},"properties":{"osm_id":1079348294,"osm_type":"way","seamark_type":"hulk","display_class":"OTHER","min_zoom":12,"importance":1,"name":null,"ref":null,"common":{"type":"hulk"},"children":{},"osm_tags":{"historic":"wreck","seamark:type":"hulk"}}},{"type":"Feature","geometry":{"type":"LineString","coordinates":[[39.7451012,68.2714208],[39.7547143,68.2602331],[39.7718804,68.2505666],[39.8020928,68.2434413],[39.8446648,68.2411506]]},"properties":{"osm_id":1081620719,"osm_type":"way","seamark_type":"separation_lane","display_class":"OTHER","min_zoom":12,"importance":1,"name":null,"ref":null,"common":{"type":"separation_lane"},"children":{},"osm_tags":{"seamark:type":"separation_lane"}}},{"type":"Feature","geometry":{"type":"LineString","coordinates":[[39.935302,68.2576897],[39.9304955,68.2688786],[39.9037164,68.282603],[39.8611443,68.2902241],[39.817199,68.290732]]},"properties":{"osm_id":1081620720,"osm_type":"way","seamark_type":"separation_lane","display_class":"OTHER","min_zoom":12,"importance":1,"name":null,"ref":null,"common":{"type":"separation_lane"},"children":{},"osm_tags":{"seamark:type":"separation_lane"}}},{"type":"Feature","geometry":{"type":"LineString","coordinates":[[39.6290575,68.3008896],[39.6949754,68.2805705]]},"properties":{"osm_id":1081620721,"osm_type":"way","seamark_type":"separation_lane","display_class":"OTHER","min_zoom":12,"importance":1,"name":null,"ref":null,"common":{"type":"separation_lane"},"children":{},"osm_tags":{"seamark:type":"separation_lane"}}},{"type":"Feature","geometry":{"type":"LineString","coordinates":[[39.7718797,68.3074894],[39.6936021,68.3308271]]},"properties":{"osm_id":1081620722,"osm_type":"way","seamark_type":"separation_lane","display_class":"OTHER","min_zoom":12,"importance":1,"name":null,"ref":null,"common":{"type":"separation_lane"},"children":{},"osm_tags":{"seamark:type":"separation_lane"}}},{"type":"Feature","geometry":{"type":"LineString","coordinates":[[39.9861131,68.2688789],[40.1481615,68.301905]]},"properties":{"osm_id":1081620725,"osm_type":"way","seamark_type":"separation_lane","display_class":"OTHER","min_zoom":12,"importance":1,"name":null,"ref":null,"common":{"type":"separation_lane"},"children":{},"osm_tags":{"seamark:type":"separation_lane"}}},{"type":"Feature","geometry":{"type":"LineString","coordinates":[[39.9174486,68.2098209],[40.1522813,68.1368066]]},"properties":{"osm_id":1081620727,"osm_type":"way","seamark_type":"separation_lane","display_class":"OTHER","min_zoom":12,"importance":1,"name":null,"ref":null,"common":{"type":"separation_lane"},"children":{},"osm_tags":{"seamark:type":"separation_lane"}}},{"type":"Feature","geometry":{"type":"LineString","coordinates":[[40.1385484,68.1275996],[39.8764148,68.2079993],[39.6057115,68.2907323]]},"properties":{"osm_id":1081620728,"osm_type":"way","seamark_type":"separation_boundary","display_class":"OTHER","min_zoom":12,"importance":1,"name":null,"ref":null,"common":{"type":"separation_boundary"},"children":{},"osm_tags":{"seamark:type":"separation_boundary"}}},{"type":"Feature","geometry":{"type":"LineString","coordinates":[[40.056151,68.3607254],[39.8089586,68.3105348],[39.7114549,68.3384321]]},"properties":{"osm_id":1081620729,"osm_type":"way","seamark_type":"separation_boundary","display_class":"OTHER","min_zoom":12,"importance":1,"name":null,"ref":null,"common":{"type":"separation_boundary"},"children":{},"osm_tags":{"seamark:type":"separation_boundary"}}},{"type":"Feature","geometry":{"type":"Polygon","coordinates":[[[39.5143289,68.0602858],[39.5142394,68.0602457],[39.5141088,68.0601387],[39.5138941,68.0599709],[39.5138529,68.0599194],[39.5138225,68.0598699],[39.5138118,68.0598338],[39.5138189,68.0598044],[39.5138511,68.0597964],[39.5138994,68.0598044],[39.5140247,68.0598673],[39.514107,68.0599248],[39.5142985,68.0599308],[39.5143432,68.0599415],[39.5143092,68.0599609],[39.514234,68.0599682],[39.5141714,68.0599709],[39.5142591,68.0600845],[39.5143432,68.0601581],[39.514404,68.0602256],[39.5144237,68.0602711],[39.5143289,68.0602858]]]},"properties":{"osm_id":1271717327,"osm_type":"way","seamark_type":"wreck","display_class":"OTHER","min_zoom":12,"importance":1,"name":null,"ref":null,"common":{"type":"wreck"},"children":{},"osm_tags":{"seamark:type":"wreck"}}},{"type":"Feature","geometry":{"type":"Polygon","coordinates":[[[39.5153923,68.0606158],[39.5154146,68.0605541],[39.5154718,68.0604983],[39.5156338,68.0603962],[39.5158402,68.060274],[39.51598,68.0602064],[39.5160473,68.0602149],[39.5161205,68.0602336],[39.5160229,68.0603006],[39.5158081,68.0604434],[39.5156872,68.0605241],[39.5155713,68.0605843],[39.5154871,68.0606061],[39.5153923,68.0606158]]]},"properties":{"osm_id":1271717328,"osm_type":"way","seamark_type":"wreck","display_class":"OTHER","min_zoom":12,"importance":1,"name":null,"ref":null,"common":{"type":"wreck"},"children":{},"osm_tags":{"seamark:type":"wreck"}}},{"type":"Feature","geometry":{"type":"Polygon","coordinates":[[[39.4614671,68.0778152],[39.4615485,68.0777506],[39.4616613,68.0777663],[39.4618633,68.0778123],[39.4620312,68.0778583],[39.4621728,68.0778985],[39.4622646,68.0779279],[39.4622279,68.0779386],[39.4619918,68.0779063],[39.4617085,68.0778613],[39.4614671,68.0778152]]]},"properties":{"osm_id":1271717329,"osm_type":"way","seamark_type":"wreck","display_class":"OTHER","min_zoom":12,"importance":1,"name":null,"ref":null,"common":{"type":"wreck"},"children":{},"osm_tags":{"seamark:type":"wreck"}}}],"type":"FeatureCollection"}