{"type":"FeatureCollection","features":[{"type":"Feature","geometry":{"type":"Polygon","coordinates":[[[15.1143333,69.8123333],[14.9848637,69.7705871],[14.8345,69.722],[14.7686667,69.7461667],[14.9202103,69.7947414],[15.0523333,69.837],[15.1143333,69.8123333]]]},"properties":{"osm_id":179619298,"osm_type":"way","seamark_type":"separation_zone","display_class":"TSS","min_zoom":6,"importance":5,"name":"Off Andenes TSS","ref":null,"common":{"name":"Off Andenes TSS","type":"separation_zone"},"children":{},"osm_tags":{"seamark:name":"Off Andenes TSS","seamark:type":"separation_zone"}}},{"type":"Feature","geometry":{"type":"LineString","coordinates":[[14.9541667,69.8735],[14.8138922,69.828564],[14.673,69.7833333]]},"properties":{"osm_id":179619755,"osm_type":"way","seamark_type":"separation_boundary","display_class":"OTHER","min_zoom":12,"importance":1,"name":null,"ref":null,"common":{"type":"separation_boundary"},"children":{},"osm_tags":{"seamark:type":"separation_boundary"}}},{"type":"Feature","geometry":{"type":"LineString","coordinates":[[15.00325,69.8552579],[14.8680294,69.8119753],[14.7208333,69.7647582]]},"properties":{"osm_id":179619773,"osm_type":"way","seamark_type":"separation_lane","display_class":"OTHER","min_zoom":12,"importance":1,"name":null,"ref":null,"common":{"type":"separation_lane"},"children":{},"osm_tags":{"seamark:type":"separation_lane"}}},{"type":"Feature","geometry":{"type":"Point","coordinates":[14.9666667,69.0]},"properties":{"osm_id":5363716786,"osm_type":"node","seamark_type":"pilot_boarding","display_class":"OTHER","min_zoom":12,"importance":1,"name":"Myre","ref":null,"common":{"name":"Myre","type":"pilot_boarding"},"children":{"pilot_boarding":{"category":"from_shore","channel":"13;16","information":"By appointment only","national_information":"Kun etter avtale"}},"osm_tags":{"seamark:name":"Myre","seamark:pilot_boarding:category":"from_shore","seamark:pilot_boarding:channel":"13;16","seamark:pilot_boarding:information":"By appointment only","seamark:pilot_boarding:national_information":"Kun etter avtale","seamark:type":"pilot_boarding","source":"Kystverket"}}}],"type":"FeatureCollection"}