{"type":"FeatureCollection","features":[{"type":"Feature","geometry":{"type":"Point","coordinates":[22.0198052,69.846742]},"properties":{"osm_id":11258079733,"osm_type":"node","seamark_type":"beacon_isolated_danger","display_class":"BEACON","min_zoom":9,"importance":4,"name":"Badderen","ref":null,"common":{"name":"Badderen","type":"beacon_isolated_danger"},"children":{"beacon_isolated_danger":{"depth":"2","shape":"stake","vertical_length":"10"},"retro_reflector":{"colour":"red"},"topmark":{"information":"White lattice arrow","national_information":"Hvit krekse","orientation":"250","shape":"arrow"}},"osm_tags":{"ref:kystverket":"89277M","seamark:beacon_isolated_danger:depth":"2","seamark:beacon_isolated_danger:shape":"stake","seamark:beacon_isolated_danger:vertical_length":"10","seamark:name":"Badderen","seamark:retro_reflector:colour":"red","seamark:topmark:information":"White lattice arrow","seamark:topmark:national_information":"Hvit krekse","seamark:topmark:orientation":"250","seamark:topmark:shape":"arrow","seamark:type":"beacon_isolated_danger"}}},{"type":"Feature","geometry":{"type":"Point","coordinates":[22.0192258,69.8462053]},"properties":{"osm_id":11255583521,"osm_type":"node","seamark_type":"beacon_lateral","display_class":"BEACON","min_zoom":9,"importance":4,"name":"Badderen Veste molo","ref":null,"common":{"name":"Badderen Veste molo","type":"beacon_lateral"},"children":{"beacon_lateral":{"category":"starboard","colour":"green","conspicuity":"not_conspicuous","system":"iala-a","vertical_length":"3"},"light":{"1:character":"Iso","1:colour":"green","1:height":"6","1:period":"2","1:range":"2.2","1:sequence":"1+(1)","2:category":"floodlight","2:character":"F","2:colour":"yellow","2:height":"6","2:orientation":"45"}},"osm_tags":{"ref:kystverket":"911601","seamark:beacon_lateral:category":"starboard","seamark:beacon_lateral:colour":"green","seamark:beacon_lateral:conspicuity":"not_conspicuous","seamark:beacon_lateral:system":"iala-a","seamark:beacon_lateral:vertical_length":"3","seamark:light:1:character":"Iso","seamark:light:1:colour":"green","seamark:light:1:height":"6","seamark:light:1:period":"2","seamark:light:1:range":"2.2","seamark:light:1:sequence":"1+(1)","seamark:light:2:category":"floodlight","seamark:light:2:character":"F","seamark:light:2:colour":"yellow","seamark:light:2:height":"6","seamark:light:2:orientation":"45","seamark:name":"Badderen Veste molo","seamark:type":"beacon_lateral"}}},{"type":"Feature","geometry":{"type":"Point","coordinates":[22.0442549,69.9413218]},"properties":{"osm_id":10138195344,"osm_type":"node","seamark_type":"rock","display_class":"OTHER","min_zoom":12,"importance":1,"name":null,"ref":null,"common":{"type":"rock"},"children":{},"osm_tags":{"seamark:type":"rock","source":"Kartverket N50","source:date":"2006-07-01"}}},{"type":"Feature","geometry":{"type":"Point","coordinates":[22.103994,69.7541686]},"properties":{"osm_id":10138195348,"osm_type":"node","seamark_type":"rock","display_class":"OTHER","min_zoom":12,"importance":1,"name":null,"ref":null,"common":{"type":"rock"},"children":{},"osm_tags":{"seamark:type":"rock","source":"Kartverket N50","source:date":"2006-07-01"}}},{"type":"Feature","geometry":{"type":"Point","coordinates":[22.0481485,69.7665907]},"properties":{"osm_id":10138195351,"osm_type":"node","seamark_type":"rock","display_class":"OTHER","min_zoom":12,"importance":1,"name":null,"ref":null,"common":{"type":"rock"},"children":{},"osm_tags":{"seamark:type":"rock","source":"Kartverket N50","source:date":"2006-07-01"}}},{"type":"Feature","geometry":{"type":"Point","coordinates":[22.0523516,69.7658802]},"properties":{"osm_id":10138195352,"osm_type":"node","seamark_type":"rock","display_class":"OTHER","min_zoom":12,"importance":1,"name":null,"ref":null,"common":{"type":"rock"},"children":{},"osm_tags":{"seamark:type":"rock","source":"Kartverket N50","source:date":"2006-07-01"}}},{"type":"Feature","geometry":{"type":"Point","coordinates":[22.0005333,69.7926]},"properties":{"osm_id":10138195360,"osm_type":"node","seamark_type":"rock","display_class":"OTHER","min_zoom":12,"importance":1,"name":null,"ref":null,"common":{"type":"rock"},"children":{},"osm_tags":{"seamark:type":"rock","source":"Kartverket N50","source:date":"2006-07-01"}}},{"type":"Feature","geometry":{"type":"Point","coordinates":[22.0017638,69.7921083]},"properties":{"osm_id":10138195361,"osm_type":"node","seamark_type":"rock","display_class":"OTHER","min_zoom":12,"importance":1,"name":null,"ref":null,"common":{"type":"rock"},"children":{},"osm_tags":{"seamark:type":"rock","source":"Kartverket N50","source:date":"2006-07-01"}}},{"type":"Feature","geometry":{"type":"Point","coordinates":[22.0098001,69.7888999]},"properties":{"osm_id":10138195362,"osm_type":"node","seamark_type":"rock","display_class":"OTHER","min_zoom":12,"importance":1,"name":null,"ref":null,"common":{"type":"rock"},"children":{},"osm_tags":{"seamark:type":"rock","source":"Kartverket N50","source:date":"2006-07-01"}}},{"type":"Feature","geometry":{"type":"Point","coordinates":[22.0851532,69.7382555]},"properties":{"osm_id":10138195365,"osm_type":"node","seamark_type":"rock","display_class":"OTHER","min_zoom":12,"importance":1,"name":null,"ref":null,"common":{"type":"rock"},"children":{},"osm_tags":{"seamark:type":"rock","source":"Kartverket N50","source:date":"2004-07-01"}}},{"type":"Feature","geometry":{"type":"Point","coordinates":[22.0303934,69.781522]},"properties":{"osm_id":5323258471,"osm_type":"node","seamark_type":"buoy_lateral","display_class":"OTHER","min_zoom":12,"importance":1,"name":"Grunnen","ref":null,"common":{"name":"Grunnen","type":"buoy_lateral"},"children":{"buoy_lateral":{"category":"port","colour":"red","shape":"spar","system":"iala-a"}},"osm_tags":{"ref:kystverket":"209135","seamark:buoy_lateral:category":"port","seamark:buoy_lateral:colour":"red","seamark:buoy_lateral:shape":"spar","seamark:buoy_lateral:system":"iala-a","seamark:name":"Grunnen","seamark:type":"buoy_lateral"}}},{"type":"Feature","geometry":{"type":"Point","coordinates":[22.1165842,69.7463099]},"properties":{"osm_id":10138195363,"osm_type":"node","seamark_type":"rock","display_class":"OTHER","min_zoom":12,"importance":1,"name":"Lensmannskjæret","ref":null,"common":{"type":"rock"},"children":{},"osm_tags":{"name":"Lensmannskjæret","place":"islet","seamark:type":"rock","ssr:stedsnr":"228295"}}},{"type":"Feature","geometry":{"type":"Point","coordinates":[22.1313619,69.743231]},"properties":{"osm_id":10138195349,"osm_type":"node","seamark_type":"rock","display_class":"OTHER","min_zoom":12,"importance":1,"name":"Nordbotnskjæret - Vuononperänlaassa","ref":null,"common":{"type":"rock"},"children":{},"osm_tags":{"name":"Nordbotnskjæret - Vuononperänlaassa","name:fkv":"Vuononperänlaassa","name:no":"Nordbotnskjæret","place":"islet","seamark:type":"rock","ssr:stedsnr":"54732"}}},{"type":"Feature","geometry":{"type":"Point","coordinates":[22.0494958,69.741525]},"properties":{"osm_id":10138195364,"osm_type":"node","seamark_type":"rock","display_class":"OTHER","min_zoom":12,"importance":1,"name":"Palattarinlaassa","ref":null,"common":{"type":"rock"},"children":{},"osm_tags":{"name":"Palattarinlaassa","name:fkv":"Palattarinlaassa","place":"islet","seamark:type":"rock","ssr:stedsnr":"1085840"}}},{"type":"Feature","geometry":{"type":"Point","coordinates":[22.0103617,69.787607]},"properties":{"osm_id":10138195350,"osm_type":"node","seamark_type":"rock","display_class":"OTHER","min_zoom":12,"importance":1,"name":"Vuorenlaassa","ref":null,"common":{"type":"rock"},"children":{},"osm_tags":{"loc_name:no":"Øyskjæret","name":"Vuorenlaassa","name:fkv":"Vuorenlaassa","place":"islet","seamark:type":"rock","ssr:stedsnr":"987845"}}}],"type":"FeatureCollection"}