{"type":"FeatureCollection","features":[{"type":"Feature","geometry":{"type":"Point","coordinates":[-51.1160566,69.0807763]},"properties":{"osm_id":2043072257,"osm_type":"node","seamark_type":"anchorage","display_class":"OTHER","min_zoom":12,"importance":1,"name":null,"ref":null,"common":{"type":"anchorage"},"children":{},"osm_tags":{"seamark:type":"anchorage"}}},{"type":"Feature","geometry":{"type":"Point","coordinates":[-51.0988283,69.2241501]},"properties":{"osm_id":13472302840,"osm_type":"node","seamark_type":"harbour","display_class":"OTHER","min_zoom":12,"importance":1,"name":"Iliuissat","ref":null,"common":{"type":"harbour"},"children":{"harbour":{"category":"cargo"}},"osm_tags":{"harbour":"yes","name":"Iliuissat","port_of_entry":"no","seamark:harbour:category":"cargo","seamark:type":"harbour"}}}],"type":"FeatureCollection"}