{"type":"FeatureCollection","features":[{"type":"Feature","geometry":{"type":"Point","coordinates":[59.3865493,70.3394658]},"properties":{"osm_id":9982446573,"osm_type":"node","seamark_type":"light_major","display_class":"LIGHTHOUSE","min_zoom":7,"importance":5,"name":null,"ref":null,"common":{"type":"light_major"},"children":{},"osm_tags":{"man_made":"lighthouse","seamark:type":"light_major"}}},{"type":"Feature","geometry":{"type":"Point","coordinates":[59.061259,70.4604494]},"properties":{"osm_id":9982446574,"osm_type":"node","seamark_type":"light_major","display_class":"LIGHTHOUSE","min_zoom":7,"importance":5,"name":null,"ref":null,"common":{"type":"light_major"},"children":{},"osm_tags":{"man_made":"lighthouse","seamark:type":"light_major"}}}],"type":"FeatureCollection"}