{"type":"FeatureCollection","features":[{"type":"Feature","geometry":{"type":"Point","coordinates":[-52.1294439,70.6724133]},"properties":{"osm_id":4350015508,"osm_type":"node","seamark_type":"rock","display_class":"OTHER","min_zoom":12,"importance":1,"name":null,"ref":null,"common":{"type":"rock"},"children":{"rock":{"water_level":"submerged"}},"osm_tags":{"natural":"rock","seamark:rock:water_level":"submerged","seamark:type":"rock"}}},{"type":"Feature","geometry":{"type":"Point","coordinates":[-52.6396072,70.7329113]},"properties":{"osm_id":13472302826,"osm_type":"node","seamark_type":"harbour","display_class":"OTHER","min_zoom":12,"importance":1,"name":null,"ref":null,"common":{"type":"harbour"},"children":{},"osm_tags":{"harbour":"yes","port_of_entry":"no","seamark:type":"harbour"}}},{"type":"Feature","geometry":{"type":"LineString","coordinates":[[-52.1255088,70.6741874],[-52.1251951,70.6742199],[-52.1243102,70.6743134],[-52.1238452,70.6743623]]},"properties":{"osm_id":193804573,"osm_type":"way","seamark_type":"small_craft_facility","display_class":"OTHER","min_zoom":12,"importance":1,"name":null,"ref":null,"common":{"information":"cable winch","type":"small_craft_facility"},"children":{"small_craft_facility":{"category":"slipway"}},"osm_tags":{"highway":"service","leisure":"slipway","seamark:information":"cable winch","seamark:small_craft_facility:category":"slipway","seamark:type":"small_craft_facility","service":"slipway"}}},{"type":"Feature","geometry":{"type":"Point","coordinates":[-52.1180785,70.6747834]},"properties":{"osm_id":13472302829,"osm_type":"node","seamark_type":"harbour","display_class":"OTHER","min_zoom":12,"importance":1,"name":"Uummannaq","ref":null,"common":{"type":"harbour"},"children":{"harbour":{"category":"cargo"}},"osm_tags":{"harbour":"yes","name":"Uummannaq","port_of_entry":"no","seamark:harbour:category":"cargo","seamark:type":"harbour"}}}],"type":"FeatureCollection"}