{"type":"FeatureCollection","features":[{"type":"Feature","geometry":{"type":"Point","coordinates":[-21.9751187,70.4197793]},"properties":{"osm_id":2062431945,"osm_type":"node","seamark_type":"anchorage","display_class":"OTHER","min_zoom":12,"importance":1,"name":null,"ref":null,"common":{"type":"anchorage"},"children":{},"osm_tags":{"seamark:type":"anchorage"}}},{"type":"Feature","geometry":{"type":"Point","coordinates":[-21.9629966,70.4865592]},"properties":{"osm_id":3582098335,"osm_type":"node","seamark_type":"landmark","display_class":"OTHER","min_zoom":12,"importance":1,"name":null,"ref":null,"common":{"type":"landmark"},"children":{},"osm_tags":{"man_made":"mast","seamark:type":"landmark"}}}],"type":"FeatureCollection"}