{"type":"FeatureCollection","features":[{"type":"Feature","geometry":{"type":"Point","coordinates":[102.4636892,71.9827767]},"properties":{"osm_id":9903280696,"osm_type":"node","seamark_type":"berth","display_class":"OTHER","min_zoom":12,"importance":1,"name":null,"ref":null,"common":{"type":"berth"},"children":{"berth":{"minimum_depth":"2.2","name":"1"}},"osm_tags":{"seamark:berth:minimum_depth":"2.2","seamark:berth:name":"1","seamark:type":"berth"}}},{"type":"Feature","geometry":{"type":"Point","coordinates":[102.4652546,71.983189]},"properties":{"osm_id":9903280697,"osm_type":"node","seamark_type":"berth","display_class":"OTHER","min_zoom":12,"importance":1,"name":null,"ref":null,"common":{"type":"berth"},"children":{"berth":{"minimum_depth":"2.1","name":"2"}},"osm_tags":{"seamark:berth:minimum_depth":"2.1","seamark:berth:name":"2","seamark:type":"berth"}}},{"type":"Feature","geometry":{"type":"Point","coordinates":[102.4691585,71.984517]},"properties":{"osm_id":9903280698,"osm_type":"node","seamark_type":"berth","display_class":"OTHER","min_zoom":12,"importance":1,"name":null,"ref":null,"common":{"type":"berth"},"children":{"berth":{"minimum_depth":"2.5","name":"3"}},"osm_tags":{"seamark:berth:minimum_depth":"2.5","seamark:berth:name":"3","seamark:type":"berth"}}},{"type":"Feature","geometry":{"type":"Point","coordinates":[102.4730603,71.9860345]},"properties":{"osm_id":9903280699,"osm_type":"node","seamark_type":"berth","display_class":"OTHER","min_zoom":12,"importance":1,"name":null,"ref":null,"common":{"type":"berth"},"children":{"berth":{"minimum_depth":"5.5","name":"4"}},"osm_tags":{"seamark:berth:minimum_depth":"5.5","seamark:berth:name":"4","seamark:type":"berth"}}},{"type":"Feature","geometry":{"type":"Point","coordinates":[102.4761853,71.9870823]},"properties":{"osm_id":9903280700,"osm_type":"node","seamark_type":"berth","display_class":"OTHER","min_zoom":12,"importance":1,"name":null,"ref":null,"common":{"type":"berth"},"children":{"berth":{"minimum_depth":"5.5","name":"5"}},"osm_tags":{"seamark:berth:minimum_depth":"5.5","seamark:berth:name":"5","seamark:type":"berth"}}},{"type":"Feature","geometry":{"type":"Polygon","coordinates":[[[102.462538,71.982294],[102.4625567,71.9822579],[102.4628462,71.9822781],[102.4629163,71.9823027],[102.4628229,71.9823128],[102.462538,71.982294]]]},"properties":{"osm_id":1080440781,"osm_type":"way","seamark_type":"hulk","display_class":"OTHER","min_zoom":12,"importance":1,"name":null,"ref":null,"common":{"type":"hulk"},"children":{},"osm_tags":{"historic":"wreck","seamark:type":"hulk"}}},{"type":"Feature","geometry":{"type":"Polygon","coordinates":[[[102.4776245,71.9847911],[102.4794578,71.9851283],[102.479833,71.985137],[102.4798896,71.985102],[102.4797197,71.9850144],[102.4778086,71.9846839],[102.4773768,71.9846467],[102.4776245,71.9847911]]]},"properties":{"osm_id":1080440782,"osm_type":"way","seamark_type":"hulk","display_class":"OTHER","min_zoom":12,"importance":1,"name":null,"ref":null,"common":{"type":"hulk"},"children":{},"osm_tags":{"historic":"wreck","seamark:type":"hulk"}}},{"type":"Feature","geometry":{"type":"Polygon","coordinates":[[[102.4871137,71.9859405],[102.4871888,71.9859903],[102.4873283,71.9860036],[102.487441,71.9859555],[102.4876931,71.9855158],[102.4876234,71.9854395],[102.4874517,71.9854976],[102.4871137,71.9859405]]]},"properties":{"osm_id":1080440787,"osm_type":"way","seamark_type":"hulk","display_class":"OTHER","min_zoom":12,"importance":1,"name":null,"ref":null,"common":{"type":"hulk"},"children":{},"osm_tags":{"historic":"wreck","seamark:type":"hulk"}}},{"type":"Feature","geometry":{"type":"Polygon","coordinates":[[[102.4870494,71.9856768],[102.4871352,71.9856884],[102.4873659,71.9855374],[102.4873712,71.9854694],[102.4871996,71.9855358],[102.4870494,71.9856768]]]},"properties":{"osm_id":1080440788,"osm_type":"way","seamark_type":"hulk","display_class":"OTHER","min_zoom":12,"importance":1,"name":null,"ref":null,"common":{"type":"hulk"},"children":{},"osm_tags":{"historic":"wreck","seamark:type":"hulk"}}},{"type":"Feature","geometry":{"type":"Point","coordinates":[102.4944444,71.9952778]},"properties":{"osm_id":9903257336,"osm_type":"node","seamark_type":"anchorage","display_class":"OTHER","min_zoom":12,"importance":1,"name":"1","ref":null,"common":{"name":"1","type":"anchorage"},"children":{"anchorage":{"maximum_depth":"11.2"}},"osm_tags":{"description":"71°59'43,0\" N 102°29'40,0\" E Якорное место № 1 порт Хатанга","seamark:anchorage:maximum_depth":"11.2","seamark:name":"1","seamark:type":"anchorage"}}},{"type":"Feature","geometry":{"type":"Point","coordinates":[102.4594444,71.9888889]},"properties":{"osm_id":9903257335,"osm_type":"node","seamark_type":"anchorage","display_class":"OTHER","min_zoom":12,"importance":1,"name":"2","ref":null,"common":{"name":"2","type":"anchorage"},"children":{"anchorage":{"maximum_depth":"9.2"}},"osm_tags":{"description":"71°59'20,0\" N 102°27'34,0\" E Якорное место № 2 порт Хатанга","seamark:anchorage:maximum_depth":"9.2","seamark:name":"2","seamark:type":"anchorage"}}},{"type":"Feature","geometry":{"type":"Polygon","coordinates":[[[102.4626687,71.9826363],[102.4634818,71.9823245],[102.468832,71.9833807],[102.4781466,71.9846368],[102.4829961,71.9852768],[102.4879885,71.9852517],[102.4875709,71.9856863],[102.4788981,71.9860061],[102.4724584,71.9854227],[102.4668968,71.9836926],[102.4626687,71.9826363]]]},"properties":{"osm_id":1080440778,"osm_type":"way","seamark_type":"harbour","display_class":"OTHER","min_zoom":12,"importance":1,"name":"Хатанга","ref":null,"common":{"name":"Хатанга","type":"harbour"},"children":{},"osm_tags":{"area":"yes","industrial":"port","landuse":"industrial","seamark:name":"Хатанга","seamark:type":"harbour"}}}],"type":"FeatureCollection"}