{"type":"FeatureCollection","features":[{"type":"Feature","geometry":{"type":"Point","coordinates":[13.265445,73.7212099]},"properties":{"osm_id":1934144096,"osm_type":"node","seamark_type":"wreck","display_class":"OTHER","min_zoom":12,"importance":1,"name":"К-278 Комсомолец","ref":"K-278","common":{"type":"wreck"},"children":{},"osm_tags":{"access":"no","alt_name":"K-278","hazard":"radiation","historic":"wreck","name":"К-278 Комсомолец","name:de":"K-278 Komsomolez","name:en":"Komsomolets","note":"Sunk with nuclear warheads on board. Minor plutonium leaks recorded.","ref":"K-278","seamark:type":"wreck","wikidata":"Q499298","wikipedia":"en:Soviet submarine K-278 Komsomolets","wreck:date_commissioned":"1983-12-28","wreck:date_sunk":"1989-04-07","wreck:depth":"1680 m","wreck:discovered":"1989-06","wreck:gross_tonnage":"5880t","wreck:length":"110","wreck:location":"confirmed","wreck:type":"submarine","wreck:visible_at_high_tide":"no","wreck:visible_at_low_tide":"no","wreck:width":"12.3"}}}],"type":"FeatureCollection"}