{"type":"FeatureCollection","features":[{"type":"Feature","geometry":{"type":"Point","coordinates":[25.0108051,76.5093673]},"properties":{"osm_id":5403092409,"osm_type":"node","seamark_type":"landmark","display_class":"OTHER","min_zoom":12,"importance":1,"name":"Hopen radio","ref":null,"common":{"type":"landmark"},"children":{"landmark":{"category":"mast","function":"communication"},"radio_station":{"category":"qtg"}},"osm_tags":{"man_made":"mast","name":"Hopen radio","seamark:landmark:category":"mast","seamark:landmark:function":"communication","seamark:radio_station:category":"qtg","seamark:type":"landmark","tower:type":"communication"}}}],"type":"FeatureCollection"}