{"type":"FeatureCollection","features":[{"type":"Feature","geometry":{"type":"Point","coordinates":[15.4214349,78.2524016]},"properties":{"osm_id":5323945331,"osm_type":"node","seamark_type":"beacon_isolated_danger","display_class":"BEACON","min_zoom":9,"importance":4,"name":null,"ref":null,"common":{"type":"beacon_isolated_danger"},"children":{"beacon_isolated_danger":{"shape":"lattice"}},"osm_tags":{"man_made":"beacon","ref:kystverket":"210517","seamark:beacon_isolated_danger:shape":"lattice","seamark:type":"beacon_isolated_danger"}}},{"type":"Feature","geometry":{"type":"Point","coordinates":[15.6221698,78.2278554]},"properties":{"osm_id":5326007169,"osm_type":"node","seamark_type":"buoy_special_purpose","display_class":"OTHER","min_zoom":12,"importance":1,"name":null,"ref":null,"common":{"type":"buoy_special_purpose"},"children":{"buoy_special_purpose":{"category":"outfall","colour":"yellow","shape":"conical"},"light":{"character":"Fl","colour":"white","period":"3"}},"osm_tags":{"ref:kystverket":"232727","seamark:buoy_special_purpose:category":"outfall","seamark:buoy_special_purpose:colour":"yellow","seamark:buoy_special_purpose:shape":"conical","seamark:light:character":"Fl","seamark:light:colour":"white","seamark:light:period":"3","seamark:type":"buoy_special_purpose"}}},{"type":"Feature","geometry":{"type":"Point","coordinates":[15.6213576,78.2280619]},"properties":{"osm_id":5326007170,"osm_type":"node","seamark_type":"buoy_special_purpose","display_class":"OTHER","min_zoom":12,"importance":1,"name":null,"ref":null,"common":{"type":"buoy_special_purpose"},"children":{"buoy_special_purpose":{"category":"outfall","colour":"yellow","shape":"conical"},"light":{"character":"Fl","colour":"white","period":"3"}},"osm_tags":{"ref:kystverket":"232724","seamark:buoy_special_purpose:category":"outfall","seamark:buoy_special_purpose:colour":"yellow","seamark:buoy_special_purpose:shape":"conical","seamark:light:character":"Fl","seamark:light:colour":"white","seamark:light:period":"3","seamark:type":"buoy_special_purpose"}}},{"type":"Feature","geometry":{"type":"Point","coordinates":[15.6205608,78.2272032]},"properties":{"osm_id":5326007171,"osm_type":"node","seamark_type":"buoy_special_purpose","display_class":"OTHER","min_zoom":12,"importance":1,"name":null,"ref":null,"common":{"type":"buoy_special_purpose"},"children":{"buoy_special_purpose":{"category":"outfall","colour":"yellow","shape":"conical"},"light":{"character":"Fl","colour":"white","period":"3"}},"osm_tags":{"ref:kystverket":"232725","seamark:buoy_special_purpose:category":"outfall","seamark:buoy_special_purpose:colour":"yellow","seamark:buoy_special_purpose:shape":"conical","seamark:light:character":"Fl","seamark:light:colour":"white","seamark:light:period":"3","seamark:type":"buoy_special_purpose"}}},{"type":"Feature","geometry":{"type":"Point","coordinates":[15.6212831,78.2271515]},"properties":{"osm_id":5326007172,"osm_type":"node","seamark_type":"buoy_special_purpose","display_class":"OTHER","min_zoom":12,"importance":1,"name":null,"ref":null,"common":{"type":"buoy_special_purpose"},"children":{"buoy_special_purpose":{"category":"outfall","colour":"yellow","shape":"conical"},"light":{"character":"Fl","colour":"white","period":"3"}},"osm_tags":{"ref:kystverket":"232726","seamark:buoy_special_purpose:category":"outfall","seamark:buoy_special_purpose:colour":"yellow","seamark:buoy_special_purpose:shape":"conical","seamark:light:character":"Fl","seamark:light:colour":"white","seamark:light:period":"3","seamark:type":"buoy_special_purpose"}}},{"type":"Feature","geometry":{"type":"Point","coordinates":[15.6224775,78.2222246]},"properties":{"osm_id":5402049201,"osm_type":"node","seamark_type":"landmark","display_class":"OTHER","min_zoom":12,"importance":1,"name":null,"ref":null,"common":{"type":"landmark"},"children":{"landmark":{"category":"mast","function":"communication"},"radio_station":{"category":"qtg"}},"osm_tags":{"height":"30","man_made":"mast","seamark:landmark:category":"mast","seamark:landmark:function":"communication","seamark:radio_station:category":"qtg","seamark:type":"landmark","tower:type":"communication"}}},{"type":"Feature","geometry":{"type":"Polygon","coordinates":[[[15.5371406,78.2395185],[15.5365577,78.2394967],[15.5359783,78.2394486],[15.5390253,78.2384339],[15.5420723,78.2375711],[15.5449691,78.236788],[15.5460634,78.2369149],[15.5466857,78.2370593],[15.547029,78.2371686],[15.5476298,78.2372255],[15.5482736,78.2373217],[15.5489602,78.2374792],[15.5485311,78.2375754],[15.5479517,78.237641],[15.5472651,78.2377766],[15.547029,78.2378685],[15.5470505,78.2379166],[15.5466428,78.2380216],[15.5463853,78.2380172],[15.546377,78.2380387],[15.5462513,78.2383668],[15.5463654,78.238417],[15.5464416,78.2385259],[15.5465233,78.2387507],[15.5465832,78.2388559],[15.547693,78.2389745],[15.5480949,78.2390307],[15.5480051,78.2390843],[15.5476612,78.2390794],[15.546194,78.2389632],[15.5456892,78.2391366],[15.5456282,78.2393509],[15.544936,78.2397906],[15.544283,78.2397819],[15.5438874,78.2397419],[15.5455873,78.2386802],[15.5432995,78.238511],[15.5429778,78.2387024],[15.5419099,78.2393378],[15.5419489,78.2393758],[15.5420542,78.2393827],[15.5421959,78.2394611],[15.542087,78.2394722],[15.5421199,78.2394972],[15.5417732,78.2395254],[15.5416227,78.2395368],[15.5412743,78.2393707],[15.5411145,78.2393537],[15.5406307,78.2392943],[15.539771,78.2394205],[15.5398179,78.2394811],[15.5398595,78.2395363],[15.5397013,78.239559],[15.5384315,78.2395744],[15.5382297,78.2395684],[15.5371406,78.2395185]]]},"properties":{"osm_id":807512801,"osm_type":"way","seamark_type":"harbour","display_class":"OTHER","min_zoom":12,"importance":1,"name":null,"ref":null,"common":{"type":"harbour"},"children":{"harbour":{"category":"marina"}},"osm_tags":{"leisure":"marina","seamark:harbour:category":"marina","seamark:type":"harbour"}}},{"type":"Feature","geometry":{"type":"Point","coordinates":[15.5523554,78.2460602]},"properties":{"osm_id":1208591027,"osm_type":"node","seamark_type":"pile","display_class":"OTHER","min_zoom":12,"importance":1,"name":"Adventpynten","ref":null,"common":{"name":"Adventpynten","type":"pile"},"children":{"light":{"character":"Fl","colour":"green","period":"5","range":"2.6","sequence":"0.5+(4.5)"}},"osm_tags":{"ref:kystverket":"986500","seamark:light:character":"Fl","seamark:light:colour":"green","seamark:light:period":"5","seamark:light:range":"2.6","seamark:light:sequence":"0.5+(4.5)","seamark:name":"Adventpynten","seamark:type":"pile"}}},{"type":"Feature","geometry":{"type":"Point","coordinates":[15.8412506,78.3498791]},"properties":{"osm_id":5325948358,"osm_type":"node","seamark_type":"light_minor","display_class":"OTHER","min_zoom":12,"importance":1,"name":"Deltaneset","ref":null,"common":{"conspicuity":"conspicuous","name":"Deltaneset","type":"light_minor","vertical_length":"2"},"children":{"light":{"category":"aero","character":"Fl","colour":"white","height":"6.5","period":"3","range":"7.5"},"radio_station":{"category":"qtg"}},"osm_tags":{"ref:kystverket":"986600","seamark:conspicuity":"conspicuous","seamark:light:category":"aero","seamark:light:character":"Fl","seamark:light:colour":"white","seamark:light:height":"6.5","seamark:light:period":"3","seamark:light:range":"7.5","seamark:name":"Deltaneset","seamark:radio_station:category":"qtg","seamark:type":"light_minor","seamark:vertical_length":"2"}}},{"type":"Feature","geometry":{"type":"Point","coordinates":[15.2333283,78.2666633]},"properties":{"osm_id":5363716738,"osm_type":"node","seamark_type":"pilot_boarding","display_class":"OTHER","min_zoom":12,"importance":1,"name":"Isfjorden utenfor Longyerbyen","ref":null,"common":{"name":"Isfjorden utenfor Longyerbyen","type":"pilot_boarding"},"children":{"pilot_boarding":{"category":"from_shore","channel":"13;16"}},"osm_tags":{"seamark:name":"Isfjorden utenfor Longyerbyen","seamark:pilot_boarding:category":"from_shore","seamark:pilot_boarding:channel":"13;16","seamark:type":"pilot_boarding","source":"Kystverket"}}},{"type":"Feature","geometry":{"type":"Point","coordinates":[15.4675901,78.4563561]},"properties":{"osm_id":5325948360,"osm_type":"node","seamark_type":"light_minor","display_class":"OTHER","min_zoom":12,"importance":1,"name":"Kapp Thordsen","ref":null,"common":{"conspicuity":"conspicuous","name":"Kapp Thordsen","type":"light_minor"},"children":{"light":{"category":"aero","character":"Fl","colour":"white","height":"16.6","period":"3","range":"7.5"},"radio_station":{"category":"qtg"}},"osm_tags":{"ref:kystverket":"986700","seamark:conspicuity":"conspicuous","seamark:light:category":"aero","seamark:light:character":"Fl","seamark:light:colour":"white","seamark:light:height":"16.6","seamark:light:period":"3","seamark:light:range":"7.5","seamark:name":"Kapp Thordsen","seamark:radio_station:category":"qtg","seamark:type":"light_minor"}}},{"type":"Feature","geometry":{"type":"Point","coordinates":[15.6095754,78.2280778]},"properties":{"osm_id":8683986605,"osm_type":"node","seamark_type":"small_craft_facility","display_class":"OTHER","min_zoom":12,"importance":1,"name":"Longyearbyen havn","ref":null,"common":{"type":"small_craft_facility"},"children":{"small_craft_facility":{"category":"fuel_station"}},"osm_tags":{"fuel:octane_95":"yes","fuel:taxfree_diesel":"yes","name":"Longyearbyen havn","ref:marina":"9331","seamark:small_craft_facility:category":"fuel_station","seamark:type":"small_craft_facility","waterway":"fuel"}}},{"type":"Feature","geometry":{"type":"Point","coordinates":[15.5123421,78.291413]},"properties":{"osm_id":5324479939,"osm_type":"node","seamark_type":"buoy_lateral","display_class":"OTHER","min_zoom":12,"importance":1,"name":"Revneset, 1","ref":null,"common":{"name":"Revneset, 1","type":"buoy_lateral"},"children":{"buoy_lateral":{"category":"port","colour":"red","shape":"pillar","system":"iala-a"},"light":{"character":"Fl","colour":"white","period":"5","sequence":"0.5+(4.5)"}},"osm_tags":{"ref:kystverket":"986512","seamark:buoy_lateral:category":"port","seamark:buoy_lateral:colour":"red","seamark:buoy_lateral:shape":"pillar","seamark:buoy_lateral:system":"iala-a","seamark:light:character":"Fl","seamark:light:colour":"white","seamark:light:period":"5","seamark:light:sequence":"0.5+(4.5)","seamark:name":"Revneset, 1","seamark:type":"buoy_lateral"}}},{"type":"Feature","geometry":{"type":"Point","coordinates":[15.5176702,78.2865762]},"properties":{"osm_id":5324479943,"osm_type":"node","seamark_type":"buoy_lateral","display_class":"OTHER","min_zoom":12,"importance":1,"name":"Revneset, 2","ref":null,"common":{"name":"Revneset, 2","type":"buoy_lateral"},"children":{"buoy_lateral":{"category":"port","colour":"red","shape":"pillar","system":"iala-a"},"light":{"character":"Fl","colour":"white","period":"5","sequence":"0.5+(4.5)"}},"osm_tags":{"ref:kystverket":"986514","seamark:buoy_lateral:category":"port","seamark:buoy_lateral:colour":"red","seamark:buoy_lateral:shape":"pillar","seamark:buoy_lateral:system":"iala-a","seamark:light:character":"Fl","seamark:light:colour":"white","seamark:light:period":"5","seamark:light:sequence":"0.5+(4.5)","seamark:name":"Revneset, 2","seamark:type":"buoy_lateral"}}},{"type":"Feature","geometry":{"type":"Point","coordinates":[15.5396386,78.2812334]},"properties":{"osm_id":5324479938,"osm_type":"node","seamark_type":"buoy_lateral","display_class":"OTHER","min_zoom":12,"importance":1,"name":"Revneset, 3","ref":null,"common":{"name":"Revneset, 3","type":"buoy_lateral"},"children":{"buoy_lateral":{"category":"port","colour":"red","shape":"pillar","system":"iala-a"},"light":{"character":"Fl","colour":"white","period":"5","sequence":"0.5+(4.5)"}},"osm_tags":{"ref:kystverket":"986516","seamark:buoy_lateral:category":"port","seamark:buoy_lateral:colour":"red","seamark:buoy_lateral:shape":"pillar","seamark:buoy_lateral:system":"iala-a","seamark:light:character":"Fl","seamark:light:colour":"white","seamark:light:period":"5","seamark:light:sequence":"0.5+(4.5)","seamark:name":"Revneset, 3","seamark:type":"buoy_lateral"}}},{"type":"Feature","geometry":{"type":"Point","coordinates":[15.9466992,78.4839969]},"properties":{"osm_id":5325947482,"osm_type":"node","seamark_type":"light_minor","display_class":"OTHER","min_zoom":12,"importance":1,"name":"Rundodden","ref":null,"common":{"conspicuity":"conspicuous","name":"Rundodden","type":"light_minor"},"children":{"light":{"category":"aero","character":"Fl","colour":"white","period":"2","sequence":"0.2+(1.8)"}},"osm_tags":{"ref:kystverket":"986801","seamark:conspicuity":"conspicuous","seamark:light:category":"aero","seamark:light:character":"Fl","seamark:light:colour":"white","seamark:light:period":"2","seamark:light:sequence":"0.2+(1.8)","seamark:name":"Rundodden","seamark:type":"light_minor"}}},{"type":"Feature","geometry":{"type":"Point","coordinates":[15.9500164,78.4849275]},"properties":{"osm_id":5325947485,"osm_type":"node","seamark_type":"landmark","display_class":"OTHER","min_zoom":12,"importance":1,"name":"Rundodden","ref":null,"common":{"name":"Rundodden","type":"landmark"},"children":{"landmark":{"category":"mast","conspicuity":"conspicuous"},"light":{"category":"aero","character":"Fl","colour":"white","period":"2"}},"osm_tags":{"man_made":"beacon","name":"Rundodden","ref:kystverket":"986801","seamark:landmark:category":"mast","seamark:landmark:conspicuity":"conspicuous","seamark:light:category":"aero","seamark:light:character":"Fl","seamark:light:colour":"white","seamark:light:period":"2","seamark:name":"Rundodden","seamark:type":"landmark"}}},{"type":"Feature","geometry":{"type":"Point","coordinates":[15.418928,78.2520733]},"properties":{"osm_id":1208591009,"osm_type":"node","seamark_type":"landmark","display_class":"OTHER","min_zoom":12,"importance":1,"name":"Vestpynten","ref":null,"common":{"name":"Vestpynten","type":"landmark"},"children":{"landmark":{"category":"tower","conspicuity":"conspicuous","vertical_length":"6"},"light":{"character":"Fl","colour":"white","height":"8","period":"5","sequence":"1+(4)"}},"osm_tags":{"man_made":"beacon","name":"Vestpynten","ref:kystverket":"986400","seamark:landmark:category":"tower","seamark:landmark:conspicuity":"conspicuous","seamark:landmark:vertical_length":"6","seamark:light:character":"Fl","seamark:light:colour":"white","seamark:light:height":"8","seamark:light:period":"5","seamark:light:sequence":"1+(4)","seamark:name":"Vestpynten","seamark:type":"landmark"}}}],"type":"FeatureCollection"}