{"type":"FeatureCollection","features":[{"type":"Feature","geometry":{"type":"Point","coordinates":[18.6838051,78.0501258]},"properties":{"osm_id":5325949656,"osm_type":"node","seamark_type":"light_minor","display_class":"OTHER","min_zoom":12,"importance":1,"name":"Agardhbukta","ref":null,"common":{"name":"Agardhbukta","type":"light_minor"},"children":{"light":{"category":"aero","character":"Fl","colour":"white","period":"2"},"radio_station":{"category":"qtg"}},"osm_tags":{"ref:kystverket":"999200","seamark:light:category":"aero","seamark:light:character":"Fl","seamark:light:colour":"white","seamark:light:period":"2","seamark:name":"Agardhbukta","seamark:radio_station:category":"qtg","seamark:type":"light_minor"}}}],"type":"FeatureCollection"}