{"type":"FeatureCollection","features":[{"type":"Feature","geometry":{"type":"Point","coordinates":[114.9053409,-0.9609516]},"properties":{"osm_id":13955523288,"osm_type":"node","seamark_type":"harbour","display_class":"OTHER","min_zoom":12,"importance":1,"name":"Pelabuhan Pendopo/Speedboat Muara Teweh","ref":null,"common":{"type":"harbour"},"children":{"harbour":{"category":"marina"}},"osm_tags":{"leisure":"marina","name":"Pelabuhan Pendopo/Speedboat Muara Teweh","seamark:harbour:category":"marina","seamark:type":"harbour"}}}],"type":"FeatureCollection"}