{"type":"FeatureCollection","features":[{"type":"Feature","geometry":{"type":"Point","coordinates":[-49.1744001,-0.0985847]},"properties":{"osm_id":1986434086,"osm_type":"node","seamark_type":"anchorage","display_class":"OTHER","min_zoom":12,"importance":1,"name":null,"ref":null,"common":{"type":"anchorage"},"children":{},"osm_tags":{"seamark:type":"anchorage"}}},{"type":"Feature","geometry":{"type":"Point","coordinates":[-49.5517066,-0.1470926]},"properties":{"osm_id":1986434215,"osm_type":"node","seamark_type":"anchorage","display_class":"OTHER","min_zoom":12,"importance":1,"name":null,"ref":null,"common":{"type":"anchorage"},"children":{},"osm_tags":{"seamark:type":"anchorage"}}},{"type":"Feature","geometry":{"type":"Point","coordinates":[-49.1515152,-0.1562856]},"properties":{"osm_id":1986434216,"osm_type":"node","seamark_type":"signal_station_warning","display_class":"OTHER","min_zoom":12,"importance":1,"name":null,"ref":null,"common":{"type":"signal_station_warning"},"children":{"signal_station_warning":{"category":"scale"}},"osm_tags":{"seamark:signal_station_warning:category":"scale","seamark:type":"signal_station_warning"}}},{"type":"Feature","geometry":{"type":"Point","coordinates":[-49.9872438,-0.1592711]},"properties":{"osm_id":1986434217,"osm_type":"node","seamark_type":"signal_station_warning","display_class":"OTHER","min_zoom":12,"importance":1,"name":null,"ref":null,"common":{"type":"signal_station_warning"},"children":{"signal_station_warning":{"category":"scale"}},"osm_tags":{"monitoring:tide_scale":"yes","seamark:signal_station_warning:category":"scale","seamark:type":"signal_station_warning"}}},{"type":"Feature","geometry":{"type":"Point","coordinates":[-49.9799032,-0.1649004]},"properties":{"osm_id":1986947208,"osm_type":"node","seamark_type":"tank","display_class":"OTHER","min_zoom":12,"importance":1,"name":null,"ref":null,"common":{"type":"tank"},"children":{"tank":{"category":"water_tower"}},"osm_tags":{"man_made":"water_tower","seamark:tank:category":"water_tower","seamark:type":"tank"}}},{"type":"Feature","geometry":{"type":"Point","coordinates":[-49.7906539,-0.197929]},"properties":{"osm_id":1987912012,"osm_type":"node","seamark_type":"control_point","display_class":"OTHER","min_zoom":12,"importance":1,"name":null,"ref":null,"common":{"type":"control_point"},"children":{"control_point":{"category":"triangulation"}},"osm_tags":{"man_made":"survey_point","seamark:control_point:category":"triangulation","seamark:type":"control_point","type":"triangulation"}}},{"type":"Feature","geometry":{"type":"Point","coordinates":[-49.6457887,-0.2441081]},"properties":{"osm_id":1986434249,"osm_type":"node","seamark_type":"landmark","display_class":"OTHER","min_zoom":12,"importance":1,"name":"Capela Nossa Senhora do Carmo","ref":null,"common":{"type":"landmark"},"children":{"building":{"function":"chapel"},"landmark":{"function":"church"}},"osm_tags":{"amenity":"place_of_worship","building":"chapel","name":"Capela Nossa Senhora do Carmo","religion":"christian","seamark:building:function":"chapel","seamark:landmark:function":"church","seamark:type":"landmark"}}},{"type":"Feature","geometry":{"type":"Point","coordinates":[-49.9835012,-0.1611775]},"properties":{"osm_id":3628014959,"osm_type":"node","seamark_type":"harbour","display_class":"OTHER","min_zoom":12,"importance":1,"name":"Chaves","ref":null,"common":{"name":"Chaves","type":"harbour"},"children":{},"osm_tags":{"harbour":"yes","seamark:name":"Chaves","seamark:type":"harbour"}}},{"type":"Feature","geometry":{"type":"Point","coordinates":[-49.8335032,-0.0946529]},"properties":{"osm_id":1987958431,"osm_type":"node","seamark_type":"control_point","display_class":"OTHER","min_zoom":12,"importance":1,"name":"Ponta Santana","ref":null,"common":{"type":"control_point"},"children":{"control_point":{"category":"triangulation"}},"osm_tags":{"man_made":"survey_point","name":"Ponta Santana","seamark:control_point:category":"triangulation","seamark:type":"control_point","type":"triangulation"}}}],"type":"FeatureCollection"}