{"type":"FeatureCollection","features":[{"type":"Feature","geometry":{"type":"Point","coordinates":[-47.7660373,-0.5647816]},"properties":{"osm_id":1181458134,"osm_type":"node","seamark_type":"light_major","display_class":"LIGHTHOUSE","min_zoom":7,"importance":5,"name":"Curuca","ref":"17652","common":{"name":"Curuca","type":"light_major"},"children":{"light":{"1:character":"Fl","1:colour":"white","1:group":"3","1:height":"44","1:period":"15","1:range":"18","1:sector_end":"238","1:sector_start":"105","reference":"G 0062"}},"osm_tags":{"lighthouse:shape":"White metal framework tower, red bands; 138","man_made":"lighthouse","name":"Curuçá","ref":"17652","seamark:light:1:character":"Fl","seamark:light:1:colour":"white","seamark:light:1:group":"3","seamark:light:1:height":"44","seamark:light:1:period":"15","seamark:light:1:range":"18","seamark:light:1:sector_end":"238","seamark:light:1:sector_start":"105","seamark:light:reference":"G 0062","seamark:name":"Curuca","seamark:type":"light_major"}}},{"type":"Feature","geometry":{"type":"Point","coordinates":[-47.5840348,-0.580193]},"properties":{"osm_id":1181473984,"osm_type":"node","seamark_type":"light_major","display_class":"LIGHTHOUSE","min_zoom":7,"importance":5,"name":"Ponta Marapanim","ref":"17656","common":{"name":"Ponta Marapanim","type":"light_major"},"children":{"light":{"1:character":"Fl","1:colour":"white","1:group":"2","1:height":"34","1:period":"10","1:range":"16","1:sector_end":"276","1:sector_start":"108","reference":"G 0063"}},"osm_tags":{"lighthouse:shape":"White square metal framework tower, red bands, diamond daymark; 105","man_made":"lighthouse","name":"Ponta Marapanim","ref":"17656","seamark:light:1:character":"Fl","seamark:light:1:colour":"white","seamark:light:1:group":"2","seamark:light:1:height":"34","seamark:light:1:period":"10","seamark:light:1:range":"16","seamark:light:1:sector_end":"276","seamark:light:1:sector_start":"108","seamark:light:reference":"G 0063","seamark:name":"Ponta Marapanim","seamark:type":"light_major"}}},{"type":"Feature","geometry":{"type":"Point","coordinates":[-47.8974889,-0.5569852]},"properties":{"osm_id":1181465719,"osm_type":"node","seamark_type":"light_major","display_class":"LIGHTHOUSE","min_zoom":7,"importance":5,"name":"Ponta da Tijoca","ref":null,"common":{"name":"Ponta da Tijoca","type":"light_major"},"children":{"light":{"1:character":"Fl","1:colour":"white","1:group":"2","1:height":"35","1:period":"10","1:range":"18","1:sector_end":"265","1:sector_start":"085","reference":"G 0018"},"radar_transponder":{"category":"racon","group":"B"}},"osm_tags":{"lighthouse:shape":"White square metal framework tower, red bands; 16","man_made":"lighthouse","name":"Ponta Tijoca","seamark:light:1:character":"Fl","seamark:light:1:colour":"white","seamark:light:1:group":"2","seamark:light:1:height":"35","seamark:light:1:period":"10","seamark:light:1:range":"18","seamark:light:1:sector_end":"265","seamark:light:1:sector_start":"085","seamark:light:reference":"G 0018","seamark:name":"Ponta da Tijoca","seamark:radar_transponder:category":"racon","seamark:radar_transponder:group":"B","seamark:type":"light_major"}}},{"type":"Feature","geometry":{"type":"Point","coordinates":[-47.3567848,-0.6157057]},"properties":{"osm_id":345841515,"osm_type":"node","seamark_type":"light_major","display_class":"LIGHTHOUSE","min_zoom":7,"importance":5,"name":"Salinopolis","ref":"17660","common":{"name":"Salinopolis","type":"light_major"},"children":{"light":{"character":"Fl","colour":"white","height":"61","period":"6","range":"46","reference":"G 0064"},"radar_transponder":{"category":"racon","group":"K"},"radio_station":{"category":"omnidirectional"}},"osm_tags":{"lighthouse:shape":"Red metal framework tower, center column;128","man_made":"lighthouse","name":"Farol de Salinópolis","ref":"17660","seamark:light:character":"Fl","seamark:light:colour":"white","seamark:light:height":"61","seamark:light:period":"6","seamark:light:range":"46","seamark:light:reference":"G 0064","seamark:name":"Salinopolis","seamark:radar_transponder:category":"racon","seamark:radar_transponder:group":"K","seamark:radio_station:category":"omnidirectional","seamark:type":"light_major","wikidata":"Q10280167","wikimedia_commons":"File:Farol_de_Salinopolis-01.jpg","wikipedia":"pt:Farol de Salinópolis"}}},{"type":"Feature","geometry":{"type":"Point","coordinates":[-47.8811026,-0.4514926]},"properties":{"osm_id":1986434277,"osm_type":"node","seamark_type":"wreck","display_class":"OTHER","min_zoom":12,"importance":1,"name":null,"ref":null,"common":{"type":"wreck"},"children":{"wreck":{"category":"hull_showing"}},"osm_tags":{"historic":"wreck","seamark:type":"wreck","seamark:wreck:category":"hull_showing","stranded":"yes"}}},{"type":"Feature","geometry":{"type":"Point","coordinates":[-47.0771732,-0.4918309]},"properties":{"osm_id":1986434278,"osm_type":"node","seamark_type":"wreck","display_class":"OTHER","min_zoom":12,"importance":1,"name":null,"ref":null,"common":{"type":"wreck"},"children":{"wreck":{"category":"non-dangerous"}},"osm_tags":{"historic":"wreck","seamark:type":"wreck","seamark:wreck:category":"non-dangerous"}}},{"type":"Feature","geometry":{"type":"Point","coordinates":[-47.3834454,-0.4938586]},"properties":{"osm_id":1986434279,"osm_type":"node","seamark_type":"pilot_boarding","display_class":"OTHER","min_zoom":12,"importance":1,"name":null,"ref":null,"common":{"type":"pilot_boarding"},"children":{},"osm_tags":{"pilotage":"boarding_point","seamark:type":"pilot_boarding"}}},{"type":"Feature","geometry":{"type":"Point","coordinates":[-47.9015722,-0.5344743]},"properties":{"osm_id":1986434285,"osm_type":"node","seamark_type":"anchorage","display_class":"OTHER","min_zoom":12,"importance":1,"name":null,"ref":null,"common":{"type":"anchorage"},"children":{},"osm_tags":{"seamark:type":"anchorage"}}},{"type":"Feature","geometry":{"type":"Point","coordinates":[-47.3650328,-0.5355516]},"properties":{"osm_id":1986434294,"osm_type":"node","seamark_type":"anchorage","display_class":"OTHER","min_zoom":12,"importance":1,"name":null,"ref":null,"common":{"type":"anchorage"},"children":{},"osm_tags":{"seamark:type":"anchorage"}}},{"type":"Feature","geometry":{"type":"Point","coordinates":[-47.9156693,-0.5589447]},"properties":{"osm_id":1986434300,"osm_type":"node","seamark_type":"wreck","display_class":"OTHER","min_zoom":12,"importance":1,"name":null,"ref":null,"common":{"type":"wreck"},"children":{"wreck":{"category":"dangerous"}},"osm_tags":{"historic":"wreck","seamark:type":"wreck","seamark:wreck:category":"dangerous"}}},{"type":"Feature","geometry":{"type":"Point","coordinates":[-47.8437854,-0.2032624]},"properties":{"osm_id":1990607513,"osm_type":"node","seamark_type":"buoy_safe_water","display_class":"OTHER","min_zoom":12,"importance":1,"name":null,"ref":null,"common":{"type":"buoy_safe_water"},"children":{"buoy_safe_water":{"colour":"red;white","colour_pattern":"vertical","shape":"pillar"},"light":{"character":"LFl","colour":"white","period":"10","range":"8"},"topmark":{"colour":"red","shape":"sphere"}},"osm_tags":{"seamark:buoy_safe_water:colour":"red;white","seamark:buoy_safe_water:colour_pattern":"vertical","seamark:buoy_safe_water:shape":"pillar","seamark:light:character":"LFl","seamark:light:colour":"white","seamark:light:period":"10","seamark:light:range":"8","seamark:topmark:colour":"red","seamark:topmark:shape":"sphere","seamark:type":"buoy_safe_water"}}},{"type":"Feature","geometry":{"type":"Point","coordinates":[-47.8166963,-0.2833162]},"properties":{"osm_id":1990607649,"osm_type":"node","seamark_type":"pilot_boarding","display_class":"OTHER","min_zoom":12,"importance":1,"name":null,"ref":null,"common":{"type":"pilot_boarding"},"children":{},"osm_tags":{"pilotage":"boarding_point","seamark:type":"pilot_boarding"}}},{"type":"Feature","geometry":{"type":"Point","coordinates":[-47.7669655,-0.4084495]},"properties":{"osm_id":1990608060,"osm_type":"node","seamark_type":"pilot_boarding","display_class":"OTHER","min_zoom":12,"importance":1,"name":null,"ref":null,"common":{"type":"pilot_boarding"},"children":{},"osm_tags":{"pilotage":"boarding_point","seamark:type":"pilot_boarding"}}},{"type":"Feature","geometry":{"type":"Point","coordinates":[-47.3550807,-0.6181498]},"properties":{"osm_id":1990608272,"osm_type":"node","seamark_type":"radio_station","display_class":"OTHER","min_zoom":12,"importance":1,"name":null,"ref":null,"common":{"type":"radio_station"},"children":{"radio_station":{"callsign":"BL","category":"omnidirectional","frequency":"315000"}},"osm_tags":{"man_made":"tower","seamark:radio_station:callsign":"BL","seamark:radio_station:category":"omnidirectional","seamark:radio_station:frequency":"315000","seamark:type":"radio_station","tower:type":"communication"}}},{"type":"Feature","geometry":{"type":"Point","coordinates":[-47.3849986,-0.5018596]},"properties":{"osm_id":1990672979,"osm_type":"node","seamark_type":"buoy_cardinal","display_class":"OTHER","min_zoom":12,"importance":1,"name":null,"ref":null,"common":{"type":"buoy_cardinal"},"children":{"buoy_cardinal":{"category":"north","colour":"black;yellow","colour_pattern":"horizontal","shape":"pillar"},"light":{"character":"Q","colour":"white"},"topmark":{"colour":"black","shape":"2 cones up"}},"osm_tags":{"seamark:buoy_cardinal:category":"north","seamark:buoy_cardinal:colour":"black;yellow","seamark:buoy_cardinal:colour_pattern":"horizontal","seamark:buoy_cardinal:shape":"pillar","seamark:light:character":"Q","seamark:light:colour":"white","seamark:topmark:colour":"black","seamark:topmark:shape":"2 cones up","seamark:type":"buoy_cardinal"}}},{"type":"Feature","geometry":{"type":"Point","coordinates":[-47.3200761,-0.5913233]},"properties":{"osm_id":1990672980,"osm_type":"node","seamark_type":"landmark","display_class":"OTHER","min_zoom":12,"importance":1,"name":null,"ref":null,"common":{"type":"landmark"},"children":{"landmark":{"category":"mast"}},"osm_tags":{"man_made":"mast","seamark:landmark:category":"mast","seamark:type":"landmark","tower:construction":"freestanding","tower:type":"communication","type":"fixed_point"}}},{"type":"Feature","geometry":{"type":"Point","coordinates":[-47.3834966,-0.5053823]},"properties":{"osm_id":2394610907,"osm_type":"node","seamark_type":"rock","display_class":"OTHER","min_zoom":12,"importance":1,"name":null,"ref":null,"common":{"type":"rock"},"children":{"rock":{"water_level":"submerged"}},"osm_tags":{"seamark:rock:water_level":"submerged","seamark:type":"rock"}}},{"type":"Feature","geometry":{"type":"Point","coordinates":[-47.3228142,-0.5497025]},"properties":{"osm_id":2394611007,"osm_type":"node","seamark_type":"restricted_area","display_class":"OTHER","min_zoom":12,"importance":1,"name":null,"ref":null,"common":{"type":"restricted_area"},"children":{"restricted_area":{"category":"foul_ground"}},"osm_tags":{"seamark:restricted_area:category":"foul_ground","seamark:type":"restricted_area"}}},{"type":"Feature","geometry":{"type":"Point","coordinates":[-47.9089061,-0.5777159]},"properties":{"osm_id":2394611008,"osm_type":"node","seamark_type":"signal_station_warning","display_class":"OTHER","min_zoom":12,"importance":1,"name":null,"ref":null,"common":{"type":"signal_station_warning"},"children":{"signal_station_warning":{"category":"scale"}},"osm_tags":{"monitoring:tide":"yes","monitoring:tide_scale":"yes","seamark:signal_station_warning:category":"scale","seamark:type":"signal_station_warning"}}},{"type":"Feature","geometry":{"type":"Point","coordinates":[-47.366691,-0.6299778]},"properties":{"osm_id":2924117697,"osm_type":"node","seamark_type":"signal_station_warning","display_class":"OTHER","min_zoom":12,"importance":1,"name":null,"ref":null,"common":{"type":"signal_station_warning"},"children":{"signal_station_warning":{"category":"scale"}},"osm_tags":{"seamark:signal_station_warning:category":"scale","seamark:type":"signal_station_warning"}}},{"type":"Feature","geometry":{"type":"Point","coordinates":[-47.5881384,-0.5945385]},"properties":{"osm_id":2924118354,"osm_type":"node","seamark_type":"harbour","display_class":"OTHER","min_zoom":12,"importance":1,"name":null,"ref":null,"common":{"type":"harbour"},"children":{"harbour":{"category":"fishing"}},"osm_tags":{"harbour":"yes","seamark:harbour:category":"fishing","seamark:type":"harbour"}}},{"type":"Feature","geometry":{"type":"Point","coordinates":[-47.93,-0.46]},"properties":{"osm_id":10054806921,"osm_type":"node","seamark_type":"wreck","display_class":"OTHER","min_zoom":12,"importance":1,"name":null,"ref":null,"common":{"type":"wreck"},"children":{"wreck":{"category":"dangerous"}},"osm_tags":{"seamark:type":"wreck","seamark:wreck:category":"dangerous"}}},{"type":"Feature","geometry":{"type":"LineString","coordinates":[[-47.4382126,-0.2521061],[-47.3834454,-0.4938586],[-47.3574766,-0.612544],[-47.3567848,-0.6157057]]},"properties":{"osm_id":188022343,"osm_type":"way","seamark_type":"navigation_line","display_class":"OTHER","min_zoom":12,"importance":1,"name":null,"ref":null,"common":{"type":"navigation_line"},"children":{"navigation_line":{"orientation":"167"}},"osm_tags":{"seamark:navigation_line:orientation":"167","seamark:type":"navigation_line"}}},{"type":"Feature","geometry":{"type":"LineString","coordinates":[[-47.3637275,-0.6267314],[-47.363144,-0.6262606]]},"properties":{"osm_id":288861817,"osm_type":"way","seamark_type":"berth","display_class":"OTHER","min_zoom":12,"importance":1,"name":null,"ref":null,"common":{"type":"berth"},"children":{},"osm_tags":{"man_made":"pier","seamark:type":"berth"}}},{"type":"Feature","geometry":{"type":"LineString","coordinates":[[-47.3651663,-0.6253921],[-47.3644569,-0.624855]]},"properties":{"osm_id":288861818,"osm_type":"way","seamark_type":"berth","display_class":"OTHER","min_zoom":12,"importance":1,"name":null,"ref":null,"common":{"type":"berth"},"children":{},"osm_tags":{"man_made":"pier","seamark:type":"berth"}}},{"type":"Feature","geometry":{"type":"Point","coordinates":[-47.8814954,-0.7014652]},"properties":{"osm_id":3628076870,"osm_type":"node","seamark_type":"harbour","display_class":"OTHER","min_zoom":12,"importance":1,"name":"Curuçá","ref":null,"common":{"name":"Curuçá","type":"harbour"},"children":{},"osm_tags":{"harbour":"yes","seamark:name":"Curuçá","seamark:type":"harbour"}}},{"type":"Feature","geometry":{"type":"Point","coordinates":[-47.3650782,-0.6267148]},"properties":{"osm_id":2924117695,"osm_type":"node","seamark_type":"harbour","display_class":"OTHER","min_zoom":12,"importance":1,"name":"Porto Grande","ref":null,"common":{"name":"Porto Grande","type":"harbour"},"children":{},"osm_tags":{"harbour":"yes","seamark:name":"Porto Grande","seamark:type":"harbour"}}},{"type":"Feature","geometry":{"type":"Point","coordinates":[-47.945617,-0.2565174]},"properties":{"osm_id":1990607554,"osm_type":"node","seamark_type":"buoy_lateral","display_class":"OTHER","min_zoom":12,"importance":1,"name":"no 1","ref":null,"common":{"name":"no 1","type":"buoy_lateral"},"children":{"buoy_lateral":{"category":"starboard","colour":"red","shape":"pillar","system":"iala-b"},"light":{"character":"Fl","colour":"red","period":"5"},"topmark":{"colour":"red","shape":"cone, point up"}},"osm_tags":{"seamark:buoy_lateral:category":"starboard","seamark:buoy_lateral:colour":"red","seamark:buoy_lateral:shape":"pillar","seamark:buoy_lateral:system":"iala-b","seamark:light:character":"Fl","seamark:light:colour":"red","seamark:light:period":"5","seamark:name":"no 1","seamark:topmark:colour":"red","seamark:topmark:shape":"cone, point up","seamark:type":"buoy_lateral"}}},{"type":"Feature","geometry":{"type":"Point","coordinates":[-47.9183856,-0.4091823]},"properties":{"osm_id":1990608157,"osm_type":"node","seamark_type":"buoy_lateral","display_class":"OTHER","min_zoom":12,"importance":1,"name":"no 1","ref":null,"common":{"name":"no 1","type":"buoy_lateral"},"children":{"buoy_lateral":{"category":"starboard","colour":"red","shape":"pillar","system":"iala-b"},"light":{"character":"Fl","colour":"red","period":"5"},"topmark":{"colour":"red","shape":"cone, point up"}},"osm_tags":{"seamark:buoy_lateral:category":"starboard","seamark:buoy_lateral:colour":"red","seamark:buoy_lateral:shape":"pillar","seamark:buoy_lateral:system":"iala-b","seamark:light:character":"Fl","seamark:light:colour":"red","seamark:light:period":"5","seamark:name":"no 1","seamark:topmark:colour":"red","seamark:topmark:shape":"cone, point up","seamark:type":"buoy_lateral"}}},{"type":"Feature","geometry":{"type":"Point","coordinates":[-47.9955771,-0.3199851]},"properties":{"osm_id":1990607876,"osm_type":"node","seamark_type":"buoy_lateral","display_class":"OTHER","min_zoom":12,"importance":1,"name":"no 2","ref":null,"common":{"name":"no 2","type":"buoy_lateral"},"children":{"buoy_lateral":{"category":"port","colour":"green","shape":"pillar","system":"iala-b"},"light":{"character":"Fl","colour":"green","period":"5"},"topmark":{"colour":"green","shape":"cylinder"}},"osm_tags":{"seamark:buoy_lateral:category":"port","seamark:buoy_lateral:colour":"green","seamark:buoy_lateral:shape":"pillar","seamark:buoy_lateral:system":"iala-b","seamark:light:character":"Fl","seamark:light:colour":"green","seamark:light:period":"5","seamark:name":"no 2","seamark:topmark:colour":"green","seamark:topmark:shape":"cylinder","seamark:type":"buoy_lateral"}}},{"type":"Feature","geometry":{"type":"Point","coordinates":[-47.8337609,-0.4050369]},"properties":{"osm_id":1990608033,"osm_type":"node","seamark_type":"buoy_lateral","display_class":"OTHER","min_zoom":12,"importance":1,"name":"no 2","ref":null,"common":{"name":"no 2","type":"buoy_lateral"},"children":{"buoy_lateral":{"category":"port","colour":"green","shape":"pillar","system":"iala-b"},"light":{"character":"Fl","colour":"green","group":"3","period":"12"},"topmark":{"colour":"green","shape":"cylinder"}},"osm_tags":{"seamark:buoy_lateral:category":"port","seamark:buoy_lateral:colour":"green","seamark:buoy_lateral:shape":"pillar","seamark:buoy_lateral:system":"iala-b","seamark:light:character":"Fl","seamark:light:colour":"green","seamark:light:group":"3","seamark:light:period":"12","seamark:name":"no 2","seamark:topmark:colour":"green","seamark:topmark:shape":"cylinder","seamark:type":"buoy_lateral"}}},{"type":"Feature","geometry":{"type":"Point","coordinates":[-47.99572,-0.2996869]},"properties":{"osm_id":1990607851,"osm_type":"node","seamark_type":"buoy_lateral","display_class":"OTHER","min_zoom":12,"importance":1,"name":"no 3","ref":null,"common":{"name":"no 3","type":"buoy_lateral"},"children":{"buoy_lateral":{"category":"starboard","colour":"red","shape":"pillar","system":"iala-b"},"light":{"character":"Fl","colour":"red","period":"5"},"topmark":{"colour":"red","shape":"cone, point up"}},"osm_tags":{"seamark:buoy_lateral:category":"starboard","seamark:buoy_lateral:colour":"red","seamark:buoy_lateral:shape":"pillar","seamark:buoy_lateral:system":"iala-b","seamark:light:character":"Fl","seamark:light:colour":"red","seamark:light:period":"5","seamark:name":"no 3","seamark:topmark:colour":"red","seamark:topmark:shape":"cone, point up","seamark:type":"buoy_lateral"}}},{"type":"Feature","geometry":{"type":"Point","coordinates":[-47.965987,-0.4544952]},"properties":{"osm_id":1990608162,"osm_type":"node","seamark_type":"buoy_lateral","display_class":"OTHER","min_zoom":12,"importance":1,"name":"no 3","ref":null,"common":{"name":"no 3","type":"buoy_lateral"},"children":{"buoy_lateral":{"category":"starboard","colour":"red","shape":"pillar","system":"iala-b"},"light":{"character":"Fl","colour":"red","period":"3"},"topmark":{"colour":"red","shape":"cone, point up"}},"osm_tags":{"seamark:buoy_lateral:category":"starboard","seamark:buoy_lateral:colour":"red","seamark:buoy_lateral:shape":"pillar","seamark:buoy_lateral:system":"iala-b","seamark:light:character":"Fl","seamark:light:colour":"red","seamark:light:period":"3","seamark:name":"no 3","seamark:topmark:colour":"red","seamark:topmark:shape":"cone, point up","seamark:type":"buoy_lateral"}}},{"type":"Feature","geometry":{"type":"Point","coordinates":[-47.8875091,-0.4219043]},"properties":{"osm_id":1990608158,"osm_type":"node","seamark_type":"buoy_lateral","display_class":"OTHER","min_zoom":12,"importance":1,"name":"no 4","ref":null,"common":{"name":"no 4","type":"buoy_lateral"},"children":{"buoy_lateral":{"category":"port","colour":"green","shape":"pillar","system":"iala-b"},"light":{"character":"Fl","colour":"green","group":"2","period":"6"},"topmark":{"colour":"green","shape":"cylinder"}},"osm_tags":{"seamark:buoy_lateral:category":"port","seamark:buoy_lateral:colour":"green","seamark:buoy_lateral:shape":"pillar","seamark:buoy_lateral:system":"iala-b","seamark:light:character":"Fl","seamark:light:colour":"green","seamark:light:group":"2","seamark:light:period":"6","seamark:name":"no 4","seamark:topmark:colour":"green","seamark:topmark:shape":"cylinder","seamark:type":"buoy_lateral"}}},{"type":"Feature","geometry":{"type":"Point","coordinates":[-47.917385,-0.4290514]},"properties":{"osm_id":1990608161,"osm_type":"node","seamark_type":"buoy_lateral","display_class":"OTHER","min_zoom":12,"importance":1,"name":"no 6","ref":null,"common":{"name":"no 6","type":"buoy_lateral"},"children":{"buoy_lateral":{"category":"port","colour":"green","shape":"pillar","system":"iala-b"},"light":{"character":"Fl","colour":"green","period":"5"},"topmark":{"colour":"green","shape":"cylinder"}},"osm_tags":{"seamark:buoy_lateral:category":"port","seamark:buoy_lateral:colour":"green","seamark:buoy_lateral:shape":"pillar","seamark:buoy_lateral:system":"iala-b","seamark:light:character":"Fl","seamark:light:colour":"green","seamark:light:period":"5","seamark:name":"no 6","seamark:topmark:colour":"green","seamark:topmark:shape":"cylinder","seamark:type":"buoy_lateral"}}},{"type":"Feature","geometry":{"type":"Point","coordinates":[-47.9545512,-0.4677889]},"properties":{"osm_id":1990608255,"osm_type":"node","seamark_type":"buoy_lateral","display_class":"OTHER","min_zoom":12,"importance":1,"name":"no 8","ref":null,"common":{"name":"no 8","type":"buoy_lateral"},"children":{"buoy_lateral":{"category":"port","colour":"green","shape":"pillar","system":"iala-b"},"light":{"character":"Fl","colour":"green","period":"3"},"topmark":{"colour":"green","shape":"cylinder"}},"osm_tags":{"seamark:buoy_lateral:category":"port","seamark:buoy_lateral:colour":"green","seamark:buoy_lateral:shape":"pillar","seamark:buoy_lateral:system":"iala-b","seamark:light:character":"Fl","seamark:light:colour":"green","seamark:light:period":"3","seamark:name":"no 8","seamark:topmark:colour":"green","seamark:topmark:shape":"cylinder","seamark:type":"buoy_lateral"}}}],"type":"FeatureCollection"}