{"type":"FeatureCollection","features":[{"type":"Feature","geometry":{"type":"Point","coordinates":[-65.019811,-0.4176538]},"properties":{"osm_id":3635723001,"osm_type":"node","seamark_type":"harbour","display_class":"OTHER","min_zoom":12,"importance":1,"name":"Santa Isabel do Rio Negro","ref":null,"common":{"name":"Santa Isabel do Rio Negro","type":"harbour"},"children":{},"osm_tags":{"harbour":"yes","seamark:name":"Santa Isabel do Rio Negro","seamark:type":"harbour"}}}],"type":"FeatureCollection"}