{"type":"FeatureCollection","features":[{"type":"Feature","geometry":{"type":"Point","coordinates":[103.815601,-1.0270508]},"properties":{"osm_id":12532027339,"osm_type":"node","seamark_type":"landmark","display_class":"OTHER","min_zoom":12,"importance":1,"name":"Kuala Niur Range, front","ref":null,"common":{"name":"Kuala Niur Range, front","radar_reflector":"yes","type":"landmark"},"children":{"landmark":{"category":"tower","colour":"white","conspicuity":"conspicuous","construction":"framework;metal","function":"light_support"},"light":{"character":"Fl","colour":"white","height":"11","period":"6","range":"11","reference":"Q 0973","sequence":"1+(5)"},"topmark":{"colour":"white","shape":"triangle, point up"}},"osm_tags":{"seamark:landmark:category":"tower","seamark:landmark:colour":"white","seamark:landmark:conspicuity":"conspicuous","seamark:landmark:construction":"framework;metal","seamark:landmark:function":"light_support","seamark:light:character":"Fl","seamark:light:colour":"white","seamark:light:height":"11","seamark:light:period":"6","seamark:light:range":"11","seamark:light:reference":"Q 0973","seamark:light:sequence":"1+(5)","seamark:name":"Kuala Niur Range, front","seamark:radar_reflector":"yes","seamark:topmark:colour":"white","seamark:topmark:shape":"triangle, point up","seamark:type":"landmark"}}}],"type":"FeatureCollection"}