{"type":"FeatureCollection","features":[{"type":"Feature","geometry":{"type":"Point","coordinates":[100.3950994,-1.0535635]},"properties":{"osm_id":12471681936,"osm_type":"node","seamark_type":"beacon_isolated_danger","display_class":"BEACON","min_zoom":9,"importance":4,"name":"Karang Sandung","ref":null,"common":{"name":"Karang Sandung","type":"beacon_isolated_danger"},"children":{"beacon_isolated_danger":{"colour":"black;red;black","colour_pattern":"horizontal","shape":"tower"},"light":{"character":"Fl","colour":"white","height":"16","period":"5","range":"12","reference":"Q 0851"},"topmark":{"colour":"black","shape":"2 spheres"}},"osm_tags":{"man_made":"beacon","seamark:beacon_isolated_danger:colour":"black;red;black","seamark:beacon_isolated_danger:colour_pattern":"horizontal","seamark:beacon_isolated_danger:shape":"tower","seamark:light:character":"Fl","seamark:light:colour":"white","seamark:light:height":"16","seamark:light:period":"5","seamark:light:range":"12","seamark:light:reference":"Q 0851","seamark:name":"Karang Sandung","seamark:topmark:colour":"black","seamark:topmark:shape":"2 spheres","seamark:type":"beacon_isolated_danger"}}},{"type":"Feature","geometry":{"type":"Point","coordinates":[100.4046785,-1.0693911]},"properties":{"osm_id":12471816610,"osm_type":"node","seamark_type":"beacon_lateral","display_class":"BEACON","min_zoom":9,"importance":4,"name":"Ujung Cino","ref":null,"common":{"name":"Ujung Cino","radar_reflector":"yes","type":"beacon_lateral"},"children":{"beacon_lateral":{"category":"starboard","colour":"green","shape":"tower","system":"iala-a"},"light":{"character":"Fl","colour":"green","height":"14","period":"5","range":"11","reference":"Q 0853","sequence":"0.5+(4.5)"},"topmark":{"colour":"green","shape":"cone, point up"}},"osm_tags":{"man_made":"beacon","seamark:beacon_lateral:category":"starboard","seamark:beacon_lateral:colour":"green","seamark:beacon_lateral:shape":"tower","seamark:beacon_lateral:system":"iala-a","seamark:light:character":"Fl","seamark:light:colour":"green","seamark:light:height":"14","seamark:light:period":"5","seamark:light:range":"11","seamark:light:reference":"Q 0853","seamark:light:sequence":"0.5+(4.5)","seamark:name":"Ujung Cino","seamark:radar_reflector":"yes","seamark:topmark:colour":"green","seamark:topmark:shape":"cone, point up","seamark:type":"beacon_lateral","source":"US NGA Pub. 112. 2023-07-01"}}},{"type":"Feature","geometry":{"type":"Point","coordinates":[100.4026987,-1.0555624]},"properties":{"osm_id":12471816613,"osm_type":"node","seamark_type":"beacon_lateral","display_class":"BEACON","min_zoom":9,"importance":4,"name":"Ujung Passar Cindakir","ref":null,"common":{"name":"Ujung Passar Cindakir","radar_reflector":"yes","type":"beacon_lateral"},"children":{"beacon_lateral":{"category":"port","colour":"red","shape":"tower","system":"iala-a"},"light":{"character":"Fl","colour":"red","height":"14","period":"2","range":"11","reference":"Q 0851.5","sequence":"0.5+(1.5)"},"topmark":{"colour":"red","shape":"cylinder"}},"osm_tags":{"man_made":"beacon","seamark:beacon_lateral:category":"port","seamark:beacon_lateral:colour":"red","seamark:beacon_lateral:shape":"tower","seamark:beacon_lateral:system":"iala-a","seamark:light:character":"Fl","seamark:light:colour":"red","seamark:light:height":"14","seamark:light:period":"2","seamark:light:range":"11","seamark:light:reference":"Q 0851.5","seamark:light:sequence":"0.5+(1.5)","seamark:name":"Ujung Passar Cindakir","seamark:radar_reflector":"yes","seamark:topmark:colour":"red","seamark:topmark:shape":"cylinder","seamark:type":"beacon_lateral"}}},{"type":"Feature","geometry":{"type":"Point","coordinates":[100.397532,-1.0652373]},"properties":{"osm_id":12471816611,"osm_type":"node","seamark_type":"beacon_lateral","display_class":"BEACON","min_zoom":9,"importance":4,"name":"Ujung Sadah","ref":null,"common":{"name":"Ujung Sadah","radar_reflector":"yes","type":"beacon_lateral"},"children":{"beacon_lateral":{"category":"starboard","colour":"green","shape":"tower","system":"iala-a"},"light":{"character":"Fl","colour":"green","height":"14","period":"3","range":"11","reference":"Q 0852.5","sequence":"0.5+(2.5)"},"topmark":{"colour":"green","shape":"cone, point up"}},"osm_tags":{"man_made":"beacon","seamark:beacon_lateral:category":"starboard","seamark:beacon_lateral:colour":"green","seamark:beacon_lateral:shape":"tower","seamark:beacon_lateral:system":"iala-a","seamark:light:character":"Fl","seamark:light:colour":"green","seamark:light:height":"14","seamark:light:period":"3","seamark:light:range":"11","seamark:light:reference":"Q 0852.5","seamark:light:sequence":"0.5+(2.5)","seamark:name":"Ujung Sadah","seamark:radar_reflector":"yes","seamark:topmark:colour":"green","seamark:topmark:shape":"cone, point up","seamark:type":"beacon_lateral","source":"US NGA Pub. 112. 2023-07-01"}}},{"type":"Feature","geometry":{"type":"Point","coordinates":[100.7701126,-1.8368647]},"properties":{"osm_id":12468984364,"osm_type":"node","seamark_type":"light_minor","display_class":"OTHER","min_zoom":12,"importance":1,"name":"Gosong Sumedang","ref":null,"common":{"name":"Gosong Sumedang","type":"light_minor"},"children":{"light":{"character":"Fl","colour":"white","height":"13","period":"3","range":"11","reference":"Q 0884.5","sequence":"0.6+(2.4)"}},"osm_tags":{"man_made":"beacon","seamark:light:character":"Fl","seamark:light:colour":"white","seamark:light:height":"13","seamark:light:period":"3","seamark:light:range":"11","seamark:light:reference":"Q 0884.5","seamark:light:sequence":"0.6+(2.4)","seamark:name":"Gosong Sumedang","seamark:type":"light_minor"}}},{"type":"Feature","geometry":{"type":"Point","coordinates":[100.375452,-1.0010894]},"properties":{"osm_id":12473549601,"osm_type":"node","seamark_type":"light_minor","display_class":"OTHER","min_zoom":12,"importance":1,"name":"Karsik Reef, SW. end","ref":null,"common":{"name":"Karsik Reef, SW. end","type":"light_minor"},"children":{"light":{"character":"Fl","colour":"green","height":"7","period":"4","range":"5","reference":"Q 0870","sequence":"0.5+(3.5)"}},"osm_tags":{"man_made":"beacon","seamark:light:character":"Fl","seamark:light:colour":"green","seamark:light:height":"7","seamark:light:period":"4","seamark:light:range":"5","seamark:light:reference":"Q 0870","seamark:light:sequence":"0.5+(3.5)","seamark:name":"Karsik Reef, SW. end","seamark:type":"light_minor"}}},{"type":"Feature","geometry":{"type":"Point","coordinates":[100.3552494,-1.0359909]},"properties":{"osm_id":12469568802,"osm_type":"node","seamark_type":"light_minor","display_class":"OTHER","min_zoom":12,"importance":1,"name":"Marlbro Reef","ref":null,"common":{"name":"Marlbro Reef","type":"light_minor"},"children":{"light":{"character":"Fl","colour":"red","height":"12","period":"3","range":"12","reference":"Q 0862","sequence":"0.5+(2.5)"},"radar_transponder":{"category":"racon","group":"B"}},"osm_tags":{"man_made":"beacon","seamark:light:character":"Fl","seamark:light:colour":"red","seamark:light:height":"12","seamark:light:period":"3","seamark:light:range":"12","seamark:light:reference":"Q 0862","seamark:light:sequence":"0.5+(2.5)","seamark:name":"Marlbro Reef","seamark:radar_transponder:category":"racon","seamark:radar_transponder:group":"B","seamark:type":"light_minor"}}},{"type":"Feature","geometry":{"type":"Point","coordinates":[100.4109915,-1.0623491]},"properties":{"osm_id":12471816612,"osm_type":"node","seamark_type":"light_minor","display_class":"OTHER","min_zoom":12,"importance":1,"name":"Passar Batung","ref":null,"common":{"name":"Passar Batung","radar_reflector":"yes","type":"light_minor"},"children":{"light":{"character":"Fl","colour":"white","height":"12","period":"3","range":"11","reference":"Q 0852","sequence":"0.5+(2.5)"}},"osm_tags":{"man_made":"beacon","seamark:light:character":"Fl","seamark:light:colour":"white","seamark:light:height":"12","seamark:light:period":"3","seamark:light:range":"11","seamark:light:reference":"Q 0852","seamark:light:sequence":"0.5+(2.5)","seamark:name":"Passar Batung","seamark:radar_reflector":"yes","seamark:type":"light_minor"}}},{"type":"Feature","geometry":{"type":"Point","coordinates":[100.5544016,-1.6047645]},"properties":{"osm_id":12469294431,"osm_type":"node","seamark_type":"landmark","display_class":"OTHER","min_zoom":12,"importance":1,"name":"Pulau Karaba Kecil","ref":null,"common":{"name":"Pulau Karaba Kecil","type":"landmark"},"children":{"landmark":{"category":"tower","colour":"white","function":"light_support"},"light":{"character":"Fl","colour":"white","group":"3","height":"44","period":"20","range":"18","reference":"Q 0875"}},"osm_tags":{"man_made":"lighthouse","name":"Mercusuar Pulau Karaba Kecil","seamark:landmark:category":"tower","seamark:landmark:colour":"white","seamark:landmark:function":"light_support","seamark:light:character":"Fl","seamark:light:colour":"white","seamark:light:group":"3","seamark:light:height":"44","seamark:light:period":"20","seamark:light:range":"18","seamark:light:reference":"Q 0875","seamark:name":"Pulau Karaba Kecil","seamark:type":"landmark","source":"LoL Pub. 112 2023-07-01"}}},{"type":"Feature","geometry":{"type":"Point","coordinates":[100.5701729,-1.8885939]},"properties":{"osm_id":12469061665,"osm_type":"node","seamark_type":"landmark","display_class":"OTHER","min_zoom":12,"importance":1,"name":"Pulau Katangkatang","ref":null,"common":{"name":"Pulau Katangkatang","type":"landmark"},"children":{"landmark":{"category":"tower","colour":"white","conspicuity":"conspicuous","construction":"framework;metal","function":"light_support"},"light":{"character":"Fl","colour":"white","group":"3","height":"20","period":"22","range":"13","reference":"Q 0884.2","sequence":"1+(2)+1+(2)+1+(15)"}},"osm_tags":{"seamark:landmark:category":"tower","seamark:landmark:colour":"white","seamark:landmark:conspicuity":"conspicuous","seamark:landmark:construction":"framework;metal","seamark:landmark:function":"light_support","seamark:light:character":"Fl","seamark:light:colour":"white","seamark:light:group":"3","seamark:light:height":"20","seamark:light:period":"22","seamark:light:range":"13","seamark:light:reference":"Q 0884.2","seamark:light:sequence":"1+(2)+1+(2)+1+(15)","seamark:name":"Pulau Katangkatang","seamark:type":"landmark","source":"LoL Pub. 112 2023-07-01"}}},{"type":"Feature","geometry":{"type":"Point","coordinates":[100.2989825,-1.2662118]},"properties":{"osm_id":12469336260,"osm_type":"node","seamark_type":"landmark","display_class":"OTHER","min_zoom":12,"importance":1,"name":"Pulau Nuamuk","ref":null,"common":{"name":"Pulau Nuamuk","type":"landmark"},"children":{"landmark":{"category":"tower","colour":"white","conspicuity":"conspicuous","construction":"framework;metal","function":"light_support"},"light":{"1:character":"Fl","1:colour":"white","1:group":"2","1:height":"32","1:period":"10","1:range":"7","1:sector_end":"033","1:sector_start":"162","1:sequence":"0.5+(1.5)+0.5+(7.5)","reference":"Q 0874"}},"osm_tags":{"man_made":"lighthouse","name":"Mercusuar Pulau Nyamuk","name:id":"Mercusuar Pulau Nyamuk","seamark:landmark:category":"tower","seamark:landmark:colour":"white","seamark:landmark:conspicuity":"conspicuous","seamark:landmark:construction":"framework;metal","seamark:landmark:function":"light_support","seamark:light:1:character":"Fl","seamark:light:1:colour":"white","seamark:light:1:group":"2","seamark:light:1:height":"32","seamark:light:1:period":"10","seamark:light:1:range":"7","seamark:light:1:sector_end":"033","seamark:light:1:sector_start":"162","seamark:light:1:sequence":"0.5+(1.5)+0.5+(7.5)","seamark:light:reference":"Q 0874","seamark:name":"Pulau Nuamuk","seamark:type":"landmark"}}},{"type":"Feature","geometry":{"type":"Point","coordinates":[100.3410208,-1.118921]},"properties":{"osm_id":12469362408,"osm_type":"node","seamark_type":"light_minor","display_class":"OTHER","min_zoom":12,"importance":1,"name":"Pulau Sirandah","ref":null,"common":{"name":"Pulau Sirandah","type":"light_minor"},"children":{"light":{"character":"Fl","colour":"white","height":"12","period":"3","range":"12","reference":"Q 0872.5","sequence":"0.5+(2.5)"}},"osm_tags":{"man_made":"beacon","seamark:light:character":"Fl","seamark:light:colour":"white","seamark:light:height":"12","seamark:light:period":"3","seamark:light:range":"12","seamark:light:reference":"Q 0872.5","seamark:light:sequence":"0.5+(2.5)","seamark:name":"Pulau Sirandah","seamark:type":"light_minor"}}},{"type":"Feature","geometry":{"type":"Point","coordinates":[100.1754748,-1.0373867]},"properties":{"osm_id":12473382125,"osm_type":"node","seamark_type":"landmark","display_class":"OTHER","min_zoom":12,"importance":1,"name":"Pulau Toran","ref":null,"common":{"name":"Pulau Toran","radar_reflector":"yes","type":"landmark"},"children":{"landmark":{"category":"tower","colour":"white","construction":"framework;metal","function":"light_support"},"light":{"character":"Fl","colour":"white","height":"17","period":"4","range":"12","reference":"Q 0858","sequence":"0.5+(3.5)"}},"osm_tags":{"man_made":"lighthouse","name":"Mercusuar Pulau Toran","seamark:landmark:category":"tower","seamark:landmark:colour":"white","seamark:landmark:construction":"framework;metal","seamark:landmark:function":"light_support","seamark:light:character":"Fl","seamark:light:colour":"white","seamark:light:height":"17","seamark:light:period":"4","seamark:light:range":"12","seamark:light:reference":"Q 0858","seamark:light:sequence":"0.5+(3.5)","seamark:name":"Pulau Toran","seamark:radar_reflector":"yes","seamark:type":"landmark"}}},{"type":"Feature","geometry":{"type":"Point","coordinates":[100.3767105,-1.0041947]},"properties":{"osm_id":12473659683,"osm_type":"node","seamark_type":"landmark","display_class":"OTHER","min_zoom":12,"importance":1,"name":"Teluk Bayur","ref":null,"common":{"name":"Teluk Bayur","type":"landmark"},"children":{"landmark":{"category":"tower","colour":"white","construction":"framework;metal","function":"light_support"},"light":{"character":"Fl","colour":"red","height":"6","period":"5","range":"7","reference":"Q 0868","sequence":"0.5+(4.5)"}},"osm_tags":{"man_made":"beacon","seamark:landmark:category":"tower","seamark:landmark:colour":"white","seamark:landmark:construction":"framework;metal","seamark:landmark:function":"light_support","seamark:light:character":"Fl","seamark:light:colour":"red","seamark:light:height":"6","seamark:light:period":"5","seamark:light:range":"7","seamark:light:reference":"Q 0868","seamark:light:sequence":"0.5+(4.5)","seamark:name":"Teluk Bayur","seamark:type":"landmark"}}},{"type":"Feature","geometry":{"type":"Point","coordinates":[100.3956266,-1.0437226]},"properties":{"osm_id":12469606646,"osm_type":"node","seamark_type":"landmark","display_class":"OTHER","min_zoom":12,"importance":1,"name":"Teluk Bungus","ref":null,"common":{"name":"Teluk Bungus","radar_reflector":"yes","type":"landmark"},"children":{"landmark":{"category":"tower","colour":"white","construction":"framework;metal","function":"light_support"},"light":{"character":"Fl","colour":"white","height":"17","period":"3","range":"6"}},"osm_tags":{"man_made":"beacon","seamark:landmark:category":"tower","seamark:landmark:colour":"white","seamark:landmark:construction":"framework;metal","seamark:landmark:function":"light_support","seamark:light:character":"Fl","seamark:light:colour":"white","seamark:light:height":"17","seamark:light:period":"3","seamark:light:range":"6","seamark:name":"Teluk Bungus","seamark:radar_reflector":"yes","seamark:type":"landmark"}}},{"type":"Feature","geometry":{"type":"Point","coordinates":[100.3805009,-1.0406352]},"properties":{"osm_id":12473322296,"osm_type":"node","seamark_type":"landmark","display_class":"OTHER","min_zoom":12,"importance":1,"name":"Ujung Batumandi","ref":null,"common":{"name":"Ujung Batumandi","type":"landmark"},"children":{"landmark":{"category":"tower","colour":"white","conspicuity":"conspicuous","construction":"masonry","function":"light_support"},"light":{"character":"Fl","colour":"white","group":"3","height":"161","period":"20","range":"26","reference":"Q 0864","sequence":"0.3+(2.2)+0.3+(2.2)+0.3+(14.7)"},"radar_transponder":{"category":"racon","group":"M"}},"osm_tags":{"seamark:landmark:category":"tower","seamark:landmark:colour":"white","seamark:landmark:conspicuity":"conspicuous","seamark:landmark:construction":"masonry","seamark:landmark:function":"light_support","seamark:light:character":"Fl","seamark:light:colour":"white","seamark:light:group":"3","seamark:light:height":"161","seamark:light:period":"20","seamark:light:range":"26","seamark:light:reference":"Q 0864","seamark:light:sequence":"0.3+(2.2)+0.3+(2.2)+0.3+(14.7)","seamark:name":"Ujung Batumandi","seamark:radar_transponder:category":"racon","seamark:radar_transponder:group":"M","seamark:type":"landmark"}}}],"type":"FeatureCollection"}