{"type":"FeatureCollection","features":[{"type":"Feature","geometry":{"type":"Point","coordinates":[117.498619,-1.0099041]},"properties":{"osm_id":3313871192,"osm_type":"node","seamark_type":"mooring","display_class":"OTHER","min_zoom":12,"importance":1,"name":null,"ref":null,"common":{"type":"mooring"},"children":{"mooring":{"category":"buoy","colour":"white","colour_pattern":"vertical","shape":"spherical"}},"osm_tags":{"seamark:mooring:category":"buoy","seamark:mooring:colour":"white","seamark:mooring:colour_pattern":"vertical","seamark:mooring:shape":"spherical","seamark:type":"mooring"}}},{"type":"Feature","geometry":{"type":"Point","coordinates":[117.5126268,-1.0132664]},"properties":{"osm_id":3313790161,"osm_type":"node","seamark_type":"platform","display_class":"OTHER","min_zoom":12,"importance":1,"name":"Platform -BJ-","ref":null,"common":{"name":"Platform -BJ-","type":"platform"},"children":{"platform":{"category":"gas"}},"osm_tags":{"seamark:name":"Platform -BJ-","seamark:platform:category":"gas","seamark:type":"platform"}}}],"type":"FeatureCollection"}