{"type":"FeatureCollection","features":[{"type":"Feature","geometry":{"type":"Point","coordinates":[-50.3066667,-1.8083333]},"properties":{"osm_id":1181471684,"osm_type":"node","seamark_type":"light_major","display_class":"LIGHTHOUSE","min_zoom":7,"importance":5,"name":"Boiucu","ref":"17648","common":{"name":"Boiucu","type":"light_major"},"children":{"light":{"1:character":"Fl","1:colour":"white","1:height":"13","1:period":"3","1:range":"10","1:sector_end":"086","1:sector_start":"277","reference":"G 0058"}},"osm_tags":{"lighthouse:shape":"White metal column, diamond daymark; 33","man_made":"lighthouse","name":"Boiucu","ref":"17648","seamark:light:1:character":"Fl","seamark:light:1:colour":"white","seamark:light:1:height":"13","seamark:light:1:period":"3","seamark:light:1:range":"10","seamark:light:1:sector_end":"086","seamark:light:1:sector_start":"277","seamark:light:reference":"G 0058","seamark:name":"Boiucu","seamark:type":"light_major"}}},{"type":"Feature","geometry":{"type":"Point","coordinates":[-50.8330588,-1.0024603]},"properties":{"osm_id":1986949342,"osm_type":"node","seamark_type":"signal_station_warning","display_class":"OTHER","min_zoom":12,"importance":1,"name":null,"ref":null,"common":{"type":"signal_station_warning"},"children":{"signal_station_warning":{"category":"scale"}},"osm_tags":{"monitoring:tide_scale":"yes","seamark:signal_station_warning:category":"scale","seamark:type":"signal_station_warning"}}},{"type":"Feature","geometry":{"type":"Point","coordinates":[-50.2682164,-1.791175]},"properties":{"osm_id":1990636868,"osm_type":"node","seamark_type":"signal_station_warning","display_class":"OTHER","min_zoom":12,"importance":1,"name":null,"ref":null,"common":{"type":"signal_station_warning"},"children":{"signal_station_warning":{"category":"scale"}},"osm_tags":{"seamark:signal_station_warning:category":"scale","seamark:type":"signal_station_warning"}}},{"type":"Feature","geometry":{"type":"Point","coordinates":[-50.0301882,-1.7948576]},"properties":{"osm_id":1990636947,"osm_type":"node","seamark_type":"buoy_lateral","display_class":"OTHER","min_zoom":12,"importance":1,"name":null,"ref":null,"common":{"type":"buoy_lateral"},"children":{"buoy_lateral":{"category":"starboard","colour":"red","shape":"pillar","system":"iala-b"},"light":{"character":"Fl","colour":"red","period":"6"},"topmark":{"colour":"red","shape":"cone, point up"}},"osm_tags":{"seamark:buoy_lateral:category":"starboard","seamark:buoy_lateral:colour":"red","seamark:buoy_lateral:shape":"pillar","seamark:buoy_lateral:system":"iala-b","seamark:light:character":"Fl","seamark:light:colour":"red","seamark:light:period":"6","seamark:topmark:colour":"red","seamark:topmark:shape":"cone, point up","seamark:type":"buoy_lateral"}}},{"type":"Feature","geometry":{"type":"Point","coordinates":[-50.0068187,-1.799908]},"properties":{"osm_id":1990636957,"osm_type":"node","seamark_type":"buoy_lateral","display_class":"OTHER","min_zoom":12,"importance":1,"name":null,"ref":null,"common":{"type":"buoy_lateral"},"children":{"buoy_lateral":{"category":"port","colour":"green","shape":"pillar","system":"iala-b"},"light":{"character":"Fl","colour":"green","period":"6"},"topmark":{"colour":"green","shape":"cylinder"}},"osm_tags":{"seamark:buoy_lateral:category":"port","seamark:buoy_lateral:colour":"green","seamark:buoy_lateral:shape":"pillar","seamark:buoy_lateral:system":"iala-b","seamark:light:character":"Fl","seamark:light:colour":"green","seamark:light:period":"6","seamark:topmark:colour":"green","seamark:topmark:shape":"cylinder","seamark:type":"buoy_lateral"}}},{"type":"Feature","geometry":{"type":"Point","coordinates":[-50.2499946,-1.8017099]},"properties":{"osm_id":1990636960,"osm_type":"node","seamark_type":"buoy_cardinal","display_class":"OTHER","min_zoom":12,"importance":1,"name":null,"ref":null,"common":{"type":"buoy_cardinal"},"children":{"buoy_cardinal":{"category":"south","colour":"yellow;black","colour_pattern":"horizontal","shape":"pillar"},"light":{"character":"Q+LFl","colour":"white","group":"6","period":"15"},"topmark":{"colour":"black","shape":"2 cones down"}},"osm_tags":{"seamark:buoy_cardinal:category":"south","seamark:buoy_cardinal:colour":"yellow;black","seamark:buoy_cardinal:colour_pattern":"horizontal","seamark:buoy_cardinal:shape":"pillar","seamark:light:character":"Q+LFl","seamark:light:colour":"white","seamark:light:group":"6","seamark:light:period":"15","seamark:topmark:colour":"black","seamark:topmark:shape":"2 cones down","seamark:type":"buoy_cardinal"}}},{"type":"Feature","geometry":{"type":"Point","coordinates":[-50.2920655,-1.8028706]},"properties":{"osm_id":1990636961,"osm_type":"node","seamark_type":"buoy_cardinal","display_class":"OTHER","min_zoom":12,"importance":1,"name":null,"ref":null,"common":{"radar_reflector":"yes","type":"buoy_cardinal"},"children":{"buoy_cardinal":{"category":"east","colour":"black;yellow;black","colour_pattern":"horizontal","shape":"pillar"},"light":{"character":"Q+LFl","colour":"white","group":"3","period":"10"},"topmark":{"colour":"black","shape":"2 cones base together"}},"osm_tags":{"radar_reflector":"yes","seamark:buoy_cardinal:category":"east","seamark:buoy_cardinal:colour":"black;yellow;black","seamark:buoy_cardinal:colour_pattern":"horizontal","seamark:buoy_cardinal:shape":"pillar","seamark:light:character":"Q+LFl","seamark:light:colour":"white","seamark:light:group":"3","seamark:light:period":"10","seamark:radar_reflector":"yes","seamark:topmark:colour":"black","seamark:topmark:shape":"2 cones base together","seamark:type":"buoy_cardinal"}}},{"type":"Feature","geometry":{"type":"Point","coordinates":[-50.1827653,-1.8223728]},"properties":{"osm_id":1990637138,"osm_type":"node","seamark_type":"buoy_lateral","display_class":"OTHER","min_zoom":12,"importance":1,"name":null,"ref":null,"common":{"type":"buoy_lateral"},"children":{"buoy_lateral":{"category":"port","colour":"green","shape":"pillar","system":"iala-b"},"light":{"character":"Fl","colour":"green","period":"6"},"topmark":{"colour":"green","shape":"cylinder"}},"osm_tags":{"seamark:buoy_lateral:category":"port","seamark:buoy_lateral:colour":"green","seamark:buoy_lateral:shape":"pillar","seamark:buoy_lateral:system":"iala-b","seamark:light:character":"Fl","seamark:light:colour":"green","seamark:light:period":"6","seamark:topmark:colour":"green","seamark:topmark:shape":"cylinder","seamark:type":"buoy_lateral"}}},{"type":"Feature","geometry":{"type":"Point","coordinates":[-50.4845099,-1.6920746]},"properties":{"osm_id":3627547148,"osm_type":"node","seamark_type":"harbour","display_class":"OTHER","min_zoom":12,"importance":1,"name":"Breves","ref":null,"common":{"name":"Breves","type":"harbour"},"children":{},"osm_tags":{"harbour":"yes","seamark:name":"Breves","seamark:type":"harbour"}}},{"type":"Feature","geometry":{"type":"Point","coordinates":[-50.1488672,-1.8108632]},"properties":{"osm_id":1181455856,"osm_type":"node","seamark_type":"light_minor","display_class":"OTHER","min_zoom":12,"importance":1,"name":"Ilha das Araras","ref":"17640","common":{"name":"Ilha das Araras","type":"light_minor"},"children":{"light":{"1:character":"Fl","1:colour":"white","1:height":"15","1:period":"6","1:range":"8","1:sector_end":"099","1:sector_start":"269","reference":"G 0056.5"}},"osm_tags":{"lighthouse:shape":"White square metal framework tower, diamond daymark; 36","man_made":"lighthouse","name":"Ilha das Araras","ref":"17640","seamark:light:1:character":"Fl","seamark:light:1:colour":"white","seamark:light:1:height":"15","seamark:light:1:period":"6","seamark:light:1:range":"8","seamark:light:1:sector_end":"099","seamark:light:1:sector_start":"269","seamark:light:reference":"G 0056.5","seamark:name":"Ilha das Araras","seamark:type":"light_minor"}}},{"type":"Feature","geometry":{"type":"Point","coordinates":[-50.8240757,-1.9410233]},"properties":{"osm_id":3632312014,"osm_type":"node","seamark_type":"harbour","display_class":"OTHER","min_zoom":12,"importance":1,"name":"Portel","ref":null,"common":{"name":"Portel","type":"harbour"},"children":{},"osm_tags":{"harbour":"yes","seamark:name":"Portel","seamark:type":"harbour"}}}],"type":"FeatureCollection"}