{"type":"FeatureCollection","features":[{"type":"Feature","geometry":{"type":"Point","coordinates":[33.188465,-2.113109]},"properties":{"osm_id":4500742176,"osm_type":"node","seamark_type":"harbour","display_class":"OTHER","min_zoom":12,"importance":1,"name":"Harbour for local traffic","ref":null,"common":{"type":"harbour"},"children":{"harbour":{"category":"marina"}},"osm_tags":{"leisure":"marina","name":"Harbour for local traffic","seamark:harbour:category":"marina","seamark:type":"harbour"}}}],"type":"FeatureCollection"}