{"type":"FeatureCollection","features":[{"type":"Feature","geometry":{"type":"Point","coordinates":[-38.9603247,-2.9770298]},"properties":{"osm_id":1989618582,"osm_type":"node","seamark_type":"platform","display_class":"OTHER","min_zoom":12,"importance":1,"name":"Atum 1","ref":"PAT-1","common":{"name":"Atum 1","type":"platform"},"children":{"platform":{"category":"production"}},"osm_tags":{"man_made":"offshore_platform","operator":"Petrobras","ref":"PAT-1","seamark:name":"Atum 1","seamark:platform:category":"production","seamark:type":"platform"}}},{"type":"Feature","geometry":{"type":"Point","coordinates":[-38.9777636,-2.9606548]},"properties":{"osm_id":1989618579,"osm_type":"node","seamark_type":"platform","display_class":"OTHER","min_zoom":12,"importance":1,"name":"Atum 2","ref":"PAT-2","common":{"name":"Atum 2","type":"platform"},"children":{"platform":{"category":"production"}},"osm_tags":{"man_made":"offshore_platform","operator":"Petrobras","ref":"PAT-2","seamark:name":"Atum 2","seamark:platform:category":"production","seamark:type":"platform"}}},{"type":"Feature","geometry":{"type":"Point","coordinates":[-38.9444303,-2.967402]},"properties":{"osm_id":1989618580,"osm_type":"node","seamark_type":"platform","display_class":"OTHER","min_zoom":12,"importance":1,"name":"Atum 3","ref":"PAT-3","common":{"name":"Atum 3","type":"platform"},"children":{"platform":{"category":"production"}},"osm_tags":{"man_made":"offshore_platform","operator":"Petrobras","ref":"PAT-3","seamark:name":"Atum 3","seamark:platform:category":"production","seamark:type":"platform"}}},{"type":"Feature","geometry":{"type":"LineString","coordinates":[[-38.9760651,-2.9619816],[-38.9819741,-2.9635681]]},"properties":{"osm_id":627038273,"osm_type":"way","seamark_type":"pipeline_submarine","display_class":"OTHER","min_zoom":12,"importance":1,"name":"Oleoduto Plataforma PAT-2 - Bóias Atum","ref":null,"common":{"type":"pipeline_submarine"},"children":{"pipeline_submarine":{"category":"oil","product":"oil"}},"osm_tags":{"location":"underwater","man_made":"pipeline","name":"Oleoduto Plataforma PAT-2 - Bóias Atum","operator":"UN-RNCE","seamark:pipeline_submarine:category":"oil","seamark:pipeline_submarine:product":"oil","seamark:type":"pipeline_submarine","substance":"oil"}}},{"type":"Feature","geometry":{"type":"LineString","coordinates":[[-38.9585118,-2.9783103],[-38.9759582,-2.9620241]]},"properties":{"osm_id":627038272,"osm_type":"way","seamark_type":"pipeline_submarine","display_class":"OTHER","min_zoom":12,"importance":1,"name":"Oleoduto Plataforma PAT-2 - Plataforma PAT-1","ref":null,"common":{"type":"pipeline_submarine"},"children":{"pipeline_submarine":{"category":"oil","product":"oil"}},"osm_tags":{"location":"underwater","man_made":"pipeline","name":"Oleoduto Plataforma PAT-2 - Plataforma PAT-1","operator":"UN-RNCE","seamark:pipeline_submarine:category":"oil","seamark:pipeline_submarine:product":"oil","seamark:type":"pipeline_submarine","substance":"oil"}}},{"type":"Feature","geometry":{"type":"LineString","coordinates":[[-38.9740755,-2.9685014],[-38.9866912,-2.9527002]]},"properties":{"osm_id":627038270,"osm_type":"way","seamark_type":"pipeline_submarine","display_class":"OTHER","min_zoom":12,"importance":1,"name":"Oleoduto Plataforma PAT-2 - Plataforma PAT-3","ref":null,"common":{"type":"pipeline_submarine"},"children":{"pipeline_submarine":{"category":"oil","product":"oil"}},"osm_tags":{"location":"underwater","man_made":"pipeline","name":"Oleoduto Plataforma PAT-2 - Plataforma PAT-3","operator":"UN-RNCE","seamark:pipeline_submarine:category":"oil","seamark:pipeline_submarine:product":"oil","seamark:type":"pipeline_submarine","substance":"oil"}}},{"type":"Feature","geometry":{"type":"LineString","coordinates":[[-38.974046,-2.9684893],[-38.9759929,-2.9620426]]},"properties":{"osm_id":627038271,"osm_type":"way","seamark_type":"pipeline_submarine","display_class":"OTHER","min_zoom":12,"importance":1,"name":"Oleoduto Plataforma PAT-2 - Plataforma PAT-3","ref":null,"common":{"type":"pipeline_submarine"},"children":{"pipeline_submarine":{"category":"oil","product":"oil"}},"osm_tags":{"location":"underwater","man_made":"pipeline","name":"Oleoduto Plataforma PAT-2 - Plataforma PAT-3","operator":"UN-RNCE","seamark:pipeline_submarine:category":"oil","seamark:pipeline_submarine:product":"oil","seamark:type":"pipeline_submarine","substance":"oil"}}},{"type":"Feature","geometry":{"type":"LineString","coordinates":[[-38.9585315,-2.978332],[-38.9740172,-2.9685569]]},"properties":{"osm_id":288581132,"osm_type":"way","seamark_type":"pipeline_submarine","display_class":"OTHER","min_zoom":12,"importance":1,"name":"Oleoduto Plataforma PAT-3 - Plataforma PAT-1","ref":null,"common":{"type":"pipeline_submarine"},"children":{"pipeline_submarine":{"category":"oil","product":"oil"}},"osm_tags":{"location":"underwater","man_made":"pipeline","name":"Oleoduto Plataforma PAT-3 - Plataforma PAT-1","operator":"UN-RNCE","seamark:pipeline_submarine:category":"oil","seamark:pipeline_submarine:product":"oil","seamark:type":"pipeline_submarine","substance":"oil"}}}],"type":"FeatureCollection"}