{"type":"FeatureCollection","features":[{"type":"Feature","geometry":{"type":"Point","coordinates":[133.6967958,-3.6733363]},"properties":{"osm_id":14088391206,"osm_type":"node","seamark_type":"light_major","display_class":"LIGHTHOUSE","min_zoom":7,"importance":5,"name":"Tanjung Simora","ref":null,"common":{"name":"Tanjung Simora","type":"light_major"},"children":{"light":{"character":"Fl","colour":"white","height":"27","period":"3","range":"12","reference":"Q 3344.7","sequence":"0.6+(2.4)"}},"osm_tags":{"seamark:light:character":"Fl","seamark:light:colour":"white","seamark:light:height":"27","seamark:light:period":"3","seamark:light:range":"12","seamark:light:reference":"Q 3344.7","seamark:light:sequence":"0.6+(2.4)","seamark:name":"Tanjung Simora","seamark:type":"light_major"}}},{"type":"Feature","geometry":{"type":"Point","coordinates":[133.6468406,-3.5767478]},"properties":{"osm_id":14090380336,"osm_type":"node","seamark_type":"beacon_lateral","display_class":"BEACON","min_zoom":9,"importance":4,"name":"Serotte Island","ref":null,"common":{"name":"Serotte Island","type":"beacon_lateral"},"children":{"beacon_lateral":{"category":"port","colour":"red","shape":"tower","system":"iala-a"},"light":{"character":"Fl","colour":"red","group":"2","height":"50","period":"10","range":"12","reference":"Q 3344.5","sequence":"0.5+(2),0.5+(7)"}},"osm_tags":{"man_made":"beacon","seamark:beacon_lateral:category":"port","seamark:beacon_lateral:colour":"red","seamark:beacon_lateral:shape":"tower","seamark:beacon_lateral:system":"iala-a","seamark:light:character":"Fl","seamark:light:colour":"red","seamark:light:group":"2","seamark:light:height":"50","seamark:light:period":"10","seamark:light:range":"12","seamark:light:reference":"Q 3344.5","seamark:light:sequence":"0.5+(2),0.5+(7)","seamark:name":"Serotte Island","seamark:type":"beacon_lateral"}}},{"type":"Feature","geometry":{"type":"Point","coordinates":[133.8143762,-3.7272872]},"properties":{"osm_id":14088391216,"osm_type":"node","seamark_type":"landmark","display_class":"OTHER","min_zoom":12,"importance":1,"name":"Bitsyaru","ref":null,"common":{"name":"Bitsyaru","type":"landmark"},"children":{"landmark":{"category":"tower","colour":"white","construction":"framework;metal","function":"light_support"},"light":{"character":"Fl","colour":"white","group":"3","height":"35","period":"15","range":"14","reference":"Q 3345.3","sequence":"0.5+(2),0.5+(2),0.5+(9.5)"}},"osm_tags":{"seamark:landmark:category":"tower","seamark:landmark:colour":"white","seamark:landmark:construction":"framework;metal","seamark:landmark:function":"light_support","seamark:light:character":"Fl","seamark:light:colour":"white","seamark:light:group":"3","seamark:light:height":"35","seamark:light:period":"15","seamark:light:range":"14","seamark:light:reference":"Q 3345.3","seamark:light:sequence":"0.5+(2),0.5+(2),0.5+(9.5)","seamark:name":"Bitsyaru","seamark:type":"landmark"}}},{"type":"Feature","geometry":{"type":"Point","coordinates":[133.7593643,-3.6653187]},"properties":{"osm_id":14088391211,"osm_type":"node","seamark_type":"light_minor","display_class":"OTHER","min_zoom":12,"importance":1,"name":"Kaimana","ref":null,"common":{"name":"Kaimana","type":"light_minor"},"children":{"light":{"character":"F","colour":"red","height":"6","range":"2","reference":"Q 3345"}},"osm_tags":{"seamark:light:character":"F","seamark:light:colour":"red","seamark:light:height":"6","seamark:light:range":"2","seamark:light:reference":"Q 3345","seamark:name":"Kaimana","seamark:type":"light_minor"}}},{"type":"Feature","geometry":{"type":"Point","coordinates":[133.5240893,-3.9878338]},"properties":{"osm_id":14090380335,"osm_type":"node","seamark_type":"landmark","display_class":"OTHER","min_zoom":12,"importance":1,"name":"Pulau Keliwala","ref":null,"common":{"name":"Pulau Keliwala","radar_reflector":"yes","type":"landmark"},"children":{"landmark":{"category":"tower","colour":"white","construction":"framework;metal","function":"light_support"},"light":{"character":"Fl","colour":"white","height":"13","period":"3","range":"12","reference":"Q 3343.5","sequence":"0.3+(2.7)"}},"osm_tags":{"man_made":"beacon","seamark:landmark:category":"tower","seamark:landmark:colour":"white","seamark:landmark:construction":"framework;metal","seamark:landmark:function":"light_support","seamark:light:character":"Fl","seamark:light:colour":"white","seamark:light:height":"13","seamark:light:period":"3","seamark:light:range":"12","seamark:light:reference":"Q 3343.5","seamark:light:sequence":"0.3+(2.7)","seamark:name":"Pulau Keliwala","seamark:radar_reflector":"yes","seamark:type":"landmark"}}}],"type":"FeatureCollection"}