{"type":"FeatureCollection","features":[{"type":"Feature","geometry":{"type":"Point","coordinates":[123.0136704,-3.9810773]},"properties":{"osm_id":1293784836,"osm_type":"node","seamark_type":"light_major","display_class":"LIGHTHOUSE","min_zoom":7,"importance":5,"name":"Wowoni Island","ref":null,"common":{"name":"Wowoni Island","type":"light_major"},"children":{"light":{"character":"Fl","colour":"white","group":"4","height":"44","period":"20","range":"25","reference":"K 1559.7"}},"osm_tags":{"seamark:light:character":"Fl","seamark:light:colour":"white","seamark:light:group":"4","seamark:light:height":"44","seamark:light:period":"20","seamark:light:range":"25","seamark:light:reference":"K 1559.7","seamark:name":"Wowoni Island","seamark:type":"light_major","source":"US NGA Pub. 112. 2009-11-12."}}},{"type":"Feature","geometry":{"type":"Point","coordinates":[123.175,-3.61833]},"properties":{"osm_id":1293784799,"osm_type":"node","seamark_type":"light_minor","display_class":"OTHER","min_zoom":12,"importance":1,"name":"P. Manui","ref":null,"common":{"name":"P. Manui","type":"light_minor"},"children":{"light":{"character":"Fl","colour":"white","height":"45","period":"4","range":"15","reference":"K 1559.8"}},"osm_tags":{"seamark:light:character":"Fl","seamark:light:colour":"white","seamark:light:height":"45","seamark:light:period":"4","seamark:light:range":"15","seamark:light:reference":"K 1559.8","seamark:name":"P. Manui","seamark:type":"light_minor","source":"US NGA Pub. 112. 2009-11-12."}}}],"type":"FeatureCollection"}