{"type":"FeatureCollection","features":[{"type":"Feature","geometry":{"type":"Point","coordinates":[152.6525758,-3.119108]},"properties":{"osm_id":3315848992,"osm_type":"node","seamark_type":"harbour","display_class":"OTHER","min_zoom":12,"importance":1,"name":"Lihir Marina","ref":null,"common":{"type":"harbour"},"children":{"harbour":{"category":"marina"}},"osm_tags":{"leisure":"marina","name":"Lihir Marina","seamark:harbour:category":"marina","seamark:type":"harbour"}}}],"type":"FeatureCollection"}