{"type":"FeatureCollection","features":[{"type":"Feature","geometry":{"type":"Polygon","coordinates":[[[136.3827964,-3.9248401],[136.3827781,-3.9247915],[136.3829162,-3.9248036],[136.3830071,-3.9248073],[136.3833329,-3.924793],[136.3834996,-3.9247674],[136.3836015,-3.9247688],[136.3834951,-3.9248435],[136.3833647,-3.9248621],[136.3831621,-3.9248581],[136.3829559,-3.9248533],[136.3827964,-3.9248401]]]},"properties":{"osm_id":991002271,"osm_type":"way","seamark_type":"harbour","display_class":"OTHER","min_zoom":12,"importance":1,"name":null,"ref":null,"common":{"type":"harbour"},"children":{"harbour":{"category":"marina"}},"osm_tags":{"leisure":"marina","seamark:harbour:category":"marina","seamark:type":"harbour"}}},{"type":"Feature","geometry":{"type":"Polygon","coordinates":[[[136.3722848,-3.9310271],[136.3722824,-3.9309374],[136.3722824,-3.9308988],[136.372186,-3.9308987],[136.3718612,-3.9308857],[136.3717527,-3.9307522],[136.3713104,-3.9306724],[136.3707734,-3.9306535],[136.3702594,-3.9306661],[136.3702637,-3.9311473],[136.3702826,-3.9314835],[136.3708639,-3.9314961],[136.3717863,-3.931417],[136.3718131,-3.9313354],[136.3718299,-3.9312772],[136.3718433,-3.9312029],[136.371854,-3.9311307],[136.3718594,-3.9310383],[136.3719826,-3.9310299],[136.3722848,-3.9310271]]]},"properties":{"osm_id":899702349,"osm_type":"way","seamark_type":"dock","display_class":"OTHER","min_zoom":12,"importance":1,"name":"Dermaga Aikai","ref":null,"common":{"type":"dock"},"children":{"harbour":{"category":"marina"}},"osm_tags":{"leisure":"marina","name":"Dermaga Aikai","seamark:harbour:category":"marina","seamark:type":"dock"}}},{"type":"Feature","geometry":{"type":"Polygon","coordinates":[[[136.3835403,-3.9246784],[136.3834827,-3.924667],[136.3834874,-3.9246028],[136.3833875,-3.9245597],[136.3833418,-3.9246101],[136.3833165,-3.924626],[136.3832931,-3.9246269],[136.383203,-3.9246155],[136.3831918,-3.924584],[136.3832122,-3.9244739],[136.3832618,-3.9244705],[136.3833024,-3.9244911],[136.3833198,-3.9244548],[136.3833691,-3.9244784],[136.3834065,-3.9244947],[136.3835156,-3.9244693],[136.3835014,-3.9243934],[136.383518,-3.9243489],[136.3835315,-3.9242958],[136.3835253,-3.9242812],[136.3835022,-3.9242851],[136.3835006,-3.9243331],[136.3834845,-3.9243738],[136.3834605,-3.9243819],[136.3833646,-3.924392],[136.3833184,-3.9243605],[136.3832419,-3.9243204],[136.3831997,-3.924315],[136.3831071,-3.9243512],[136.3830803,-3.924432],[136.3830818,-3.9245208],[136.3830507,-3.9245569],[136.3828938,-3.9245117],[136.3828771,-3.9245024],[136.3828762,-3.924489],[136.3829932,-3.9244877],[136.3830297,-3.9244528],[136.383051,-3.924308],[136.3831164,-3.9242815],[136.3832169,-3.9242527],[136.3835744,-3.9242642],[136.3835478,-3.9245555],[136.3835403,-3.9246784]]]},"properties":{"osm_id":991002272,"osm_type":"way","seamark_type":"dock","display_class":"OTHER","min_zoom":12,"importance":1,"name":"Dermaga Ibumomaida","ref":null,"common":{"type":"dock"},"children":{},"osm_tags":{"leisure":"marina","name":"Dermaga Ibumomaida","seamark:type":"dock"}}}],"type":"FeatureCollection"}