{"type":"FeatureCollection","features":[{"type":"Feature","geometry":{"type":"LineString","coordinates":[[-63.1475448,-3.9633566],[-63.1356512,-3.9608806]]},"properties":{"osm_id":321589257,"osm_type":"way","seamark_type":"pipeline_submarine","display_class":"OTHER","min_zoom":12,"importance":1,"name":"Urucu - Manaus Pipeline (Section 2)","ref":null,"common":{"type":"pipeline_submarine"},"children":{"pipeline_submarine":{"category":"gas","product":"gas"}},"osm_tags":{"description":"Coari - Manaus","layer":"-1","location":"underwater","man_made":"pipeline","name":"Urucu - Manaus Pipeline (Section 2)","network":"transmission","operator":"Petrobras","seamark:pipeline_submarine:category":"gas","seamark:pipeline_submarine:product":"gas","seamark:type":"pipeline_submarine","substance":"gas"}}}],"type":"FeatureCollection"}