{"type":"FeatureCollection","features":[{"type":"Feature","geometry":{"type":"Point","coordinates":[-55.6790543,-4.1011743]},"properties":{"osm_id":5503817684,"osm_type":"node","seamark_type":"distance_mark","display_class":"OTHER","min_zoom":12,"importance":1,"name":null,"ref":null,"common":{"type":"distance_mark"},"children":{"distance_mark":{"category":"not_installed","distance":"130","units":"nautical_miles"}},"osm_tags":{"seamark:distance_mark:category":"not_installed","seamark:distance_mark:distance":"130","seamark:distance_mark:units":"nautical_miles","seamark:type":"distance_mark"}}},{"type":"Feature","geometry":{"type":"Point","coordinates":[-55.8158685,-4.1771932]},"properties":{"osm_id":5503817685,"osm_type":"node","seamark_type":"distance_mark","display_class":"OTHER","min_zoom":12,"importance":1,"name":null,"ref":null,"common":{"type":"distance_mark"},"children":{"distance_mark":{"category":"not_installed","distance":"140","units":"nautical_miles"}},"osm_tags":{"seamark:distance_mark:category":"not_installed","seamark:distance_mark:distance":"140","seamark:distance_mark:units":"nautical_miles","seamark:type":"distance_mark"}}},{"type":"Feature","geometry":{"type":"Point","coordinates":[-55.9575749,-4.2652734]},"properties":{"osm_id":5503817686,"osm_type":"node","seamark_type":"distance_mark","display_class":"OTHER","min_zoom":12,"importance":1,"name":null,"ref":null,"common":{"type":"distance_mark"},"children":{"distance_mark":{"category":"not_installed","distance":"150","units":"nautical_miles"}},"osm_tags":{"seamark:distance_mark:category":"not_installed","seamark:distance_mark:distance":"150","seamark:distance_mark:units":"nautical_miles","seamark:type":"distance_mark"}}},{"type":"Feature","geometry":{"type":"Point","coordinates":[-55.9822406,-4.275765]},"properties":{"osm_id":3630267000,"osm_type":"node","seamark_type":"harbour","display_class":"OTHER","min_zoom":12,"importance":1,"name":"Itaituba","ref":null,"common":{"name":"Itaituba","type":"harbour"},"children":{},"osm_tags":{"addr:city":"Itaituba","addr:postcode":"68180-020","addr:street":"Avenida Getúlio Vargas","addr:suburb":"Centro","amenity":"ferry_terminal","ferry":"yes","harbour":"yes","name":"Terminal Hidroviário Almir Gabriel","nohousenumber":"yes","operator":"Prefeitura de Itaituba","public_transport":"station","seamark:name":"Itaituba","seamark:type":"harbour","wheelchair":"yes"}}}],"type":"FeatureCollection"}