{"type":"FeatureCollection","features":[{"type":"Feature","geometry":{"type":"Point","coordinates":[108.3811309,-5.9348684]},"properties":{"osm_id":12592590409,"osm_type":"node","seamark_type":"landmark","display_class":"OTHER","min_zoom":12,"importance":1,"name":"Pulau Rakit","ref":null,"common":{"name":"Pulau Rakit","type":"landmark"},"children":{"landmark":{"category":"tower","colour":"white","conspicuity":"conspicuous","construction":"framework;metal","function":"light_support"},"light":{"character":"Fl","colour":"white","height":"54","period":"15","range":"20","reference":"Q 1084","sequence":"0.5+(14.5)"}},"osm_tags":{"seamark:landmark:category":"tower","seamark:landmark:colour":"white","seamark:landmark:conspicuity":"conspicuous","seamark:landmark:construction":"framework;metal","seamark:landmark:function":"light_support","seamark:light:character":"Fl","seamark:light:colour":"white","seamark:light:height":"54","seamark:light:period":"15","seamark:light:range":"20","seamark:light:reference":"Q 1084","seamark:light:sequence":"0.5+(14.5)","seamark:name":"Pulau Rakit","seamark:type":"landmark","source":"US NGA Pub. 112. 2023-07-01"}}},{"type":"Feature","geometry":{"type":"LineString","coordinates":[[107.1253333,-5.973],[107.159,-5.6795],[108.5158333,-5.6775],[108.647,-5.718],[108.9295,-6.176],[108.9355,-6.3651667],[108.8735,-6.5193333],[108.5435,-6.5895]]},"properties":{"osm_id":1114900235,"osm_type":"way","seamark_type":"cable_submarine","display_class":"OTHER","min_zoom":12,"importance":1,"name":"Segment 1","ref":null,"common":{"type":"cable_submarine"},"children":{},"osm_tags":{"communication":"line","description":"BMH Tanjung Pakis – BMH Cirebon","location":"underwater","name":"Segment 1","note":"Do not move or modify geometry - points mapped according to a set of WGS84 coordinates","power":"cable","seamark:type":"cable_submarine","source":"Admiralty Preliminary Notice 3065(P)/20; Indonesian Notices 18/215/20,19/221/20 and 20/235/20"}}}],"type":"FeatureCollection"}