{"type":"FeatureCollection","features":[{"type":"Feature","geometry":{"type":"Point","coordinates":[12.2954948,-5.8910678]},"properties":{"osm_id":11834084070,"osm_type":"node","seamark_type":"beacon_special_purpose","display_class":"BEACON","min_zoom":9,"importance":4,"name":"Pointe Kupundji","ref":null,"common":{"name":"Pointe Kupundji","type":"beacon_special_purpose"},"children":{"beacon_special_purpose":{"colour":"white","construction":"metal","height":"9.4","shape":"tower"},"light":{"character":"Fl","colour":"white","height":"31","period":"5","range":"15","reference":"D 4370"}},"osm_tags":{"seamark:beacon_special_purpose:colour":"white","seamark:beacon_special_purpose:construction":"metal","seamark:beacon_special_purpose:height":"9.4","seamark:beacon_special_purpose:shape":"tower","seamark:light:character":"Fl","seamark:light:colour":"white","seamark:light:height":"31","seamark:light:period":"5","seamark:light:range":"15","seamark:light:reference":"D 4370","seamark:name":"Pointe Kupundji","seamark:type":"beacon_special_purpose","source":"US NGA Pub. 113. 2024-04-13."}}},{"type":"Feature","geometry":{"type":"Point","coordinates":[12.2317175,-5.5493095]},"properties":{"osm_id":1581791508,"osm_type":"node","seamark_type":"light_minor","display_class":"OTHER","min_zoom":12,"importance":1,"name":"Vala","ref":null,"common":{"type":"light_minor"},"children":{"light":{"category":"upper","character":"Iso","colour":"red","height":"46","period":"4","range":"4","reference":"D 4343.1"}},"osm_tags":{"name":"Vala","name:fr":"Vala","place":"suburb","seamark:light:category":"upper","seamark:light:character":"Iso","seamark:light:colour":"red","seamark:light:height":"46","seamark:light:period":"4","seamark:light:range":"4","seamark:light:reference":"D 4343.1","seamark:type":"light_minor","source":"US NGA Pub. 113. 2011-10-20."}}}],"type":"FeatureCollection"}