{"type":"FeatureCollection","features":[{"type":"Feature","geometry":{"type":"Point","coordinates":[108.5823521,-6.7336597]},"properties":{"osm_id":12592655977,"osm_type":"node","seamark_type":"light_major","display_class":"LIGHTHOUSE","min_zoom":7,"importance":5,"name":null,"ref":null,"common":{"type":"light_major"},"children":{"light":{"character":"Fl","colour":"white","height":"12","period":"5","range":"6","reference":"Q 1091.12","sequence":"0.5+(4.5)"}},"osm_tags":{"man_made":"beacon","seamark:light:character":"Fl","seamark:light:colour":"white","seamark:light:height":"12","seamark:light:period":"5","seamark:light:range":"6","seamark:light:reference":"Q 1091.12","seamark:light:sequence":"0.5+(4.5)","seamark:type":"light_major","source":"US NGA Pub. 112. 2023-07-01"}}},{"type":"Feature","geometry":{"type":"Point","coordinates":[108.687782,-6.5271776]},"properties":{"osm_id":12592658034,"osm_type":"node","seamark_type":"light_major","display_class":"LIGHTHOUSE","min_zoom":7,"importance":5,"name":"Tanah Reef","ref":null,"common":{"name":"Tanah Reef","type":"light_major"},"children":{"light":{"character":"Fl","colour":"white","group":"2","height":"13","period":"5","range":"10","reference":"Q 1090","sequence":"0.5+(1)+0.5+(3)"}},"osm_tags":{"seamark:light:character":"Fl","seamark:light:colour":"white","seamark:light:group":"2","seamark:light:height":"13","seamark:light:period":"5","seamark:light:range":"10","seamark:light:reference":"Q 1090","seamark:light:sequence":"0.5+(1)+0.5+(3)","seamark:name":"Tanah Reef","seamark:type":"light_major","source":"US NGA Pub. 112. 2023-07-01"}}},{"type":"Feature","geometry":{"type":"Point","coordinates":[108.5891324,-6.7269495]},"properties":{"osm_id":12592666690,"osm_type":"node","seamark_type":"beacon_lateral","display_class":"BEACON","min_zoom":9,"importance":4,"name":null,"ref":null,"common":{"type":"beacon_lateral"},"children":{"beacon_lateral":{"category":"starboard","colour":"green","shape":"post","system":"iala-a"},"light":{"character":"Fl","colour":"green","group":"2","height":"6","period":"5","range":"4","reference":"Q 1091.11","sequence":"0.5+(1)+0.5+(3)"},"topmark":{"colour":"green","shape":"cone, point up"}},"osm_tags":{"man_made":"beacon","seamark:beacon_lateral:category":"starboard","seamark:beacon_lateral:colour":"green","seamark:beacon_lateral:shape":"post","seamark:beacon_lateral:system":"iala-a","seamark:light:character":"Fl","seamark:light:colour":"green","seamark:light:group":"2","seamark:light:height":"6","seamark:light:period":"5","seamark:light:range":"4","seamark:light:reference":"Q 1091.11","seamark:light:sequence":"0.5+(1)+0.5+(3)","seamark:topmark:colour":"green","seamark:topmark:shape":"cone, point up","seamark:type":"beacon_lateral","source":"US NGA Pub. 112. 2023-07-01"}}},{"type":"Feature","geometry":{"type":"Point","coordinates":[108.5902613,-6.7271576]},"properties":{"osm_id":12592676303,"osm_type":"node","seamark_type":"beacon_lateral","display_class":"BEACON","min_zoom":9,"importance":4,"name":null,"ref":null,"common":{"type":"beacon_lateral"},"children":{"beacon_lateral":{"category":"port","colour":"red","shape":"post","system":"iala-a"},"light":{"character":"Fl","colour":"red","group":"2","height":"6","period":"6","range":"4","reference":"Q 1091.1","sequence":"1+(1)+1+(3)"},"topmark":{"colour":"red","shape":"cylinder"}},"osm_tags":{"man_made":"beacon","seamark:beacon_lateral:category":"port","seamark:beacon_lateral:colour":"red","seamark:beacon_lateral:shape":"post","seamark:beacon_lateral:system":"iala-a","seamark:light:character":"Fl","seamark:light:colour":"red","seamark:light:group":"2","seamark:light:height":"6","seamark:light:period":"6","seamark:light:range":"4","seamark:light:reference":"Q 1091.1","seamark:light:sequence":"1+(1)+1+(3)","seamark:topmark:colour":"red","seamark:topmark:shape":"cylinder","seamark:type":"beacon_lateral","source":"US NGA Pub. 112. 2023-07-01"}}},{"type":"Feature","geometry":{"type":"Point","coordinates":[108.5785316,-6.705817]},"properties":{"osm_id":12593044247,"osm_type":"node","seamark_type":"beacon_lateral","display_class":"BEACON","min_zoom":9,"importance":4,"name":"Cirebon East Mole","ref":null,"common":{"name":"Cirebon East Mole","type":"beacon_lateral"},"children":{"beacon_lateral":{"category":"port","colour":"red","shape":"pole","system":"iala-a"},"light":{"character":"Fl","colour":"red","height":"9","period":"5","range":"10","reference":"Q 1093","sequence":"0.5+(4.5)"},"topmark":{"colour":"red","shape":"cylinder"}},"osm_tags":{"seamark:beacon_lateral:category":"port","seamark:beacon_lateral:colour":"red","seamark:beacon_lateral:shape":"pole","seamark:beacon_lateral:system":"iala-a","seamark:light:character":"Fl","seamark:light:colour":"red","seamark:light:height":"9","seamark:light:period":"5","seamark:light:range":"10","seamark:light:reference":"Q 1093","seamark:light:sequence":"0.5+(4.5)","seamark:name":"Cirebon East Mole","seamark:topmark:colour":"red","seamark:topmark:shape":"cylinder","seamark:type":"beacon_lateral","source":"US NGA Pub. 112. 2023-07-01"}}},{"type":"Feature","geometry":{"type":"Point","coordinates":[108.577692,-6.7044877]},"properties":{"osm_id":12593044242,"osm_type":"node","seamark_type":"beacon_lateral","display_class":"BEACON","min_zoom":9,"importance":4,"name":"Cirebon West Mole","ref":null,"common":{"name":"Cirebon West Mole","type":"beacon_lateral"},"children":{"beacon_lateral":{"category":"starboard","colour":"green","shape":"pole","system":"iala-a"},"light":{"character":"Fl","colour":"green","height":"9","period":"5","range":"9","reference":"Q 1095","sequence":"0.5+(4.5)"},"topmark":{"colour":"green","shape":"cone, point up"}},"osm_tags":{"seamark:beacon_lateral:category":"starboard","seamark:beacon_lateral:colour":"green","seamark:beacon_lateral:shape":"pole","seamark:beacon_lateral:system":"iala-a","seamark:light:character":"Fl","seamark:light:colour":"green","seamark:light:height":"9","seamark:light:period":"5","seamark:light:range":"9","seamark:light:reference":"Q 1095","seamark:light:sequence":"0.5+(4.5)","seamark:name":"Cirebon West Mole","seamark:topmark:colour":"green","seamark:topmark:shape":"cone, point up","seamark:type":"beacon_lateral","source":"US NGA Pub. 112. 2023-07-01"}}},{"type":"Feature","geometry":{"type":"Point","coordinates":[108.456368,-6.4467814]},"properties":{"osm_id":11875451226,"osm_type":"node","seamark_type":"gate","display_class":"OTHER","min_zoom":12,"importance":1,"name":null,"ref":null,"common":{"type":"gate"},"children":{},"osm_tags":{"seamark:type":"gate","waterway":"lock_gate"}}},{"type":"Feature","geometry":{"type":"Point","coordinates":[108.4269762,-6.4128854]},"properties":{"osm_id":11875464287,"osm_type":"node","seamark_type":"gate","display_class":"OTHER","min_zoom":12,"importance":1,"name":null,"ref":null,"common":{"type":"gate"},"children":{},"osm_tags":{"seamark:type":"gate","waterway":"lock_gate"}}},{"type":"Feature","geometry":{"type":"Point","coordinates":[108.653176,-6.8281462]},"properties":{"osm_id":11877936174,"osm_type":"node","seamark_type":"gate","display_class":"OTHER","min_zoom":12,"importance":1,"name":null,"ref":null,"common":{"type":"gate"},"children":{},"osm_tags":{"seamark:type":"gate","waterway":"dam"}}},{"type":"Feature","geometry":{"type":"Point","coordinates":[108.4620845,-6.2703383]},"properties":{"osm_id":12592593282,"osm_type":"node","seamark_type":"platform","display_class":"OTHER","min_zoom":12,"importance":1,"name":null,"ref":null,"common":{"type":"platform"},"children":{"platform":{"category":"fpso"}},"osm_tags":{"seamark:platform:category":"fpso","seamark:type":"platform"}}},{"type":"Feature","geometry":{"type":"LineString","coordinates":[[108.5713067,-6.7055089],[108.5710295,-6.7056828]]},"properties":{"osm_id":1382013943,"osm_type":"way","seamark_type":"gate","display_class":"OTHER","min_zoom":12,"importance":1,"name":null,"ref":null,"common":{"type":"gate"},"children":{},"osm_tags":{"seamark:type":"gate","waterway":"lock_gate"}}},{"type":"Feature","geometry":{"type":"LineString","coordinates":[[108.5716876,-6.7052685],[108.5714141,-6.7054516]]},"properties":{"osm_id":1382013944,"osm_type":"way","seamark_type":"gate","display_class":"OTHER","min_zoom":12,"importance":1,"name":null,"ref":null,"common":{"type":"gate"},"children":{},"osm_tags":{"seamark:type":"gate","waterway":"lock_gate"}}},{"type":"Feature","geometry":{"type":"LineString","coordinates":[[108.5717869,-6.7052065],[108.5720752,-6.7050253]]},"properties":{"osm_id":1382013945,"osm_type":"way","seamark_type":"gate","display_class":"OTHER","min_zoom":12,"importance":1,"name":null,"ref":null,"common":{"type":"gate"},"children":{},"osm_tags":{"seamark:type":"gate","waterway":"lock_gate"}}},{"type":"Feature","geometry":{"type":"Point","coordinates":[108.5721085,-6.7152975]},"properties":{"osm_id":12592752020,"osm_type":"node","seamark_type":"landmark","display_class":"OTHER","min_zoom":12,"importance":1,"name":"Cirebon","ref":null,"common":{"name":"Cirebon","type":"landmark"},"children":{"landmark":{"category":"tower","colour":"white","conspicuity":"conspicuous","construction":"framework;metal","function":"light_support"},"light":{"character":"Fl","colour":"white","group":"3","height":"31","period":"20","range":"16","reference":"Q 1092","sequence":"0.5+(3.5)+0.5+(3.5)+0.5+(11.5)"}},"osm_tags":{"seamark:landmark:category":"tower","seamark:landmark:colour":"white","seamark:landmark:conspicuity":"conspicuous","seamark:landmark:construction":"framework;metal","seamark:landmark:function":"light_support","seamark:light:character":"Fl","seamark:light:colour":"white","seamark:light:group":"3","seamark:light:height":"31","seamark:light:period":"20","seamark:light:range":"16","seamark:light:reference":"Q 1092","seamark:light:sequence":"0.5+(3.5)+0.5+(3.5)+0.5+(11.5)","seamark:name":"Cirebon","seamark:type":"landmark","source":"US NGA Pub. 112. 2023-07-01"}}},{"type":"Feature","geometry":{"type":"Point","coordinates":[108.573977,-6.7058272]},"properties":{"osm_id":12593033092,"osm_type":"node","seamark_type":"landmark","display_class":"OTHER","min_zoom":12,"importance":1,"name":"Cirebon Range Front","ref":null,"common":{"name":"Cirebon Range Front","type":"landmark"},"children":{"landmark":{"category":"tower","colour":"white","construction":"framework;metal","function":"light_support"},"light":{"category":"front","character":"Fl","colour":"white","height":"12","period":"5","range":"10","reference":"Q 1092.5","sequence":"0.5+(4.5)"},"topmark":{"colour":"white","shape":"triangle, point up"}},"osm_tags":{"seamark:landmark:category":"tower","seamark:landmark:colour":"white","seamark:landmark:construction":"framework;metal","seamark:landmark:function":"light_support","seamark:light:category":"front","seamark:light:character":"Fl","seamark:light:colour":"white","seamark:light:height":"12","seamark:light:period":"5","seamark:light:range":"10","seamark:light:reference":"Q 1092.5","seamark:light:sequence":"0.5+(4.5)","seamark:name":"Cirebon Range Front","seamark:topmark:colour":"white","seamark:topmark:shape":"triangle, point up","seamark:type":"landmark","source":"US NGA Pub. 112. 2023-07-01"}}},{"type":"Feature","geometry":{"type":"Point","coordinates":[108.5689754,-6.7068547]},"properties":{"osm_id":12593033087,"osm_type":"node","seamark_type":"landmark","display_class":"OTHER","min_zoom":12,"importance":1,"name":"Cirebon Range Rear","ref":null,"common":{"name":"Cirebon Range Rear","type":"landmark"},"children":{"landmark":{"category":"tower","colour":"white","conspicuity":"conspicuous","construction":"framework;metal","function":"light_support"},"light":{"category":"rear","character":"Q","colour":"white","group":"9","height":"18","period":"15","range":"13","reference":"Q 1092.51"},"topmark":{"colour":"white","shape":"triangle, point down"}},"osm_tags":{"seamark:landmark:category":"tower","seamark:landmark:colour":"white","seamark:landmark:conspicuity":"conspicuous","seamark:landmark:construction":"framework;metal","seamark:landmark:function":"light_support","seamark:light:category":"rear","seamark:light:character":"Q","seamark:light:colour":"white","seamark:light:group":"9","seamark:light:height":"18","seamark:light:period":"15","seamark:light:range":"13","seamark:light:reference":"Q 1092.51","seamark:name":"Cirebon Range Rear","seamark:topmark:colour":"white","seamark:topmark:shape":"triangle, point down","seamark:type":"landmark","source":"US NGA Pub. 112. 2023-07-01"}}},{"type":"Feature","geometry":{"type":"Point","coordinates":[108.4633861,-6.2713395]},"properties":{"osm_id":12592593283,"osm_type":"node","seamark_type":"mooring","display_class":"OTHER","min_zoom":12,"importance":1,"name":"Permanent Export SBM","ref":null,"common":{"name":"Permanent Export SBM","radar_reflector":"yes","type":"mooring"},"children":{"light":{"1:category":"directional","1:character":"Fl","1:colour":"white","1:period":"8","1:sequence":"0.5+(7.5)","2:category":"directional","2:character":"Fl","2:colour":"green","2:period":"3","2:sequence":"0.5+(2.5)","reference":"NGA23464"},"mooring":{"category":"buoy"}},"osm_tags":{"seamark:light:1:category":"directional","seamark:light:1:character":"Fl","seamark:light:1:colour":"white","seamark:light:1:period":"8","seamark:light:1:sequence":"0.5+(7.5)","seamark:light:2:category":"directional","seamark:light:2:character":"Fl","seamark:light:2:colour":"green","seamark:light:2:period":"3","seamark:light:2:sequence":"0.5+(2.5)","seamark:light:reference":"NGA23464","seamark:mooring:category":"buoy","seamark:name":"Permanent Export SBM","seamark:radar_reflector":"yes","seamark:type":"mooring","source":"US NGA Pub. 112. 2023-07-01"}}},{"type":"Feature","geometry":{"type":"Point","coordinates":[108.619215,-6.7544489]},"properties":{"osm_id":12593113740,"osm_type":"node","seamark_type":"landmark","display_class":"OTHER","min_zoom":12,"importance":1,"name":"Tg. Bankaderes","ref":null,"common":{"name":"Tg. Bankaderes","type":"landmark"},"children":{"landmark":{"category":"mast","colour":"white","function":"light_support"},"light":{"character":"Fl","colour":"white","height":"27","period":"6","range":"12","reference":"Q 1091.2","sequence":"1+(5)"}},"osm_tags":{"man_made":"beacon","seamark:landmark:category":"mast","seamark:landmark:colour":"white","seamark:landmark:function":"light_support","seamark:light:character":"Fl","seamark:light:colour":"white","seamark:light:height":"27","seamark:light:period":"6","seamark:light:range":"12","seamark:light:reference":"Q 1091.2","seamark:light:sequence":"1+(5)","seamark:name":"Tg. Bankaderes","seamark:type":"landmark","source":"US NGA Pub. 112. 2023-07-01"}}}],"type":"FeatureCollection"}