{"type":"FeatureCollection","features":[{"type":"Feature","geometry":{"type":"Point","coordinates":[148.470914,-8.9042441]},"properties":{"osm_id":14098727798,"osm_type":"node","seamark_type":"beacon_special_purpose","display_class":"BEACON","min_zoom":9,"importance":4,"name":"Oro Bay Range","ref":null,"common":{"name":"Oro Bay Range","type":"beacon_special_purpose"},"children":{"beacon_special_purpose":{"category":"leading","colour":"white","shape":"tower"},"light":{"category":"rear","character":"Fl","colour":"white","height":"134","period":"10","range":"10","reference":"K 3424.1","sequence":"0.2+(9.8)"},"topmark":{"colour":"white","shape":"rectangle, horizontal"}},"osm_tags":{"man_made":"beacon","seamark:beacon_special_purpose:category":"leading","seamark:beacon_special_purpose:colour":"white","seamark:beacon_special_purpose:shape":"tower","seamark:light:category":"rear","seamark:light:character":"Fl","seamark:light:colour":"white","seamark:light:height":"134","seamark:light:period":"10","seamark:light:range":"10","seamark:light:reference":"K 3424.1","seamark:light:sequence":"0.2+(9.8)","seamark:name":"Oro Bay Range","seamark:topmark:colour":"white","seamark:topmark:shape":"rectangle, horizontal","seamark:type":"beacon_special_purpose"}}},{"type":"Feature","geometry":{"type":"Point","coordinates":[148.4729914,-8.903099]},"properties":{"osm_id":14098727799,"osm_type":"node","seamark_type":"beacon_special_purpose","display_class":"BEACON","min_zoom":9,"importance":4,"name":"Oro Bay Range","ref":null,"common":{"information":"Temporarily extinguished (2025)","name":"Oro Bay Range","type":"beacon_special_purpose"},"children":{"beacon_special_purpose":{"category":"leading","colour":"white","shape":"tower"},"light":{"category":"front","character":"Fl","colour":"white","height":"119","period":"3","range":"10","reference":"K 3424","sequence":"0.3+(2.7)"},"topmark":{"colour":"white","shape":"triangle, point up"}},"osm_tags":{"man_made":"beacon","seamark:beacon_special_purpose:category":"leading","seamark:beacon_special_purpose:colour":"white","seamark:beacon_special_purpose:shape":"tower","seamark:information":"Temporarily extinguished (2025)","seamark:light:category":"front","seamark:light:character":"Fl","seamark:light:colour":"white","seamark:light:height":"119","seamark:light:period":"3","seamark:light:range":"10","seamark:light:reference":"K 3424","seamark:light:sequence":"0.3+(2.7)","seamark:name":"Oro Bay Range","seamark:topmark:colour":"white","seamark:topmark:shape":"triangle, point up","seamark:type":"beacon_special_purpose"}}},{"type":"Feature","geometry":{"type":"Point","coordinates":[148.1280591,-8.0613494]},"properties":{"osm_id":14098727800,"osm_type":"node","seamark_type":"landmark","display_class":"OTHER","min_zoom":12,"importance":1,"name":"Cape Ward Hunt","ref":null,"common":{"name":"Cape Ward Hunt","type":"landmark"},"children":{"landmark":{"category":"tower","colour":"white","conspicuity":"not_conspicuous","construction":"framework","function":"light_support"},"light":{"1:character":"Fl","1:colour":"white","1:height":"65","1:period":"4","1:range":"10","1:sector_end":"324","1:sector_start":"101","reference":"K 3422"}},"osm_tags":{"seamark:landmark:category":"tower","seamark:landmark:colour":"white","seamark:landmark:conspicuity":"not_conspicuous","seamark:landmark:construction":"framework","seamark:landmark:function":"light_support","seamark:light:1:character":"Fl","seamark:light:1:colour":"white","seamark:light:1:height":"65","seamark:light:1:period":"4","seamark:light:1:range":"10","seamark:light:1:sector_end":"324","seamark:light:1:sector_start":"101","seamark:light:reference":"K 3422","seamark:name":"Cape Ward Hunt","seamark:type":"landmark"}}}],"type":"FeatureCollection"}