{"type":"FeatureCollection","features":[{"type":"Feature","geometry":{"type":"Point","coordinates":[119.2257501,-8.6645154]},"properties":{"osm_id":1293785814,"osm_type":"node","seamark_type":"light_major","display_class":"LIGHTHOUSE","min_zoom":7,"importance":5,"name":"Pulau Kelapa","ref":null,"common":{"name":"Pulau Kelapa","type":"light_major"},"children":{"light":{"1:category":"lower","1:character":"Iso","1:colour":"white","1:height":"136","1:period":"2","1:range":"30","1:sector_end":"177","1:sector_start":"167","reference":"K 1312"}},"osm_tags":{"seamark:light:1:category":"lower","seamark:light:1:character":"Iso","seamark:light:1:colour":"white","seamark:light:1:height":"136","seamark:light:1:period":"2","seamark:light:1:range":"30","seamark:light:1:sector_end":"177","seamark:light:1:sector_start":"167","seamark:light:reference":"K 1312","seamark:name":"Pulau Kelapa","seamark:type":"light_major","source":"US NGA Pub. 112. 2009-11-12."}}},{"type":"Feature","geometry":{"type":"Point","coordinates":[119.0033199,-8.3138502]},"properties":{"osm_id":2309323701,"osm_type":"node","seamark_type":"light_major","display_class":"LIGHTHOUSE","min_zoom":7,"importance":5,"name":"Tg. Naru","ref":null,"common":{"name":"Tg. Naru","type":"light_major"},"children":{"light":{"character":"Fl","colour":"white","group":"2","height":"44","period":"15","range":"18","reference":"K 1310.8"}},"osm_tags":{"man_made":"tower","name":"Menara","seamark:light:character":"Fl","seamark:light:colour":"white","seamark:light:group":"2","seamark:light:height":"44","seamark:light:period":"15","seamark:light:range":"18","seamark:light:reference":"K 1310.8","seamark:name":"Tg. Naru","seamark:type":"light_major","source":"US NGA Pub. 112. 2009-11-12.","tower:type":"observation"}}},{"type":"Feature","geometry":{"type":"Point","coordinates":[119.873821,-8.4866125]},"properties":{"osm_id":2872178062,"osm_type":"node","seamark_type":"beacon_cardinal","display_class":"BEACON","min_zoom":9,"importance":4,"name":null,"ref":null,"common":{"type":"beacon_cardinal"},"children":{"beacon_cardinal":{"category":"east","colour":"black;yellow;black","colour_pattern":"horizontal"},"topmark":{"colour":"black","shape":"2 cones base together"}},"osm_tags":{"seamark:beacon_cardinal:category":"east","seamark:beacon_cardinal:colour":"black;yellow;black","seamark:beacon_cardinal:colour_pattern":"horizontal","seamark:topmark:colour":"black","seamark:topmark:shape":"2 cones base together","seamark:type":"beacon_cardinal"}}},{"type":"Feature","geometry":{"type":"Point","coordinates":[119.040414,-8.5592982]},"properties":{"osm_id":1293785805,"osm_type":"node","seamark_type":"beacon_lateral","display_class":"BEACON","min_zoom":9,"importance":4,"name":"Nisa Sanai","ref":null,"common":{"name":"Nisa Sanai","type":"beacon_lateral"},"children":{"beacon_lateral":{"category":"port","colour":"red","system":"iala-a"},"light":{"character":"Fl","colour":"red","height":"14","period":"4","range":"10","reference":"K 1311.2"}},"osm_tags":{"seamark:beacon_lateral:category":"port","seamark:beacon_lateral:colour":"red","seamark:beacon_lateral:system":"iala-a","seamark:light:character":"Fl","seamark:light:colour":"red","seamark:light:height":"14","seamark:light:period":"4","seamark:light:range":"10","seamark:light:reference":"K 1311.2","seamark:name":"Nisa Sanai","seamark:type":"beacon_lateral","source":"US NGA Pub. 112. 2009-11-12."}}},{"type":"Feature","geometry":{"type":"Point","coordinates":[119.2262124,-8.6688209]},"properties":{"osm_id":1293785819,"osm_type":"node","seamark_type":"light_minor","display_class":"OTHER","min_zoom":12,"importance":1,"name":null,"ref":null,"common":{"type":"light_minor"},"children":{"light":{"category":"upper","character":"Fl","colour":"white","height":"149","period":"11","range":"18","reference":"K 1312.1"}},"osm_tags":{"seamark:light:category":"upper","seamark:light:character":"Fl","seamark:light:colour":"white","seamark:light:height":"149","seamark:light:period":"11","seamark:light:range":"18","seamark:light:reference":"K 1312.1","seamark:type":"light_minor","source":"US NGA Pub. 112. 2009-11-12."}}},{"type":"Feature","geometry":{"type":"Point","coordinates":[119.8735201,-8.4847427]},"properties":{"osm_id":2872178060,"osm_type":"node","seamark_type":"buoy_lateral","display_class":"OTHER","min_zoom":12,"importance":1,"name":null,"ref":null,"common":{"type":"buoy_lateral"},"children":{"buoy_lateral":{"category":"port","colour":"red","shape":"pillar","system":"iala-a"},"topmark":{"colour":"red","shape":"cylinder"}},"osm_tags":{"seamark:buoy_lateral:category":"port","seamark:buoy_lateral:colour":"red","seamark:buoy_lateral:shape":"pillar","seamark:buoy_lateral:system":"iala-a","seamark:topmark:colour":"red","seamark:topmark:shape":"cylinder","seamark:type":"buoy_lateral"}}},{"type":"Feature","geometry":{"type":"Point","coordinates":[119.8753333,-8.4903333]},"properties":{"osm_id":13977391262,"osm_type":"node","seamark_type":"light_minor","display_class":"OTHER","min_zoom":12,"importance":1,"name":null,"ref":null,"common":{"type":"light_minor"},"children":{"light":{"character":"Fl","colour":"white","height":"15","period":"2.5","range":"12","reference":"Q 1329.2"}},"osm_tags":{"seamark:light:character":"Fl","seamark:light:colour":"white","seamark:light:height":"15","seamark:light:period":"2.5","seamark:light:range":"12","seamark:light:reference":"Q 1329.2","seamark:type":"light_minor"}}},{"type":"Feature","geometry":{"type":"Point","coordinates":[119.5826845,-8.4427064]},"properties":{"osm_id":1293785835,"osm_type":"node","seamark_type":"light_minor","display_class":"OTHER","min_zoom":12,"importance":1,"name":"Pulau Gililawa Laut","ref":null,"common":{"name":"Pulau Gililawa Laut","type":"light_minor"},"children":{"light":{"character":"Fl","colour":"white","height":"30","period":"3","range":"10","reference":"K 1315.5"}},"osm_tags":{"seamark:light:character":"Fl","seamark:light:colour":"white","seamark:light:height":"30","seamark:light:period":"3","seamark:light:range":"10","seamark:light:reference":"K 1315.5","seamark:name":"Pulau Gililawa Laut","seamark:type":"light_minor","source":"US NGA Pub. 112. 2009-11-12."}}},{"type":"Feature","geometry":{"type":"Point","coordinates":[119.383849,-8.7325967]},"properties":{"osm_id":1293785825,"osm_type":"node","seamark_type":"light_minor","display_class":"OTHER","min_zoom":12,"importance":1,"name":"Pulau Komodo","ref":null,"common":{"name":"Pulau Komodo","type":"light_minor"},"children":{"light":{"character":"Q","colour":"white","group":"2","height":"70","period":"5","range":"22","reference":"K 1315"}},"osm_tags":{"seamark:light:character":"Q","seamark:light:colour":"white","seamark:light:group":"2","seamark:light:height":"70","seamark:light:period":"5","seamark:light:range":"22","seamark:light:reference":"K 1315","seamark:name":"Pulau Komodo","seamark:type":"light_minor","source":"US NGA Pub. 112. 2009-11-12."}}},{"type":"Feature","geometry":{"type":"Point","coordinates":[119.7974953,-8.390172]},"properties":{"osm_id":1293785843,"osm_type":"node","seamark_type":"light_minor","display_class":"OTHER","min_zoom":12,"importance":1,"name":"Sabolan Kecil","ref":null,"common":{"name":"Sabolan Kecil","type":"light_minor"},"children":{"light":{"character":"Fl","colour":"white","height":"28","period":"1.5","range":"11","reference":"K 1329"}},"osm_tags":{"seamark:light:character":"Fl","seamark:light:colour":"white","seamark:light:height":"28","seamark:light:period":"1.5","seamark:light:range":"11","seamark:light:reference":"K 1329","seamark:name":"Sabolan Kecil","seamark:type":"light_minor","source":"US NGA Pub. 112. 2009-11-12."}}},{"type":"Feature","geometry":{"type":"Point","coordinates":[119.0791801,-8.131675]},"properties":{"osm_id":1293785789,"osm_type":"node","seamark_type":"light_minor","display_class":"OTHER","min_zoom":12,"importance":1,"name":"Sangeang Island","ref":null,"common":{"name":"Sangeang Island","type":"light_minor"},"children":{"light":{"character":"Fl","colour":"white","height":"21","period":"10","range":"22","reference":"K 1310.7","sequence":"0.9+(9.1)"}},"osm_tags":{"seamark:light:character":"Fl","seamark:light:colour":"white","seamark:light:height":"21","seamark:light:period":"10","seamark:light:range":"22","seamark:light:reference":"K 1310.7","seamark:light:sequence":"0.9+(9.1)","seamark:name":"Sangeang Island","seamark:type":"light_minor","source":"US NGA Pub. 112. 2009-11-12."}}},{"type":"Feature","geometry":{"type":"Point","coordinates":[119.022577,-8.5554244]},"properties":{"osm_id":1293785798,"osm_type":"node","seamark_type":"light_minor","display_class":"OTHER","min_zoom":12,"importance":1,"name":"Toronaganuri","ref":null,"common":{"name":"Toronaganuri","type":"light_minor"},"children":{"light":{"1:character":"Fl","1:colour":"green","1:height":"60","1:period":"3","1:range":"12","1:sector_end":"274","1:sector_start":"196","reference":"K 1311"}},"osm_tags":{"seamark:light:1:character":"Fl","seamark:light:1:colour":"green","seamark:light:1:height":"60","seamark:light:1:period":"3","seamark:light:1:range":"12","seamark:light:1:sector_end":"274","seamark:light:1:sector_start":"196","seamark:light:reference":"K 1311","seamark:name":"Toronaganuri","seamark:type":"light_minor","source":"US NGA Pub. 112. 2009-11-12."}}}],"type":"FeatureCollection"}