{"type":"FeatureCollection","features":[{"type":"Feature","geometry":{"type":"Point","coordinates":[122.2194808,-8.6143926]},"properties":{"osm_id":2821301136,"osm_type":"node","seamark_type":"beacon_lateral","display_class":"BEACON","min_zoom":9,"importance":4,"name":null,"ref":null,"common":{"construction":"metal","type":"beacon_lateral"},"children":{"beacon_lateral":{"category":"port","colour":"white","height":"9","shape":"tower","system":"iala-a"},"light":{"character":"Fl","colour":"white","height":"11"}},"osm_tags":{"seamark:beacon_lateral:category":"port","seamark:beacon_lateral:colour":"white","seamark:beacon_lateral:height":"9","seamark:beacon_lateral:shape":"tower","seamark:beacon_lateral:system":"iala-a","seamark:construction":"metal","seamark:light:character":"Fl","seamark:light:colour":"white","seamark:light:height":"11","seamark:type":"beacon_lateral"}}},{"type":"Feature","geometry":{"type":"Point","coordinates":[122.230765,-8.3912045]},"properties":{"osm_id":1293785953,"osm_type":"node","seamark_type":"beacon_lateral","display_class":"BEACON","min_zoom":9,"importance":4,"name":"Gosong Boni","ref":null,"common":{"name":"Gosong Boni","radar_reflector":"yes","type":"beacon_lateral"},"children":{"beacon_lateral":{"category":"port","colour":"red","system":"iala-a"},"light":{"character":"Fl","colour":"red","height":"15","period":"6","range":"12","reference":"K 1334"}},"osm_tags":{"seamark:beacon_lateral:category":"port","seamark:beacon_lateral:colour":"red","seamark:beacon_lateral:system":"iala-a","seamark:light:character":"Fl","seamark:light:colour":"red","seamark:light:height":"15","seamark:light:period":"6","seamark:light:range":"12","seamark:light:reference":"K 1334","seamark:name":"Gosong Boni","seamark:radar_reflector":"yes","seamark:type":"beacon_lateral","source":"US NGA Pub. 112. 2009-11-12."}}},{"type":"Feature","geometry":{"type":"Point","coordinates":[122.145,-8.47833]},"properties":{"osm_id":1293785933,"osm_type":"node","seamark_type":"beacon_lateral","display_class":"BEACON","min_zoom":9,"importance":4,"name":"Gosong Unjuran","ref":null,"common":{"name":"Gosong Unjuran","radar_reflector":"yes","type":"beacon_lateral"},"children":{"beacon_lateral":{"category":"starboard","colour":"green","system":"iala-a"},"light":{"character":"Fl","colour":"green","height":"15","period":"5","range":"12","reference":"K 1334.5"}},"osm_tags":{"seamark:beacon_lateral:category":"starboard","seamark:beacon_lateral:colour":"green","seamark:beacon_lateral:system":"iala-a","seamark:light:character":"Fl","seamark:light:colour":"green","seamark:light:height":"15","seamark:light:period":"5","seamark:light:range":"12","seamark:light:reference":"K 1334.5","seamark:name":"Gosong Unjuran","seamark:radar_reflector":"yes","seamark:type":"beacon_lateral","source":"US NGA Pub. 112. 2009-11-12."}}},{"type":"Feature","geometry":{"type":"Point","coordinates":[122.2195996,-8.6149436]},"properties":{"osm_id":1312749653,"osm_type":"node","seamark_type":"harbour","display_class":"OTHER","min_zoom":12,"importance":1,"name":"Pelni port","ref":null,"common":{"type":"harbour"},"children":{"harbour":{"category":"marina"}},"osm_tags":{"leisure":"marina","name":"Pelni port","seamark:harbour:category":"marina","seamark:type":"harbour"}}}],"type":"FeatureCollection"}