{"type":"FeatureCollection","features":[{"type":"Feature","geometry":{"type":"Polygon","coordinates":[[[-172.504529,-8.5469801],[-172.4956186,-8.5452641],[-172.5002725,-8.5557556],[-172.504529,-8.5469801]]]},"properties":{"osm_id":998313206,"osm_type":"way","seamark_type":"seaplane_landing_area","display_class":"OTHER","min_zoom":12,"importance":1,"name":null,"ref":null,"common":{"type":"seaplane_landing_area"},"children":{},"osm_tags":{"description":"Emergency Landing Area","emergency":"landing_site","ref:linz:hydrographic_id":"4120996","seamark:type":"seaplane_landing_area","source":"LINZ;Atafu Chart"}}}],"type":"FeatureCollection"}