{"type":"FeatureCollection","features":[{"type":"Feature","geometry":{"type":"Point","coordinates":[13.1988245,-9.681762]},"properties":{"osm_id":1581793290,"osm_type":"node","seamark_type":"light_major","display_class":"LIGHTHOUSE","min_zoom":7,"importance":5,"name":"Cabo Ledo","ref":null,"common":{"name":"Cabo Ledo","type":"light_major"},"children":{"light":{"character":"Fl","colour":"white","group":"3","height":"102","period":"15","range":"17","reference":"D 5180","sequence":"0.5+(2.5)+0.5+(2.5)+0.5+(8.5)"}},"osm_tags":{"man_made":"lighthouse","name":"Farol do Cabo Ledo","seamark:light:character":"Fl","seamark:light:colour":"white","seamark:light:group":"3","seamark:light:height":"102","seamark:light:period":"15","seamark:light:range":"17","seamark:light:reference":"D 5180","seamark:light:sequence":"0.5+(2.5)+0.5+(2.5)+0.5+(8.5)","seamark:name":"Cabo Ledo","seamark:type":"light_major","source":"US NGA Pub. 113. 2011-10-20."}}}],"type":"FeatureCollection"}