{"type":"FeatureCollection","features":[{"type":"Feature","geometry":{"type":"Point","coordinates":[-77.1935729,-11.7731629]},"properties":{"osm_id":1658401972,"osm_type":"node","seamark_type":"light_major","display_class":"LIGHTHOUSE","min_zoom":7,"importance":5,"name":"Faro de Ancón","ref":null,"common":{"type":"light_major"},"children":{"light":{"character":"Fl","colour":"white","height":"172","period":"4","range":"17"}},"osm_tags":{"man_made":"lighthouse","name":"Faro de Ancón","seamark:light:character":"Fl","seamark:light:colour":"white","seamark:light:height":"172","seamark:light:period":"4","seamark:light:range":"17","seamark:type":"light_major"}}},{"type":"Feature","geometry":{"type":"Point","coordinates":[-77.139473,-11.9973039]},"properties":{"osm_id":5518561533,"osm_type":"node","seamark_type":"mooring","display_class":"OTHER","min_zoom":12,"importance":1,"name":null,"ref":null,"common":{"type":"mooring"},"children":{"mooring":{"category":"dolphin"}},"osm_tags":{"seamark:mooring:category":"dolphin","seamark:type":"mooring"}}},{"type":"Feature","geometry":{"type":"Point","coordinates":[-77.1392155,-11.998899]},"properties":{"osm_id":5518561534,"osm_type":"node","seamark_type":"mooring","display_class":"OTHER","min_zoom":12,"importance":1,"name":null,"ref":null,"common":{"type":"mooring"},"children":{"mooring":{"category":"dolphin"}},"osm_tags":{"seamark:mooring:category":"dolphin","seamark:type":"mooring"}}},{"type":"Feature","geometry":{"type":"Point","coordinates":[-77.1394301,-11.9995917]},"properties":{"osm_id":5518561535,"osm_type":"node","seamark_type":"mooring","display_class":"OTHER","min_zoom":12,"importance":1,"name":null,"ref":null,"common":{"type":"mooring"},"children":{"mooring":{"category":"dolphin"}},"osm_tags":{"seamark:mooring:category":"dolphin","seamark:type":"mooring"}}},{"type":"Feature","geometry":{"type":"Point","coordinates":[-77.1903598,-11.7739627]},"properties":{"osm_id":5520103767,"osm_type":"node","seamark_type":"landmark","display_class":"OTHER","min_zoom":12,"importance":1,"name":null,"ref":null,"common":{"type":"landmark"},"children":{"landmark":{"category":"mast","function":"radio"}},"osm_tags":{"seamark:landmark:category":"mast","seamark:landmark:function":"radio","seamark:type":"landmark"}}},{"type":"Feature","geometry":{"type":"Point","coordinates":[-77.1879888,-11.77015]},"properties":{"osm_id":5520103770,"osm_type":"node","seamark_type":"buoy_lateral","display_class":"OTHER","min_zoom":12,"importance":1,"name":null,"ref":null,"common":{"type":"buoy_lateral"},"children":{"buoy_lateral":{"category":"port","colour":"green","shape":"pillar","system":"iala-b"},"light":{"character":"Fl","colour":"white","group":"2","period":"4"}},"osm_tags":{"seamark:buoy_lateral:category":"port","seamark:buoy_lateral:colour":"green","seamark:buoy_lateral:shape":"pillar","seamark:buoy_lateral:system":"iala-b","seamark:light:character":"Fl","seamark:light:colour":"white","seamark:light:group":"2","seamark:light:period":"4","seamark:type":"buoy_lateral"}}},{"type":"Feature","geometry":{"type":"Point","coordinates":[-77.1970868,-11.7776283]},"properties":{"osm_id":5520103771,"osm_type":"node","seamark_type":"buoy_lateral","display_class":"OTHER","min_zoom":12,"importance":1,"name":null,"ref":null,"common":{"type":"buoy_lateral"},"children":{"buoy_lateral":{"category":"port","colour":"green","shape":"conical","system":"iala-b"}},"osm_tags":{"seamark:buoy_lateral:category":"port","seamark:buoy_lateral:colour":"green","seamark:buoy_lateral:shape":"conical","seamark:buoy_lateral:system":"iala-b","seamark:type":"buoy_lateral"}}},{"type":"Feature","geometry":{"type":"Point","coordinates":[-77.1839977,-11.7181541]},"properties":{"osm_id":5520103772,"osm_type":"node","seamark_type":"rock","display_class":"OTHER","min_zoom":12,"importance":1,"name":null,"ref":null,"common":{"type":"rock"},"children":{"rock":{"water_level":"awash"}},"osm_tags":{"seamark:rock:water_level":"awash","seamark:type":"rock"}}},{"type":"Feature","geometry":{"type":"Point","coordinates":[-77.1850491,-11.717986]},"properties":{"osm_id":5520103773,"osm_type":"node","seamark_type":"rock","display_class":"OTHER","min_zoom":12,"importance":1,"name":null,"ref":null,"common":{"type":"rock"},"children":{"rock":{"water_level":"awash"}},"osm_tags":{"seamark:rock:water_level":"awash","seamark:type":"rock"}}},{"type":"Feature","geometry":{"type":"Point","coordinates":[-77.1848774,-11.7164522]},"properties":{"osm_id":5520103774,"osm_type":"node","seamark_type":"rock","display_class":"OTHER","min_zoom":12,"importance":1,"name":null,"ref":null,"common":{"type":"rock"},"children":{"rock":{"water_level":"awash"}},"osm_tags":{"seamark:rock:water_level":"awash","seamark:type":"rock"}}},{"type":"Feature","geometry":{"type":"Point","coordinates":[-77.1747923,-11.7483024]},"properties":{"osm_id":5520103780,"osm_type":"node","seamark_type":"buoy_lateral","display_class":"OTHER","min_zoom":12,"importance":1,"name":null,"ref":null,"common":{"type":"buoy_lateral"},"children":{"buoy_lateral":{"category":"starboard","colour":"red","shape":"conical","system":"iala-b"}},"osm_tags":{"seamark:buoy_lateral:category":"starboard","seamark:buoy_lateral:colour":"red","seamark:buoy_lateral:shape":"conical","seamark:buoy_lateral:system":"iala-b","seamark:type":"buoy_lateral"}}},{"type":"Feature","geometry":{"type":"Point","coordinates":[-77.1739769,-11.7440587]},"properties":{"osm_id":5520103781,"osm_type":"node","seamark_type":"buoy_lateral","display_class":"OTHER","min_zoom":12,"importance":1,"name":null,"ref":null,"common":{"type":"buoy_lateral"},"children":{"buoy_lateral":{"category":"starboard","colour":"red","shape":"conical","system":"iala-b"}},"osm_tags":{"seamark:buoy_lateral:category":"starboard","seamark:buoy_lateral:colour":"red","seamark:buoy_lateral:shape":"conical","seamark:buoy_lateral:system":"iala-b","seamark:type":"buoy_lateral"}}},{"type":"Feature","geometry":{"type":"Point","coordinates":[-77.1829891,-11.7768931]},"properties":{"osm_id":5520104571,"osm_type":"node","seamark_type":"tank","display_class":"OTHER","min_zoom":12,"importance":1,"name":null,"ref":null,"common":{"type":"tank"},"children":{"tank":{"category":"water_tower"}},"osm_tags":{"seamark:tank:category":"water_tower","seamark:type":"tank"}}},{"type":"Feature","geometry":{"type":"Point","coordinates":[-77.1864867,-11.780443]},"properties":{"osm_id":5520104576,"osm_type":"node","seamark_type":"landmark","display_class":"OTHER","min_zoom":12,"importance":1,"name":null,"ref":null,"common":{"type":"landmark"},"children":{"landmark":{"category":"mast","function":"radio"}},"osm_tags":{"seamark:landmark:category":"mast","seamark:landmark:function":"radio","seamark:type":"landmark"}}},{"type":"Feature","geometry":{"type":"Point","coordinates":[-77.174213,-11.7391427]},"properties":{"osm_id":5520104633,"osm_type":"node","seamark_type":"buoy_lateral","display_class":"OTHER","min_zoom":12,"importance":1,"name":null,"ref":null,"common":{"type":"buoy_lateral"},"children":{"buoy_lateral":{"category":"starboard","colour":"red","shape":"conical","system":"iala-b"}},"osm_tags":{"seamark:buoy_lateral:category":"starboard","seamark:buoy_lateral:colour":"red","seamark:buoy_lateral:shape":"conical","seamark:buoy_lateral:system":"iala-b","seamark:type":"buoy_lateral"}}},{"type":"Feature","geometry":{"type":"Point","coordinates":[-77.287927,-11.5914698]},"properties":{"osm_id":12329096517,"osm_type":"node","seamark_type":"yes","display_class":"OTHER","min_zoom":12,"importance":1,"name":null,"ref":null,"common":{"type":"yes"},"children":{},"osm_tags":{"seamark:type":"yes"}}},{"type":"Feature","geometry":{"type":"Polygon","coordinates":[[[-77.2095323,-11.9869771],[-77.1928811,-11.9869351],[-77.1928168,-11.9965063],[-77.2095537,-11.9964643],[-77.2095323,-11.9869771]]]},"properties":{"osm_id":575043392,"osm_type":"way","seamark_type":"anchorage","display_class":"OTHER","min_zoom":12,"importance":1,"name":null,"ref":null,"common":{"information":"Seguridad Aislamiento y Cuarentena","type":"anchorage"},"children":{"anchorage":{"category":"quarantine"}},"osm_tags":{"seamark:anchorage:category":"quarantine","seamark:information":"Seguridad Aislamiento y Cuarentena","seamark:type":"anchorage"}}},{"type":"Feature","geometry":{"type":"Polygon","coordinates":[[[-77.2172141,-11.9869771],[-77.2171712,-11.9994447],[-77.2319341,-11.9994238],[-77.2318912,-11.9869771],[-77.2172141,-11.9869771]]]},"properties":{"osm_id":575043393,"osm_type":"way","seamark_type":"anchorage","display_class":"OTHER","min_zoom":12,"importance":1,"name":null,"ref":null,"common":{"information":"Embarcaciones Inoperativas en Situacion de Emergencia","type":"anchorage"},"children":{},"osm_tags":{"seamark:information":"Embarcaciones Inoperativas en Situacion de Emergencia","seamark:type":"anchorage"}}},{"type":"Feature","geometry":{"type":"LineString","coordinates":[[-77.1341944,-11.9839965],[-77.1492362,-11.9865783],[-77.158742,-11.9878797]]},"properties":{"osm_id":575043400,"osm_type":"way","seamark_type":"pipeline_submarine","display_class":"OTHER","min_zoom":12,"importance":1,"name":null,"ref":null,"common":{"type":"pipeline_submarine"},"children":{},"osm_tags":{"seamark:type":"pipeline_submarine"}}},{"type":"Feature","geometry":{"type":"LineString","coordinates":[[-77.1366406,-11.9961705],[-77.1687627,-11.993169]]},"properties":{"osm_id":575043401,"osm_type":"way","seamark_type":"pipeline_submarine","display_class":"OTHER","min_zoom":12,"importance":1,"name":null,"ref":null,"common":{"type":"pipeline_submarine"},"children":{},"osm_tags":{"seamark:type":"pipeline_submarine"}}},{"type":"Feature","geometry":{"type":"Polygon","coordinates":[[[-77.1473694,-11.991154],[-77.141726,-11.9919726],[-77.1440435,-12.0082179],[-77.1495795,-12.0074833],[-77.1473694,-11.991154]]]},"properties":{"osm_id":575043403,"osm_type":"way","seamark_type":"anchorage","display_class":"OTHER","min_zoom":12,"importance":1,"name":null,"ref":null,"common":{"information":"Embarcaciones Pesqueras Operativas en General","type":"anchorage"},"children":{},"osm_tags":{"seamark:information":"Embarcaciones Pesqueras Operativas en General","seamark:type":"anchorage"}}},{"type":"Feature","geometry":{"type":"Polygon","coordinates":[[[-77.1613169,-11.9910701],[-77.1613598,-11.9862634],[-77.1561885,-11.9863054],[-77.1561885,-11.9910491],[-77.1613169,-11.9910701]]]},"properties":{"osm_id":575043404,"osm_type":"way","seamark_type":"restricted_area","display_class":"OTHER","min_zoom":12,"importance":1,"name":null,"ref":null,"common":{"type":"restricted_area"},"children":{},"osm_tags":{"seamark:type":"restricted_area"}}},{"type":"Feature","geometry":{"type":"Polygon","coordinates":[[[-77.1696854,-11.9869771],[-77.1696639,-11.9964223],[-77.1840406,-11.9964853],[-77.1839977,-11.9869561],[-77.1696854,-11.9869771]]]},"properties":{"osm_id":575043406,"osm_type":"way","seamark_type":"anchorage","display_class":"OTHER","min_zoom":12,"importance":1,"name":null,"ref":null,"common":{"information":"Naves Propulsadas con Energia Nuclear","type":"anchorage"},"children":{},"osm_tags":{"seamark:information":"Naves Propulsadas con Energia Nuclear","seamark:type":"anchorage"}}},{"type":"Feature","geometry":{"type":"Polygon","coordinates":[[[-77.1992484,-11.7560126],[-77.2045767,-11.7857364],[-77.1871261,-11.8162197],[-77.2105995,-11.8315941],[-77.2744679,-11.8313246],[-77.273839,-11.7548207],[-77.1992484,-11.7560126]]]},"properties":{"osm_id":575226117,"osm_type":"way","seamark_type":"restricted_area","display_class":"OTHER","min_zoom":12,"importance":1,"name":null,"ref":null,"common":{"type":"restricted_area"},"children":{"restricted_area":{"category":"nature_reserve"}},"osm_tags":{"seamark:restricted_area:category":"nature_reserve","seamark:type":"restricted_area"}}},{"type":"Feature","geometry":{"type":"LineString","coordinates":[[-77.1710158,-11.7512225],[-77.18786,-11.7511595],[-77.1879029,-11.7366216],[-77.1702862,-11.7366216]]},"properties":{"osm_id":575226118,"osm_type":"way","seamark_type":"restricted_area","display_class":"OTHER","min_zoom":12,"importance":1,"name":null,"ref":null,"common":{"type":"restricted_area"},"children":{"restricted_area":{"restriction":"no_entry"}},"osm_tags":{"seamark:restricted_area:restriction":"no_entry","seamark:type":"restricted_area"}}},{"type":"Feature","geometry":{"type":"Point","coordinates":[-77.2689258,-11.5797959]},"properties":{"osm_id":11476886104,"osm_type":"node","seamark_type":"harbour","display_class":"OTHER","min_zoom":12,"importance":1,"name":"Capitanía del puerto de Chancay","ref":null,"common":{"type":"harbour"},"children":{"harbour":{"category":"marina"}},"osm_tags":{"leisure":"marina","name":"Capitanía del puerto de Chancay","name:es":"Capitanía del puerto de Chancay","seamark:harbour:category":"marina","seamark:type":"harbour"}}}],"type":"FeatureCollection"}