{"type":"FeatureCollection","features":[{"type":"Feature","geometry":{"type":"Point","coordinates":[-176.9625116,-11.148683]},"properties":{"osm_id":9222954011,"osm_type":"node","seamark_type":"obstruction","display_class":"OTHER","min_zoom":12,"importance":1,"name":null,"ref":null,"common":{"type":"obstruction"},"children":{"obstruction":{"water_level":"submerged"}},"osm_tags":{"depth":"15","depth:exposition":"shoaler","depth:source_quality":"not_confirmed","description":"(1968)","ref:linz:hydrographic_id":"3649817","seamark:obstruction:water_level":"submerged","seamark:type":"obstruction","source":"LINZ;New Zealand to Fiji and Sāmoa Islands (West) Chart;Chart NZ14605","source:date":"2007-07-01"}}}],"type":"FeatureCollection"}