{"type":"FeatureCollection","features":[{"type":"Feature","geometry":{"type":"Point","coordinates":[172.8341467,-12.3287071]},"properties":{"osm_id":9228745845,"osm_type":"node","seamark_type":"obstruction","display_class":"OTHER","min_zoom":12,"importance":1,"name":null,"ref":null,"common":{"type":"obstruction"},"children":{"obstruction":{"water_level":"submerged"}},"osm_tags":{"description":"(1945)","ref:linz:hydrographic_id":"3649693","seamark:obstruction:water_level":"submerged","seamark:type":"obstruction","source":"LINZ;New Zealand to Fiji and Sāmoa Islands (East) Chart;Chart NZ14605","source:date":"2007-07-01"}}},{"type":"Feature","geometry":{"type":"Point","coordinates":[172.2220993,-12.5549059]},"properties":{"osm_id":9228745846,"osm_type":"node","seamark_type":"obstruction","display_class":"OTHER","min_zoom":12,"importance":1,"name":null,"ref":null,"common":{"type":"obstruction"},"children":{"obstruction":{"water_level":"submerged"}},"osm_tags":{"depth":"24","depth:exposition":"shoaler","depth:source_quality":"not_confirmed","description":"(1978)","ref:linz:hydrographic_id":"3649696","seamark:obstruction:water_level":"submerged","seamark:type":"obstruction","source":"LINZ;New Zealand to Fiji and Sāmoa Islands (East) Chart;Chart NZ14605","source:date":"2007-07-01"}}},{"type":"Feature","geometry":{"type":"Point","coordinates":[172.1091008,-12.5013042]},"properties":{"osm_id":9228745847,"osm_type":"node","seamark_type":"obstruction","display_class":"OTHER","min_zoom":12,"importance":1,"name":null,"ref":null,"common":{"type":"obstruction"},"children":{"obstruction":{"water_level":"submerged"}},"osm_tags":{"depth":"20","depth:exposition":"shoaler","depth:source_quality":"not_confirmed","description":"(1944)","ref:linz:hydrographic_id":"3649705","seamark:obstruction:water_level":"submerged","seamark:type":"obstruction","source":"LINZ;New Zealand to Fiji and Sāmoa Islands (East) Chart;Chart NZ14605","source:date":"2007-07-01"}}},{"type":"Feature","geometry":{"type":"Point","coordinates":[172.0143895,-12.0505242]},"properties":{"osm_id":9228745849,"osm_type":"node","seamark_type":"obstruction","display_class":"OTHER","min_zoom":12,"importance":1,"name":null,"ref":null,"common":{"type":"obstruction"},"children":{"obstruction":{"water_level":"submerged"}},"osm_tags":{"depth":"31","depth:exposition":"shoaler","depth:source_quality":"not_confirmed","description":"(1944)","ref:linz:hydrographic_id":"3649680","seamark:obstruction:water_level":"submerged","seamark:type":"obstruction","source":"LINZ;New Zealand to Fiji and Sāmoa Islands (East) Chart;Chart NZ14605","source:date":"2007-07-01"}}},{"type":"Feature","geometry":{"type":"Point","coordinates":[172.0939042,-12.1735364]},"properties":{"osm_id":9228745848,"osm_type":"node","seamark_type":"obstruction","display_class":"OTHER","min_zoom":12,"importance":1,"name":"Pandora Bank","ref":null,"common":{"type":"obstruction"},"children":{"obstruction":{"water_level":"submerged"}},"osm_tags":{"depth":"20","depth:source_quality":"not_confirmed","description":"(1971)","name":"Pandora Bank","ref:linz:hydrographic_id":"3649707","seamark:obstruction:water_level":"submerged","seamark:type":"obstruction","source":"LINZ;New Zealand to Fiji and Sāmoa Islands (East) Chart;Chart NZ14605","source:date":"2007-07-01"}}}],"type":"FeatureCollection"}