{"type":"FeatureCollection","features":[{"type":"Feature","geometry":{"type":"Point","coordinates":[38.8824977,-17.2336265]},"properties":{"osm_id":1295699862,"osm_type":"node","seamark_type":"light_minor","display_class":"OTHER","min_zoom":12,"importance":1,"name":"Ilha do Fogo","ref":null,"common":{"name":"Ilha do Fogo","type":"light_minor"},"children":{"light":{"1:character":"Fl","1:colour":"white","1:height":"35","1:period":"12","1:range":"14","2:character":"Fl","2:colour":"red","2:height":"35","2:period":"12","2:range":"14","3:character":"Fl","3:colour":"green","3:height":"35","3:period":"12","3:range":"14","reference":"D 6580"}},"osm_tags":{"seamark:light:1:character":"Fl","seamark:light:1:colour":"white","seamark:light:1:height":"35","seamark:light:1:period":"12","seamark:light:1:range":"14","seamark:light:2:character":"Fl","seamark:light:2:colour":"red","seamark:light:2:height":"35","seamark:light:2:period":"12","seamark:light:2:range":"14","seamark:light:3:character":"Fl","seamark:light:3:colour":"green","seamark:light:3:height":"35","seamark:light:3:period":"12","seamark:light:3:range":"14","seamark:light:reference":"D 6580","seamark:name":"Ilha do Fogo","seamark:type":"light_minor","source":"US NGA Pub. 112. 2010-11-10."}}}],"type":"FeatureCollection"}