{"type":"FeatureCollection","features":[{"type":"Feature","geometry":{"type":"Point","coordinates":[146.1071307,-17.8499487]},"properties":{"osm_id":1191187817,"osm_type":"node","seamark_type":"light_minor","display_class":"OTHER","min_zoom":12,"importance":1,"name":"Bingil Bay","ref":null,"common":{"name":"Bingil Bay","type":"light_minor"},"children":{"light":{"character":"F","colour":"green","reference":"K 3137"}},"osm_tags":{"seamark:light:character":"F","seamark:light:colour":"green","seamark:light:reference":"K 3137","seamark:name":"Bingil Bay","seamark:type":"light_minor","source":"US NGA Pub. 111. 2010-09-02."}}},{"type":"Feature","geometry":{"type":"Point","coordinates":[146.1164249,-17.8534411]},"properties":{"osm_id":1191187837,"osm_type":"node","seamark_type":"light_minor","display_class":"OTHER","min_zoom":12,"importance":1,"name":"Clump Point","ref":null,"common":{"name":"Clump Point","type":"light_minor"},"children":{"light":{"character":"Fl","colour":"white","period":"2.5","reference":"K 3137.2"}},"osm_tags":{"seamark:light:character":"Fl","seamark:light:colour":"white","seamark:light:period":"2.5","seamark:light:reference":"K 3137.2","seamark:name":"Clump Point","seamark:type":"light_minor","source":"US NGA Pub. 111. 2010-09-02."}}},{"type":"Feature","geometry":{"type":"Point","coordinates":[146.1344184,-17.9332255]},"properties":{"osm_id":11142560626,"osm_type":"node","seamark_type":"buoy_special_purpose","display_class":"OTHER","min_zoom":12,"importance":1,"name":"FID 1","ref":null,"common":{"type":"buoy_special_purpose"},"children":{"buoy_special_purpose":{"category":"mooring","colour":"green","shape":"barrel"}},"osm_tags":{"description":"Location Dunk\nMSQ_Moorin 022\nLat_dDeg -17.9339\nLong_dDEG 146.1349\nMooring_cl B\nVesselSize 20\nDHAT_m 7.2\nDLAT_m 3.5","name":"FID 1","seamark:buoy_special_purpose:category":"mooring","seamark:buoy_special_purpose:colour":"green","seamark:buoy_special_purpose:shape":"barrel","seamark:type":"buoy_special_purpose"}}},{"type":"Feature","geometry":{"type":"Point","coordinates":[146.1368911,-17.9322472]},"properties":{"osm_id":11142560625,"osm_type":"node","seamark_type":"buoy_special_purpose","display_class":"OTHER","min_zoom":12,"importance":1,"name":"FID 5","ref":null,"common":{"type":"buoy_special_purpose"},"children":{"buoy_special_purpose":{"category":"mooring","colour":"green","shape":"barrel"}},"osm_tags":{"description":"Location Orpheus Pioneer (southern) 4\nMSQ_Moorin 883\nLat_dDeg -18.599917\nLong_dDEG 146.488917\nMooring_cl B\nVesselSize 20\nDHAT_m 11.6\nDLAT_m 7.1","name":"FID 5","seamark:buoy_special_purpose:category":"mooring","seamark:buoy_special_purpose:colour":"green","seamark:buoy_special_purpose:shape":"barrel","seamark:type":"buoy_special_purpose"}}},{"type":"Feature","geometry":{"type":"Point","coordinates":[146.0330486,-17.5240182]},"properties":{"osm_id":5528118098,"osm_type":"node","seamark_type":"harbour","display_class":"OTHER","min_zoom":12,"importance":1,"name":"Innisfail Wharf","ref":null,"common":{"type":"harbour"},"children":{"harbour":{"category":"marina"}},"osm_tags":{"leisure":"marina","name":"Innisfail Wharf","operator":"Cassowary Coast Regional Council","seamark:harbour:category":"marina","seamark:type":"harbour"}}}],"type":"FeatureCollection"}