{"type":"FeatureCollection","features":[{"type":"Feature","geometry":{"type":"Point","coordinates":[179.3427779,-18.1379072]},"properties":{"osm_id":9225927549,"osm_type":"node","seamark_type":"light_minor","display_class":"OTHER","min_zoom":12,"importance":1,"name":null,"ref":null,"common":{"type":"light_minor"},"children":{"light":{"character":"Fl","colour":"white","group":"1","height":"17","period":"6","range":"9"}},"osm_tags":{"height":"17","ref:linz:hydrographic_id":"3770974","seamark:light:character":"Fl","seamark:light:colour":"white","seamark:light:group":"1","seamark:light:height":"17","seamark:light:period":"6","seamark:light:range":"9","seamark:type":"light_minor","source":"LINZ;New Zealand to Fiji and Sāmoa Islands (East) Chart;Chart NZ14638","source:date":"1996-10-01"}}},{"type":"Feature","geometry":{"type":"Point","coordinates":[179.3292831,-18.2088822]},"properties":{"osm_id":9228757012,"osm_type":"node","seamark_type":"rock","display_class":"OTHER","min_zoom":12,"importance":1,"name":null,"ref":null,"common":{"type":"rock"},"children":{"rock":{"water_level":"covers"}},"osm_tags":{"depth:exposition":"shoaler","natural":"rock","ref:linz:hydrographic_id":"3636851","seamark:rock:water_level":"covers","seamark:type":"rock","source":"LINZ;New Zealand to Fiji and Sāmoa Islands (East) Chart;Chart NZ14605","source:date":"2007-07-01"}}},{"type":"Feature","geometry":{"type":"Point","coordinates":[179.8617167,-18.2163118]},"properties":{"osm_id":9228770630,"osm_type":"node","seamark_type":"obstruction","display_class":"OTHER","min_zoom":12,"importance":1,"name":null,"ref":null,"common":{"type":"obstruction"},"children":{"obstruction":{"water_level":"submerged"}},"osm_tags":{"depth":"18.3","depth:exposition":"shoaler","depth:source_quality":"not_confirmed","description":"(1983)","ref:linz:hydrographic_id":"3649712","seamark:obstruction:water_level":"submerged","seamark:type":"obstruction","source":"LINZ;New Zealand to Fiji and Sāmoa Islands (East) Chart;Chart NZ14638","source:date":"1996-10-01"}}},{"type":"Feature","geometry":{"type":"Point","coordinates":[179.1773254,-18.7771177]},"properties":{"osm_id":9244624302,"osm_type":"node","seamark_type":"obstruction","display_class":"OTHER","min_zoom":12,"importance":1,"name":null,"ref":null,"common":{"type":"obstruction"},"children":{"obstruction":{"water_level":"submerged"}},"osm_tags":{"depth:exposition":"shoaler","description":"Volcanic Activity Reported (2001)","ref:linz:hydrographic_id":"3830822","seamark:obstruction:water_level":"submerged","seamark:type":"obstruction","source":"LINZ;New Zealand to Fiji and Sāmoa Islands (East) Chart;NtM 34/2002","source:date":"2002-02-08"}}}],"type":"FeatureCollection"}