{"type":"FeatureCollection","features":[{"type":"Feature","geometry":{"type":"Point","coordinates":[-57.5160325,-18.580483]},"properties":{"osm_id":2124643346,"osm_type":"node","seamark_type":"landmark","display_class":"OTHER","min_zoom":12,"importance":1,"name":null,"ref":null,"common":{"type":"landmark"},"children":{"landmark":{"category":"mast"}},"osm_tags":{"man_made":"mast","seamark:landmark:category":"mast","seamark:type":"landmark","tower:construction":"freestanding","tower:type":"communication"}}},{"type":"Feature","geometry":{"type":"Point","coordinates":[-57.5142829,-18.5806578]},"properties":{"osm_id":2124643389,"osm_type":"node","seamark_type":"tank","display_class":"OTHER","min_zoom":12,"importance":1,"name":null,"ref":null,"common":{"type":"tank"},"children":{"tank":{"category":"water_tower"}},"osm_tags":{"man_made":"water_tower","seamark:tank:category":"water_tower","seamark:type":"tank"}}},{"type":"Feature","geometry":{"type":"Point","coordinates":[-57.5157657,-18.6255788]},"properties":{"osm_id":2124643392,"osm_type":"node","seamark_type":"tank","display_class":"OTHER","min_zoom":12,"importance":1,"name":null,"ref":null,"common":{"type":"tank"},"children":{"tank":{"category":"water_tower"}},"osm_tags":{"man_made":"water_tower","seamark:tank:category":"water_tower","seamark:type":"tank"}}},{"type":"Feature","geometry":{"type":"Point","coordinates":[-57.6451244,-18.9945365]},"properties":{"osm_id":2124643502,"osm_type":"node","seamark_type":"landmark","display_class":"OTHER","min_zoom":12,"importance":1,"name":null,"ref":null,"common":{"type":"landmark"},"children":{"landmark":{"category":"chimney"}},"osm_tags":{"man_made":"chimney","seamark:landmark:category":"chimney","seamark:type":"landmark"}}},{"type":"Feature","geometry":{"type":"Point","coordinates":[-57.6599313,-18.9945912]},"properties":{"osm_id":2124643503,"osm_type":"node","seamark_type":"light_minor","display_class":"OTHER","min_zoom":12,"importance":1,"name":null,"ref":null,"common":{"type":"light_minor"},"children":{"light":{"character":"Q","colour":"white","range":"6"}},"osm_tags":{"seamark:light:character":"Q","seamark:light:colour":"white","seamark:light:range":"6","seamark:type":"light_minor"}}},{"type":"Feature","geometry":{"type":"Point","coordinates":[-57.5938274,-18.9991757]},"properties":{"osm_id":2124643593,"osm_type":"node","seamark_type":"wreck","display_class":"OTHER","min_zoom":12,"importance":1,"name":null,"ref":null,"common":{"type":"wreck"},"children":{"wreck":{"category":"hull_showing"}},"osm_tags":{"historic":"wreck","seamark:type":"wreck","seamark:wreck:category":"hull_showing"}}},{"type":"Feature","geometry":{"type":"Point","coordinates":[-57.6271813,-18.9993996]},"properties":{"osm_id":2124643656,"osm_type":"node","seamark_type":"tank","display_class":"OTHER","min_zoom":12,"importance":1,"name":null,"ref":null,"common":{"type":"tank"},"children":{"tank":{"category":"water_tower"}},"osm_tags":{"man_made":"water_tower","seamark:tank:category":"water_tower","seamark:type":"tank"}}},{"type":"Feature","geometry":{"type":"Point","coordinates":[-57.6350144,-18.9770227]},"properties":{"osm_id":2129508356,"osm_type":"node","seamark_type":"notice","display_class":"OTHER","min_zoom":12,"importance":1,"name":null,"ref":null,"common":{"type":"notice"},"children":{"notice":{"1:bank":"left","1:category":"keep_to_mid-river","1:function":"regulation","1:impact":"downstream","1:system":"ppwbc","2:bank":"left","2:category":"keep_to_mid-river","2:function":"regulation","2:impact":"upstream","2:system":"ppwbc","bank":"left","function":"regulation","system":"ppwbc"}},"osm_tags":{"seamark:notice:1:bank":"left","seamark:notice:1:category":"keep_to_mid-river","seamark:notice:1:function":"regulation","seamark:notice:1:impact":"downstream","seamark:notice:1:system":"ppwbc","seamark:notice:2:bank":"left","seamark:notice:2:category":"keep_to_mid-river","seamark:notice:2:function":"regulation","seamark:notice:2:impact":"upstream","seamark:notice:2:system":"ppwbc","seamark:notice:bank":"left","seamark:notice:function":"regulation","seamark:notice:system":"ppwbc","seamark:type":"notice"}}},{"type":"Feature","geometry":{"type":"Point","coordinates":[-57.6527058,-18.98483]},"properties":{"osm_id":2129508438,"osm_type":"node","seamark_type":"notice","display_class":"OTHER","min_zoom":12,"importance":1,"name":null,"ref":null,"common":{"type":"notice"},"children":{"notice":{"1:bank":"left","1:category":"keep_to_mid-river","1:function":"regulation","1:impact":"downstream","1:system":"ppwbc","2:bank":"left","2:category":"keep_to_mid-river","2:function":"regulation","2:impact":"upstream","2:system":"ppwbc","bank":"left","function":"regulation","system":"ppwbc"}},"osm_tags":{"seamark:notice:1:bank":"left","seamark:notice:1:category":"keep_to_mid-river","seamark:notice:1:function":"regulation","seamark:notice:1:impact":"downstream","seamark:notice:1:system":"ppwbc","seamark:notice:2:bank":"left","seamark:notice:2:category":"keep_to_mid-river","seamark:notice:2:function":"regulation","seamark:notice:2:impact":"upstream","seamark:notice:2:system":"ppwbc","seamark:notice:bank":"left","seamark:notice:function":"regulation","seamark:notice:system":"ppwbc","seamark:type":"notice"}}},{"type":"Feature","geometry":{"type":"Point","coordinates":[-57.6612807,-18.992028]},"properties":{"osm_id":2129508470,"osm_type":"node","seamark_type":"notice","display_class":"OTHER","min_zoom":12,"importance":1,"name":null,"ref":null,"common":{"type":"notice"},"children":{"notice":{"1:bank":"right","1:category":"keep_to_mid-river","1:function":"regulation","1:impact":"upstream","1:system":"ppwbc","2:bank":"right","2:category":"cross_river_to_port","2:function":"regulation","2:impact":"downstream","2:system":"ppwbc","bank":"right","function":"regulation","system":"ppwbc"}},"osm_tags":{"seamark:notice:1:bank":"right","seamark:notice:1:category":"keep_to_mid-river","seamark:notice:1:function":"regulation","seamark:notice:1:impact":"upstream","seamark:notice:1:system":"ppwbc","seamark:notice:2:bank":"right","seamark:notice:2:category":"cross_river_to_port","seamark:notice:2:function":"regulation","seamark:notice:2:impact":"downstream","seamark:notice:2:system":"ppwbc","seamark:notice:bank":"right","seamark:notice:function":"regulation","seamark:notice:system":"ppwbc","seamark:type":"notice"}}},{"type":"Feature","geometry":{"type":"Point","coordinates":[-57.6378247,-18.9936401]},"properties":{"osm_id":2129508632,"osm_type":"node","seamark_type":"notice","display_class":"OTHER","min_zoom":12,"importance":1,"name":null,"ref":null,"common":{"type":"notice"},"children":{"notice":{"1:bank":"left","1:category":"keep_to_mid-river","1:function":"regulation","1:impact":"upstream","1:system":"ppwbc","2:bank":"left","2:category":"keep_to_mid-river","2:function":"regulation","2:impact":"downstream","2:system":"ppwbc","bank":"left","function":"regulation","system":"ppwbc"}},"osm_tags":{"seamark:notice:1:bank":"left","seamark:notice:1:category":"keep_to_mid-river","seamark:notice:1:function":"regulation","seamark:notice:1:impact":"upstream","seamark:notice:1:system":"ppwbc","seamark:notice:2:bank":"left","seamark:notice:2:category":"keep_to_mid-river","seamark:notice:2:function":"regulation","seamark:notice:2:impact":"downstream","seamark:notice:2:system":"ppwbc","seamark:notice:bank":"left","seamark:notice:function":"regulation","seamark:notice:system":"ppwbc","seamark:type":"notice"}}},{"type":"Feature","geometry":{"type":"Point","coordinates":[-57.6565022,-18.993994]},"properties":{"osm_id":2129508702,"osm_type":"node","seamark_type":"notice","display_class":"OTHER","min_zoom":12,"importance":1,"name":null,"ref":null,"common":{"type":"notice"},"children":{"notice":{"1:bank":"left","1:category":"keep_to_starboard_margin","1:function":"regulation","1:impact":"upstream","1:system":"ppwbc","2:bank":"left","2:category":"keep_to_mid-river","2:function":"regulation","2:impact":"downstream","2:system":"ppwbc","bank":"left","function":"regulation","system":"ppwbc"}},"osm_tags":{"seamark:notice:1:bank":"left","seamark:notice:1:category":"keep_to_starboard_margin","seamark:notice:1:function":"regulation","seamark:notice:1:impact":"upstream","seamark:notice:1:system":"ppwbc","seamark:notice:2:bank":"left","seamark:notice:2:category":"keep_to_mid-river","seamark:notice:2:function":"regulation","seamark:notice:2:impact":"downstream","seamark:notice:2:system":"ppwbc","seamark:notice:bank":"left","seamark:notice:function":"regulation","seamark:notice:system":"ppwbc","seamark:type":"notice"}}},{"type":"Feature","geometry":{"type":"Point","coordinates":[-57.64278,-18.9944373]},"properties":{"osm_id":2129508863,"osm_type":"node","seamark_type":"notice","display_class":"OTHER","min_zoom":12,"importance":1,"name":null,"ref":null,"common":{"type":"notice"},"children":{"notice":{"1:bank":"right","1:category":"keep_to_mid-river","1:function":"regulation","1:impact":"downstream","1:system":"ppwbc","2:bank":"right","2:category":"cross_river_to_starboard","2:function":"regulation","2:impact":"upstream","2:system":"ppwbc","bank":"right","function":"regulation","system":"ppwbc"}},"osm_tags":{"seamark:notice:1:bank":"right","seamark:notice:1:category":"keep_to_mid-river","seamark:notice:1:function":"regulation","seamark:notice:1:impact":"downstream","seamark:notice:1:system":"ppwbc","seamark:notice:2:bank":"right","seamark:notice:2:category":"cross_river_to_starboard","seamark:notice:2:function":"regulation","seamark:notice:2:impact":"upstream","seamark:notice:2:system":"ppwbc","seamark:notice:bank":"right","seamark:notice:function":"regulation","seamark:notice:system":"ppwbc","seamark:type":"notice"}}},{"type":"Feature","geometry":{"type":"Point","coordinates":[-57.6558101,-18.9964479]},"properties":{"osm_id":2129509033,"osm_type":"node","seamark_type":"notice","display_class":"OTHER","min_zoom":12,"importance":1,"name":null,"ref":null,"common":{"type":"notice"},"children":{"notice":{"1:bank":"right","1:category":"keep_to_mid-river","1:function":"regulation","1:impact":"upstream","1:system":"ppwbc","2:bank":"right","2:category":"cross_river_to_port","2:function":"regulation","2:impact":"downstream","2:system":"ppwbc","bank":"right","function":"regulation","system":"ppwbc"}},"osm_tags":{"seamark:notice:1:bank":"right","seamark:notice:1:category":"keep_to_mid-river","seamark:notice:1:function":"regulation","seamark:notice:1:impact":"upstream","seamark:notice:1:system":"ppwbc","seamark:notice:2:bank":"right","seamark:notice:2:category":"cross_river_to_port","seamark:notice:2:function":"regulation","seamark:notice:2:impact":"downstream","seamark:notice:2:system":"ppwbc","seamark:notice:bank":"right","seamark:notice:function":"regulation","seamark:notice:system":"ppwbc","seamark:type":"notice"}}},{"type":"Feature","geometry":{"type":"Point","coordinates":[-57.5938126,-18.9986231]},"properties":{"osm_id":2129509113,"osm_type":"node","seamark_type":"notice","display_class":"OTHER","min_zoom":12,"importance":1,"name":null,"ref":null,"common":{"type":"notice"},"children":{"notice":{"1:bank":"left","1:category":"cross_river_to_port","1:function":"regulation","1:impact":"upstream","1:system":"ppwbc","2:bank":"left","2:category":"keep_to_port_margin","2:function":"regulation","2:impact":"downstream","2:system":"ppwbc","bank":"left","function":"regulation","system":"ppwbc"}},"osm_tags":{"seamark:notice:1:bank":"left","seamark:notice:1:category":"cross_river_to_port","seamark:notice:1:function":"regulation","seamark:notice:1:impact":"upstream","seamark:notice:1:system":"ppwbc","seamark:notice:2:bank":"left","seamark:notice:2:category":"keep_to_port_margin","seamark:notice:2:function":"regulation","seamark:notice:2:impact":"downstream","seamark:notice:2:system":"ppwbc","seamark:notice:bank":"left","seamark:notice:function":"regulation","seamark:notice:system":"ppwbc","seamark:type":"notice"}}},{"type":"Feature","geometry":{"type":"Point","coordinates":[-57.6272543,-18.9989419]},"properties":{"osm_id":2129509114,"osm_type":"node","seamark_type":"notice","display_class":"OTHER","min_zoom":12,"importance":1,"name":null,"ref":null,"common":{"type":"notice"},"children":{"notice":{"1:bank":"right","1:category":"keep_to_starboard_margin","1:function":"regulation","1:impact":"downstream","1:system":"ppwbc","2:bank":"right","2:category":"keep_to_mid-river","2:function":"regulation","2:impact":"upstream","2:system":"ppwbc","bank":"right","function":"regulation","system":"ppwbc"}},"osm_tags":{"seamark:notice:1:bank":"right","seamark:notice:1:category":"keep_to_starboard_margin","seamark:notice:1:function":"regulation","seamark:notice:1:impact":"downstream","seamark:notice:1:system":"ppwbc","seamark:notice:2:bank":"right","seamark:notice:2:category":"keep_to_mid-river","seamark:notice:2:function":"regulation","seamark:notice:2:impact":"upstream","seamark:notice:2:system":"ppwbc","seamark:notice:bank":"right","seamark:notice:function":"regulation","seamark:notice:system":"ppwbc","seamark:type":"notice"}}},{"type":"Feature","geometry":{"type":"Point","coordinates":[-57.6219438,-18.9993158]},"properties":{"osm_id":2129509115,"osm_type":"node","seamark_type":"notice","display_class":"OTHER","min_zoom":12,"importance":1,"name":null,"ref":null,"common":{"type":"notice"},"children":{"notice":{"1:bank":"right","1:category":"keep_to_port_margin","1:function":"regulation","1:impact":"upstream","1:system":"ppwbc","2:bank":"right","2:category":"keep_to_mid-river","2:function":"regulation","2:impact":"downstream","2:system":"ppwbc","bank":"right","function":"regulation","system":"ppwbc"}},"osm_tags":{"seamark:notice:1:bank":"right","seamark:notice:1:category":"keep_to_port_margin","seamark:notice:1:function":"regulation","seamark:notice:1:impact":"upstream","seamark:notice:1:system":"ppwbc","seamark:notice:2:bank":"right","seamark:notice:2:category":"keep_to_mid-river","seamark:notice:2:function":"regulation","seamark:notice:2:impact":"downstream","seamark:notice:2:system":"ppwbc","seamark:notice:bank":"right","seamark:notice:function":"regulation","seamark:notice:system":"ppwbc","seamark:type":"notice"}}},{"type":"Feature","geometry":{"type":"Point","coordinates":[-57.6600509,-18.9943969]},"properties":{"osm_id":2900088568,"osm_type":"node","seamark_type":"bridge","display_class":"OTHER","min_zoom":12,"importance":1,"name":null,"ref":null,"common":{"type":"bridge"},"children":{"bridge":{"clearance_height":"15"}},"osm_tags":{"maxheight:marine":"15","seamark:bridge:clearance_height":"15","seamark:type":"bridge"}}},{"type":"Feature","geometry":{"type":"Point","coordinates":[-57.7033108,-18.9919276]},"properties":{"osm_id":6422045816,"osm_type":"node","seamark_type":"buoy_lateral","display_class":"OTHER","min_zoom":12,"importance":1,"name":null,"ref":null,"common":{"type":"buoy_lateral"},"children":{},"osm_tags":{"seamark:type":"buoy_lateral"}}},{"type":"Feature","geometry":{"type":"Point","coordinates":[-57.7031234,-18.9924083]},"properties":{"osm_id":6422045817,"osm_type":"node","seamark_type":"buoy_lateral","display_class":"OTHER","min_zoom":12,"importance":1,"name":null,"ref":null,"common":{"type":"buoy_lateral"},"children":{},"osm_tags":{"seamark:type":"buoy_lateral"}}},{"type":"Feature","geometry":{"type":"Point","coordinates":[-57.7034942,-18.9922043]},"properties":{"osm_id":6435103428,"osm_type":"node","seamark_type":"radar_station","display_class":"OTHER","min_zoom":12,"importance":1,"name":null,"ref":null,"common":{"type":"radar_station"},"children":{},"osm_tags":{"man_made":"tower","seamark:type":"radar_station","tower:type":"radar"}}},{"type":"Feature","geometry":{"type":"Point","coordinates":[-57.51497,-18.5804404]},"properties":{"osm_id":7698463665,"osm_type":"node","seamark_type":"tank","display_class":"OTHER","min_zoom":12,"importance":1,"name":null,"ref":null,"common":{"type":"tank"},"children":{"tank":{"category":"water_tower"}},"osm_tags":{"man_made":"water_tower","seamark:tank:category":"water_tower","seamark:type":"tank"}}},{"type":"Feature","geometry":{"type":"LineString","coordinates":[[-57.6306876,-18.9983525],[-57.6310292,-18.9982913],[-57.6315538,-18.9981938],[-57.6320967,-18.9980783],[-57.6321913,-18.9980561],[-57.6322301,-18.9980434],[-57.6322462,-18.9980225]]},"properties":{"osm_id":151555342,"osm_type":"way","seamark_type":"berth","display_class":"OTHER","min_zoom":12,"importance":1,"name":null,"ref":null,"common":{"type":"berth"},"children":{},"osm_tags":{"man_made":"pier","mooring":"yes","seamark:type":"berth"}}},{"type":"Feature","geometry":{"type":"LineString","coordinates":[[-57.660233,-18.9937493],[-57.6592808,-18.9968635]]},"properties":{"osm_id":202500199,"osm_type":"way","seamark_type":"pipeline_overhead","display_class":"OTHER","min_zoom":12,"importance":1,"name":null,"ref":null,"common":{"information":"Advise: It is mandatory to lower masts on vessels with airdraft over 15 meters when passing Corumbá Aquaduct.","national_information":"Advertência: Recomenda-se aos navegantes a obrigatoriedade do rebatimento dos mastros das embarcações, que possuirem mais de 15 metros de altura, durante passagem sob o aquaduto de Corumbá.","type":"pipeline_overhead"},"children":{},"osm_tags":{"access":"private","bridge":"yes","diameter":"600","highway":"service","layer":"1","location":"overhead","man_made":"pipeline","operator":"Sanesul","seamark:information":"Advise: It is mandatory to lower masts on vessels with airdraft over 15 meters when passing Corumbá Aquaduct.","seamark:national_information":"Advertência: Recomenda-se aos navegantes a obrigatoriedade do rebatimento dos mastros das embarcações, que possuirem mais de 15 metros de altura, durante passagem sob o aquaduto de Corumbá.","seamark:type":"pipeline_overhead","substance":"water"}}},{"type":"Feature","geometry":{"type":"Polygon","coordinates":[[[-57.651471,-18.9950583],[-57.6516517,-18.9952656],[-57.6517,-18.995228],[-57.6515193,-18.9950206],[-57.651471,-18.9950583]]]},"properties":{"osm_id":210853669,"osm_type":"way","seamark_type":"small_craft_facility","display_class":"OTHER","min_zoom":12,"importance":1,"name":null,"ref":null,"common":{"type":"small_craft_facility"},"children":{"small_craft_facility":{"category":"fuel_station"}},"osm_tags":{"addr:street":"Rua Mariano Cavassa","building":"transportation","seamark:small_craft_facility:category":"fuel_station","seamark:type":"small_craft_facility","waterway":"fuel"}}},{"type":"Feature","geometry":{"type":"LineString","coordinates":[[-57.3695454,-18.1579075],[-57.36945,-18.158695]]},"properties":{"osm_id":292066245,"osm_type":"way","seamark_type":"berth","display_class":"OTHER","min_zoom":12,"importance":1,"name":null,"ref":null,"common":{"type":"berth"},"children":{},"osm_tags":{"man_made":"pier","seamark:type":"berth"}}},{"type":"Feature","geometry":{"type":"LineString","coordinates":[[-57.6293404,-18.9985262],[-57.6291082,-18.9985525],[-57.628754,-18.9985925],[-57.6283647,-18.9986365],[-57.6278241,-18.9986867],[-57.6273461,-18.99872]]},"properties":{"osm_id":292103732,"osm_type":"way","seamark_type":"berth","display_class":"OTHER","min_zoom":12,"importance":1,"name":null,"ref":null,"common":{"type":"berth"},"children":{},"osm_tags":{"man_made":"pier","seamark:type":"berth"}}},{"type":"Feature","geometry":{"type":"LineString","coordinates":[[-57.6196035,-18.9992022],[-57.6190037,-18.9992149]]},"properties":{"osm_id":292103733,"osm_type":"way","seamark_type":"berth","display_class":"OTHER","min_zoom":12,"importance":1,"name":null,"ref":null,"common":{"type":"berth"},"children":{},"osm_tags":{"man_made":"pier","seamark:type":"berth"}}},{"type":"Feature","geometry":{"type":"LineString","coordinates":[[-57.6574681,-18.9963296],[-57.6555548,-18.9962735]]},"properties":{"osm_id":846494980,"osm_type":"way","seamark_type":"berth","display_class":"OTHER","min_zoom":12,"importance":1,"name":null,"ref":null,"common":{"type":"berth"},"children":{},"osm_tags":{"man_made":"quay","seamark:type":"berth"}}},{"type":"Feature","geometry":{"type":"Point","coordinates":[-57.6521483,-18.9931105]},"properties":{"osm_id":2124643393,"osm_type":"node","seamark_type":"light_minor","display_class":"OTHER","min_zoom":12,"importance":1,"name":"Farolete Balduino","ref":null,"common":{"name":"Farolete Balduino","type":"light_minor"},"children":{"light":{"character":"Fl","colour":"green","height":"9","period":"4","range":"7"}},"osm_tags":{"seamark:light:character":"Fl","seamark:light:colour":"green","seamark:light:height":"9","seamark:light:period":"4","seamark:light:range":"7","seamark:name":"Farolete Balduino","seamark:type":"light_minor"}}},{"type":"Feature","geometry":{"type":"Point","coordinates":[-57.6519882,-18.9913371]},"properties":{"osm_id":2129508469,"osm_type":"node","seamark_type":"notice","display_class":"OTHER","min_zoom":12,"importance":1,"name":"Farolete Balduino Inferior","ref":null,"common":{"name":"Farolete Balduino Inferior","type":"notice"},"children":{"light":{"character":"Fl","colour":"red","height":"9","period":"4","range":"9"},"notice":{"1:bank":"left","1:category":"cross_river_to_port","1:function":"regulation","1:impact":"upstream","1:system":"ppwbc","2:bank":"left","2:category":"keep_to_port_margin","2:function":"regulation","2:impact":"downstream","2:system":"ppwbc","bank":"left","function":"regulation","system":"ppwbc"}},"osm_tags":{"seamark:light:character":"Fl","seamark:light:colour":"red","seamark:light:height":"9","seamark:light:period":"4","seamark:light:range":"9","seamark:name":"Farolete Balduino Inferior","seamark:notice:1:bank":"left","seamark:notice:1:category":"cross_river_to_port","seamark:notice:1:function":"regulation","seamark:notice:1:impact":"upstream","seamark:notice:1:system":"ppwbc","seamark:notice:2:bank":"left","seamark:notice:2:category":"keep_to_port_margin","seamark:notice:2:function":"regulation","seamark:notice:2:impact":"downstream","seamark:notice:2:system":"ppwbc","seamark:notice:bank":"left","seamark:notice:function":"regulation","seamark:notice:system":"ppwbc","seamark:type":"notice"}}},{"type":"Feature","geometry":{"type":"Point","coordinates":[-57.5427467,-18.7343616]},"properties":{"osm_id":2126007581,"osm_type":"node","seamark_type":"harbour","display_class":"OTHER","min_zoom":12,"importance":1,"name":"Porto Barraqueirinho","ref":null,"common":{"name":"Porto Barraqueirinho","type":"harbour"},"children":{},"osm_tags":{"harbour":"yes","name":"Porto Barraqueirinho","place":"isolated_dwelling","seamark:name":"Porto Barraqueirinho","seamark:type":"harbour"}}},{"type":"Feature","geometry":{"type":"Point","coordinates":[-57.3694728,-18.1581061]},"properties":{"osm_id":2126007596,"osm_type":"node","seamark_type":"harbour","display_class":"OTHER","min_zoom":12,"importance":1,"name":"Porto Chané","ref":null,"common":{"name":"Porto Chané","type":"harbour"},"children":{},"osm_tags":{"harbour":"yes","name":"Porto Chané","place":"isolated_dwelling","seamark:name":"Porto Chané","seamark:type":"harbour"}}},{"type":"Feature","geometry":{"type":"Point","coordinates":[-57.3921803,-18.4817528]},"properties":{"osm_id":2126007597,"osm_type":"node","seamark_type":"harbour","display_class":"OTHER","min_zoom":12,"importance":1,"name":"Porto Esperança","ref":null,"common":{"name":"Porto Esperança","type":"harbour"},"children":{},"osm_tags":{"harbour":"yes","name":"Porto Esperança","place":"isolated_dwelling","seamark:name":"Porto Esperança","seamark:type":"harbour"}}},{"type":"Feature","geometry":{"type":"Point","coordinates":[-57.4824915,-18.5758921]},"properties":{"osm_id":2126007713,"osm_type":"node","seamark_type":"harbour","display_class":"OTHER","min_zoom":12,"importance":1,"name":"Porto Fadango","ref":null,"common":{"name":"Porto Fadango","type":"harbour"},"children":{},"osm_tags":{"alt_name":"São Benedito ou Gertrudes","harbour":"yes","name":"Porto Fadango","place":"isolated_dwelling","seamark:name":"Porto Fadango","seamark:type":"harbour"}}},{"type":"Feature","geometry":{"type":"Point","coordinates":[-57.6538834,-18.9965692]},"properties":{"osm_id":2208922362,"osm_type":"node","seamark_type":"harbour","display_class":"OTHER","min_zoom":12,"importance":1,"name":"Porto Geral","ref":null,"common":{"name":"Porto Geral","type":"harbour"},"children":{},"osm_tags":{"alt_name":"Porto de Corumbá","harbour":"yes","leisure":"marina","name":"Porto Geral","official_name":"Porto Geral de Corumbá","seamark:name":"Porto Geral","seamark:type":"harbour","wikipedia":"pt:Porto de Corumbá"}}},{"type":"Feature","geometry":{"type":"Point","coordinates":[-57.4388322,-18.5516879]},"properties":{"osm_id":2126007598,"osm_type":"node","seamark_type":"harbour","display_class":"OTHER","min_zoom":12,"importance":1,"name":"Porto Laranjeirinha","ref":null,"common":{"name":"Porto Laranjeirinha","type":"harbour"},"children":{},"osm_tags":{"harbour":"yes","name":"Porto Laranjeirinha","place":"isolated_dwelling","seamark:name":"Porto Laranjeirinha","seamark:type":"harbour"}}},{"type":"Feature","geometry":{"type":"Point","coordinates":[-57.6337923,-18.8486209]},"properties":{"osm_id":2126007600,"osm_type":"node","seamark_type":"harbour","display_class":"OTHER","min_zoom":12,"importance":1,"name":"Porto Piuval","ref":null,"common":{"name":"Porto Piuval","type":"harbour"},"children":{},"osm_tags":{"harbour":"yes","name":"Porto Piuval","place":"isolated_dwelling","seamark:name":"Porto Piuval","seamark:type":"harbour"}}},{"type":"Feature","geometry":{"type":"Point","coordinates":[-57.5399506,-18.6629068]},"properties":{"osm_id":2126007601,"osm_type":"node","seamark_type":"harbour","display_class":"OTHER","min_zoom":12,"importance":1,"name":"Porto Salviano","ref":null,"common":{"name":"Porto Salviano","type":"harbour"},"children":{},"osm_tags":{"harbour":"yes","name":"Porto Salviano","place":"isolated_dwelling","seamark:name":"Porto Salviano","seamark:type":"harbour"}}},{"type":"Feature","geometry":{"type":"Point","coordinates":[-57.3783287,-18.3916705]},"properties":{"osm_id":2126007602,"osm_type":"node","seamark_type":"harbour","display_class":"OTHER","min_zoom":12,"importance":1,"name":"Porto Santa Tereza","ref":null,"common":{"name":"Porto Santa Tereza","type":"harbour"},"children":{},"osm_tags":{"harbour":"yes","name":"Porto Santa Tereza","place":"isolated_dwelling","seamark:name":"Porto Santa Tereza","seamark:type":"harbour"}}},{"type":"Feature","geometry":{"type":"Point","coordinates":[-57.5570825,-18.7309772]},"properties":{"osm_id":2126007610,"osm_type":"node","seamark_type":"harbour","display_class":"OTHER","min_zoom":12,"importance":1,"name":"Porto Saracura","ref":null,"common":{"name":"Porto Saracura","type":"harbour"},"children":{},"osm_tags":{"harbour":"yes","name":"Porto Saracura","place":"isolated_dwelling","seamark:name":"Porto Saracura","seamark:type":"harbour"}}},{"type":"Feature","geometry":{"type":"Point","coordinates":[-57.3906543,-18.3926825]},"properties":{"osm_id":2126007706,"osm_type":"node","seamark_type":"harbour","display_class":"OTHER","min_zoom":12,"importance":1,"name":"Porto São Francisco","ref":null,"common":{"name":"Porto São Francisco","type":"harbour"},"children":{},"osm_tags":{"harbour":"yes","name":"Porto São Francisco","place":"isolated_dwelling","seamark:name":"Porto São Francisco","seamark:type":"harbour"}}},{"type":"Feature","geometry":{"type":"Point","coordinates":[-57.3833591,-18.1674131]},"properties":{"osm_id":2126007707,"osm_type":"node","seamark_type":"harbour","display_class":"OTHER","min_zoom":12,"importance":1,"name":"Porto São Pedro","ref":null,"common":{"name":"Porto São Pedro","type":"harbour"},"children":{},"osm_tags":{"harbour":"yes","name":"Porto São Pedro","place":"isolated_dwelling","seamark:name":"Porto São Pedro","seamark:type":"harbour"}}},{"type":"Feature","geometry":{"type":"Point","coordinates":[-57.4336539,-18.5133257]},"properties":{"osm_id":2126007711,"osm_type":"node","seamark_type":"harbour","display_class":"OTHER","min_zoom":12,"importance":1,"name":"Porto do Mucaino","ref":null,"common":{"name":"Porto do Mucaino","type":"harbour"},"children":{},"osm_tags":{"harbour":"yes","name":"Porto do Mucaino","place":"isolated_dwelling","seamark:name":"Porto do Mucaino","seamark:type":"harbour"}}},{"type":"Feature","geometry":{"type":"Point","coordinates":[-57.6308278,-18.9984848]},"properties":{"osm_id":2124643528,"osm_type":"node","seamark_type":"small_craft_facility","display_class":"OTHER","min_zoom":12,"importance":1,"name":"Posto Limoeiro","ref":null,"common":{"type":"small_craft_facility"},"children":{"small_craft_facility":{"category":"fuel_station"}},"osm_tags":{"amenity":"fuel","name":"Posto Limoeiro","seamark:small_craft_facility:category":"fuel_station","seamark:type":"small_craft_facility","waterway":"fuel"}}}],"type":"FeatureCollection"}