{"type":"FeatureCollection","features":[{"type":"Feature","geometry":{"type":"Point","coordinates":[-159.8001108,-18.8649988]},"properties":{"osm_id":11834101658,"osm_type":"node","seamark_type":"beacon_special_purpose","display_class":"BEACON","min_zoom":9,"importance":4,"name":null,"ref":null,"common":{"type":"beacon_special_purpose"},"children":{"beacon_special_purpose":{"colour":"white","shape":"pole"},"light":{"category":"front","character":"F","colour":"blue","exhibition":"occasional","reference":"K 4571"},"topmark":{"colour":"orange","shape":"triangle, point up"}},"osm_tags":{"seamark:beacon_special_purpose:colour":"white","seamark:beacon_special_purpose:shape":"pole","seamark:light:category":"front","seamark:light:character":"F","seamark:light:colour":"blue","seamark:light:exhibition":"occasional","seamark:light:reference":"K 4571","seamark:topmark:colour":"orange","seamark:topmark:shape":"triangle, point up","seamark:type":"beacon_special_purpose","source":"US NGA Pub. 111. 2024-04-13."}}},{"type":"Feature","geometry":{"type":"Point","coordinates":[-159.7984989,-18.8670127]},"properties":{"osm_id":11834101659,"osm_type":"node","seamark_type":"beacon_special_purpose","display_class":"BEACON","min_zoom":9,"importance":4,"name":null,"ref":null,"common":{"type":"beacon_special_purpose"},"children":{"beacon_special_purpose":{"colour":"white","shape":"pole"},"light":{"category":"rear","character":"F","colour":"blue","exhibition":"occasional","reference":"K 4571.10"},"topmark":{"colour":"orange","shape":"triangle, point up"}},"osm_tags":{"seamark:beacon_special_purpose:colour":"white","seamark:beacon_special_purpose:shape":"pole","seamark:light:category":"rear","seamark:light:character":"F","seamark:light:colour":"blue","seamark:light:exhibition":"occasional","seamark:light:reference":"K 4571.10","seamark:topmark:colour":"orange","seamark:topmark:shape":"triangle, point up","seamark:type":"beacon_special_purpose","source":"US NGA Pub. 111. 2024-04-13."}}},{"type":"Feature","geometry":{"type":"Point","coordinates":[-159.7802977,-18.8386303]},"properties":{"osm_id":2936635064,"osm_type":"node","seamark_type":"beacon_special_purpose","display_class":"BEACON","min_zoom":9,"importance":4,"name":"Aitutaki Atoll","ref":null,"common":{"information":"3 F.R. (vert.) 8M on tower 0.9 mile NNE. 3 F.R. (horiz.) 6M 1 mile NE","name":"Aitutaki Atoll","type":"beacon_special_purpose"},"children":{"beacon_special_purpose":{"colour":"red;white","construction":"framework","height":"4.9","shape":"tower"},"light":{"character":"Fl","colour":"white","group":"2","height":"129","period":"9","range":"7","reference":"K 4570","sequence":"0.5+(1)+0.5+(7)"}},"osm_tags":{"man_made":"mast","seamark:beacon_special_purpose:colour":"red;white","seamark:beacon_special_purpose:construction":"framework","seamark:beacon_special_purpose:height":"4.9","seamark:beacon_special_purpose:shape":"tower","seamark:information":"3 F.R. (vert.) 8M on tower 0.9 mile NNE. 3 F.R. (horiz.) 6M 1 mile NE","seamark:light:character":"Fl","seamark:light:colour":"white","seamark:light:group":"2","seamark:light:height":"129","seamark:light:period":"9","seamark:light:range":"7","seamark:light:reference":"K 4570","seamark:light:sequence":"0.5+(1)+0.5+(7)","seamark:name":"Aitutaki Atoll","seamark:type":"beacon_special_purpose","source":"US NGA Pub. 111. 2024-04-13."}}},{"type":"Feature","geometry":{"type":"Polygon","coordinates":[[[-159.7335369,-18.9076183],[-159.7325458,-18.9085512],[-159.7396537,-18.9154306],[-159.738376,-18.9184667],[-159.7356851,-18.9191555],[-159.7365246,-18.9221477],[-159.7370868,-18.9220182],[-159.7355728,-18.9259396],[-159.7348707,-18.9256888],[-159.733215,-18.9299491],[-159.7375562,-18.9314623],[-159.7391995,-18.9272737],[-159.7387563,-18.9270966],[-159.7410883,-18.9209856],[-159.7621771,-18.9156203],[-159.7623952,-18.9163888],[-159.766986,-18.915202],[-159.7656812,-18.9106739],[-159.7610088,-18.9118768],[-159.7612171,-18.9126717],[-159.742471,-18.9174513],[-159.7479387,-18.9033671],[-159.748378,-18.9035115],[-159.7500657,-18.8991548],[-159.7457493,-18.8976311],[-159.7439893,-18.9021549],[-159.7446857,-18.9024087],[-159.7401739,-18.913909],[-159.7336007,-18.9075583],[-159.7335369,-18.9076183]]]},"properties":{"osm_id":998313203,"osm_type":"way","seamark_type":"seaplane_landing_area","display_class":"OTHER","min_zoom":12,"importance":1,"name":null,"ref":null,"common":{"type":"seaplane_landing_area"},"children":{},"osm_tags":{"ref:linz:hydrographic_id":"4392548","seamark:type":"seaplane_landing_area","source":"LINZ;Aitutaki Chart;Chart NZ955","source:date":"1993-10-01"}}},{"type":"Feature","geometry":{"type":"Point","coordinates":[-159.7952325,-18.8556631]},"properties":{"osm_id":9270804149,"osm_type":"node","seamark_type":"signal_station_warning","display_class":"OTHER","min_zoom":12,"importance":1,"name":"Aitutaki","ref":null,"common":{"type":"signal_station_warning"},"children":{"signal_station_warning":{"category":"tide_gauge"}},"osm_tags":{"fixme":"not exact location","int_ref":"6603","man_made":"monitoring_station","monitoring:tide_gauge":"yes","name":"Aitutaki","ref:linz:hydrographic_id":"tg1229","seamark:signal_station_warning:category":"tide_gauge","seamark:type":"signal_station_warning","source":"LINZ","website":"https://data.linz.govt.nz/layer/52101"}}}],"type":"FeatureCollection"}