{"type":"FeatureCollection","features":[{"type":"Feature","geometry":{"type":"Point","coordinates":[146.8808836,-19.1280443]},"properties":{"osm_id":4750787846,"osm_type":"node","seamark_type":"wreck","display_class":"OTHER","min_zoom":12,"importance":1,"name":null,"ref":null,"common":{"type":"wreck"},"children":{},"osm_tags":{"historic":"wreck","seamark:type":"wreck"}}},{"type":"Feature","geometry":{"type":"Point","coordinates":[146.8296919,-19.2497179]},"properties":{"osm_id":9954269004,"osm_type":"node","seamark_type":"buoy_lateral","display_class":"OTHER","min_zoom":12,"importance":1,"name":null,"ref":null,"common":{"type":"buoy_lateral"},"children":{"buoy_lateral":{"colour":"green"}},"osm_tags":{"seamark:buoy_lateral:colour":"green","seamark:type":"buoy_lateral"}}},{"type":"Feature","geometry":{"type":"Point","coordinates":[146.8303855,-19.2497545]},"properties":{"osm_id":9954269005,"osm_type":"node","seamark_type":"buoy_lateral","display_class":"OTHER","min_zoom":12,"importance":1,"name":null,"ref":null,"common":{"type":"buoy_lateral"},"children":{"buoy_lateral":{"colour":"red"}},"osm_tags":{"seamark:buoy_lateral:colour":"red","seamark:type":"buoy_lateral"}}},{"type":"Feature","geometry":{"type":"Point","coordinates":[146.8358216,-19.2445856]},"properties":{"osm_id":12099718777,"osm_type":"node","seamark_type":"berth","display_class":"OTHER","min_zoom":12,"importance":1,"name":"1","ref":null,"common":{"name":"1","type":"berth"},"children":{},"osm_tags":{"name":"Berth 1","seamark:name":"1","seamark:type":"berth","source":"https://www.townsville-port.com.au/operations/shipping/berths-capability/"}}},{"type":"Feature","geometry":{"type":"Point","coordinates":[146.8308338,-19.2511076]},"properties":{"osm_id":2430651616,"osm_type":"node","seamark_type":"berth","display_class":"OTHER","min_zoom":12,"importance":1,"name":"10","ref":null,"common":{"name":"10","type":"berth"},"children":{},"osm_tags":{"name":"Berth 10","seamark:name":"10","seamark:type":"berth","source":"https://www.townsville-port.com.au/operations/shipping/berths-capability/"}}},{"type":"Feature","geometry":{"type":"Point","coordinates":[146.8317817,-19.2515082]},"properties":{"osm_id":12099718772,"osm_type":"node","seamark_type":"berth","display_class":"OTHER","min_zoom":12,"importance":1,"name":"11","ref":null,"common":{"name":"11","type":"berth"},"children":{},"osm_tags":{"name":"Berth 11","seamark:name":"11","seamark:type":"berth","source":"https://www.townsville-port.com.au/operations/shipping/berths-capability/"}}},{"type":"Feature","geometry":{"type":"Point","coordinates":[146.8375171,-19.2423151]},"properties":{"osm_id":12099718778,"osm_type":"node","seamark_type":"berth","display_class":"OTHER","min_zoom":12,"importance":1,"name":"11","ref":null,"common":{"name":"11","type":"berth"},"children":{},"osm_tags":{"name":"Berth 11","seamark:name":"11","seamark:type":"berth","source":"https://www.townsville-port.com.au/operations/shipping/berths-capability/"}}},{"type":"Feature","geometry":{"type":"Point","coordinates":[146.8365456,-19.2459885]},"properties":{"osm_id":12099718776,"osm_type":"node","seamark_type":"berth","display_class":"OTHER","min_zoom":12,"importance":1,"name":"2","ref":null,"common":{"name":"2","type":"berth"},"children":{},"osm_tags":{"name":"Berth 2","seamark:name":"2","seamark:type":"berth","source":"https://www.townsville-port.com.au/operations/shipping/berths-capability/"}}},{"type":"Feature","geometry":{"type":"Point","coordinates":[146.835778,-19.2481124]},"properties":{"osm_id":12099718775,"osm_type":"node","seamark_type":"berth","display_class":"OTHER","min_zoom":12,"importance":1,"name":"3","ref":null,"common":{"name":"3","type":"berth"},"children":{},"osm_tags":{"name":"Berth 3","seamark:name":"3","seamark:type":"berth","source":"https://www.townsville-port.com.au/operations/shipping/berths-capability/"}}},{"type":"Feature","geometry":{"type":"Point","coordinates":[146.8346891,-19.2511251]},"properties":{"osm_id":12099718774,"osm_type":"node","seamark_type":"berth","display_class":"OTHER","min_zoom":12,"importance":1,"name":"4","ref":null,"common":{"name":"4","type":"berth"},"children":{},"osm_tags":{"name":"Berth 4","seamark:name":"4","seamark:type":"berth","source":"https://www.townsville-port.com.au/operations/shipping/berths-capability/"}}},{"type":"Feature","geometry":{"type":"Point","coordinates":[146.8327069,-19.2519283]},"properties":{"osm_id":12099718773,"osm_type":"node","seamark_type":"berth","display_class":"OTHER","min_zoom":12,"importance":1,"name":"8","ref":null,"common":{"name":"8","type":"berth"},"children":{},"osm_tags":{"name":"Berth 8","seamark:name":"8","seamark:type":"berth","source":"https://www.townsville-port.com.au/operations/shipping/berths-capability/"}}},{"type":"Feature","geometry":{"type":"Polygon","coordinates":[[[146.8230112,-19.2512565],[146.821289,-19.2539522],[146.8239075,-19.2550698],[146.8239151,-19.2550582],[146.8239904,-19.2549437],[146.8240825,-19.2548026],[146.8241076,-19.2547656],[146.8241362,-19.2547221],[146.8242594,-19.2545347],[146.8243134,-19.2544525],[146.8245986,-19.2540189],[146.8246111,-19.2539999],[146.8246546,-19.2539728],[146.8246873,-19.2539816],[146.8250406,-19.254077],[146.8251728,-19.2541127],[146.8255039,-19.2542112],[146.8255538,-19.254226],[146.8255963,-19.2541887],[146.8255791,-19.254131],[146.8257198,-19.2539346],[146.8257805,-19.2538498],[146.8258861,-19.2538158],[146.8263269,-19.2531964],[146.8263172,-19.2531271],[146.8247949,-19.2516748],[146.8243,-19.25137],[146.824096,-19.2512439],[146.8236682,-19.2509634],[146.8232988,-19.2507161],[146.8230222,-19.2511281],[146.8230463,-19.2511578],[146.8230464,-19.2511933],[146.8230112,-19.2512565]]]},"properties":{"osm_id":502651532,"osm_type":"way","seamark_type":"harbour","display_class":"OTHER","min_zoom":12,"importance":1,"name":"Breakwater Marina","ref":null,"common":{"type":"harbour"},"children":{"harbour":{"category":"marina"}},"osm_tags":{"leisure":"marina","name":"Breakwater Marina","seamark:harbour:category":"marina","seamark:type":"harbour"}}},{"type":"Feature","geometry":{"type":"Point","coordinates":[146.8692449,-19.1548293]},"properties":{"osm_id":11142491589,"osm_type":"node","seamark_type":"buoy_special_purpose","display_class":"OTHER","min_zoom":12,"importance":1,"name":"FID 16","ref":null,"common":{"type":"buoy_special_purpose"},"children":{"buoy_special_purpose":{"category":"mooring","colour":"orange","shape":"barrel"}},"osm_tags":{"description":"Location Magnetic Island (Motlke/ Geoffrey Bay)\nMSQ_Moorin\nMooring_cl T\nVesselSize 6\nDHAT_m 8.5\nDLAT_m 5","name":"FID 16","seamark:buoy_special_purpose:category":"mooring","seamark:buoy_special_purpose:colour":"orange","seamark:buoy_special_purpose:shape":"barrel","seamark:type":"buoy_special_purpose"}}},{"type":"Feature","geometry":{"type":"Point","coordinates":[146.8782594,-19.1295735]},"properties":{"osm_id":11142491590,"osm_type":"node","seamark_type":"buoy_special_purpose","display_class":"OTHER","min_zoom":12,"importance":1,"name":"FID 17","ref":null,"common":{"type":"buoy_special_purpose"},"children":{"buoy_special_purpose":{"category":"mooring","colour":"yellow","shape":"barrel"}},"osm_tags":{"description":"Location Magnetic Island (Arthur Bay)\nMSQ_Moorin 952\nLat_dDeg -19.12959\nLong_dDEG 146.8781\nMooring_cl A\nVesselSize 10\nDHAT_m 8.6\nDLAT_m 4.4","name":"FID 17","seamark:buoy_special_purpose:category":"mooring","seamark:buoy_special_purpose:colour":"yellow","seamark:buoy_special_purpose:shape":"barrel","seamark:type":"buoy_special_purpose"}}},{"type":"Feature","geometry":{"type":"Point","coordinates":[146.8828226,-19.1218774]},"properties":{"osm_id":11142491593,"osm_type":"node","seamark_type":"buoy_special_purpose","display_class":"OTHER","min_zoom":12,"importance":1,"name":"FID 18","ref":null,"common":{"type":"buoy_special_purpose"},"children":{"buoy_special_purpose":{"category":"mooring","colour":"yellow","shape":"barrel"}},"osm_tags":{"description":"Location Magnetic Island (Florence Bay outside)\nMSQ_Moorin 951\nLat_dDeg -19.12212\nLong_dDEG 146.88229\nMooring_cl B\nVesselSize 20\nDHAT_m 12.6\nDLAT_m 8.4","name":"FID 18","seamark:buoy_special_purpose:category":"mooring","seamark:buoy_special_purpose:colour":"yellow","seamark:buoy_special_purpose:shape":"barrel","seamark:type":"buoy_special_purpose"}}},{"type":"Feature","geometry":{"type":"Point","coordinates":[146.8802176,-19.1232017]},"properties":{"osm_id":11142491591,"osm_type":"node","seamark_type":"buoy_special_purpose","display_class":"OTHER","min_zoom":12,"importance":1,"name":"FID 19","ref":null,"common":{"type":"buoy_special_purpose"},"children":{"buoy_special_purpose":{"category":"mooring","colour":"yellow","shape":"barrel"}},"osm_tags":{"description":"Location Magnetic Island (Florence Bay inside)\nMSQ_Moorin 950\nLat_dDeg -19.12294\nLong_dDEG 146.88017\nMooring_cl A\nVesselSize 10\nDHAT_m 7.6\nDLAT_m 3.4","name":"FID 19","seamark:buoy_special_purpose:category":"mooring","seamark:buoy_special_purpose:colour":"yellow","seamark:buoy_special_purpose:shape":"barrel","seamark:type":"buoy_special_purpose"}}},{"type":"Feature","geometry":{"type":"Point","coordinates":[146.8817421,-19.1224832]},"properties":{"osm_id":11142491592,"osm_type":"node","seamark_type":"buoy_special_purpose","display_class":"OTHER","min_zoom":12,"importance":1,"name":"FID 20","ref":null,"common":{"type":"buoy_special_purpose"},"children":{"buoy_special_purpose":{"category":"mooring","colour":"green","shape":"barrel"}},"osm_tags":{"description":"Location Magnetic Island (Florence Bay middle)\nMSQ_Moorin 949\nLat_dDeg -19.12268\nLong_dDEG 146.88112\nMooring_cl B\nVesselSize 20\nDHAT_m 9.9\nDLAT_m 5.7","name":"FID 20","seamark:buoy_special_purpose:category":"mooring","seamark:buoy_special_purpose:colour":"green","seamark:buoy_special_purpose:shape":"barrel","seamark:type":"buoy_special_purpose"}}},{"type":"Feature","geometry":{"type":"Point","coordinates":[146.8681711,-19.1541883]},"properties":{"osm_id":4737428511,"osm_type":"node","seamark_type":"wreck","display_class":"OTHER","min_zoom":12,"importance":1,"name":"Moltke","ref":null,"common":{"type":"wreck"},"children":{},"osm_tags":{"historic":"wreck","name":"Moltke","seamark:type":"wreck","wikidata":"Q6896871","wikipedia":"en:Moltke (1870)"}}},{"type":"Feature","geometry":{"type":"Point","coordinates":[146.8539622,-19.159794]},"properties":{"osm_id":4738967694,"osm_type":"node","seamark_type":"harbour","display_class":"OTHER","min_zoom":12,"importance":1,"name":"Nelly Bay Marina","ref":null,"common":{"type":"harbour"},"children":{"harbour":{"category":"marina"}},"osm_tags":{"leisure":"marina","name":"Nelly Bay Marina","seamark:harbour:category":"marina","seamark:type":"harbour"}}},{"type":"Feature","geometry":{"type":"Polygon","coordinates":[[[146.8425049,-19.1795002],[146.8424325,-19.1794696],[146.8423632,-19.179458],[146.8422869,-19.1794973],[146.8423254,-19.1795344],[146.8424179,-19.1795504],[146.842501,-19.1795271],[146.8425049,-19.1795002]]]},"properties":{"osm_id":1304519659,"osm_type":"way","seamark_type":"wreck","display_class":"OTHER","min_zoom":12,"importance":1,"name":"PS George Rennie","ref":null,"common":{"type":"wreck"},"children":{"wreck":{"category":"hull_showing"}},"osm_tags":{"access":"yes","historic":"wreck","name":"PS George Rennie","note":"https://en.wikipedia.org/wiki/PS_George_Rennie","seamark:type":"wreck","seamark:wreck:category":"hull_showing","wikidata":"Q11700091","wikipedia":"en:PS George Rennie","wreck:date_sunk":"1902","wreck:visible_at_high_tide":"no","wreck:visible_at_low_tide":"yes"}}},{"type":"Feature","geometry":{"type":"Point","coordinates":[146.8301942,-19.2512173]},"properties":{"osm_id":1191188171,"osm_type":"node","seamark_type":"light_minor","display_class":"OTHER","min_zoom":12,"importance":1,"name":"Platypus Channel","ref":null,"common":{"information":"F.W. by day.","name":"Platypus Channel","type":"light_minor"},"children":{"light":{"1:category":"lower","1:character":"F","1:colour":"blue","2:category":"lower","2:character":"Q","2:colour":"red","3:category":"lower","3:character":"Iso","3:colour":"white","3:period":"4","reference":"K 3100"}},"osm_tags":{"seamark:information":"F.W. by day.","seamark:light:1:category":"lower","seamark:light:1:character":"F","seamark:light:1:colour":"blue","seamark:light:2:category":"lower","seamark:light:2:character":"Q","seamark:light:2:colour":"red","seamark:light:3:category":"lower","seamark:light:3:character":"Iso","seamark:light:3:colour":"white","seamark:light:3:period":"4","seamark:light:reference":"K 3100","seamark:name":"Platypus Channel","seamark:type":"light_minor","source":"US NGA Pub. 111. 2010-09-02."}}},{"type":"Feature","geometry":{"type":"Polygon","coordinates":[[[146.8257152,-19.1748335],[146.8257134,-19.1748807],[146.8256151,-19.1748828],[146.8255042,-19.1748826],[146.8253177,-19.1748598],[146.8251964,-19.1748332],[146.8251099,-19.1748072],[146.8250187,-19.1747654],[146.825242,-19.1747667],[146.8253767,-19.1747705],[146.8255927,-19.1748092],[146.8257152,-19.1748335]]]},"properties":{"osm_id":919263086,"osm_type":"way","seamark_type":"wreck","display_class":"OTHER","min_zoom":12,"importance":1,"name":"SS City of Adelaide","ref":null,"common":{"type":"wreck"},"children":{"wreck":{"category":"hull_visible"}},"osm_tags":{"access":"no","historic":"wreck","name":"SS City of Adelaide","seamark:type":"wreck","seamark:wreck:category":"hull_visible","wikidata":"Q7393369","wikipedia":"en:SS City of Adelaide (1863)","wreck:date_sunk":"1916","wreck:visible_at_high_tide":"yes","wreck:visible_at_low_tide":"yes"}}},{"type":"Feature","geometry":{"type":"Polygon","coordinates":[[[146.8306983,-19.2721478],[146.8327952,-19.2717446],[146.832557,-19.2721334],[146.8323793,-19.2723917],[146.832363,-19.2724155],[146.8323823,-19.2724415],[146.8320248,-19.2729446],[146.8319169,-19.273169],[146.8318694,-19.2731794],[146.8317628,-19.2733832],[146.8317799,-19.2733917],[146.8316642,-19.273571],[146.8314986,-19.2736923],[146.8313949,-19.2737135],[146.8313834,-19.2737006],[146.8313084,-19.2737002],[146.8312887,-19.2737142],[146.8310942,-19.2737471],[146.830956,-19.273783],[146.8309773,-19.2738895],[146.8310155,-19.2738947],[146.8310412,-19.274004],[146.8309783,-19.2741278],[146.8310817,-19.2741739],[146.8310096,-19.2743024],[146.8310018,-19.2743162],[146.8309767,-19.2743154],[146.8308717,-19.2745168],[146.8308827,-19.2745371],[146.8307465,-19.2747281],[146.8303579,-19.2751207],[146.8302479,-19.2751376],[146.8293563,-19.2744941],[146.8291958,-19.2745375],[146.8287255,-19.2749959],[146.8286094,-19.2750152],[146.8284357,-19.2747825],[146.8283934,-19.2740984],[146.8283721,-19.2738234],[146.8284283,-19.2737475],[146.8283524,-19.2735083],[146.8283509,-19.2730958],[146.828187,-19.2726246],[146.8286189,-19.272511],[146.828654,-19.2726519],[146.8286636,-19.2726907],[146.8288545,-19.2730781],[146.8291827,-19.2730067],[146.8295446,-19.2733155],[146.8295078,-19.2731062],[146.8299702,-19.2730042],[146.8303143,-19.2728964],[146.8308293,-19.2727637],[146.8306983,-19.2721478]]]},"properties":{"osm_id":1093027882,"osm_type":"way","seamark_type":"harbour","display_class":"OTHER","min_zoom":12,"importance":1,"name":"Townsville Recreational Boating Park","ref":null,"common":{"type":"harbour"},"children":{"harbour":{"category":"marina"}},"osm_tags":{"area":"yes","leisure":"marina","name":"Townsville Recreational Boating Park","seamark:harbour:category":"marina","seamark:type":"harbour"}}}],"type":"FeatureCollection"}