{"type":"FeatureCollection","features":[{"type":"Feature","geometry":{"type":"Point","coordinates":[177.9775406,-19.303628]},"properties":{"osm_id":9244624301,"osm_type":"node","seamark_type":"obstruction","display_class":"OTHER","min_zoom":12,"importance":1,"name":null,"ref":null,"common":{"type":"obstruction"},"children":{"obstruction":{"water_level":"submerged"}},"osm_tags":{"depth":"148","depth:exposition":"shoaler","depth:source_quality":"not_confirmed","description":"(1974)","ref:linz:hydrographic_id":"3830832","seamark:obstruction:water_level":"submerged","seamark:type":"obstruction","source":"LINZ;New Zealand to Fiji and Sāmoa Islands (East) Chart;Chart NZ14638","source:date":"1996-10-01"}}},{"type":"Feature","geometry":{"type":"Point","coordinates":[177.9551902,-19.1093272]},"properties":{"osm_id":1195391793,"osm_type":"node","seamark_type":"light_minor","display_class":"OTHER","min_zoom":12,"importance":1,"name":"Cape Washington","ref":null,"common":{"information":"Obscured by shore N. of 007°.","name":"Cape Washington","type":"light_minor"},"children":{"light":{"character":"Fl","colour":"white","group":"1","height":"63","period":"5","range":"11","reference":"K 4662","sequence":"1+(4)"}},"osm_tags":{"description":"Obscured by land when bearing less than 007°","height":"63","name":"Cape Washington","ref:linz:hydrographic_id":"3770970","seamark:information":"Obscured by shore N. of 007°.","seamark:light:character":"Fl","seamark:light:colour":"white","seamark:light:group":"1","seamark:light:height":"63","seamark:light:period":"5","seamark:light:range":"11","seamark:light:reference":"K 4662","seamark:light:sequence":"1+(4)","seamark:name":"Cape Washington","seamark:type":"light_minor","source":"US NGA Pub. 111. 2010-09-02.;LINZ;New Zealand to Fiji and Sāmoa Islands (East) Chart;Chart NZ14638","source:date":"1996-10-01"}}}],"type":"FeatureCollection"}