{"type":"FeatureCollection","features":[{"type":"Feature","geometry":{"type":"LineString","coordinates":[[57.4972721,-20.1558292],[57.4966371,-20.1560465],[57.4819279,-20.1461054],[57.4768638,-20.1399207],[57.4730872,-20.1263823],[57.4736022,-20.0847119],[57.4763487,-20.0467395],[57.499523,-19.9770593],[57.5278469,-19.9204213],[57.7118679,-19.7818879],[59.7271674,-19.533902],[61.457514,-19.4251485],[62.8747531,-19.4381018],[63.1130212,-19.4620598],[63.3440777,-19.5125504],[63.4065625,-19.5701418],[63.431625,-19.6406471],[63.4293937,-19.6583497],[63.4271729,-19.6679983],[63.4271192,-19.670322],[63.4268725,-19.671009],[63.4253436,-19.6723324],[63.421433,-19.6751712],[63.4207731,-19.6778029],[63.4201536,-19.6789445],[63.41977,-19.6800708],[63.420033,-19.6807316]]},"properties":{"osm_id":962188737,"osm_type":"way","seamark_type":"ferry_route","display_class":"OTHER","min_zoom":12,"importance":1,"name":"Port Mathurin – Port Louis","ref":null,"common":{"type":"ferry_route"},"children":{},"osm_tags":{"duration":"37:00","name":"Port Mathurin – Port Louis","operator":"Mauritius Shipping Corporation Ltd","route":"ferry","seamark:type":"ferry_route"}}}],"type":"FeatureCollection"}