{"type":"FeatureCollection","features":[{"type":"Feature","geometry":{"type":"Polygon","coordinates":[[[164.942929,-20.6921831],[164.9430012,-20.6916753],[164.9431239,-20.6916826],[164.9430372,-20.692199],[164.942929,-20.6921831]]]},"properties":{"osm_id":75403668,"osm_type":"way","seamark_type":"harbour","display_class":"OTHER","min_zoom":12,"importance":1,"name":"Marina de Hienghène","ref":null,"common":{"type":"harbour"},"children":{"harbour":{"category":"marina"}},"osm_tags":{"leisure":"marina","name":"Marina de Hienghène","seamark:harbour:category":"marina","seamark:type":"harbour"}}}],"type":"FeatureCollection"}