{"type":"FeatureCollection","features":[{"type":"Feature","geometry":{"type":"Point","coordinates":[-70.1574272,-20.2003885]},"properties":{"osm_id":7556546819,"osm_type":"node","seamark_type":"light_major","display_class":"LIGHTHOUSE","min_zoom":7,"importance":5,"name":null,"ref":null,"common":{"type":"light_major"},"children":{"light":{"1:character":"Fl","1:colour":"red","1:height":"19","1:period":"10","1:range":"14","1:sequence":"0.3+(9.7)","reference":"G 1968"}},"osm_tags":{"man_made":"lighthouse","seamark:light:1:character":"Fl","seamark:light:1:colour":"red","seamark:light:1:height":"19","seamark:light:1:period":"10","seamark:light:1:range":"14","seamark:light:1:sequence":"0.3+(9.7)","seamark:light:reference":"G 1968","seamark:type":"light_major"}}},{"type":"Feature","geometry":{"type":"Point","coordinates":[-70.1604476,-20.2076134]},"properties":{"osm_id":7010177311,"osm_type":"node","seamark_type":"light_major","display_class":"LIGHTHOUSE","min_zoom":7,"importance":5,"name":"Faro Serrano","ref":null,"common":{"type":"light_major"},"children":{"light":{"1:character":"Fl","1:colour":"white","1:height":"39","1:period":"12","1:range":"19","1:sequence":"0.3+(11.7)","reference":"G 1974.3"}},"osm_tags":{"man_made":"lighthouse","name":"Faro Serrano","seamark:light:1:character":"Fl","seamark:light:1:colour":"white","seamark:light:1:height":"39","seamark:light:1:period":"12","seamark:light:1:range":"19","seamark:light:1:sequence":"0.3+(11.7)","seamark:light:reference":"G 1974.3","seamark:type":"light_major","source":"US NGA Pub. 111. 2010-09-02.","wikidata":"Q5856334","wikipedia":"es:Faro Serrano"}}},{"type":"Feature","geometry":{"type":"Point","coordinates":[-70.1966507,-20.7505865]},"properties":{"osm_id":12745417120,"osm_type":"node","seamark_type":"beacon_lateral","display_class":"BEACON","min_zoom":9,"importance":4,"name":"Punta Patillos","ref":null,"common":{"name":"Punta Patillos","type":"beacon_lateral"},"children":{"beacon_lateral":{"colour":"white;red;white","colour_pattern":"horizontal","shape":"pile"},"light":{"1:character":"Fl","1:colour":"white","1:height":"40","1:period":"5","1:range":"13","1:sector_end":"186","1:sector_start":"73","2:character":"Fl","2:colour":"white","2:height":"40","2:period":"5","2:range":"13","2:sector_end":"63","2:sector_start":"348","reference":"G1963"},"radio_station":{"category":"ais"}},"osm_tags":{"seamark:beacon_lateral:colour":"white;red;white","seamark:beacon_lateral:colour_pattern":"horizontal","seamark:beacon_lateral:shape":"pile","seamark:light:1:character":"Fl","seamark:light:1:colour":"white","seamark:light:1:height":"40","seamark:light:1:period":"5","seamark:light:1:range":"13","seamark:light:1:sector_end":"186","seamark:light:1:sector_start":"73","seamark:light:2:character":"Fl","seamark:light:2:colour":"white","seamark:light:2:height":"40","seamark:light:2:period":"5","seamark:light:2:range":"13","seamark:light:2:sector_end":"63","seamark:light:2:sector_start":"348","seamark:light:reference":"G1963","seamark:name":"Punta Patillos","seamark:radio_station:category":"ais","seamark:type":"beacon_lateral"}}},{"type":"Feature","geometry":{"type":"Point","coordinates":[-70.1995912,-20.8066457]},"properties":{"osm_id":12747954855,"osm_type":"node","seamark_type":"beacon_special_purpose","display_class":"BEACON","min_zoom":9,"importance":4,"name":"Terminal Maritimo Front","ref":null,"common":{"name":"Terminal Maritimo Front","type":"beacon_special_purpose"},"children":{"beacon_lateral":{"shape":"pile"},"beacon_special_purpose":{"category":"leading"},"light":{"1:character":"F","1:colour":"white","1:orientation":"181","reference":"G1962.6"},"topmark":{"colour":"white;red;white","colour_pattern":"vertical","shape":"cone, point up"}},"osm_tags":{"seamark:beacon_lateral:shape":"pile","seamark:beacon_special_purpose:category":"leading","seamark:light:1:character":"F","seamark:light:1:colour":"white","seamark:light:1:orientation":"181","seamark:light:reference":"G1962.6","seamark:name":"Terminal Maritimo Front","seamark:topmark:colour":"white;red;white","seamark:topmark:colour_pattern":"vertical","seamark:topmark:shape":"cone, point up","seamark:type":"beacon_special_purpose"}}},{"type":"Feature","geometry":{"type":"Point","coordinates":[-70.1940885,-20.8035552]},"properties":{"osm_id":12752180382,"osm_type":"node","seamark_type":"beacon_special_purpose","display_class":"BEACON","min_zoom":9,"importance":4,"name":"Terminal Maritimo Front","ref":null,"common":{"name":"Terminal Maritimo Front","type":"beacon_special_purpose"},"children":{"beacon_lateral":{"shape":"pile"},"beacon_special_purpose":{"category":"leading"},"light":{"1:character":"F","1:colour":"red","1:orientation":"160","1:range":"2","reference":"G1963.4"},"topmark":{"colour":"white;red;white","colour_pattern":"vertical","shape":"board"}},"osm_tags":{"seamark:beacon_lateral:shape":"pile","seamark:beacon_special_purpose:category":"leading","seamark:light:1:character":"F","seamark:light:1:colour":"red","seamark:light:1:orientation":"160","seamark:light:1:range":"2","seamark:light:reference":"G1963.4","seamark:name":"Terminal Maritimo Front","seamark:topmark:colour":"white;red;white","seamark:topmark:colour_pattern":"vertical","seamark:topmark:shape":"board","seamark:type":"beacon_special_purpose"}}},{"type":"Feature","geometry":{"type":"Point","coordinates":[-70.1931283,-20.8030236]},"properties":{"osm_id":12752180387,"osm_type":"node","seamark_type":"beacon_special_purpose","display_class":"BEACON","min_zoom":9,"importance":4,"name":"Terminal Maritimo Front","ref":null,"common":{"name":"Terminal Maritimo Front","type":"beacon_special_purpose"},"children":{"beacon_lateral":{"shape":"pile"},"beacon_special_purpose":{"category":"leading"},"light":{"1:character":"F","1:colour":"green","1:orientation":"109","reference":"G1962.2"},"topmark":{"colour":"white;red;white","colour_pattern":"vertical","shape":"cone, point up"}},"osm_tags":{"seamark:beacon_lateral:shape":"pile","seamark:beacon_special_purpose:category":"leading","seamark:light:1:character":"F","seamark:light:1:colour":"green","seamark:light:1:orientation":"109","seamark:light:reference":"G1962.2","seamark:name":"Terminal Maritimo Front","seamark:topmark:colour":"white;red;white","seamark:topmark:colour_pattern":"vertical","seamark:topmark:shape":"cone, point up","seamark:type":"beacon_special_purpose"}}},{"type":"Feature","geometry":{"type":"Point","coordinates":[-70.1901451,-20.7476341]},"properties":{"osm_id":12747506256,"osm_type":"node","seamark_type":"beacon_special_purpose","display_class":"BEACON","min_zoom":9,"importance":4,"name":"Terminal Maritimo Patillos No 1 Front","ref":null,"common":{"name":"Terminal Maritimo Patillos No 1 Front","type":"beacon_special_purpose"},"children":{"beacon_lateral":{"shape":"pile"},"beacon_special_purpose":{"category":"leading","colour":"red"},"light":{"1:character":"F","1:colour":"blue","1:height":"25","1:orientation":"138","1:range":"3","reference":"G1963.2"},"topmark":{"colour":"red","shape":"rhombus"}},"osm_tags":{"name":"Terminal Maritimo Patillos No 1 Front","seamark:beacon_lateral:shape":"pile","seamark:beacon_special_purpose:category":"leading","seamark:beacon_special_purpose:colour":"red","seamark:light:1:character":"F","seamark:light:1:colour":"blue","seamark:light:1:height":"25","seamark:light:1:orientation":"138","seamark:light:1:range":"3","seamark:light:reference":"G1963.2","seamark:name":"Terminal Maritimo Patillos No 1 Front","seamark:topmark:colour":"red","seamark:topmark:shape":"rhombus","seamark:type":"beacon_special_purpose"}}},{"type":"Feature","geometry":{"type":"Point","coordinates":[-70.1951082,-20.7487624]},"properties":{"osm_id":12747788362,"osm_type":"node","seamark_type":"beacon_special_purpose","display_class":"BEACON","min_zoom":9,"importance":4,"name":"Terminal Maritimo Patillos No 1 Front","ref":null,"common":{"name":"Terminal Maritimo Patillos No 1 Front","type":"beacon_special_purpose"},"children":{"beacon_lateral":{"shape":"pile"},"beacon_special_purpose":{"category":"leading","colour":"red"},"light":{"1:character":"F","1:colour":"blue","1:height":"25","1:orientation":"202","1:range":"3","reference":"G1963.3"},"topmark":{"colour":"red","shape":"rhombus"}},"osm_tags":{"seamark:beacon_lateral:shape":"pile","seamark:beacon_special_purpose:category":"leading","seamark:beacon_special_purpose:colour":"red","seamark:light:1:character":"F","seamark:light:1:colour":"blue","seamark:light:1:height":"25","seamark:light:1:orientation":"202","seamark:light:1:range":"3","seamark:light:reference":"G1963.3","seamark:name":"Terminal Maritimo Patillos No 1 Front","seamark:topmark:colour":"red","seamark:topmark:shape":"rhombus","seamark:type":"beacon_special_purpose"}}},{"type":"Feature","geometry":{"type":"Point","coordinates":[-70.1890855,-20.7489362]},"properties":{"osm_id":12747621479,"osm_type":"node","seamark_type":"beacon_special_purpose","display_class":"BEACON","min_zoom":9,"importance":4,"name":"Terminal Maritimo Patillos No 1 Rear","ref":null,"common":{"name":"Terminal Maritimo Patillos No 1 Rear","type":"beacon_special_purpose"},"children":{"beacon_lateral":{"shape":"pile"},"beacon_special_purpose":{"category":"leading","colour":"red"},"light":{"1:character":"F","1:colour":"blue","1:height":"36","1:orientation":"138","1:range":"3","reference":"G1963.21"},"topmark":{"colour":"red","shape":"rhombus"}},"osm_tags":{"name":"Terminal Maritimo Patillos No 1 Rear","seamark:beacon_lateral:shape":"pile","seamark:beacon_special_purpose:category":"leading","seamark:beacon_special_purpose:colour":"red","seamark:light:1:character":"F","seamark:light:1:colour":"blue","seamark:light:1:height":"36","seamark:light:1:orientation":"138","seamark:light:1:range":"3","seamark:light:reference":"G1963.21","seamark:name":"Terminal Maritimo Patillos No 1 Rear","seamark:topmark:colour":"red","seamark:topmark:shape":"rhombus","seamark:type":"beacon_special_purpose"}}},{"type":"Feature","geometry":{"type":"Point","coordinates":[-70.1955756,-20.7498171]},"properties":{"osm_id":12747788363,"osm_type":"node","seamark_type":"beacon_special_purpose","display_class":"BEACON","min_zoom":9,"importance":4,"name":"Terminal Maritimo Patillos No 1 Rear","ref":null,"common":{"name":"Terminal Maritimo Patillos No 1 Rear","type":"beacon_special_purpose"},"children":{"beacon_lateral":{"shape":"pile"},"beacon_special_purpose":{"category":"leading","colour":"red"},"light":{"1:character":"F","1:colour":"blue","1:height":"19","1:orientation":"202","1:range":"3","reference":"G1963.31"},"topmark":{"colour":"red","shape":"rhombus"}},"osm_tags":{"seamark:beacon_lateral:shape":"pile","seamark:beacon_special_purpose:category":"leading","seamark:beacon_special_purpose:colour":"red","seamark:light:1:character":"F","seamark:light:1:colour":"blue","seamark:light:1:height":"19","seamark:light:1:orientation":"202","seamark:light:1:range":"3","seamark:light:reference":"G1963.31","seamark:name":"Terminal Maritimo Patillos No 1 Rear","seamark:topmark:colour":"red","seamark:topmark:shape":"rhombus","seamark:type":"beacon_special_purpose"}}},{"type":"Feature","geometry":{"type":"Point","coordinates":[-70.196559,-20.7495479]},"properties":{"osm_id":12747954851,"osm_type":"node","seamark_type":"beacon_special_purpose","display_class":"BEACON","min_zoom":9,"importance":4,"name":"Terminal Maritimo Patillos No 2 Front","ref":null,"common":{"name":"Terminal Maritimo Patillos No 2 Front","type":"beacon_special_purpose"},"children":{"beacon_lateral":{"shape":"lattice"},"beacon_special_purpose":{"category":"leading","colour":"red"},"light":{"1:character":"F","1:colour":"blue","1:height":"28","1:orientation":"152","1:range":"3","reference":"G1963.4"},"topmark":{"colour":"red","shape":"board"}},"osm_tags":{"seamark:beacon_lateral:shape":"lattice","seamark:beacon_special_purpose:category":"leading","seamark:beacon_special_purpose:colour":"red","seamark:light:1:character":"F","seamark:light:1:colour":"blue","seamark:light:1:height":"28","seamark:light:1:orientation":"152","seamark:light:1:range":"3","seamark:light:reference":"G1963.4","seamark:name":"Terminal Maritimo Patillos No 2 Front","seamark:topmark:colour":"red","seamark:topmark:shape":"board","seamark:type":"beacon_special_purpose"}}},{"type":"Feature","geometry":{"type":"Point","coordinates":[-70.1898081,-20.7471622]},"properties":{"osm_id":12747954853,"osm_type":"node","seamark_type":"beacon_special_purpose","display_class":"BEACON","min_zoom":9,"importance":4,"name":"Terminal Maritimo Patillos No 2 Front","ref":null,"common":{"name":"Terminal Maritimo Patillos No 2 Front","type":"beacon_special_purpose"},"children":{"beacon_lateral":{"shape":"pile"},"beacon_special_purpose":{"category":"leading","colour":"red"},"light":{"1:character":"F","1:colour":"blue","1:height":"25","1:orientation":"94","1:range":"3","reference":"G1963.5"},"topmark":{"colour":"red","shape":"board"}},"osm_tags":{"seamark:beacon_lateral:shape":"pile","seamark:beacon_special_purpose:category":"leading","seamark:beacon_special_purpose:colour":"red","seamark:light:1:character":"F","seamark:light:1:colour":"blue","seamark:light:1:height":"25","seamark:light:1:orientation":"94","seamark:light:1:range":"3","seamark:light:reference":"G1963.5","seamark:name":"Terminal Maritimo Patillos No 2 Front","seamark:topmark:colour":"red","seamark:topmark:shape":"board","seamark:type":"beacon_special_purpose"}}},{"type":"Feature","geometry":{"type":"Point","coordinates":[-70.1956787,-20.7511397]},"properties":{"osm_id":12747954852,"osm_type":"node","seamark_type":"beacon_special_purpose","display_class":"BEACON","min_zoom":9,"importance":4,"name":"Terminal Maritimo Patillos No 2 Rear","ref":null,"common":{"name":"Terminal Maritimo Patillos No 2 Rear","type":"beacon_special_purpose"},"children":{"beacon_lateral":{"shape":"lattice"},"beacon_special_purpose":{"category":"leading","colour":"red"},"light":{"1:character":"F","1:colour":"blue","1:height":"40","1:orientation":"152","1:range":"3","reference":"G1963.41"},"topmark":{"colour":"red","shape":"board"}},"osm_tags":{"seamark:beacon_lateral:shape":"lattice","seamark:beacon_special_purpose:category":"leading","seamark:beacon_special_purpose:colour":"red","seamark:light:1:character":"F","seamark:light:1:colour":"blue","seamark:light:1:height":"40","seamark:light:1:orientation":"152","seamark:light:1:range":"3","seamark:light:reference":"G1963.41","seamark:name":"Terminal Maritimo Patillos No 2 Rear","seamark:topmark:colour":"red","seamark:topmark:shape":"board","seamark:type":"beacon_special_purpose"}}},{"type":"Feature","geometry":{"type":"Point","coordinates":[-70.1866577,-20.7473594]},"properties":{"osm_id":12747954854,"osm_type":"node","seamark_type":"beacon_special_purpose","display_class":"BEACON","min_zoom":9,"importance":4,"name":"Terminal Maritimo Patillos No 2 Rear","ref":null,"common":{"name":"Terminal Maritimo Patillos No 2 Rear","type":"beacon_special_purpose"},"children":{"beacon_lateral":{"shape":"pile"},"beacon_special_purpose":{"category":"leading","colour":"red"},"light":{"1:character":"F","1:colour":"blue","1:height":"32","1:orientation":"94","1:range":"3","reference":"G1963.51"},"topmark":{"colour":"red","shape":"board"}},"osm_tags":{"seamark:beacon_lateral:shape":"pile","seamark:beacon_special_purpose:category":"leading","seamark:beacon_special_purpose:colour":"red","seamark:light:1:character":"F","seamark:light:1:colour":"blue","seamark:light:1:height":"32","seamark:light:1:orientation":"94","seamark:light:1:range":"3","seamark:light:reference":"G1963.51","seamark:name":"Terminal Maritimo Patillos No 2 Rear","seamark:topmark:colour":"red","seamark:topmark:shape":"board","seamark:type":"beacon_special_purpose"}}},{"type":"Feature","geometry":{"type":"Point","coordinates":[-70.1996935,-20.8082205]},"properties":{"osm_id":12747954856,"osm_type":"node","seamark_type":"beacon_special_purpose","display_class":"BEACON","min_zoom":9,"importance":4,"name":"Terminal Maritimo Rear","ref":null,"common":{"name":"Terminal Maritimo Rear","type":"beacon_special_purpose"},"children":{"beacon_lateral":{"shape":"pile"},"beacon_special_purpose":{"category":"leading"},"light":{"1:character":"F","1:colour":"white","1:orientation":"181","1:range":"2","reference":"G1963.61"},"topmark":{"colour":"white;red;white","colour_pattern":"vertical","shape":"triangle, point down"}},"osm_tags":{"seamark:beacon_lateral:shape":"pile","seamark:beacon_special_purpose:category":"leading","seamark:light:1:character":"F","seamark:light:1:colour":"white","seamark:light:1:orientation":"181","seamark:light:1:range":"2","seamark:light:reference":"G1963.61","seamark:name":"Terminal Maritimo Rear","seamark:topmark:colour":"white;red;white","seamark:topmark:colour_pattern":"vertical","seamark:topmark:shape":"triangle, point down","seamark:type":"beacon_special_purpose"}}},{"type":"Feature","geometry":{"type":"Point","coordinates":[-70.1935118,-20.805047]},"properties":{"osm_id":12752180381,"osm_type":"node","seamark_type":"beacon_special_purpose","display_class":"BEACON","min_zoom":9,"importance":4,"name":"Terminal Maritimo Rear","ref":null,"common":{"name":"Terminal Maritimo Rear","type":"beacon_special_purpose"},"children":{"beacon_lateral":{"shape":"pile"},"beacon_special_purpose":{"category":"leading"},"light":{"1:character":"F","1:colour":"red","1:orientation":"160","1:range":"2","reference":"G1962.41"},"topmark":{"colour":"white;red;white","colour_pattern":"vertical","shape":"cone, point down"}},"osm_tags":{"seamark:beacon_lateral:shape":"pile","seamark:beacon_special_purpose:category":"leading","seamark:light:1:character":"F","seamark:light:1:colour":"red","seamark:light:1:orientation":"160","seamark:light:1:range":"2","seamark:light:reference":"G1962.41","seamark:name":"Terminal Maritimo Rear","seamark:topmark:colour":"white;red;white","seamark:topmark:colour_pattern":"vertical","seamark:topmark:shape":"cone, point down","seamark:type":"beacon_special_purpose"}}},{"type":"Feature","geometry":{"type":"Point","coordinates":[-70.1906902,-20.8038097]},"properties":{"osm_id":12752180386,"osm_type":"node","seamark_type":"beacon_special_purpose","display_class":"BEACON","min_zoom":9,"importance":4,"name":"Terminal Maritimo Rear","ref":null,"common":{"name":"Terminal Maritimo Rear","type":"beacon_special_purpose"},"children":{"beacon_lateral":{"shape":"pile"},"beacon_special_purpose":{"category":"leading"},"light":{"1:character":"F","1:colour":"green","1:orientation":"109","1:range":"2","reference":"G1962.21"},"topmark":{"colour":"white;red;white","colour_pattern":"vertical","shape":"cone, point down"}},"osm_tags":{"seamark:beacon_lateral:shape":"pile","seamark:beacon_special_purpose:category":"leading","seamark:light:1:character":"F","seamark:light:1:colour":"green","seamark:light:1:orientation":"109","seamark:light:1:range":"2","seamark:light:reference":"G1962.21","seamark:name":"Terminal Maritimo Rear","seamark:topmark:colour":"white;red;white","seamark:topmark:colour_pattern":"vertical","seamark:topmark:shape":"cone, point down","seamark:type":"beacon_special_purpose"}}},{"type":"Feature","geometry":{"type":"Point","coordinates":[-70.1968244,-20.7490759]},"properties":{"osm_id":6398254973,"osm_type":"node","seamark_type":"navigation_line","display_class":"OTHER","min_zoom":12,"importance":1,"name":null,"ref":null,"common":{"type":"navigation_line"},"children":{"navigation_line":{"category":"leading","orientation":"152"}},"osm_tags":{"seamark:navigation_line:category":"leading","seamark:navigation_line:orientation":"152","seamark:type":"navigation_line"}}},{"type":"Feature","geometry":{"type":"Point","coordinates":[-70.1430833,-20.1969444]},"properties":{"osm_id":7806949278,"osm_type":"node","seamark_type":"buoy_special_purpose","display_class":"OTHER","min_zoom":12,"importance":1,"name":null,"ref":null,"common":{"type":"buoy_special_purpose"},"children":{},"osm_tags":{"seamark:type":"buoy_special_purpose"}}},{"type":"Feature","geometry":{"type":"Point","coordinates":[-70.1424722,-20.1959722]},"properties":{"osm_id":7806949279,"osm_type":"node","seamark_type":"buoy_special_purpose","display_class":"OTHER","min_zoom":12,"importance":1,"name":null,"ref":null,"common":{"type":"buoy_special_purpose"},"children":{},"osm_tags":{"seamark:type":"buoy_special_purpose"}}},{"type":"Feature","geometry":{"type":"Point","coordinates":[-70.1432778,-20.1954167]},"properties":{"osm_id":7806949280,"osm_type":"node","seamark_type":"buoy_special_purpose","display_class":"OTHER","min_zoom":12,"importance":1,"name":null,"ref":null,"common":{"type":"buoy_special_purpose"},"children":{},"osm_tags":{"seamark:type":"buoy_special_purpose"}}},{"type":"Feature","geometry":{"type":"Point","coordinates":[-70.1433333,-20.1947222]},"properties":{"osm_id":7806949281,"osm_type":"node","seamark_type":"buoy_special_purpose","display_class":"OTHER","min_zoom":12,"importance":1,"name":null,"ref":null,"common":{"type":"buoy_special_purpose"},"children":{},"osm_tags":{"seamark:type":"buoy_special_purpose"}}},{"type":"Feature","geometry":{"type":"Point","coordinates":[-70.1427778,-20.1938889]},"properties":{"osm_id":7806949282,"osm_type":"node","seamark_type":"buoy_special_purpose","display_class":"OTHER","min_zoom":12,"importance":1,"name":null,"ref":null,"common":{"type":"buoy_special_purpose"},"children":{},"osm_tags":{"seamark:type":"buoy_special_purpose"}}},{"type":"Feature","geometry":{"type":"Point","coordinates":[-70.1430556,-20.1930556]},"properties":{"osm_id":7806949283,"osm_type":"node","seamark_type":"buoy_special_purpose","display_class":"OTHER","min_zoom":12,"importance":1,"name":null,"ref":null,"common":{"type":"buoy_special_purpose"},"children":{},"osm_tags":{"seamark:type":"buoy_special_purpose"}}},{"type":"Feature","geometry":{"type":"Polygon","coordinates":[[[-70.1567253,-20.2030872],[-70.1579714,-20.202471],[-70.1581,-20.2026895],[-70.1583803,-20.2031665],[-70.1586659,-20.2036536],[-70.158961,-20.2041608],[-70.1592761,-20.2046882],[-70.1595202,-20.205106],[-70.1593231,-20.2052117],[-70.159189,-20.205281],[-70.1589033,-20.2054194],[-70.158741,-20.2055037],[-70.1585345,-20.2056157],[-70.1583642,-20.2057026],[-70.158269,-20.2057605],[-70.1581992,-20.2056334],[-70.1579028,-20.2051186],[-70.1576386,-20.2046529],[-70.157471,-20.2043458],[-70.1573007,-20.2040488],[-70.1569842,-20.2035303],[-70.1567253,-20.2030872]]]},"properties":{"osm_id":836444613,"osm_type":"way","seamark_type":"harbour","display_class":"OTHER","min_zoom":12,"importance":1,"name":null,"ref":null,"common":{"type":"harbour"},"children":{},"osm_tags":{"seamark:type":"harbour"}}},{"type":"Feature","geometry":{"type":"LineString","coordinates":[[-70.1996935,-20.8082205],[-70.1992305,-20.8008474]]},"properties":{"osm_id":1376873158,"osm_type":"way","seamark_type":"navigation_line","display_class":"OTHER","min_zoom":12,"importance":1,"name":null,"ref":null,"common":{"type":"navigation_line"},"children":{"navigation_line":{"category":"leading","orientation":"181"}},"osm_tags":{"seamark:navigation_line:category":"leading","seamark:navigation_line:orientation":"181","seamark:type":"navigation_line"}}},{"type":"Feature","geometry":{"type":"LineString","coordinates":[[-70.1866577,-20.7473594],[-70.1941492,-20.7468574]]},"properties":{"osm_id":1377061215,"osm_type":"way","seamark_type":"navigation_line","display_class":"OTHER","min_zoom":12,"importance":1,"name":null,"ref":null,"common":{"type":"navigation_line"},"children":{"navigation_line":{"category":"leading","orientation":"94"}},"osm_tags":{"seamark:navigation_line:category":"leading","seamark:navigation_line:orientation":"94","seamark:type":"navigation_line"}}},{"type":"Feature","geometry":{"type":"LineString","coordinates":[[-70.1890855,-20.7489362],[-70.1922737,-20.7450251]]},"properties":{"osm_id":1377061216,"osm_type":"way","seamark_type":"navigation_line","display_class":"OTHER","min_zoom":12,"importance":1,"name":null,"ref":null,"common":{"type":"navigation_line"},"children":{"navigation_line":{"category":"leading","orientation":"138"}},"osm_tags":{"seamark:navigation_line:category":"leading","seamark:navigation_line:orientation":"138","seamark:type":"navigation_line"}}},{"type":"Feature","geometry":{"type":"LineString","coordinates":[[-70.1955756,-20.7498171],[-70.1937406,-20.7456326]]},"properties":{"osm_id":1377061217,"osm_type":"way","seamark_type":"navigation_line","display_class":"OTHER","min_zoom":12,"importance":1,"name":null,"ref":null,"common":{"type":"navigation_line"},"children":{"navigation_line":{"category":"leading","orientation":"202"}},"osm_tags":{"seamark:navigation_line:category":"leading","seamark:navigation_line:orientation":"202","seamark:type":"navigation_line"}}},{"type":"Feature","geometry":{"type":"LineString","coordinates":[[-70.1956787,-20.7511397],[-70.1986233,-20.745858]]},"properties":{"osm_id":1377061218,"osm_type":"way","seamark_type":"navigation_line","display_class":"OTHER","min_zoom":12,"importance":1,"name":null,"ref":null,"common":{"type":"navigation_line"},"children":{"navigation_line":{"category":"leading","orientation":"152"}},"osm_tags":{"seamark:navigation_line:category":"leading","seamark:navigation_line:orientation":"152","seamark:type":"navigation_line"}}},{"type":"Feature","geometry":{"type":"LineString","coordinates":[[-70.1935118,-20.805047],[-70.1956201,-20.7996487]]},"properties":{"osm_id":1377202027,"osm_type":"way","seamark_type":"navigation_line","display_class":"OTHER","min_zoom":12,"importance":1,"name":null,"ref":null,"common":{"type":"navigation_line"},"children":{"navigation_line":{"category":"leading","orientation":"160"}},"osm_tags":{"seamark:navigation_line:category":"leading","seamark:navigation_line:orientation":"160","seamark:type":"navigation_line"}}},{"type":"Feature","geometry":{"type":"LineString","coordinates":[[-70.1906902,-20.8038097],[-70.198592,-20.8012534]]},"properties":{"osm_id":1377202028,"osm_type":"way","seamark_type":"navigation_line","display_class":"OTHER","min_zoom":12,"importance":1,"name":null,"ref":null,"common":{"type":"navigation_line"},"children":{"navigation_line":{"category":"leading","orientation":"109"}},"osm_tags":{"seamark:navigation_line:category":"leading","seamark:navigation_line:orientation":"109","seamark:type":"navigation_line"}}},{"type":"Feature","geometry":{"type":"Point","coordinates":[-70.1499857,-20.1713602]},"properties":{"osm_id":3493481922,"osm_type":"node","seamark_type":"buoy_special_purpose","display_class":"OTHER","min_zoom":12,"importance":1,"name":"Boya hundimiento Esmeralda","ref":null,"common":{"type":"buoy_special_purpose"},"children":{},"osm_tags":{"name":"Boya hundimiento Esmeralda","seamark:type":"buoy_special_purpose","tourism":"attraction"}}},{"type":"Feature","geometry":{"type":"Point","coordinates":[-70.1622222,-20.1980556]},"properties":{"osm_id":7806982788,"osm_type":"node","seamark_type":"anchorage","display_class":"OTHER","min_zoom":12,"importance":1,"name":"Punto N°1","ref":null,"common":{"name":"Punto N°1","type":"anchorage"},"children":{},"osm_tags":{"name":"Punto N°1","seamark:name":"Punto N°1","seamark:type":"anchorage"}}},{"type":"Feature","geometry":{"type":"Point","coordinates":[-70.1677778,-20.2002778]},"properties":{"osm_id":7806982787,"osm_type":"node","seamark_type":"anchorage","display_class":"OTHER","min_zoom":12,"importance":1,"name":"Punto N°2","ref":null,"common":{"name":"Punto N°2","type":"anchorage"},"children":{},"osm_tags":{"name":"Punto N°2","seamark:name":"Punto N°2","seamark:type":"anchorage"}}},{"type":"Feature","geometry":{"type":"Point","coordinates":[-70.1733333,-20.205]},"properties":{"osm_id":7806982786,"osm_type":"node","seamark_type":"anchorage","display_class":"OTHER","min_zoom":12,"importance":1,"name":"Punto N°3","ref":null,"common":{"name":"Punto N°3","type":"anchorage"},"children":{},"osm_tags":{"name":"Punto N°3","seamark:name":"Punto N°3","seamark:type":"anchorage"}}},{"type":"Feature","geometry":{"type":"Point","coordinates":[-70.1716667,-20.2133333]},"properties":{"osm_id":7806982785,"osm_type":"node","seamark_type":"anchorage","display_class":"OTHER","min_zoom":12,"importance":1,"name":"Punto N°4","ref":null,"common":{"name":"Punto N°4","type":"anchorage"},"children":{},"osm_tags":{"name":"Punto N°4","seamark:name":"Punto N°4","seamark:type":"anchorage"}}},{"type":"Feature","geometry":{"type":"Point","coordinates":[-70.17,-20.2225]},"properties":{"osm_id":7806949284,"osm_type":"node","seamark_type":"anchorage","display_class":"OTHER","min_zoom":12,"importance":1,"name":"Punto N°5","ref":null,"common":{"name":"Punto N°5","type":"anchorage"},"children":{},"osm_tags":{"name":"Punto N°5","seamark:name":"Punto N°5","seamark:type":"anchorage"}}}],"type":"FeatureCollection"}