{"type":"FeatureCollection","features":[{"type":"Feature","geometry":{"type":"Point","coordinates":[174.6326633,-21.7358974]},"properties":{"osm_id":6688107417,"osm_type":"node","seamark_type":"wreck","display_class":"OTHER","min_zoom":12,"importance":1,"name":null,"ref":null,"common":{"type":"wreck"},"children":{"wreck":{"category":"hull_showing"}},"osm_tags":{"historic":"wreck","seamark:type":"wreck","seamark:wreck:category":"hull_showing","wreck:visible_at_high_tide":"yes","wreck:visible_at_low_tide":"yes"}}}],"type":"FeatureCollection"}