{"type":"FeatureCollection","features":[{"type":"Feature","geometry":{"type":"Point","coordinates":[-58.0115063,-22.0276754]},"properties":{"osm_id":2124107524,"osm_type":"node","seamark_type":"landmark","display_class":"OTHER","min_zoom":12,"importance":1,"name":null,"ref":null,"common":{"type":"landmark"},"children":{"landmark":{"category":"chimney"}},"osm_tags":{"man_made":"chimney","seamark:landmark:category":"chimney","seamark:type":"landmark"}}},{"type":"Feature","geometry":{"type":"Point","coordinates":[-58.012446,-22.0350439]},"properties":{"osm_id":2124107541,"osm_type":"node","seamark_type":"landmark","display_class":"OTHER","min_zoom":12,"importance":1,"name":null,"ref":null,"common":{"type":"landmark"},"children":{"landmark":{"function":"church"}},"osm_tags":{"amenity":"place_of_worship","religion":"christian","seamark:landmark:function":"church","seamark:type":"landmark"}}},{"type":"Feature","geometry":{"type":"Point","coordinates":[-58.0117908,-22.0378249]},"properties":{"osm_id":2124107866,"osm_type":"node","seamark_type":"landmark","display_class":"OTHER","min_zoom":12,"importance":1,"name":null,"ref":null,"common":{"type":"landmark"},"children":{"landmark":{"category":"chimney"}},"osm_tags":{"man_made":"chimney","seamark:landmark:category":"chimney","seamark:type":"landmark"}}},{"type":"Feature","geometry":{"type":"Point","coordinates":[-58.0027722,-22.0340515]},"properties":{"osm_id":2128284118,"osm_type":"node","seamark_type":"notice","display_class":"OTHER","min_zoom":12,"importance":1,"name":null,"ref":null,"common":{"type":"notice"},"children":{"notice":{"1:bank":"right","1:category":"keep_to_mid-river","1:function":"regulation","1:impact":"upstream","1:system":"ppwbc","2:bank":"right","2:category":"keep_to_mid-river","2:function":"regulation","2:impact":"downstream","2:system":"ppwbc","bank":"right","category":"keep_to_mid-river","function":"regulation","system":"ppwbc"}},"osm_tags":{"seamark:notice:1:bank":"right","seamark:notice:1:category":"keep_to_mid-river","seamark:notice:1:function":"regulation","seamark:notice:1:impact":"upstream","seamark:notice:1:system":"ppwbc","seamark:notice:2:bank":"right","seamark:notice:2:category":"keep_to_mid-river","seamark:notice:2:function":"regulation","seamark:notice:2:impact":"downstream","seamark:notice:2:system":"ppwbc","seamark:notice:bank":"right","seamark:notice:category":"keep_to_mid-river","seamark:notice:function":"regulation","seamark:notice:system":"ppwbc","seamark:type":"notice"}}}],"type":"FeatureCollection"}