{"type":"FeatureCollection","features":[{"type":"Feature","geometry":{"type":"LineString","coordinates":[[161.5,-24.0],[166.0,-37.0]]},"properties":{"osm_id":1182807356,"osm_type":"way","seamark_type":"sea_area","display_class":"OTHER","min_zoom":12,"importance":1,"name":"Lord Howe Rise","ref":null,"common":{"type":"sea_area"},"children":{"sea_area":{"category":"rise"}},"osm_tags":{"name":"Lord Howe Rise","name:etymology":"Lord Howe Island","name:etymology:wikidata":"Q104784","ref:linz:place_id":"14155","seamark:sea_area:category":"rise","seamark:type":"sea_area","wikidata":"Q371513","wikipedia":"en:Lord Howe Rise"}}}],"type":"FeatureCollection"}