{"type":"FeatureCollection","features":[{"type":"Feature","geometry":{"type":"Point","coordinates":[-42.1616667,-24.68]},"properties":{"osm_id":9526820611,"osm_type":"node","seamark_type":"buoy_special_purpose","display_class":"OTHER","min_zoom":12,"importance":1,"name":null,"ref":null,"common":{"type":"buoy_special_purpose"},"children":{"buoy_special_purpose":{"category":"odas"},"light":{"character":"Fl","colour":"yellow","group":"5","period":"20"}},"osm_tags":{"seamark:buoy_special_purpose:category":"odas","seamark:light:character":"Fl","seamark:light:colour":"yellow","seamark:light:group":"5","seamark:light:period":"20","seamark:type":"buoy_special_purpose"}}},{"type":"Feature","geometry":{"type":"LineString","coordinates":[[-42.2553785,-24.1701193],[-42.0978335,-23.3291723]]},"properties":{"osm_id":188330456,"osm_type":"way","seamark_type":"cable_submarine","display_class":"OTHER","min_zoom":12,"importance":1,"name":null,"ref":null,"common":{"type":"cable_submarine"},"children":{},"osm_tags":{"man_made":"submarine_cable","seamark:type":"cable_submarine"}}},{"type":"Feature","geometry":{"type":"LineString","coordinates":[[-43.4456729,-23.0236376],[-43.4376312,-23.0311012],[-43.4263248,-23.0417075],[-43.4133759,-23.0539251],[-43.4019874,-23.0645548],[-43.38318,-23.0821851],[-43.3354171,-23.1269925],[-43.2950752,-23.164372],[-43.2430412,-23.2132699],[-43.2122235,-23.2422301],[-43.1831092,-23.2837738],[-43.1518269,-23.3289307],[-43.1131886,-23.384236],[-43.079351,-23.43284],[-43.0405578,-23.4884569],[-42.9054567,-23.5788666],[-42.7109464,-23.7217914],[-42.2553785,-24.1701193],[-41.9384575,-24.4593125],[-41.4427772,-24.924292]]},"properties":{"osm_id":186861794,"osm_type":"way","seamark_type":"cable_submarine","display_class":"OTHER","min_zoom":12,"importance":1,"name":"ATLANTIS-2","ref":null,"common":{"name":"ATLANTIS-2","type":"cable_submarine"},"children":{"cable_submarine":{"name":"ATLANTIS 2"}},"osm_tags":{"man_made":"submarine_cable","seamark:cable_submarine:name":"ATLANTIS 2","seamark:name":"ATLANTIS-2","seamark:type":"cable_submarine"}}},{"type":"Feature","geometry":{"type":"Point","coordinates":[-42.713,-24.3018333]},"properties":{"osm_id":1420569989,"osm_type":"node","seamark_type":"platform","display_class":"OTHER","min_zoom":12,"importance":1,"name":"FPSO Cidade de Santos","ref":null,"common":{"name":"FPSO Cidade de Santos","type":"platform"},"children":{"platform":{"category":"fpso"}},"osm_tags":{"aeroway":"helipad","man_made":"floating_storage","production":"yes","seamark:name":"FPSO Cidade de Santos","seamark:platform:category":"fpso","seamark:type":"platform","storage":"yes"}}},{"type":"Feature","geometry":{"type":"LineString","coordinates":[[-43.490435,-23.0361705],[-43.4808335,-23.0878219],[-43.4792848,-23.0949447],[-43.4696833,-23.1087618],[-43.4613982,-23.1251411],[-43.4528033,-23.1497774],[-43.4371621,-23.1941968],[-43.4260894,-23.2260074],[-43.4143198,-23.2596601],[-43.3980592,-23.305963],[-43.3768429,-23.3587899],[-43.3460252,-23.4339057],[-43.3097872,-23.4836278],[-43.2702197,-23.5378035],[-43.2660384,-23.5434825],[-43.2525653,-23.557395],[-43.2443576,-23.5639959],[-43.229181,-23.5752094],[-43.1960403,-23.6000461],[-43.0038484,-23.7335779],[-42.5918543,-24.2041589],[-42.3311393,-24.5735245],[-42.0929553,-24.8921796],[-41.9899568,-25.0205791],[-41.6101498,-25.1459308]]},"properties":{"osm_id":186861811,"osm_type":"way","seamark_type":"cable_submarine","display_class":"OTHER","min_zoom":12,"importance":1,"name":"SAm-1","ref":null,"common":{"name":"SAm-1","type":"cable_submarine"},"children":{"cable_submarine":{"name":"SAm 1"}},"osm_tags":{"man_made":"submarine_cable","seamark:cable_submarine:name":"SAm 1","seamark:name":"SAm-1","seamark:type":"cable_submarine"}}}],"type":"FeatureCollection"}