{"type":"FeatureCollection","features":[{"type":"Feature","geometry":{"type":"Point","coordinates":[176.0,-26.0]},"properties":{"osm_id":11662286836,"osm_type":"node","seamark_type":"sea_area","display_class":"OTHER","min_zoom":12,"importance":1,"name":"South Fiji Basin","ref":null,"common":{"type":"sea_area"},"children":{"sea_area":{"category":"basin"}},"osm_tags":{"name":"South Fiji Basin","ref:linz:place_id":"14187","seamark:sea_area:category":"basin","seamark:type":"sea_area","wikidata":"Q24566859"}}}],"type":"FeatureCollection"}