{"type":"FeatureCollection","features":[{"type":"Feature","geometry":{"type":"Point","coordinates":[-179.178651,-25.0282499]},"properties":{"osm_id":9222954023,"osm_type":"node","seamark_type":"obstruction","display_class":"OTHER","min_zoom":12,"importance":1,"name":null,"ref":null,"common":{"type":"obstruction"},"children":{"obstruction":{"water_level":"submerged"}},"osm_tags":{"depth":"517","depth:source_quality":"not_confirmed","description":"(1989)","ref:linz:hydrographic_id":"3798945","seamark:obstruction:water_level":"submerged","seamark:type":"obstruction","source":"LINZ;Fiji to Kermadec Islands including Tongatapu (West) Chart;Chart NZ14638","source:date":"1996-10-01"}}},{"type":"Feature","geometry":{"type":"Point","coordinates":[-179.2721341,-25.9625773]},"properties":{"osm_id":9222954025,"osm_type":"node","seamark_type":"obstruction","display_class":"OTHER","min_zoom":12,"importance":1,"name":null,"ref":null,"common":{"type":"obstruction"},"children":{"obstruction":{"status":"existence_doubtful","water_level":"submerged"}},"osm_tags":{"depth":"75","depth:exposition":"shoaler","depth:source_quality":"not_confirmed","description":"(1968)","ref:linz:hydrographic_id":"237041","seamark:obstruction:status":"existence_doubtful","seamark:obstruction:water_level":"submerged","seamark:type":"obstruction","source":"LINZ;Kermadec Islands to East Cape (West) Chart;Chart NZ22","source:date":"2012-06-01"}}}],"type":"FeatureCollection"}