{"type":"FeatureCollection","features":[{"type":"Feature","geometry":{"type":"Point","coordinates":[-51.2626456,-26.1180936]},"properties":{"osm_id":13138228851,"osm_type":"node","seamark_type":"harbour","display_class":"OTHER","min_zoom":12,"importance":1,"name":"Marina Parque Histórico Iguassu","ref":null,"common":{"type":"harbour"},"children":{"harbour":{"category":"marina"}},"osm_tags":{"leisure":"marina","name":"Marina Parque Histórico Iguassu","seamark:harbour:category":"marina","seamark:type":"harbour"}}}],"type":"FeatureCollection"}