{"type":"FeatureCollection","features":[{"type":"Feature","geometry":{"type":"Point","coordinates":[-54.6787689,-27.5718809]},"properties":{"osm_id":3512383738,"osm_type":"node","seamark_type":"harbour","display_class":"OTHER","min_zoom":12,"importance":1,"name":"Puerto Alba Posse","ref":null,"common":{"name":"Puerto Alba Posse","type":"harbour"},"children":{"harbour":{"category":"marina"}},"osm_tags":{"harbour":"yes","name":"Puerto Alba Posse","seamark:harbour:category":"marina","seamark:name":"Puerto Alba Posse","seamark:type":"harbour"}}},{"type":"Feature","geometry":{"type":"Point","coordinates":[-54.8434806,-27.6034556]},"properties":{"osm_id":3512381678,"osm_type":"node","seamark_type":"harbour","display_class":"OTHER","min_zoom":12,"importance":1,"name":"Puerto Barra Bonita","ref":null,"common":{"type":"harbour"},"children":{"harbour":{"category":"marina"}},"osm_tags":{"harbour":"yes","name":"Puerto Barra Bonita","seamark:harbour:category":"marina","seamark:type":"harbour"}}},{"type":"Feature","geometry":{"type":"Point","coordinates":[-54.3450864,-27.4650583]},"properties":{"osm_id":7085969812,"osm_type":"node","seamark_type":"harbour","display_class":"OTHER","min_zoom":12,"importance":1,"name":"Puerto Colonia Alicia","ref":null,"common":{"type":"harbour"},"children":{"harbour":{"category":"marina"}},"osm_tags":{"addr:street":"Ruta Provincial 221","amenity":"ferry_terminal","disused":"yes","disused:phone":"+54 3755 482090","harbour":"yes","name":"Puerto Colonia Alicia","seamark:harbour:category":"marina","seamark:type":"harbour","website":"https://www.argentina.gob.ar/pasosinternacionales/detalle/rio/93/Puerto-Colonia-Alicia-Porto-San-Antonio"}}},{"type":"Feature","geometry":{"type":"Point","coordinates":[-54.4243238,-27.411328]},"properties":{"osm_id":5784083023,"osm_type":"node","seamark_type":"harbour","display_class":"OTHER","min_zoom":12,"importance":1,"name":"Puerto Londero","ref":null,"common":{"type":"harbour"},"children":{"harbour":{"category":"marina"}},"osm_tags":{"harbour":"yes","name":"Puerto Londero","seamark:harbour:category":"marina","seamark:type":"harbour","source":"Diccionario Toponimico Geográfico de Misiones. Autor Migule Stefañuk. Pág. 464"}}}],"type":"FeatureCollection"}