{"type":"FeatureCollection","features":[{"type":"Feature","geometry":{"type":"Point","coordinates":[176.536793,-28.792121]},"properties":{"osm_id":11953568899,"osm_type":"node","seamark_type":"sea_area","display_class":"OTHER","min_zoom":12,"importance":1,"name":"Central Ridge","ref":null,"common":{"type":"sea_area"},"children":{"sea_area":{"category":"ridge"}},"osm_tags":{"name":"Central Ridge","ref:linz:place_id":"14368","seamark:sea_area:category":"ridge","seamark:type":"sea_area","wikidata":"Q136399469"}}}],"type":"FeatureCollection"}