{"type":"FeatureCollection","features":[{"type":"Feature","geometry":{"type":"Polygon","coordinates":[[[114.920336,-29.272093],[114.9186,-29.2727314],[114.9188603,-29.2732701],[114.9205965,-29.272632],[114.920336,-29.272093]]]},"properties":{"osm_id":971910565,"osm_type":"way","seamark_type":"harbour","display_class":"OTHER","min_zoom":12,"importance":1,"name":null,"ref":null,"common":{"type":"harbour"},"children":{"harbour":{"category":"marina"}},"osm_tags":{"leisure":"marina","seamark:harbour:category":"marina","seamark:type":"harbour"}}},{"type":"Feature","geometry":{"type":"Polygon","coordinates":[[[114.9188147,-29.274029],[114.9183285,-29.2741089],[114.9185506,-29.2751377],[114.9190369,-29.2750578],[114.9188147,-29.274029]]]},"properties":{"osm_id":971910566,"osm_type":"way","seamark_type":"harbour","display_class":"OTHER","min_zoom":12,"importance":1,"name":null,"ref":null,"common":{"type":"harbour"},"children":{"harbour":{"category":"marina"}},"osm_tags":{"leisure":"marina","seamark:harbour:category":"marina","seamark:type":"harbour"}}},{"type":"Feature","geometry":{"type":"Point","coordinates":[114.8700194,-29.4501955]},"properties":{"osm_id":7868368447,"osm_type":"node","seamark_type":"platform","display_class":"OTHER","min_zoom":12,"importance":1,"name":"CHA","ref":null,"common":{"name":"CHA","type":"platform"},"children":{"platform":{"category":"oil","construction":"metal"}},"osm_tags":{"abandoned":"yes","lit":"no","man_made":"offshore_platform","name":"Cliff Head Alpha","seamark:name":"CHA","seamark:platform:category":"oil","seamark:platform:construction":"metal","seamark:type":"platform","source":"Orr, K., Skeers, N. 2014. Offshore Oil and Gas Platforms. Geoscience Australia, Canberra. http://dx.doi.org/10.4225/25/54D014C28E03A;bing 2026;Esri World Imagery 2026"}}}],"type":"FeatureCollection"}