{"type":"FeatureCollection","features":[{"type":"Feature","geometry":{"type":"Point","coordinates":[-176.741167,-31.876667]},"properties":{"osm_id":10983506607,"osm_type":"node","seamark_type":"sea_area","display_class":"OTHER","min_zoom":12,"importance":1,"name":"L’Atalante Seamount","ref":null,"common":{"type":"sea_area"},"children":{"sea_area":{"category":"seamount"}},"osm_tags":{"name":"L’Atalante Seamount","name:etymology":"RV L’Atalante","name:etymology:wikidata":"Q3202498","ref:linz:place_id":"14258","seamark:sea_area:category":"seamount","seamark:type":"sea_area"}}}],"type":"FeatureCollection"}