{"type":"FeatureCollection","features":[{"type":"Feature","geometry":{"type":"Point","coordinates":[18.1446385,-32.7712035]},"properties":{"osm_id":1581803379,"osm_type":"node","seamark_type":"beacon_lateral","display_class":"BEACON","min_zoom":9,"importance":4,"name":null,"ref":null,"common":{"construction":"concreted","type":"beacon_lateral"},"children":{"beacon_lateral":{"category":"starboard","colour":"white","shape":"tower","system":"iala-a"},"light":{"character":"Fl","colour":"green","period":"2","reference":"D 5791"}},"osm_tags":{"seamark:beacon_lateral:category":"starboard","seamark:beacon_lateral:colour":"white","seamark:beacon_lateral:shape":"tower","seamark:beacon_lateral:system":"iala-a","seamark:construction":"concreted","seamark:light:character":"Fl","seamark:light:colour":"green","seamark:light:period":"2","seamark:light:reference":"D 5791","seamark:type":"beacon_lateral","source":"US NGA Pub. 113. 2011-10-20."}}},{"type":"Feature","geometry":{"type":"Point","coordinates":[18.1442649,-32.7684621]},"properties":{"osm_id":1581803623,"osm_type":"node","seamark_type":"beacon_lateral","display_class":"BEACON","min_zoom":9,"importance":4,"name":null,"ref":null,"common":{"type":"beacon_lateral"},"children":{"beacon_lateral":{"category":"port","colour":"white","shape":"tower","system":"iala-a"},"light":{"character":"Fl","colour":"red","period":"2","reference":"D 5792"}},"osm_tags":{"seamark:beacon_lateral:category":"port","seamark:beacon_lateral:colour":"white","seamark:beacon_lateral:shape":"tower","seamark:beacon_lateral:system":"iala-a","seamark:light:character":"Fl","seamark:light:colour":"red","seamark:light:period":"2","seamark:light:reference":"D 5792","seamark:type":"beacon_lateral","source":"US NGA Pub. 113. 2011-10-20."}}},{"type":"Feature","geometry":{"type":"Point","coordinates":[18.1444577,-32.769392]},"properties":{"osm_id":1581804080,"osm_type":"node","seamark_type":"beacon_lateral","display_class":"BEACON","min_zoom":9,"importance":4,"name":null,"ref":null,"common":{"type":"beacon_lateral"},"children":{"beacon_lateral":{"category":"port","colour":"red","system":"iala-a"},"light":{"character":"F","colour":"red","reference":"D 5792.2"},"radar_transponder":{"category":"racon","group":"B"}},"osm_tags":{"seamark:beacon_lateral:category":"port","seamark:beacon_lateral:colour":"red","seamark:beacon_lateral:system":"iala-a","seamark:light:character":"F","seamark:light:colour":"red","seamark:light:reference":"D 5792.2","seamark:radar_transponder:category":"racon","seamark:radar_transponder:group":"B","seamark:type":"beacon_lateral","source":"US NGA Pub. 113. 2011-10-20."}}},{"type":"Feature","geometry":{"type":"Point","coordinates":[18.3056018,-32.0885762]},"properties":{"osm_id":1581802602,"osm_type":"node","seamark_type":"light_minor","display_class":"OTHER","min_zoom":12,"importance":1,"name":null,"ref":null,"common":{"type":"light_minor"},"children":{"light":{"character":"LFl","colour":"red","height":"6","period":"10","range":"10","reference":"D 5773"}},"osm_tags":{"seamark:light:character":"LFl","seamark:light:colour":"red","seamark:light:height":"6","seamark:light:period":"10","seamark:light:range":"10","seamark:light:reference":"D 5773","seamark:type":"light_minor","source":"US NGA Pub. 113. 2011-10-20."}}},{"type":"Feature","geometry":{"type":"Point","coordinates":[18.3046053,-32.0909813]},"properties":{"osm_id":1581802707,"osm_type":"node","seamark_type":"light_minor","display_class":"OTHER","min_zoom":12,"importance":1,"name":null,"ref":null,"common":{"type":"light_minor"},"children":{"light":{"1:character":"F","1:colour":"green","1:height":"5","1:range":"3","1:sector_end":"183","2:character":"F","2:colour":"white","2:height":"5","2:range":"3","2:sector_end":"186","2:sector_start":"183","3:character":"F","3:colour":"red","3:height":"5","3:range":"3","3:sector_end":"189","3:sector_start":"186","reference":"D 5772"}},"osm_tags":{"seamark:light:1:character":"F","seamark:light:1:colour":"green","seamark:light:1:height":"5","seamark:light:1:range":"3","seamark:light:1:sector_end":"183","seamark:light:2:character":"F","seamark:light:2:colour":"white","seamark:light:2:height":"5","seamark:light:2:range":"3","seamark:light:2:sector_end":"186","seamark:light:2:sector_start":"183","seamark:light:3:character":"F","seamark:light:3:colour":"red","seamark:light:3:height":"5","seamark:light:3:range":"3","seamark:light:3:sector_end":"189","seamark:light:3:sector_start":"186","seamark:light:reference":"D 5772","seamark:type":"light_minor","source":"US NGA Pub. 113. 2011-10-20."}}},{"type":"Feature","geometry":{"type":"Point","coordinates":[18.3048027,-32.0904943]},"properties":{"osm_id":1581802820,"osm_type":"node","seamark_type":"light_minor","display_class":"OTHER","min_zoom":12,"importance":1,"name":null,"ref":null,"common":{"type":"light_minor"},"children":{"light":{"character":"Q","colour":"red","range":"4","reference":"D 5774"}},"osm_tags":{"seamark:light:character":"Q","seamark:light:colour":"red","seamark:light:range":"4","seamark:light:reference":"D 5774","seamark:type":"light_minor","source":"US NGA Pub. 113. 2011-10-20."}}},{"type":"Feature","geometry":{"type":"Point","coordinates":[18.1433121,-32.7681379]},"properties":{"osm_id":1581803127,"osm_type":"node","seamark_type":"landmark","display_class":"OTHER","min_zoom":12,"importance":1,"name":null,"ref":null,"common":{"construction":"concreted","type":"landmark"},"children":{"landmark":{"category":"tower","colour":"white"},"light":{"character":"Fl","colour":"white","height":"9","period":"2","range":"7","reference":"D 5790"}},"osm_tags":{"seamark:construction":"concreted","seamark:landmark:category":"tower","seamark:landmark:colour":"white","seamark:light:character":"Fl","seamark:light:colour":"white","seamark:light:height":"9","seamark:light:period":"2","seamark:light:range":"7","seamark:light:reference":"D 5790","seamark:type":"landmark","source":"US NGA Pub. 113. 2011-10-20."}}},{"type":"Feature","geometry":{"type":"Point","coordinates":[18.1506843,-32.7709184]},"properties":{"osm_id":3397777392,"osm_type":"node","seamark_type":"shoreline_construction","display_class":"OTHER","min_zoom":12,"importance":1,"name":null,"ref":null,"common":{"type":"shoreline_construction"},"children":{"shoreline_construction":{"category":"slipway"}},"osm_tags":{"seamark:shoreline_construction:category":"slipway","seamark:type":"shoreline_construction"}}},{"type":"Feature","geometry":{"type":"Point","coordinates":[18.1484782,-32.7879764]},"properties":{"osm_id":3397778161,"osm_type":"node","seamark_type":"small_craft_facility","display_class":"OTHER","min_zoom":12,"importance":1,"name":null,"ref":null,"common":{"type":"small_craft_facility"},"children":{"small_craft_facility":{"category":"boatyard"}},"osm_tags":{"seamark:small_craft_facility:category":"boatyard","seamark:type":"small_craft_facility"}}},{"type":"Feature","geometry":{"type":"Point","coordinates":[18.1483848,-32.7880252]},"properties":{"osm_id":3397778162,"osm_type":"node","seamark_type":"small_craft_facility","display_class":"OTHER","min_zoom":12,"importance":1,"name":null,"ref":null,"common":{"type":"small_craft_facility"},"children":{"small_craft_facility":{"category":"boat_hoist"}},"osm_tags":{"seamark:small_craft_facility:category":"boat_hoist","seamark:type":"small_craft_facility"}}},{"type":"Feature","geometry":{"type":"Point","coordinates":[18.1451091,-32.7799003]},"properties":{"osm_id":3397824771,"osm_type":"node","seamark_type":"buoy_safe_water","display_class":"OTHER","min_zoom":12,"importance":1,"name":null,"ref":null,"common":{"type":"buoy_safe_water"},"children":{"buoy_safe_water":{"colour":"red;white","colour_pattern":"vertical","shape":"pillar"}},"osm_tags":{"seamark:buoy_safe_water:colour":"red;white","seamark:buoy_safe_water:colour_pattern":"vertical","seamark:buoy_safe_water:shape":"pillar","seamark:type":"buoy_safe_water"}}},{"type":"Feature","geometry":{"type":"Point","coordinates":[18.1443561,-32.7802862]},"properties":{"osm_id":3397824772,"osm_type":"node","seamark_type":"buoy_safe_water","display_class":"OTHER","min_zoom":12,"importance":1,"name":null,"ref":null,"common":{"type":"buoy_safe_water"},"children":{"buoy_safe_water":{"colour":"white;white","colour_pattern":"vertical","shape":"spherical"}},"osm_tags":{"seamark:buoy_safe_water:colour":"white;white","seamark:buoy_safe_water:colour_pattern":"vertical","seamark:buoy_safe_water:shape":"spherical","seamark:type":"buoy_safe_water"}}},{"type":"Feature","geometry":{"type":"Point","coordinates":[18.140994,-32.7833075]},"properties":{"osm_id":3397824780,"osm_type":"node","seamark_type":"buoy_safe_water","display_class":"OTHER","min_zoom":12,"importance":1,"name":null,"ref":null,"common":{"type":"buoy_safe_water"},"children":{"buoy_safe_water":{"colour":"white;white","colour_pattern":"vertical","shape":"spherical"}},"osm_tags":{"seamark:buoy_safe_water:colour":"white;white","seamark:buoy_safe_water:colour_pattern":"vertical","seamark:buoy_safe_water:shape":"spherical","seamark:type":"buoy_safe_water"}}},{"type":"Feature","geometry":{"type":"Point","coordinates":[18.1407811,-32.7853324]},"properties":{"osm_id":3397824806,"osm_type":"node","seamark_type":"buoy_safe_water","display_class":"OTHER","min_zoom":12,"importance":1,"name":null,"ref":null,"common":{"type":"buoy_safe_water"},"children":{"buoy_safe_water":{"colour":"white;white","colour_pattern":"vertical","shape":"spherical"}},"osm_tags":{"seamark:buoy_safe_water:colour":"white;white","seamark:buoy_safe_water:colour_pattern":"vertical","seamark:buoy_safe_water:shape":"spherical","seamark:type":"buoy_safe_water"}}},{"type":"Feature","geometry":{"type":"Point","coordinates":[18.1418401,-32.7867966]},"properties":{"osm_id":3397824820,"osm_type":"node","seamark_type":"buoy_safe_water","display_class":"OTHER","min_zoom":12,"importance":1,"name":null,"ref":null,"common":{"type":"buoy_safe_water"},"children":{"buoy_safe_water":{"colour":"red;white","colour_pattern":"vertical","shape":"pillar"}},"osm_tags":{"seamark:buoy_safe_water:colour":"red;white","seamark:buoy_safe_water:colour_pattern":"vertical","seamark:buoy_safe_water:shape":"pillar","seamark:type":"buoy_safe_water"}}},{"type":"Feature","geometry":{"type":"Point","coordinates":[18.1452309,-32.7884662]},"properties":{"osm_id":3397824845,"osm_type":"node","seamark_type":"buoy_safe_water","display_class":"OTHER","min_zoom":12,"importance":1,"name":null,"ref":null,"common":{"type":"buoy_safe_water"},"children":{"buoy_safe_water":{"colour":"white;white","colour_pattern":"vertical","shape":"spherical"}},"osm_tags":{"seamark:buoy_safe_water:colour":"white;white","seamark:buoy_safe_water:colour_pattern":"vertical","seamark:buoy_safe_water:shape":"spherical","seamark:type":"buoy_safe_water"}}},{"type":"Feature","geometry":{"type":"Point","coordinates":[18.142269,-32.7815451]},"properties":{"osm_id":3398119781,"osm_type":"node","seamark_type":"buoy_safe_water","display_class":"OTHER","min_zoom":12,"importance":1,"name":null,"ref":null,"common":{"type":"buoy_safe_water"},"children":{"buoy_safe_water":{"colour":"white;white","colour_pattern":"vertical","shape":"spherical"}},"osm_tags":{"seamark:buoy_safe_water:colour":"white;white","seamark:buoy_safe_water:colour_pattern":"vertical","seamark:buoy_safe_water:shape":"spherical","seamark:type":"buoy_safe_water"}}},{"type":"Feature","geometry":{"type":"Point","coordinates":[18.1429655,-32.7875161]},"properties":{"osm_id":3398119782,"osm_type":"node","seamark_type":"buoy_safe_water","display_class":"OTHER","min_zoom":12,"importance":1,"name":null,"ref":null,"common":{"type":"buoy_safe_water"},"children":{"buoy_safe_water":{"colour":"red;white","colour_pattern":"vertical","shape":"pillar"}},"osm_tags":{"seamark:buoy_safe_water:colour":"red;white","seamark:buoy_safe_water:colour_pattern":"vertical","seamark:buoy_safe_water:shape":"pillar","seamark:type":"buoy_safe_water"}}},{"type":"Feature","geometry":{"type":"Point","coordinates":[18.3050425,-32.0860794]},"properties":{"osm_id":1581802374,"osm_type":"node","seamark_type":"light_minor","display_class":"OTHER","min_zoom":12,"importance":1,"name":"Lambert's Bay","ref":null,"common":{"name":"Lambert's Bay","type":"light_minor"},"children":{"light":{"character":"Fl","colour":"white","height":"13","period":"2","range":"13","reference":"D 5770"}},"osm_tags":{"seamark:light:character":"Fl","seamark:light:colour":"white","seamark:light:height":"13","seamark:light:period":"2","seamark:light:range":"13","seamark:light:reference":"D 5770","seamark:name":"Lambert's Bay","seamark:type":"light_minor","source":"US NGA Pub. 113. 2011-10-20."}}},{"type":"Feature","geometry":{"type":"Point","coordinates":[18.1482815,-32.7832755]},"properties":{"osm_id":2796764037,"osm_type":"node","seamark_type":"harbour","display_class":"OTHER","min_zoom":12,"importance":1,"name":"Port Owen Marina","ref":null,"common":{"type":"harbour"},"children":{"harbour":{"category":"marina"}},"osm_tags":{"leisure":"marina","name":"Port Owen Marina","seamark:harbour:category":"marina","seamark:type":"harbour"}}},{"type":"Feature","geometry":{"type":"Polygon","coordinates":[[[18.148118,-32.7821136],[18.1482528,-32.7819784],[18.1483558,-32.7820511],[18.148221,-32.7821862],[18.148118,-32.7821136]]]},"properties":{"osm_id":275014162,"osm_type":"way","seamark_type":"small_craft_facility","display_class":"OTHER","min_zoom":12,"importance":1,"name":"Port Owen Yacht Club","ref":null,"common":{"type":"small_craft_facility"},"children":{"small_craft_facility":{"category":"nautical_club"}},"osm_tags":{"building":"yes","name":"Port Owen Yacht Club","seamark:small_craft_facility:category":"nautical_club","seamark:type":"small_craft_facility"}}},{"type":"Feature","geometry":{"type":"Point","coordinates":[18.0202578,-32.7416466]},"properties":{"osm_id":1581804343,"osm_type":"node","seamark_type":"light_minor","display_class":"OTHER","min_zoom":12,"importance":1,"name":"St. Helenabaai","ref":null,"common":{"name":"St. Helenabaai","type":"light_minor"},"children":{"light":{"character":"Fl","colour":"white","height":"6","period":"5","range":"5","reference":"D 5794","sequence":"0.5+(4.5)"}},"osm_tags":{"seamark:light:character":"Fl","seamark:light:colour":"white","seamark:light:height":"6","seamark:light:period":"5","seamark:light:range":"5","seamark:light:reference":"D 5794","seamark:light:sequence":"0.5+(4.5)","seamark:name":"St. Helenabaai","seamark:type":"light_minor","source":"US NGA Pub. 113. 2011-10-20."}}}],"type":"FeatureCollection"}