{"type":"FeatureCollection","features":[{"type":"Feature","geometry":{"type":"LineString","coordinates":[[172.5,-32.75],[173.0,-28.0]]},"properties":{"osm_id":1289090530,"osm_type":"way","seamark_type":"sea_area","display_class":"OTHER","min_zoom":12,"importance":1,"name":"Three Kings Ridge","ref":null,"common":{"type":"sea_area"},"children":{"sea_area":{"category":"ridge"}},"osm_tags":{"name":"Three Kings Ridge","ref:linz:place_id":"14191","seamark:sea_area:category":"ridge","seamark:type":"sea_area","wikidata":"Q117184262","wikipedia":"en:Three Kings Ridge"}}}],"type":"FeatureCollection"}