{"type":"FeatureCollection","features":[{"type":"Feature","geometry":{"type":"Point","coordinates":[172.3356662,-33.9779253]},"properties":{"osm_id":9662686107,"osm_type":"node","seamark_type":"water_turbulence","display_class":"OTHER","min_zoom":12,"importance":1,"name":null,"ref":null,"common":{"type":"water_turbulence"},"children":{"water_turbulence":{"category":"tide_rips"}},"osm_tags":{"ref:linz:hydrographic_id":"3303770","seamark:type":"water_turbulence","seamark:water_turbulence:category":"tide_rips","source":"LINZ;North Cape Chart"}}},{"type":"Feature","geometry":{"type":"Point","coordinates":[172.3205956,-33.9532538]},"properties":{"osm_id":9662686108,"osm_type":"node","seamark_type":"water_turbulence","display_class":"OTHER","min_zoom":12,"importance":1,"name":null,"ref":null,"common":{"type":"water_turbulence"},"children":{"water_turbulence":{"category":"tide_rips"}},"osm_tags":{"ref:linz:hydrographic_id":"3302920","seamark:type":"water_turbulence","seamark:water_turbulence:category":"tide_rips","source":"LINZ;North Cape Chart"}}},{"type":"Feature","geometry":{"type":"Point","coordinates":[172.3040518,-33.9312929]},"properties":{"osm_id":9662686109,"osm_type":"node","seamark_type":"water_turbulence","display_class":"OTHER","min_zoom":12,"importance":1,"name":null,"ref":null,"common":{"type":"water_turbulence"},"children":{"water_turbulence":{"category":"tide_rips"}},"osm_tags":{"ref:linz:hydrographic_id":"3303638","seamark:type":"water_turbulence","seamark:water_turbulence:category":"tide_rips","source":"LINZ;North Cape Chart"}}},{"type":"Feature","geometry":{"type":"Point","coordinates":[172.2883291,-33.9145014]},"properties":{"osm_id":9662811565,"osm_type":"node","seamark_type":"water_turbulence","display_class":"OTHER","min_zoom":12,"importance":1,"name":null,"ref":null,"common":{"type":"water_turbulence"},"children":{"water_turbulence":{"category":"tide_rips"}},"osm_tags":{"ref:linz:hydrographic_id":"3303051","seamark:type":"water_turbulence","seamark:water_turbulence:category":"tide_rips","source":"LINZ;North Cape Chart"}}},{"type":"Feature","geometry":{"type":"Point","coordinates":[172.2727754,-33.8951286]},"properties":{"osm_id":9662811566,"osm_type":"node","seamark_type":"water_turbulence","display_class":"OTHER","min_zoom":12,"importance":1,"name":null,"ref":null,"common":{"type":"water_turbulence"},"children":{"water_turbulence":{"category":"tide_rips"}},"osm_tags":{"ref:linz:hydrographic_id":"3303670","seamark:type":"water_turbulence","seamark:water_turbulence:category":"tide_rips","source":"LINZ;North Cape Chart"}}},{"type":"Feature","geometry":{"type":"Point","coordinates":[172.249928,-33.8782291]},"properties":{"osm_id":9662811567,"osm_type":"node","seamark_type":"water_turbulence","display_class":"OTHER","min_zoom":12,"importance":1,"name":null,"ref":null,"common":{"type":"water_turbulence"},"children":{"water_turbulence":{"category":"tide_rips"}},"osm_tags":{"ref:linz:hydrographic_id":"3303217","seamark:type":"water_turbulence","seamark:water_turbulence:category":"tide_rips","source":"LINZ;North Cape Chart"}}},{"type":"Feature","geometry":{"type":"Point","coordinates":[172.273101,-33.95]},"properties":{"osm_id":10983534302,"osm_type":"node","seamark_type":"sea_area","display_class":"OTHER","min_zoom":12,"importance":1,"name":"King Bank","ref":null,"common":{"type":"sea_area"},"children":{"sea_area":{"category":"bank"}},"osm_tags":{"name":"King Bank","ref:linz:place_id":"14536","seamark:sea_area:category":"bank","seamark:type":"sea_area","wikidata":"Q137294953"}}},{"type":"Feature","geometry":{"type":"Point","coordinates":[172.8626306,-33.9936202]},"properties":{"osm_id":10983566096,"osm_type":"node","seamark_type":"sea_area","display_class":"OTHER","min_zoom":12,"importance":1,"name":"Murimotu Seavalleys","ref":null,"common":{"type":"sea_area"},"children":{"sea_area":{"category":"valley"}},"osm_tags":{"name":"Murimotu Seavalleys","ref:linz:place_id":"14634","seamark:sea_area:category":"valley","seamark:type":"sea_area"}}}],"type":"FeatureCollection"}