{"type":"FeatureCollection","features":[{"type":"Feature","geometry":{"type":"Point","coordinates":[26.28669,-33.8417037]},"properties":{"osm_id":1295700282,"osm_type":"node","seamark_type":"landmark","display_class":"OTHER","min_zoom":12,"importance":1,"name":"Bird Islands","ref":null,"common":{"construction":"masonry","name":"Bird Islands","type":"landmark"},"children":{"landmark":{"category":"tower","height":"85"},"light":{"character":"Fl","colour":"white","group":"2","height":"29","period":"20","range":"27","reference":"D 6412","sequence":"0.5+(2.2)+0.5+(16.8)"}},"osm_tags":{"man_made":"lighthouse","seamark:construction":"masonry","seamark:landmark:category":"tower","seamark:landmark:height":"85","seamark:light:character":"Fl","seamark:light:colour":"white","seamark:light:group":"2","seamark:light:height":"29","seamark:light:period":"20","seamark:light:range":"27","seamark:light:reference":"D 6412","seamark:light:sequence":"0.5+(2.2)+0.5+(16.8)","seamark:name":"Bird Islands","seamark:type":"landmark","source":"US NGA Pub. 112. 2010-11-10.","wikidata":"Q13036315","wikipedia":"af:Voëleiland-vuurtoring"}}},{"type":"Feature","geometry":{"type":"Point","coordinates":[26.9031075,-33.6040527]},"properties":{"osm_id":1295700281,"osm_type":"node","seamark_type":"light_minor","display_class":"OTHER","min_zoom":12,"importance":1,"name":"Port Alfred","ref":null,"common":{"name":"Port Alfred","type":"light_minor"},"children":{"light":{"character":"Q","colour":"red","height":"9","range":"5","reference":"D 6414"}},"osm_tags":{"seamark:light:character":"Q","seamark:light:colour":"red","seamark:light:height":"9","seamark:light:range":"5","seamark:light:reference":"D 6414","seamark:name":"Port Alfred","seamark:type":"light_minor","source":"US NGA Pub. 112. 2010-11-10."}}}],"type":"FeatureCollection"}