{"type":"FeatureCollection","features":[{"type":"Feature","geometry":{"type":"Point","coordinates":[-78.8291082,-33.6317703]},"properties":{"osm_id":4484332633,"osm_type":"node","seamark_type":"beacon_lateral","display_class":"BEACON","min_zoom":9,"importance":4,"name":null,"ref":null,"common":{"type":"beacon_lateral"},"children":{"beacon_lateral":{"colour":"white;red;white","colour_pattern":"horizontal"},"light":{"character":"Fl","colour":"white","height":"6","period":"12"}},"osm_tags":{"seamark:beacon_lateral:colour":"white;red;white","seamark:beacon_lateral:colour_pattern":"horizontal","seamark:light:character":"Fl","seamark:light:colour":"white","seamark:light:height":"6","seamark:light:period":"12","seamark:type":"beacon_lateral"}}},{"type":"Feature","geometry":{"type":"Point","coordinates":[-78.8252735,-33.635303]},"properties":{"osm_id":12194228776,"osm_type":"node","seamark_type":"wreck","display_class":"OTHER","min_zoom":12,"importance":1,"name":"SMS Dresden","ref":null,"common":{"type":"wreck"},"children":{},"osm_tags":{"historic":"wreck","name":"SMS Dresden","seamark:type":"wreck","wikidata":"Q543302","wikipedia":"es:SMS Dresden (1908)","wreck:date_sunk":"1915-03-14"}}}],"type":"FeatureCollection"}