{"type":"FeatureCollection","features":[{"type":"Feature","geometry":{"type":"Polygon","coordinates":[[[114.922506,-34.5946781],[114.9327118,-34.5776767],[114.7850137,-34.4915084],[114.6717113,-34.1625087],[114.6401024,-33.9999338],[114.6181537,-33.9999846],[114.6516653,-34.1666731],[114.7649932,-34.503315],[114.922506,-34.5946781]]]},"properties":{"osm_id":1053870589,"osm_type":"way","seamark_type":"separation_zone","display_class":"TSS","min_zoom":6,"importance":5,"name":"TSS Off Cape Leeuwin","ref":null,"common":{"name":"TSS Off Cape Leeuwin","type":"separation_zone"},"children":{},"osm_tags":{"seamark:name":"TSS Off Cape Leeuwin","seamark:type":"separation_zone"}}},{"type":"Feature","geometry":{"type":"LineString","coordinates":[[114.9053372,-34.6231769],[114.7366579,-34.525006],[114.6548983,-34.290342],[114.6150015,-34.1750003],[114.5500034,-33.9999995]]},"properties":{"osm_id":1053870587,"osm_type":"way","seamark_type":"separation_boundary","display_class":"OTHER","min_zoom":12,"importance":1,"name":null,"ref":null,"common":{"type":"separation_boundary"},"children":{},"osm_tags":{"seamark:type":"separation_boundary"}}},{"type":"Feature","geometry":{"type":"LineString","coordinates":[[114.5814554,-33.9990782],[114.630986,-34.1665456],[114.7096778,-34.3984458],[114.7485441,-34.5127327],[114.9125649,-34.6061905]]},"properties":{"osm_id":1053870588,"osm_type":"way","seamark_type":"separation_lane","display_class":"OTHER","min_zoom":12,"importance":1,"name":null,"ref":null,"common":{"type":"separation_lane"},"children":{},"osm_tags":{"seamark:type":"separation_lane"}}},{"type":"Feature","geometry":{"type":"LineString","coordinates":[[114.9400938,-34.5641151],[114.802781,-34.4815174],[114.6892038,-34.1552273],[114.6791417,-33.9985672]]},"properties":{"osm_id":1053870590,"osm_type":"way","seamark_type":"separation_lane","display_class":"OTHER","min_zoom":12,"importance":1,"name":null,"ref":null,"common":{"type":"separation_lane"},"children":{},"osm_tags":{"seamark:type":"separation_lane"}}},{"type":"Feature","geometry":{"type":"LineString","coordinates":[[114.7166672,-33.9999949],[114.7116715,-34.1549512],[114.8216693,-34.4749827],[114.9496441,-34.5493351]]},"properties":{"osm_id":1053870591,"osm_type":"way","seamark_type":"separation_boundary","display_class":"OTHER","min_zoom":12,"importance":1,"name":null,"ref":null,"common":{"type":"separation_boundary"},"children":{},"osm_tags":{"seamark:type":"separation_boundary"}}}],"type":"FeatureCollection"}