{"type":"FeatureCollection","features":[{"type":"Feature","geometry":{"type":"Point","coordinates":[121.9743952,-34.1131141]},"properties":{"osm_id":4717018509,"osm_type":"node","seamark_type":"rock","display_class":"OTHER","min_zoom":12,"importance":1,"name":null,"ref":null,"common":{"type":"rock"},"children":{},"osm_tags":{"seamark:type":"rock"}}},{"type":"Feature","geometry":{"type":"Point","coordinates":[121.9574329,-34.1218298]},"properties":{"osm_id":4717018510,"osm_type":"node","seamark_type":"rock","display_class":"OTHER","min_zoom":12,"importance":1,"name":null,"ref":null,"common":{"type":"rock"},"children":{},"osm_tags":{"seamark:type":"rock"}}},{"type":"Feature","geometry":{"type":"Point","coordinates":[121.8922257,-34.1425497]},"properties":{"osm_id":4717018511,"osm_type":"node","seamark_type":"rock","display_class":"OTHER","min_zoom":12,"importance":1,"name":null,"ref":null,"common":{"type":"rock"},"children":{},"osm_tags":{"seamark:type":"rock"}}},{"type":"Feature","geometry":{"type":"Point","coordinates":[121.8981856,-34.1337717]},"properties":{"osm_id":4717018512,"osm_type":"node","seamark_type":"rock","display_class":"OTHER","min_zoom":12,"importance":1,"name":null,"ref":null,"common":{"type":"rock"},"children":{},"osm_tags":{"seamark:type":"rock"}}},{"type":"Feature","geometry":{"type":"Point","coordinates":[121.9222718,-34.1387336]},"properties":{"osm_id":4717018513,"osm_type":"node","seamark_type":"rock","display_class":"OTHER","min_zoom":12,"importance":1,"name":null,"ref":null,"common":{"type":"rock"},"children":{},"osm_tags":{"seamark:type":"rock"}}},{"type":"Feature","geometry":{"type":"Point","coordinates":[121.9202977,-34.137961]},"properties":{"osm_id":4717018514,"osm_type":"node","seamark_type":"rock","display_class":"OTHER","min_zoom":12,"importance":1,"name":null,"ref":null,"common":{"type":"rock"},"children":{},"osm_tags":{"seamark:type":"rock"}}},{"type":"Feature","geometry":{"type":"Point","coordinates":[121.9182914,-34.1395328]},"properties":{"osm_id":4717018515,"osm_type":"node","seamark_type":"rock","display_class":"OTHER","min_zoom":12,"importance":1,"name":null,"ref":null,"common":{"type":"rock"},"children":{},"osm_tags":{"seamark:type":"rock"}}},{"type":"Feature","geometry":{"type":"Point","coordinates":[121.9470697,-34.1733107]},"properties":{"osm_id":4719766619,"osm_type":"node","seamark_type":"rock","display_class":"OTHER","min_zoom":12,"importance":1,"name":null,"ref":null,"common":{"type":"rock"},"children":{},"osm_tags":{"seamark:type":"rock"}}},{"type":"Feature","geometry":{"type":"Point","coordinates":[121.9477671,-34.1718461]},"properties":{"osm_id":4719766620,"osm_type":"node","seamark_type":"rock","display_class":"OTHER","min_zoom":12,"importance":1,"name":null,"ref":null,"common":{"type":"rock"},"children":{},"osm_tags":{"seamark:type":"rock"}}},{"type":"Feature","geometry":{"type":"Point","coordinates":[121.9321459,-34.1308841]},"properties":{"osm_id":4719766621,"osm_type":"node","seamark_type":"rock","display_class":"OTHER","min_zoom":12,"importance":1,"name":null,"ref":null,"common":{"type":"rock"},"children":{},"osm_tags":{"seamark:type":"rock"}}}],"type":"FeatureCollection"}