{"type":"FeatureCollection","features":[{"type":"Feature","geometry":{"type":"Point","coordinates":[18.8277877,-34.3866602]},"properties":{"osm_id":1218698894,"osm_type":"node","seamark_type":"light_major","display_class":"LIGHTHOUSE","min_zoom":7,"importance":5,"name":"Cape Hangklip","ref":null,"common":{"name":"Cape Hangklip","type":"light_major"},"children":{"light":{"character":"Fl","colour":"white","height":"33","period":"10","range":"25","reference":"D 6280","sequence":"0.3+(9.7)"}},"osm_tags":{"man_made":"lighthouse","name":"Hangklip","note":"http://www.lighthouses.co.za/lighthouses/Tower.asp?TN=Cape%20Hangklip","seamark:light:character":"Fl","seamark:light:colour":"white","seamark:light:height":"33","seamark:light:period":"10","seamark:light:range":"25","seamark:light:reference":"D 6280","seamark:light:sequence":"0.3+(9.7)","seamark:name":"Cape Hangklip","seamark:type":"light_major","source":"US NGA Pub. 112. 2010-11-10.","wikidata":"Q19623300","wikipedia":"af:Hangklip-vuurtoring"}}},{"type":"Feature","geometry":{"type":"Polygon","coordinates":[[[18.4902655,-34.3538099],[18.4902572,-34.3538054],[18.4902473,-34.353805],[18.4902385,-34.3538087],[18.4902331,-34.3538156],[18.4902326,-34.3538237],[18.4902371,-34.353831],[18.4902454,-34.3538354],[18.4902553,-34.3538358],[18.4902641,-34.3538321],[18.4902694,-34.3538253],[18.49027,-34.3538171],[18.4902655,-34.3538099]]]},"properties":{"osm_id":350143420,"osm_type":"way","seamark_type":"light_major","display_class":"LIGHTHOUSE","min_zoom":7,"importance":5,"name":"Cape Point Old Lighthouse","ref":null,"common":{"type":"light_major"},"children":{},"osm_tags":{"building":"yes","ele":"816","historic":"lighthouse","man_made":"lighthouse","name":"Cape Point Old Lighthouse","name:af":"Kaappunt-vuurtoring (Diaspunt)","name:de":"Cape Point Alter Leuchtturm","name:en":"Cape Point Old Lighthouse","seamark:type":"light_major","source":"adjusted to fit to footways based on GPS tracks","start_date":"1860-05-01","wikidata":"Q10966914","wikipedia":"de:Cape Point Lighthouse","wikipedia:af":"https://af.wikipedia.org/wiki/Kaappunt-vuurtoring_(Diaspunt)"}}},{"type":"Feature","geometry":{"type":"Polygon","coordinates":[[[18.496855,-34.3569158],[18.4969275,-34.3568959],[18.496951,-34.3569542],[18.4968785,-34.3569741],[18.496855,-34.3569158]]]},"properties":{"osm_id":344538954,"osm_type":"way","seamark_type":"landmark","display_class":"LIGHTHOUSE","min_zoom":7,"importance":5,"name":"Cape of Good Hope","ref":null,"common":{"name":"Cape of Good Hope","type":"landmark"},"children":{"landmark":{"height":"30"},"light":{"1:character":"Fl","1:colour":"white","1:group":"2+1","1:height":"87","1:period":"30","1:range":"32","1:sector_end":"106","1:sector_start":"153","1:sequence":"0.6+(3.6),0.6+(12.3),0.6+(12.3)","reference":"D 6120"}},"osm_tags":{"building":"yes","image":"https://commons.wikimedia.org/wiki/File:Lighthouse_Cape_Point,_South_Africa.JPG","man_made":"lighthouse","name":"Cape Point Lighthouse","seamark:landmark:height":"30","seamark:light:1:character":"Fl","seamark:light:1:colour":"white","seamark:light:1:group":"2+1","seamark:light:1:height":"87","seamark:light:1:period":"30","seamark:light:1:range":"32","seamark:light:1:sector_end":"106","seamark:light:1:sector_start":"153","seamark:light:1:sequence":"0.6+(3.6),0.6+(12.3),0.6+(12.3)","seamark:light:reference":"D 6120","seamark:name":"Cape of Good Hope","seamark:type":"landmark","source":"US NGA Pub. 112. 2010-11-10.","wikimedia_commons":"File:Lighthouse_Cape_Point,_South_Africa.JPG","wikipedia":"en:Cape Point#Lighthouse"}}},{"type":"Feature","geometry":{"type":"Point","coordinates":[18.460101,-34.1812386]},"properties":{"osm_id":1295700343,"osm_type":"node","seamark_type":"light_major","display_class":"LIGHTHOUSE","min_zoom":7,"importance":5,"name":"Roman Rocks","ref":null,"common":{"name":"Roman Rocks","type":"light_major"},"children":{"light":{"character":"Fl","colour":"white","height":"17","period":"6","range":"20","reference":"D 6140","sequence":"0.1+(5.9)"},"radar_transponder":{"category":"racon","group":"Q","period":"48"}},"osm_tags":{"man_made":"lighthouse","name":"Roman Rock Light","seamark:light:character":"Fl","seamark:light:colour":"white","seamark:light:height":"17","seamark:light:period":"6","seamark:light:range":"20","seamark:light:reference":"D 6140","seamark:light:sequence":"0.1+(5.9)","seamark:name":"Roman Rocks","seamark:radar_transponder:category":"racon","seamark:radar_transponder:group":"Q","seamark:radar_transponder:period":"48","seamark:type":"light_major","source":"US NGA Pub. 112. 2010-11-10.","website":"https://simonstown.org/roman-rock/","wikidata":"Q3940524","wikimedia_commons":"Category:Roman Rock Lighthouse","wikipedia":"en:Roman Rock Lighthouse"}}},{"type":"Feature","geometry":{"type":"Polygon","coordinates":[[[18.3192992,-34.1486795],[18.3192838,-34.1486843],[18.3192674,-34.1486847],[18.3192517,-34.1486805],[18.3192387,-34.1486722],[18.3192297,-34.1486608],[18.3192257,-34.1486476],[18.3192273,-34.1486341],[18.3192337,-34.1486224],[18.3192443,-34.148613],[18.3192578,-34.1486068],[18.3192731,-34.1486044],[18.3192884,-34.1486061],[18.3193024,-34.1486117],[18.3193135,-34.1486209],[18.3193206,-34.1486321],[18.3193231,-34.1486455],[18.31932,-34.1486589],[18.3193117,-34.1486706],[18.3192992,-34.1486795]]]},"properties":{"osm_id":316244163,"osm_type":"way","seamark_type":"light_major","display_class":"LIGHTHOUSE","min_zoom":7,"importance":5,"name":"Siangkoppunt","ref":null,"common":{"name":"Siangkoppunt","type":"light_major"},"children":{"light":{"character":"Fl","colour":"white","group":"4","height":"40","period":"30","range":"30","reference":"D 6110","sequence":"0.6+(3.9)+0.6+(3.9)+0.6+(3.9)+0.6+(15.9)"}},"osm_tags":{"man_made":"lighthouse","name":"Slangkop Lighthouse","seamark:light:character":"Fl","seamark:light:colour":"white","seamark:light:group":"4","seamark:light:height":"40","seamark:light:period":"30","seamark:light:range":"30","seamark:light:reference":"D 6110","seamark:light:sequence":"0.6+(3.9)+0.6+(3.9)+0.6+(3.9)+0.6+(15.9)","seamark:name":"Siangkoppunt","seamark:type":"light_major","start_date":"1914","wikidata":"Q7538646","wikimedia_commons":"Category:Slangkop Lighthouse","wikipedia":"en:Slangkop Lighthouse","year":"1919"}}},{"type":"Feature","geometry":{"type":"Point","coordinates":[18.4507931,-34.1281516]},"properties":{"osm_id":54745781,"osm_type":"node","seamark_type":"light_minor","display_class":"OTHER","min_zoom":12,"importance":1,"name":null,"ref":null,"common":{"type":"light_minor"},"children":{"light":{"character":"Fl","colour":"green","height":"4","period":"5","range":"2","reference":"D 6224","sequence":"0.5+(4.5)"}},"osm_tags":{"man_made":"lighthouse","seamark:light:character":"Fl","seamark:light:colour":"green","seamark:light:height":"4","seamark:light:period":"5","seamark:light:range":"2","seamark:light:reference":"D 6224","seamark:light:sequence":"0.5+(4.5)","seamark:type":"light_minor","source":"US NGA Pub. 112. 2010-11-10."}}},{"type":"Feature","geometry":{"type":"Point","coordinates":[18.4337018,-34.1917509]},"properties":{"osm_id":428421734,"osm_type":"node","seamark_type":"harbour","display_class":"OTHER","min_zoom":12,"importance":1,"name":null,"ref":null,"common":{"type":"harbour"},"children":{"harbour":{"category":"marina"}},"osm_tags":{"leisure":"marina","mooring":"yes","seamark:harbour:category":"marina","seamark:type":"harbour"}}},{"type":"Feature","geometry":{"type":"Point","coordinates":[18.8571354,-34.1516177]},"properties":{"osm_id":528298495,"osm_type":"node","seamark_type":"harbour","display_class":"OTHER","min_zoom":12,"importance":1,"name":null,"ref":null,"common":{"type":"harbour"},"children":{"harbour":{"category":"marina"}},"osm_tags":{"leisure":"marina","seamark:harbour:category":"marina","seamark:type":"harbour"}}},{"type":"Feature","geometry":{"type":"Point","coordinates":[18.8579073,-34.1629871]},"properties":{"osm_id":1295700335,"osm_type":"node","seamark_type":"light_minor","display_class":"OTHER","min_zoom":12,"importance":1,"name":null,"ref":null,"common":{"information":"Fl.R. 5M and Fl.G. 5M mark marina 0.7 mile NW.","type":"light_minor"},"children":{"light":{"character":"Q","colour":"green","height":"5","range":"7","reference":"D 6262"}},"osm_tags":{"seamark:information":"Fl.R. 5M and Fl.G. 5M mark marina 0.7 mile NW.","seamark:light:character":"Q","seamark:light:colour":"green","seamark:light:height":"5","seamark:light:range":"7","seamark:light:reference":"D 6262","seamark:type":"light_minor","source":"US NGA Pub. 112. 2010-11-10."}}},{"type":"Feature","geometry":{"type":"Point","coordinates":[18.8584809,-34.1633766]},"properties":{"osm_id":1295700336,"osm_type":"node","seamark_type":"light_minor","display_class":"OTHER","min_zoom":12,"importance":1,"name":null,"ref":null,"common":{"type":"light_minor"},"children":{"light":{"character":"Fl","colour":"red","height":"5","period":"2","range":"7","reference":"D 6260","sequence":"0.3+(1.7)"}},"osm_tags":{"seamark:light:character":"Fl","seamark:light:colour":"red","seamark:light:height":"5","seamark:light:period":"2","seamark:light:range":"7","seamark:light:reference":"D 6260","seamark:light:sequence":"0.3+(1.7)","seamark:type":"light_minor","source":"US NGA Pub. 112. 2010-11-10."}}},{"type":"Feature","geometry":{"type":"Point","coordinates":[18.437661,-34.185909]},"properties":{"osm_id":1295700345,"osm_type":"node","seamark_type":"light_minor","display_class":"OTHER","min_zoom":12,"importance":1,"name":null,"ref":null,"common":{"type":"light_minor"},"children":{"light":{"character":"Q","colour":"red","height":"8","range":"5","reference":"D 6143"}},"osm_tags":{"seamark:light:character":"Q","seamark:light:colour":"red","seamark:light:height":"8","seamark:light:range":"5","seamark:light:reference":"D 6143","seamark:type":"light_minor","source":"US NGA Pub. 112. 2010-11-10."}}},{"type":"Feature","geometry":{"type":"Point","coordinates":[18.4365162,-34.1865157]},"properties":{"osm_id":1295700346,"osm_type":"node","seamark_type":"light_minor","display_class":"OTHER","min_zoom":12,"importance":1,"name":null,"ref":null,"common":{"type":"light_minor"},"children":{"light":{"character":"Q","colour":"green","height":"8","range":"4","reference":"D 6143.1"}},"osm_tags":{"seamark:light:character":"Q","seamark:light:colour":"green","seamark:light:height":"8","seamark:light:range":"4","seamark:light:reference":"D 6143.1","seamark:type":"light_minor","source":"US NGA Pub. 112. 2010-11-10."}}},{"type":"Feature","geometry":{"type":"Point","coordinates":[18.4337937,-34.1883044]},"properties":{"osm_id":1295700347,"osm_type":"node","seamark_type":"light_minor","display_class":"OTHER","min_zoom":12,"importance":1,"name":null,"ref":null,"common":{"type":"light_minor"},"children":{"light":{"1:character":"Fl","1:colour":"red","1:height":"14","1:period":"15","1:range":"4","1:sector_end":"220","1:sector_start":"340","1:sequence":"1+(14)","reference":"D 6143.2"}},"osm_tags":{"seamark:light:1:character":"Fl","seamark:light:1:colour":"red","seamark:light:1:height":"14","seamark:light:1:period":"15","seamark:light:1:range":"4","seamark:light:1:sector_end":"220","seamark:light:1:sector_start":"340","seamark:light:1:sequence":"1+(14)","seamark:light:reference":"D 6143.2","seamark:type":"light_minor","source":"US NGA Pub. 112. 2010-11-10."}}},{"type":"Feature","geometry":{"type":"Point","coordinates":[18.4407025,-34.1872642]},"properties":{"osm_id":1295700348,"osm_type":"node","seamark_type":"light_minor","display_class":"OTHER","min_zoom":12,"importance":1,"name":null,"ref":null,"common":{"type":"light_minor"},"children":{"light":{"1:character":"Oc","1:colour":"white","1:height":"17","1:period":"4","1:range":"11","1:sector_end":"315","1:sector_start":"55","1:sequence":"2.5+(1.5)","reference":"D 6144"}},"osm_tags":{"seamark:light:1:character":"Oc","seamark:light:1:colour":"white","seamark:light:1:height":"17","seamark:light:1:period":"4","seamark:light:1:range":"11","seamark:light:1:sector_end":"315","seamark:light:1:sector_start":"55","seamark:light:1:sequence":"2.5+(1.5)","seamark:light:reference":"D 6144","seamark:type":"light_minor","source":"US NGA Pub. 112. 2010-11-10."}}},{"type":"Feature","geometry":{"type":"Point","coordinates":[18.4395212,-34.1880933]},"properties":{"osm_id":1295700351,"osm_type":"node","seamark_type":"light_minor","display_class":"OTHER","min_zoom":12,"importance":1,"name":null,"ref":null,"common":{"type":"light_minor"},"children":{"light":{"character":"F","colour":"red","height":"7","range":"3","reference":"D 6146"}},"osm_tags":{"seamark:light:character":"F","seamark:light:colour":"red","seamark:light:height":"7","seamark:light:range":"3","seamark:light:reference":"D 6146","seamark:type":"light_minor","source":"US NGA Pub. 112. 2010-11-10."}}},{"type":"Feature","geometry":{"type":"Point","coordinates":[18.4385345,-34.1887271]},"properties":{"osm_id":1295700352,"osm_type":"node","seamark_type":"light_minor","display_class":"OTHER","min_zoom":12,"importance":1,"name":null,"ref":null,"common":{"type":"light_minor"},"children":{"light":{"character":"F","colour":"green","height":"7","range":"3","reference":"D 6150"}},"osm_tags":{"seamark:light:character":"F","seamark:light:colour":"green","seamark:light:height":"7","seamark:light:range":"3","seamark:light:reference":"D 6150","seamark:type":"light_minor","source":"US NGA Pub. 112. 2010-11-10."}}},{"type":"Feature","geometry":{"type":"Point","coordinates":[18.4430081,-34.1923514]},"properties":{"osm_id":1295700354,"osm_type":"node","seamark_type":"light_minor","display_class":"OTHER","min_zoom":12,"importance":1,"name":null,"ref":null,"common":{"type":"light_minor"},"children":{"light":{"category":"upper","character":"Iso","colour":"red","period":"2","reference":"D 6147.1"}},"osm_tags":{"seamark:light:category":"upper","seamark:light:character":"Iso","seamark:light:colour":"red","seamark:light:period":"2","seamark:light:reference":"D 6147.1","seamark:type":"light_minor","source":"US NGA Pub. 112. 2010-11-10."}}},{"type":"Feature","geometry":{"type":"Point","coordinates":[18.436416,-34.1896745]},"properties":{"osm_id":1295700355,"osm_type":"node","seamark_type":"light_minor","display_class":"OTHER","min_zoom":12,"importance":1,"name":null,"ref":null,"common":{"type":"light_minor"},"children":{"light":{"character":"F","colour":"green","reference":"D 6151"}},"osm_tags":{"seamark:light:character":"F","seamark:light:colour":"green","seamark:light:reference":"D 6151","seamark:type":"light_minor","source":"US NGA Pub. 112. 2010-11-10."}}},{"type":"Feature","geometry":{"type":"Point","coordinates":[18.4295233,-34.1915827]},"properties":{"osm_id":1295700357,"osm_type":"node","seamark_type":"light_minor","display_class":"OTHER","min_zoom":12,"importance":1,"name":null,"ref":null,"common":{"type":"light_minor"},"children":{"light":{"category":"horizontal","character":"F","colour":"red","multiple":"2","reference":"D 6153"}},"osm_tags":{"seamark:light:category":"horizontal","seamark:light:character":"F","seamark:light:colour":"red","seamark:light:multiple":"2","seamark:light:reference":"D 6153","seamark:type":"light_minor","source":"US NGA Pub. 112. 2009-11-12."}}},{"type":"Feature","geometry":{"type":"Point","coordinates":[18.4331068,-34.1921256]},"properties":{"osm_id":1297225056,"osm_type":"node","seamark_type":"rock","display_class":"OTHER","min_zoom":12,"importance":1,"name":null,"ref":null,"common":{"type":"rock"},"children":{"rock":{"water_level":"covers"}},"osm_tags":{"seamark:rock:water_level":"covers","seamark:type":"rock"}}},{"type":"Feature","geometry":{"type":"Point","coordinates":[18.4418977,-34.1913148]},"properties":{"osm_id":1297225100,"osm_type":"node","seamark_type":"light_minor","display_class":"OTHER","min_zoom":12,"importance":1,"name":null,"ref":null,"common":{"type":"light_minor"},"children":{"light":{"category":"lower","character":"Iso","colour":"yellow","period":"2","reference":"D 6147"}},"osm_tags":{"seamark:light:category":"lower","seamark:light:character":"Iso","seamark:light:colour":"yellow","seamark:light:period":"2","seamark:light:reference":"D 6147","seamark:type":"light_minor","source":"US NGA Pub. 112. 2010-11-10."}}},{"type":"Feature","geometry":{"type":"Point","coordinates":[18.350304,-34.051383]},"properties":{"osm_id":1581836130,"osm_type":"node","seamark_type":"light_minor","display_class":"OTHER","min_zoom":12,"importance":1,"name":null,"ref":null,"common":{"type":"light_minor"},"children":{"light":{"character":"Fl","colour":"white","height":"5","period":"3","range":"4","reference":"D 6000"}},"osm_tags":{"seamark:light:character":"Fl","seamark:light:colour":"white","seamark:light:height":"5","seamark:light:period":"3","seamark:light:range":"4","seamark:light:reference":"D 6000","seamark:type":"light_minor","source":"US NGA Pub. 113. 2011-10-20."}}},{"type":"Feature","geometry":{"type":"Point","coordinates":[18.3493965,-34.0508572]},"properties":{"osm_id":1581836372,"osm_type":"node","seamark_type":"light_minor","display_class":"OTHER","min_zoom":12,"importance":1,"name":null,"ref":null,"common":{"type":"light_minor"},"children":{"light":{"character":"Fl","colour":"green","height":"6","period":"2","range":"2","reference":"D 6002"}},"osm_tags":{"seamark:light:character":"Fl","seamark:light:colour":"green","seamark:light:height":"6","seamark:light:period":"2","seamark:light:range":"2","seamark:light:reference":"D 6002","seamark:type":"light_minor","source":"US NGA Pub. 113. 2011-10-20."}}},{"type":"Feature","geometry":{"type":"Point","coordinates":[18.4368419,-34.1894187]},"properties":{"osm_id":2448138100,"osm_type":"node","seamark_type":"light_minor","display_class":"OTHER","min_zoom":12,"importance":1,"name":null,"ref":null,"common":{"type":"light_minor"},"children":{"light":{"character":"F","colour":"red"}},"osm_tags":{"seamark:light:character":"F","seamark:light:colour":"red","seamark:type":"light_minor"}}},{"type":"Feature","geometry":{"type":"Point","coordinates":[18.5868935,-34.1348074]},"properties":{"osm_id":3340808554,"osm_type":"node","seamark_type":"rock","display_class":"OTHER","min_zoom":12,"importance":1,"name":null,"ref":null,"common":{"type":"rock"},"children":{"rock":{"water_level":"awash"}},"osm_tags":{"seamark:rock:water_level":"awash","seamark:type":"rock"}}},{"type":"Feature","geometry":{"type":"Point","coordinates":[18.6466946,-34.1474556]},"properties":{"osm_id":3340808555,"osm_type":"node","seamark_type":"rock","display_class":"OTHER","min_zoom":12,"importance":1,"name":null,"ref":null,"common":{"type":"rock"},"children":{"rock":{"water_level":"awash"}},"osm_tags":{"seamark:rock:water_level":"awash","seamark:type":"rock"}}},{"type":"Feature","geometry":{"type":"Point","coordinates":[18.480642,-34.2757882]},"properties":{"osm_id":3340808556,"osm_type":"node","seamark_type":"rock","display_class":"OTHER","min_zoom":12,"importance":1,"name":null,"ref":null,"common":{"type":"rock"},"children":{"rock":{"water_level":"awash"}},"osm_tags":{"seamark:rock:water_level":"awash","seamark:type":"rock"}}},{"type":"Feature","geometry":{"type":"Point","coordinates":[18.4903148,-34.38916]},"properties":{"osm_id":3363317265,"osm_type":"node","seamark_type":"rock","display_class":"OTHER","min_zoom":12,"importance":1,"name":null,"ref":null,"common":{"type":"rock"},"children":{"rock":{"water_level":"covers"}},"osm_tags":{"seamark:rock:water_level":"covers","seamark:type":"rock"}}},{"type":"Feature","geometry":{"type":"Point","coordinates":[18.4957042,-34.3558481]},"properties":{"osm_id":3559036572,"osm_type":"node","seamark_type":"gate","display_class":"OTHER","min_zoom":12,"importance":1,"name":null,"ref":null,"common":{"type":"gate"},"children":{},"osm_tags":{"seamark:type":"gate","waterway":"lock_gate"}}},{"type":"Feature","geometry":{"type":"Polygon","coordinates":[[[18.4340334,-34.1925173],[18.4337495,-34.1922743],[18.4336712,-34.1923369],[18.433955,-34.1925799],[18.4340334,-34.1925173]]]},"properties":{"osm_id":114537337,"osm_type":"way","seamark_type":"small_craft_facility","display_class":"OTHER","min_zoom":12,"importance":1,"name":null,"ref":null,"common":{"information":"by car","type":"small_craft_facility"},"children":{"small_craft_facility":{"category":"slipway"}},"osm_tags":{"leisure":"slipway","seamark:information":"by car","seamark:small_craft_facility:category":"slipway","seamark:type":"small_craft_facility"}}},{"type":"Feature","geometry":{"type":"Polygon","coordinates":[[[18.4335676,-34.1925148],[18.4333701,-34.1923543],[18.4334354,-34.1922993],[18.4336329,-34.1924598],[18.4335676,-34.1925148]]]},"properties":{"osm_id":114537362,"osm_type":"way","seamark_type":"small_craft_facility","display_class":"OTHER","min_zoom":12,"importance":1,"name":null,"ref":null,"common":{"information":"by car","type":"small_craft_facility"},"children":{"small_craft_facility":{"category":"slipway"}},"osm_tags":{"leisure":"slipway","seamark:information":"by car","seamark:small_craft_facility:category":"slipway","seamark:type":"small_craft_facility"}}},{"type":"Feature","geometry":{"type":"Polygon","coordinates":[[[18.3461286,-34.0500243],[18.3464247,-34.0501954],[18.3464854,-34.0501525],[18.3473512,-34.0507545],[18.3469109,-34.0511733],[18.3466727,-34.0510164],[18.3469363,-34.0507045],[18.3468472,-34.0506427],[18.3463378,-34.0511657],[18.3459957,-34.0509351],[18.3465506,-34.0504165],[18.3464413,-34.050336],[18.3462525,-34.0505273],[18.3459763,-34.0503461],[18.346163,-34.0501429],[18.3460625,-34.0500761],[18.3461286,-34.0500243]]]},"properties":{"osm_id":42347659,"osm_type":"way","seamark_type":"harbour","display_class":"OTHER","min_zoom":12,"importance":1,"name":"Atlantic Boat Club Marina","ref":null,"common":{"type":"harbour"},"children":{"harbour":{"category":"marina"}},"osm_tags":{"leisure":"marina","name":"Atlantic Boat Club Marina","seamark:harbour:category":"marina","seamark:type":"harbour"}}},{"type":"Feature","geometry":{"type":"Point","coordinates":[18.3084054,-34.03702]},"properties":{"osm_id":305141561,"osm_type":"node","seamark_type":"wreck","display_class":"OTHER","min_zoom":12,"importance":1,"name":"BOS 400 Shipwreck","ref":null,"common":{"type":"wreck"},"children":{},"osm_tags":{"historic":"wreck","name":"BOS 400 Shipwreck","seamark:type":"wreck","tourism":"attraction","wikidata":"Q2877353","wikimedia_commons":"Category:Bos 400 (ship, 1984)","wikipedia":"en:BOS 400","wreck:date_sunk":"1994"}}},{"type":"Feature","geometry":{"type":"Point","coordinates":[18.4353368,-34.1499444]},"properties":{"osm_id":60177612,"osm_type":"node","seamark_type":"landmark","display_class":"OTHER","min_zoom":12,"importance":1,"name":"Elsies Peak wireless masts","ref":null,"common":{"type":"landmark"},"children":{"landmark":{"category":"mast"}},"osm_tags":{"man_made":"mast","name":"Elsies Peak wireless masts","seamark:landmark:category":"mast","seamark:type":"landmark"}}},{"type":"Feature","geometry":{"type":"Point","coordinates":[18.312475,-34.0274491]},"properties":{"osm_id":453030856,"osm_type":"node","seamark_type":"wreck","display_class":"OTHER","min_zoom":12,"importance":1,"name":"Harvest Capella Shipwreck","ref":null,"common":{"type":"wreck"},"children":{},"osm_tags":{"historic":"wreck","name":"Harvest Capella Shipwreck","seamark:type":"wreck","tourism":"attraction","wikidata":"Q41771616","wreck:date_sunk":"1986"}}},{"type":"Feature","geometry":{"type":"Point","coordinates":[18.3484849,-34.049481]},"properties":{"osm_id":428422214,"osm_type":"node","seamark_type":"harbour","display_class":"OTHER","min_zoom":12,"importance":1,"name":"Hout Bay Yacht Club (HBYC) Marina","ref":null,"common":{"type":"harbour"},"children":{"harbour":{"category":"marina"}},"osm_tags":{"leisure":"marina","name":"Hout Bay Yacht Club (HBYC) Marina","seamark:harbour:category":"marina","seamark:type":"harbour"}}},{"type":"Feature","geometry":{"type":"Polygon","coordinates":[[[18.3484503,-34.049266],[18.3484802,-34.0493197],[18.3469381,-34.0499544],[18.3470814,-34.0502062],[18.3472847,-34.0501201],[18.3480327,-34.0498032],[18.3481506,-34.0499911],[18.347378,-34.0503109],[18.3475711,-34.0505888],[18.3480684,-34.0503655],[18.3481731,-34.0503185],[18.3488853,-34.0499986],[18.348707,-34.0497757],[18.3483623,-34.049936],[18.3482202,-34.0497256],[18.348976,-34.0494074],[18.3488037,-34.0491895],[18.34858,-34.0493022],[18.3485358,-34.0492308],[18.3484503,-34.049266]]]},"properties":{"osm_id":42347660,"osm_type":"way","seamark_type":"harbour","display_class":"OTHER","min_zoom":12,"importance":1,"name":"Hout Bay Yacht Club Marina","ref":null,"common":{"type":"harbour"},"children":{"harbour":{"category":"marina"}},"osm_tags":{"leisure":"marina","name":"Hout Bay Yacht Club Marina","seamark:harbour:category":"marina","seamark:type":"harbour"}}},{"type":"Feature","geometry":{"type":"Point","coordinates":[18.4512432,-34.1283233]},"properties":{"osm_id":54745778,"osm_type":"node","seamark_type":"light_minor","display_class":"OTHER","min_zoom":12,"importance":1,"name":"Kalk Bay","ref":null,"common":{"name":"Kalk Bay","type":"light_minor"},"children":{"light":{"character":"LFl","colour":"red","height":"7","period":"15","range":"6","reference":"D 6200","sequence":"2.5+(12.5)"}},"osm_tags":{"man_made":"lighthouse","seamark:light:character":"LFl","seamark:light:colour":"red","seamark:light:height":"7","seamark:light:period":"15","seamark:light:range":"6","seamark:light:reference":"D 6200","seamark:light:sequence":"2.5+(12.5)","seamark:name":"Kalk Bay","seamark:type":"light_minor","source":"US NGA Pub. 112. 2010-11-10."}}},{"type":"Feature","geometry":{"type":"Point","coordinates":[18.3887554,-34.1075249]},"properties":{"osm_id":11355238870,"osm_type":"node","seamark_type":"gate","display_class":"OTHER","min_zoom":12,"importance":1,"name":"Locked Mountain Access Gate","ref":null,"common":{"type":"gate"},"children":{},"osm_tags":{"name":"Locked Mountain Access Gate","seamark:type":"gate","waterway":"lock_gate"}}},{"type":"Feature","geometry":{"type":"Point","coordinates":[18.3884129,-34.2838018]},"properties":{"osm_id":7025899719,"osm_type":"node","seamark_type":"wreck","display_class":"OTHER","min_zoom":12,"importance":1,"name":"Nolloth","ref":null,"common":{"type":"wreck"},"children":{},"osm_tags":{"historic":"wreck","name":"Nolloth","seamark:type":"wreck","wreck:date_sunk":"1965"}}},{"type":"Feature","geometry":{"type":"Polygon","coordinates":[[[18.3869563,-34.2757412],[18.3869477,-34.2758674],[18.3874726,-34.2759172],[18.3874791,-34.2758016],[18.3869563,-34.2757412]]]},"properties":{"osm_id":1119527682,"osm_type":"way","seamark_type":"wreck","display_class":"OTHER","min_zoom":12,"importance":1,"name":"Nolloth","ref":null,"common":{"type":"wreck"},"children":{"wreck":{"category":"non-dangerous"}},"osm_tags":{"access":"permit","historic":"wreck","name":"Nolloth","seamark:type":"wreck","seamark:wreck:category":"non-dangerous","wreck:date_sunk":"1965-04-30","wreck:type":"ship","wreck:visible_at_high_tide":"yes","wreck:visible_at_low_tide":"yes"}}},{"type":"Feature","geometry":{"type":"Point","coordinates":[18.4018744,-34.3078694]},"properties":{"osm_id":11051586533,"osm_type":"node","seamark_type":"wreck","display_class":"OTHER","min_zoom":12,"importance":1,"name":"Phyllisia Shipwreck","ref":null,"common":{"type":"wreck"},"children":{"wreck":{"category":"hull_showing"}},"osm_tags":{"access":"permissive","historic":"wreck","name":"Phyllisia Shipwreck","seamark:type":"wreck","seamark:wreck:category":"hull_showing","wreck:date_sunk":"3 May 1968","wreck:visible_at_low_tide":"yes"}}},{"type":"Feature","geometry":{"type":"Point","coordinates":[18.3487444,-34.1237761]},"properties":{"osm_id":2348528796,"osm_type":"node","seamark_type":"wreck","display_class":"OTHER","min_zoom":12,"importance":1,"name":"S.S. Kakapo","ref":null,"common":{"type":"wreck"},"children":{"wreck":{"category":"hull_showing"}},"osm_tags":{"access":"permissive","historic":"wreck","name":"S.S. Kakapo","seamark:type":"wreck","seamark:wreck:category":"hull_showing","tourism":"attraction","wreck:date_sunk":"1900-05-25","wreck:visible_at_low_tide":"yes"}}},{"type":"Feature","geometry":{"type":"Point","coordinates":[18.5828257,-34.1381208]},"properties":{"osm_id":1295700358,"osm_type":"node","seamark_type":"light_minor","display_class":"OTHER","min_zoom":12,"importance":1,"name":"Seal Island","ref":null,"common":{"name":"Seal Island","type":"light_minor"},"children":{"light":{"character":"Fl","colour":"white","period":"2","range":"7","reference":"D 6176","sequence":"0.3+(1.7)"}},"osm_tags":{"seamark:light:character":"Fl","seamark:light:colour":"white","seamark:light:period":"2","seamark:light:range":"7","seamark:light:reference":"D 6176","seamark:light:sequence":"0.3+(1.7)","seamark:name":"Seal Island","seamark:type":"light_minor","source":"US NGA Pub. 112. 2010-11-10."}}},{"type":"Feature","geometry":{"type":"Point","coordinates":[18.3808435,-34.2734863]},"properties":{"osm_id":7025899718,"osm_type":"node","seamark_type":"wreck","display_class":"OTHER","min_zoom":12,"importance":1,"name":"Thomas T. Tucker","ref":null,"common":{"type":"wreck"},"children":{"wreck":{"category":"dangerous"}},"osm_tags":{"access":"permit","historic":"wreck","name":"Thomas T. Tucker","seamark:type":"wreck","seamark:wreck:category":"dangerous","wreck:date_sunk":"1942-11-27","wreck:visible_at_high_tide":"yes","wreck:visible_at_low_tide":"yes"}}},{"type":"Feature","geometry":{"type":"Point","coordinates":[18.3089793,-34.0656153]},"properties":{"osm_id":3662683982,"osm_type":"node","seamark_type":"rock","display_class":"OTHER","min_zoom":12,"importance":1,"name":"Vulcan Rock","ref":null,"common":{"type":"rock"},"children":{},"osm_tags":{"ele":"-1","name":"Vulcan Rock","seamark:type":"rock"}}}],"type":"FeatureCollection"}