{"type":"FeatureCollection","features":[{"type":"Feature","geometry":{"type":"Polygon","coordinates":[[[174.863335,-34.746167],[174.8582371,-34.7470324],[174.8517161,-34.7476102],[174.843049,-34.7481055],[174.8334739,-34.7476102],[174.8251369,-34.7467023],[174.8115057,-34.7444372],[174.8086799,-34.743879],[174.8047191,-34.7429819],[174.8017243,-34.7422044],[174.7992125,-34.7414867],[174.7949377,-34.7401111],[174.7914115,-34.7388351],[174.7870642,-34.7370806],[174.7838762,-34.7356451],[174.7803501,-34.7339105],[174.7763168,-34.7317172],[174.7747469,-34.7308],[174.7718487,-34.7290055],[174.7692162,-34.7272508],[174.7662939,-34.7251571],[174.7632991,-34.722824],[174.7605941,-34.7205507],[174.7575268,-34.7177389],[174.7552083,-34.7154256],[174.7522859,-34.7122546],[174.7498225,-34.7093029],[174.7472624,-34.7059123],[174.745137,-34.7027809],[174.7432774,-34.6997491],[174.7424562,-34.6983129],[174.7411037,-34.6957596],[174.7396788,-34.6927874],[174.7382538,-34.6893961],[174.7368772,-34.6855658],[174.7359353,-34.6824735],[174.7349692,-34.678563],[174.734293,-34.6750115],[174.7337858,-34.6712404],[174.7335201,-34.6680677],[174.7333994,-34.6642763],[174.7334718,-34.6608838],[174.7337133,-34.6574912],[174.7341481,-34.6539189],[174.7344379,-34.6521426],[174.7348968,-34.6497676],[174.7357421,-34.6462348],[174.7367081,-34.6429414],[174.7377708,-34.6398674],[174.7392924,-34.6360747],[174.7401377,-34.6342182],[174.7413211,-34.6318027],[174.7427943,-34.6290677],[174.744171,-34.6267319],[174.7461031,-34.6237372],[174.7475522,-34.6216608],[174.7486873,-34.6201434],[174.7512233,-34.6169688],[174.754363,-34.6134346],[174.7561743,-34.6115576],[174.7588552,-34.6089817],[174.7621639,-34.6060662],[174.7645791,-34.6041092],[174.7683467,-34.6013134],[174.7713415,-34.5992764],[174.775399,-34.59676],[174.778587,-34.5949625],[174.7808331,-34.5937841],[174.7858567,-34.5913874],[174.7893103,-34.5899294],[174.791484,-34.5890705],[174.79658,-34.5872729],[174.7995265,-34.5863541],[174.8024971,-34.5855152],[174.8075931,-34.5842767],[174.8118196,-34.5834378],[174.8151526,-34.5828785],[174.8180024,-34.582479],[174.8213595,-34.5820995],[174.8249581,-34.5817999],[174.8293054,-34.5815801],[174.8324451,-34.5815202],[174.8353433,-34.5815402],[174.838483,-34.58164],[174.8411155,-34.5817799],[174.8449798,-34.5820995],[174.8473708,-34.5823592],[174.8526117,-34.5830982],[174.8554374,-34.5835976],[174.859664,-34.5844765],[174.8619825,-34.5850358],[174.863335,-34.5854752],[174.863335,-34.746167]]]},"properties":{"osm_id":1000690903,"osm_type":"way","seamark_type":"dumping_ground","display_class":"OTHER","min_zoom":12,"importance":1,"name":null,"ref":null,"common":{"type":"dumping_ground"},"children":{"dumping_ground":{"category":"explosives"}},"osm_tags":{"ref:linz:hydrographic_id":"3308170","seamark:dumping_ground:category":"explosives","seamark:type":"dumping_ground","source":"LINZ;Tauroa Point to Cape Brett Chart"}}},{"type":"Feature","geometry":{"type":"Point","coordinates":[174.70875,-34.021194]},"properties":{"osm_id":10983515600,"osm_type":"node","seamark_type":"sea_area","display_class":"OTHER","min_zoom":12,"importance":1,"name":"Ballance Seamount","ref":null,"common":{"type":"sea_area"},"children":{"sea_area":{"category":"seamount"}},"osm_tags":{"name":"Ballance Seamount","name:etymology":"Peter Ballance","name:etymology:wikidata":"Q108413964","ref:linz:place_id":"14209","seamark:sea_area:category":"seamount","seamark:type":"sea_area","wikidata":"Q135450993"}}},{"type":"Feature","geometry":{"type":"Point","coordinates":[174.098205,-34.069531]},"properties":{"osm_id":10983515601,"osm_type":"node","seamark_type":"sea_area","display_class":"OTHER","min_zoom":12,"importance":1,"name":"Cavalli Seamount","ref":null,"common":{"type":"sea_area"},"children":{"sea_area":{"category":"seamount"}},"osm_tags":{"name":"Cavalli Seamount","name:etymology":"Trevally","name:etymology:wikidata":"Q61885597","ref:linz:place_id":"14366","seamark:sea_area:category":"seamount","seamark:type":"sea_area","wikidata":"Q118178034"}}},{"type":"Feature","geometry":{"type":"LineString","coordinates":[[174.0499532,-34.82634],[174.0542155,-34.8188708],[174.0542155,-34.8021725],[174.0622073,-34.792064],[174.0733959,-34.7885477],[174.0760598,-34.7837125],[174.0840516,-34.7661276],[174.0797893,-34.7401831],[174.0797893,-34.7313865],[174.0803221,-34.7181897],[174.0803221,-34.7058709],[174.0925762,-34.6988307],[174.1042976,-34.6851887],[174.1224123,-34.6794671],[174.1256091,-34.6728648],[174.1330681,-34.666262]]},"properties":{"osm_id":1182807635,"osm_type":"way","seamark_type":"sea_area","display_class":"OTHER","min_zoom":12,"importance":1,"name":"Cavalli Valleys","ref":null,"common":{"type":"sea_area"},"children":{"sea_area":{"category":"valley"}},"osm_tags":{"name":"Cavalli Valleys","name:etymology":"Cavalli (Trevally)","name:etymology:wikidata":"Q61885597","old_name":"Cavalli Canyons","ref:linz:place_id":"54788","seamark:sea_area:category":"valley","seamark:type":"sea_area","wikidata":"Q138599910"}}},{"type":"Feature","geometry":{"type":"Point","coordinates":[174.695867,-34.754687]},"properties":{"osm_id":11609699600,"osm_type":"node","seamark_type":"sea_area","display_class":"OTHER","min_zoom":12,"importance":1,"name":"Te Tai Tamawahine","ref":null,"common":{"type":"sea_area"},"children":{"sea_area":{"category":"sea"}},"osm_tags":{"name":"Te Tai Tamawahine","name:mi":"Te Tai Tamawahine","ref:linz:place_id":"57136","seamark:sea_area:category":"sea","seamark:type":"sea_area"}}},{"type":"Feature","geometry":{"type":"Point","coordinates":[174.0,-34.5]},"properties":{"osm_id":11703917801,"osm_type":"node","seamark_type":"sea_area","display_class":"OTHER","min_zoom":12,"importance":1,"name":"Whangaroa Sea Valleys","ref":null,"common":{"type":"sea_area"},"children":{"sea_area":{"category":"valley"}},"osm_tags":{"name":"Whangaroa Sea Valleys","ref:linz:place_id":"14925","seamark:sea_area:category":"valley","seamark:type":"sea_area"}}}],"type":"FeatureCollection"}