{"type":"FeatureCollection","features":[{"type":"Feature","geometry":{"type":"Point","coordinates":[178.578667,-34.774833]},"properties":{"osm_id":10983515604,"osm_type":"node","seamark_type":"sea_area","display_class":"OTHER","min_zoom":12,"importance":1,"name":"Giljanes Seamount","ref":null,"common":{"type":"sea_area"},"children":{"sea_area":{"category":"seamount"}},"osm_tags":{"name":"Giljanes Seamount","name:etymology":"MV Giljanes","old_name":"Giljanes Volcano","ref:linz:place_id":"60345","seamark:sea_area:category":"seamount","seamark:type":"sea_area","wikidata":"Q126080975"}}},{"type":"Feature","geometry":{"type":"Point","coordinates":[178.358,-34.5525]},"properties":{"osm_id":10983483149,"osm_type":"node","seamark_type":"sea_area","display_class":"OTHER","min_zoom":12,"importance":1,"name":"Gill Volcano","ref":null,"common":{"type":"sea_area"},"children":{"sea_area":{"category":"knoll"}},"osm_tags":{"name":"Gill Volcano","name:etymology":"Professor James Gill","ref:linz:place_id":"14452","seamark:sea_area:category":"knoll","seamark:type":"sea_area"}}},{"type":"Feature","geometry":{"type":"Polygon","coordinates":[[[178.9823426,-35.0282269],[178.9538354,-35.0303484],[178.9303076,-35.0413184],[178.9208506,-35.0457274],[178.9065338,-35.0359491],[178.9166505,-35.0156879],[178.9119839,-34.9911484],[178.9020636,-34.9659123],[178.8976809,-34.9492171],[178.9211698,-34.9340194],[178.9596572,-34.9264154],[178.9981768,-34.9233224],[179.0255002,-34.9330943],[179.0479884,-34.9401328],[179.0661522,-34.9511302],[179.0764138,-34.9725231],[179.0815292,-34.9829817],[179.0636942,-35.0117381],[179.0373489,-35.0273443],[179.0125416,-35.0364391],[179.0107755,-35.0361174],[178.995308,-35.0333],[178.9823426,-35.0282269]]]},"properties":{"osm_id":1189809691,"osm_type":"way","seamark_type":"sea_area","display_class":"OTHER","min_zoom":12,"importance":1,"name":"James Healy Seamount","ref":null,"common":{"type":"sea_area"},"children":{"sea_area":{"category":"seamount"}},"osm_tags":{"name":"James Healy Seamount","name:etymology":"Dr James Healy","old_name":"Healy Volcano","ref:linz:place_id":"56549","seamark:sea_area:category":"seamount","seamark:type":"sea_area","wikidata":"Q8524803","wikipedia":"en:James Healy Seamount"}}},{"type":"Feature","geometry":{"type":"Point","coordinates":[178.505167,-34.776167]},"properties":{"osm_id":10983515603,"osm_type":"node","seamark_type":"sea_area","display_class":"OTHER","min_zoom":12,"importance":1,"name":"Rapuhia Seamount","ref":null,"common":{"type":"sea_area"},"children":{"sea_area":{"category":"seamount"}},"osm_tags":{"name":"Rapuhia Seamount","name:etymology":"RV Rapuhia","name:mi":"Rapuhia","old_name":"Rapuhia Volcano","ref:linz:place_id":"55544","seamark:sea_area:category":"seamount","seamark:type":"sea_area"}}},{"type":"Feature","geometry":{"type":"Point","coordinates":[178.545,-34.695333]},"properties":{"osm_id":10983529205,"osm_type":"node","seamark_type":"sea_area","display_class":"OTHER","min_zoom":12,"importance":1,"name":"Yokosuka Seamount","ref":null,"common":{"type":"sea_area"},"children":{"sea_area":{"category":"seamount"}},"osm_tags":{"name":"Yokosuka Seamount","name:etymology":"RV Yokosuka","name:etymology:wikidata":"Q17209533","old_name":"Yokosuka Volcano","ref:linz:place_id":"55561","seamark:sea_area:category":"seamount","seamark:type":"sea_area","wikidata":"Q111519796"}}}],"type":"FeatureCollection"}