{"type":"FeatureCollection","features":[{"type":"Feature","geometry":{"type":"Polygon","coordinates":[[[-52.9130178,-34.1238349],[-52.896438,-34.1266637],[-52.8824173,-34.1324429],[-52.8693394,-34.1420356],[-52.8606717,-34.1529453],[-52.8546734,-34.1696402],[-52.854923,-34.1838178],[-52.8604578,-34.1986354],[-52.8705172,-34.21101],[-52.8847982,-34.2207309],[-52.9036588,-34.2269636],[-52.9220156,-34.2280655],[-52.9465981,-34.222275],[-52.9612987,-34.2134978],[-52.9731464,-34.2004644],[-52.9800534,-34.1822828],[-52.9791512,-34.165174],[-52.9732663,-34.1516672],[-52.9613692,-34.1384931],[-52.9472292,-34.1299272],[-52.9309496,-34.1249355],[-52.9130178,-34.1238349]]]},"properties":{"osm_id":188332559,"osm_type":"way","seamark_type":"restricted_area","display_class":"OTHER","min_zoom":12,"importance":1,"name":null,"ref":null,"common":{"type":"restricted_area"},"children":{"restricted_area":{"restriction":"explosives_dumping"}},"osm_tags":{"disused":"yes","seamark:restricted_area:restriction":"explosives_dumping","seamark:type":"restricted_area"}}}],"type":"FeatureCollection"}