{"type":"FeatureCollection","features":[{"type":"Feature","geometry":{"type":"Point","coordinates":[-151.1371592,-34.0110151]},"properties":{"osm_id":9222743592,"osm_type":"node","seamark_type":"rock","display_class":"OTHER","min_zoom":12,"importance":1,"name":null,"ref":null,"common":{"type":"rock"},"children":{"rock":{"status":"existence_doubtful","water_level":"submerged"}},"osm_tags":{"description":"Reef (1957)","natural":"reef","ref:linz:hydrographic_id":"3648624","seamark:rock:status":"existence_doubtful","seamark:rock:water_level":"submerged","seamark:type":"rock","source":"LINZ;Chatham Islands to Ile Rapa Chart;Chart NZ14613","source:date":"1999-04-01"}}}],"type":"FeatureCollection"}