{"type":"FeatureCollection","features":[{"type":"Feature","geometry":{"type":"Point","coordinates":[148.9152543,-35.3190305]},"properties":{"osm_id":10118863992,"osm_type":"node","seamark_type":"beacon_special_purpose","display_class":"BEACON","min_zoom":9,"importance":4,"name":null,"ref":null,"common":{"type":"beacon_special_purpose"},"children":{},"osm_tags":{"operator:wikidata":"Q288778","seamark:type":"beacon_special_purpose","utility":"water"}}},{"type":"Feature","geometry":{"type":"Point","coordinates":[148.9152288,-35.3189784]},"properties":{"osm_id":10118863993,"osm_type":"node","seamark_type":"beacon_special_purpose","display_class":"BEACON","min_zoom":9,"importance":4,"name":null,"ref":null,"common":{"type":"beacon_special_purpose"},"children":{},"osm_tags":{"operator:wikidata":"Q288778","seamark:type":"beacon_special_purpose","utility":"water"}}},{"type":"Feature","geometry":{"type":"Point","coordinates":[148.9234365,-35.3121437]},"properties":{"osm_id":10118863994,"osm_type":"node","seamark_type":"beacon_special_purpose","display_class":"BEACON","min_zoom":9,"importance":4,"name":null,"ref":null,"common":{"type":"beacon_special_purpose"},"children":{},"osm_tags":{"operator:wikidata":"Q288778","seamark:type":"beacon_special_purpose","utility":"water"}}},{"type":"Feature","geometry":{"type":"Point","coordinates":[148.9233656,-35.3121153]},"properties":{"osm_id":10118863995,"osm_type":"node","seamark_type":"beacon_special_purpose","display_class":"BEACON","min_zoom":9,"importance":4,"name":null,"ref":null,"common":{"type":"beacon_special_purpose"},"children":{},"osm_tags":{"operator:wikidata":"Q288778","seamark:type":"beacon_special_purpose","utility":"water"}}},{"type":"Feature","geometry":{"type":"Point","coordinates":[148.9234846,-35.3122001]},"properties":{"osm_id":10118863996,"osm_type":"node","seamark_type":"beacon_special_purpose","display_class":"BEACON","min_zoom":9,"importance":4,"name":null,"ref":null,"common":{"type":"beacon_special_purpose"},"children":{},"osm_tags":{"operator:wikidata":"Q288778","seamark:type":"beacon_special_purpose","utility":"water"}}},{"type":"Feature","geometry":{"type":"LineString","coordinates":[[148.9342401,-35.3171608],[148.9345509,-35.3173636],[148.934899,-35.3176775],[148.9350799,-35.3179017],[148.9351967,-35.3181054],[148.9352517,-35.3182605],[148.9352883,-35.3184175],[148.9355517,-35.3185763],[148.9359181,-35.3188136],[148.9361311,-35.3189874],[148.9363074,-35.3191593],[148.9364517,-35.319335],[148.9365593,-35.3195274],[148.9366028,-35.3197012],[148.936612,-35.3198451],[148.9365937,-35.319961],[148.9365433,-35.3200992],[148.9368982,-35.3202487],[148.9371456,-35.3203664],[148.9373769,-35.3205085],[148.9374318,-35.3205757],[148.9375014,-35.320707]]},"properties":{"osm_id":1100904117,"osm_type":"way","seamark_type":"buoy_special_purpose","display_class":"OTHER","min_zoom":12,"importance":1,"name":null,"ref":null,"common":{"type":"buoy_special_purpose"},"children":{},"osm_tags":{"seamark:type":"buoy_special_purpose"}}}],"type":"FeatureCollection"}