{"type":"FeatureCollection","features":[{"type":"Feature","geometry":{"type":"Point","coordinates":[-176.166667,-35.25]},"properties":{"osm_id":10983641812,"osm_type":"node","seamark_type":"sea_area","display_class":"OTHER","min_zoom":12,"importance":1,"name":"Hinemoa Seamount","ref":null,"common":{"type":"sea_area"},"children":{"sea_area":{"category":"seamount"}},"osm_tags":{"name":"Hinemoa Seamount","name:etymology":"NZGSS Hinemoa","name:etymology:wikidata":"Q6956149","name:mi":"Hinemoa","ref:linz:place_id":"14484","seamark:sea_area:category":"seamount","seamark:type":"sea_area"}}}],"type":"FeatureCollection"}