{"type":"FeatureCollection","features":[{"type":"Feature","geometry":{"type":"Point","coordinates":[-178.3,-36.016667]},"properties":{"osm_id":10983478505,"osm_type":"node","seamark_type":"sea_area","display_class":"OTHER","min_zoom":12,"importance":1,"name":"Ahiparaha Knoll","ref":null,"common":{"type":"sea_area"},"children":{"sea_area":{"category":"knoll"}},"osm_tags":{"name":"Ahiparaha Knoll","old_name":"Moa Seamount","ref:linz:place_id":"61882","seamark:sea_area:category":"knoll","seamark:type":"sea_area"}}}],"type":"FeatureCollection"}