{"type":"FeatureCollection","features":[{"type":"Feature","geometry":{"type":"Point","coordinates":[-56.6880383,-36.570644]},"properties":{"osm_id":8304499717,"osm_type":"node","seamark_type":"light_major","display_class":"LIGHTHOUSE","min_zoom":7,"importance":5,"name":"Faro Mar del Tuyú","ref":null,"common":{"type":"light_major"},"children":{"light":{"character":"VQ","colour":"red"}},"osm_tags":{"access":"private","height":"25","man_made":"lighthouse","name":"Faro Mar del Tuyú","operator":"Club Naútico Partido de la Costa","range":"20","seamark:light:character":"VQ","seamark:light:colour":"red","seamark:type":"light_major","start_date":"1987"}}},{"type":"Feature","geometry":{"type":"Polygon","coordinates":[[[-56.6750888,-36.8830081],[-56.675071,-36.8830197],[-56.6750493,-36.8830258],[-56.6750264,-36.8830258],[-56.6750047,-36.8830197],[-56.6749869,-36.8830081],[-56.6749749,-36.8829924],[-56.6749701,-36.8829745],[-56.6749731,-36.8829563],[-56.6749835,-36.8829399],[-56.6750002,-36.8829273],[-56.6750211,-36.8829198],[-56.675044,-36.8829183],[-56.6750639,-36.8829223],[-56.6750815,-36.8829308],[-56.675095,-36.8829432],[-56.6751033,-36.8829582],[-56.6751056,-36.8829745],[-56.6751008,-36.8829925],[-56.6750888,-36.8830081]]]},"properties":{"osm_id":526862227,"osm_type":"way","seamark_type":"light_major","display_class":"LIGHTHOUSE","min_zoom":7,"importance":5,"name":"Faro Punta Médanos","ref":null,"common":{"type":"light_major"},"children":{"light":{"character":"Fl","colour":"white","height":"68","period":"40","range":"18"}},"osm_tags":{"building":"yes","height":"69","man_made":"lighthouse","name":"Faro Punta Médanos","seamark:light:character":"Fl","seamark:light:colour":"white","seamark:light:height":"68","seamark:light:period":"40","seamark:light:range":"18","seamark:type":"light_major","start_date":"1893-07-09","wikidata":"Q5856280","wikipedia":"es:Faro Punta Médanos"}}},{"type":"Feature","geometry":{"type":"Polygon","coordinates":[[[-56.7732157,-36.3065706],[-56.7732079,-36.3065651],[-56.7732028,-36.3065578],[-56.7732009,-36.3065495],[-56.7732024,-36.3065413],[-56.7732072,-36.3065338],[-56.7732147,-36.306528],[-56.7732241,-36.3065245],[-56.7732345,-36.3065237],[-56.7732446,-36.3065256],[-56.7732534,-36.30653],[-56.7732599,-36.3065366],[-56.7732635,-36.3065444],[-56.7732637,-36.3065528],[-56.7732605,-36.3065608],[-56.7732543,-36.3065675],[-56.7732457,-36.3065722],[-56.7732356,-36.3065744],[-56.7732253,-36.3065739],[-56.7732157,-36.3065706]]]},"properties":{"osm_id":91788448,"osm_type":"way","seamark_type":"light_major","display_class":"LIGHTHOUSE","min_zoom":7,"importance":5,"name":"Faro San Antonio","ref":null,"common":{"type":"light_major"},"children":{"light":{"character":"Fl","colour":"white","height":"63","period":"17","range":"28"}},"osm_tags":{"building":"yes","level":"25","man_made":"lighthouse","name":"Faro San Antonio","seamark:light:character":"Fl","seamark:light:colour":"white","seamark:light:height":"63","seamark:light:period":"17","seamark:light:range":"28","seamark:type":"light_major","start_date":"1892","tourism":"viewpoint","wikidata":"Q5552955","wikipedia":"es:Faro San Antonio"}}},{"type":"Feature","geometry":{"type":"Point","coordinates":[-56.7459158,-36.3426254]},"properties":{"osm_id":1744374981,"osm_type":"node","seamark_type":"wreck","display_class":"OTHER","min_zoom":12,"importance":1,"name":null,"ref":null,"common":{"type":"wreck"},"children":{},"osm_tags":{"historic":"wreck","seamark:type":"wreck","tourism":"attraction"}}},{"type":"Feature","geometry":{"type":"Point","coordinates":[-56.6726679,-36.7214397]},"properties":{"osm_id":2390218578,"osm_type":"node","seamark_type":"wreck","display_class":"OTHER","min_zoom":12,"importance":1,"name":"Margaretha","ref":null,"common":{"type":"wreck"},"children":{},"osm_tags":{"access":"yes","alt_name":"Barco Hundido \"La Margarita\"","historic":"wreck","name":"Margaretha","name:es":"Margarita","seamark:type":"wreck","source":"http://www.histarmar.com.ar/InfHistorica/NaufragiosTuyu/Margaretha.htm","tourism":"attraction","wreck:date_commissioned":"1873-07-12","wreck:date_sunk":"1880-09-28","wreck:depth":"0m","wreck:gross_tonnage":"572","wreck:length":"45.5","wreck:visible_at_low_tide":"yes","wreck:width":"10"}}},{"type":"Feature","geometry":{"type":"Polygon","coordinates":[[[-56.7717853,-36.3223323],[-56.7717936,-36.3224513],[-56.7717988,-36.3225441],[-56.7718112,-36.3226916],[-56.7717778,-36.3227578],[-56.7717784,-36.3228012],[-56.771821,-36.3232169],[-56.77192,-36.3235699],[-56.7720419,-36.323867],[-56.7727674,-36.3242162],[-56.7729299,-36.3241811],[-56.7732334,-36.3238237],[-56.7736057,-36.3227974],[-56.7742164,-36.3207916],[-56.774157,-36.3207698],[-56.7739561,-36.3208116],[-56.7738186,-36.3208403],[-56.7732854,-36.3209513],[-56.7723024,-36.3212166],[-56.7721255,-36.3214068],[-56.7721217,-36.3214109],[-56.77206,-36.3216252],[-56.7719304,-36.3218755],[-56.7718206,-36.3221713],[-56.7717853,-36.3223323]]]},"properties":{"osm_id":91786627,"osm_type":"way","seamark_type":"harbour","display_class":"OTHER","min_zoom":12,"importance":1,"name":"Tapera de López","ref":null,"common":{"type":"harbour"},"children":{"harbour":{"category":"marina"}},"osm_tags":{"leisure":"marina","name":"Tapera de López","seamark:harbour:category":"marina","seamark:type":"harbour"}}}],"type":"FeatureCollection"}