{"type":"FeatureCollection","features":[{"type":"Feature","geometry":{"type":"Point","coordinates":[145.0079019,-37.9674107]},"properties":{"osm_id":12898370153,"osm_type":"node","seamark_type":"light_major","display_class":"LIGHTHOUSE","min_zoom":7,"importance":5,"name":null,"ref":null,"common":{"type":"light_major"},"children":{"light":{"character":"Fl","height":"6","period":"5"}},"osm_tags":{"seamark:light:character":"Fl","seamark:light:height":"6","seamark:light:period":"5","seamark:type":"light_major"}}},{"type":"Feature","geometry":{"type":"Point","coordinates":[145.0145743,-37.9837134]},"properties":{"osm_id":2427843265,"osm_type":"node","seamark_type":"beacon_special_purpose","display_class":"BEACON","min_zoom":9,"importance":4,"name":null,"ref":null,"common":{"type":"beacon_special_purpose"},"children":{"beacon_special_purpose":{"colour":"yellow"},"topmark":{"colour":"yellow","shape":"x-shape"}},"osm_tags":{"seamark:beacon_special_purpose:colour":"yellow","seamark:topmark:colour":"yellow","seamark:topmark:shape":"x-shape","seamark:type":"beacon_special_purpose"}}},{"type":"Feature","geometry":{"type":"Point","coordinates":[145.0172128,-37.9872387]},"properties":{"osm_id":2427843300,"osm_type":"node","seamark_type":"beacon_lateral","display_class":"BEACON","min_zoom":9,"importance":4,"name":null,"ref":null,"common":{"type":"beacon_lateral"},"children":{"beacon_lateral":{"category":"starboard","colour":"green","system":"iala-a"},"topmark":{"colour":"green","shape":"cone, point up"}},"osm_tags":{"seamark:beacon_lateral:category":"starboard","seamark:beacon_lateral:colour":"green","seamark:beacon_lateral:system":"iala-a","seamark:topmark:colour":"green","seamark:topmark:shape":"cone, point up","seamark:type":"beacon_lateral"}}},{"type":"Feature","geometry":{"type":"Point","coordinates":[145.0233964,-37.9918756]},"properties":{"osm_id":2427843320,"osm_type":"node","seamark_type":"beacon_lateral","display_class":"BEACON","min_zoom":9,"importance":4,"name":null,"ref":null,"common":{"type":"beacon_lateral"},"children":{"beacon_lateral":{"category":"starboard","colour":"green","system":"iala-a"},"topmark":{"colour":"green","shape":"cone, point up"}},"osm_tags":{"seamark:beacon_lateral:category":"starboard","seamark:beacon_lateral:colour":"green","seamark:beacon_lateral:system":"iala-a","seamark:topmark:colour":"green","seamark:topmark:shape":"cone, point up","seamark:type":"beacon_lateral"}}},{"type":"Feature","geometry":{"type":"Point","coordinates":[145.02935,-37.9979169]},"properties":{"osm_id":2427843402,"osm_type":"node","seamark_type":"beacon_lateral","display_class":"BEACON","min_zoom":9,"importance":4,"name":null,"ref":null,"common":{"type":"beacon_lateral"},"children":{"beacon_lateral":{"category":"starboard","colour":"green","system":"iala-a"},"light":{"character":"Fl","colour":"green","height":"4","period":"5"},"topmark":{"colour":"green","shape":"cone, point up"}},"osm_tags":{"seamark:beacon_lateral:category":"starboard","seamark:beacon_lateral:colour":"green","seamark:beacon_lateral:system":"iala-a","seamark:light:character":"Fl","seamark:light:colour":"green","seamark:light:height":"4","seamark:light:period":"5","seamark:topmark:colour":"green","seamark:topmark:shape":"cone, point up","seamark:type":"beacon_lateral"}}},{"type":"Feature","geometry":{"type":"Point","coordinates":[145.0340215,-37.9990616]},"properties":{"osm_id":2427843404,"osm_type":"node","seamark_type":"beacon_special_purpose","display_class":"BEACON","min_zoom":9,"importance":4,"name":null,"ref":null,"common":{"type":"beacon_special_purpose"},"children":{"beacon_special_purpose":{"category":"south","colour":"yellow;black","colour_pattern":"horizontal"},"light":{"character":"VQ+LFl","group":"6","period":"15"},"topmark":{"colour":"black","shape":"2 cones down"}},"osm_tags":{"seamark:beacon_special_purpose:category":"south","seamark:beacon_special_purpose:colour":"yellow;black","seamark:beacon_special_purpose:colour_pattern":"horizontal","seamark:light:character":"VQ+LFl","seamark:light:group":"6","seamark:light:period":"15","seamark:topmark:colour":"black","seamark:topmark:shape":"2 cones down","seamark:type":"beacon_special_purpose"}}},{"type":"Feature","geometry":{"type":"Point","coordinates":[145.0382392,-37.9976852]},"properties":{"osm_id":6242502843,"osm_type":"node","seamark_type":"beacon_special_purpose","display_class":"BEACON","min_zoom":9,"importance":4,"name":null,"ref":null,"common":{"type":"beacon_special_purpose"},"children":{"beacon_special_purpose":{"category":"south","colour":"yellow;black","colour_pattern":"horizontal"},"light":{"character":"VQ+LFl","group":"6","period":"10"},"topmark":{"colour":"black","shape":"2 cones down"}},"osm_tags":{"seamark:beacon_special_purpose:category":"south","seamark:beacon_special_purpose:colour":"yellow;black","seamark:beacon_special_purpose:colour_pattern":"horizontal","seamark:light:character":"VQ+LFl","seamark:light:group":"6","seamark:light:period":"10","seamark:topmark:colour":"black","seamark:topmark:shape":"2 cones down","seamark:type":"beacon_special_purpose"}}},{"type":"Feature","geometry":{"type":"Point","coordinates":[145.0082224,-37.9649939]},"properties":{"osm_id":12893836296,"osm_type":"node","seamark_type":"beacon_special_purpose","display_class":"BEACON","min_zoom":9,"importance":4,"name":null,"ref":null,"common":{"type":"beacon_special_purpose"},"children":{"beacon_special_purpose":{"colour":"yellow"},"topmark":{"colour":"yellow","shape":"x-shape"}},"osm_tags":{"seamark:beacon_special_purpose:colour":"yellow","seamark:topmark:colour":"yellow","seamark:topmark:shape":"x-shape","seamark:type":"beacon_special_purpose"}}},{"type":"Feature","geometry":{"type":"Point","coordinates":[145.0082387,-37.9670507]},"properties":{"osm_id":12893836297,"osm_type":"node","seamark_type":"beacon_lateral","display_class":"BEACON","min_zoom":9,"importance":4,"name":null,"ref":null,"common":{"type":"beacon_lateral"},"children":{"beacon_lateral":{"category":"starboard","colour":"green","system":"iala-a"},"topmark":{"colour":"green","shape":"cone, point up"}},"osm_tags":{"seamark:beacon_lateral:category":"starboard","seamark:beacon_lateral:colour":"green","seamark:beacon_lateral:system":"iala-a","seamark:topmark:colour":"green","seamark:topmark:shape":"cone, point up","seamark:type":"beacon_lateral"}}},{"type":"Feature","geometry":{"type":"Point","coordinates":[145.0088971,-37.9664388]},"properties":{"osm_id":12893836298,"osm_type":"node","seamark_type":"beacon_lateral","display_class":"BEACON","min_zoom":9,"importance":4,"name":null,"ref":null,"common":{"type":"beacon_lateral"},"children":{"beacon_lateral":{"category":"port","colour":"red","system":"iala-a"},"topmark":{"colour":"red","shape":"cylinder"}},"osm_tags":{"seamark:beacon_lateral:category":"port","seamark:beacon_lateral:colour":"red","seamark:beacon_lateral:system":"iala-a","seamark:topmark:colour":"red","seamark:topmark:shape":"cylinder","seamark:type":"beacon_lateral"}}},{"type":"Feature","geometry":{"type":"Point","coordinates":[145.0073616,-37.9685704]},"properties":{"osm_id":12893913201,"osm_type":"node","seamark_type":"beacon_cardinal","display_class":"BEACON","min_zoom":9,"importance":4,"name":null,"ref":null,"common":{"type":"beacon_cardinal"},"children":{"beacon_cardinal":{"category":"west","colour":"yellow;black;yellow","colour_pattern":"horizontal"},"light":{"character":"VQ","group":"9","period":"10"},"topmark":{"colour":"black","shape":"2 cones point together"}},"osm_tags":{"seamark:beacon_cardinal:category":"west","seamark:beacon_cardinal:colour":"yellow;black;yellow","seamark:beacon_cardinal:colour_pattern":"horizontal","seamark:light:character":"VQ","seamark:light:group":"9","seamark:light:period":"10","seamark:topmark:colour":"black","seamark:topmark:shape":"2 cones point together","seamark:type":"beacon_cardinal"}}},{"type":"Feature","geometry":{"type":"Point","coordinates":[145.0076821,-37.9704941]},"properties":{"osm_id":12893913202,"osm_type":"node","seamark_type":"beacon_special_purpose","display_class":"BEACON","min_zoom":9,"importance":4,"name":null,"ref":null,"common":{"type":"beacon_special_purpose"},"children":{"beacon_special_purpose":{"colour":"yellow"},"topmark":{"colour":"yellow","shape":"x-shape"}},"osm_tags":{"seamark:beacon_special_purpose:colour":"yellow","seamark:topmark:colour":"yellow","seamark:topmark:shape":"x-shape","seamark:type":"beacon_special_purpose"}}},{"type":"Feature","geometry":{"type":"Point","coordinates":[145.0094709,-37.972915]},"properties":{"osm_id":12893913203,"osm_type":"node","seamark_type":"beacon_special_purpose","display_class":"BEACON","min_zoom":9,"importance":4,"name":null,"ref":null,"common":{"type":"beacon_special_purpose"},"children":{"beacon_special_purpose":{"colour":"yellow"},"topmark":{"colour":"yellow","shape":"x-shape"}},"osm_tags":{"seamark:beacon_special_purpose:colour":"yellow","seamark:topmark:colour":"yellow","seamark:topmark:shape":"x-shape","seamark:type":"beacon_special_purpose"}}},{"type":"Feature","geometry":{"type":"Point","coordinates":[145.0116733,-37.9750505]},"properties":{"osm_id":12893913204,"osm_type":"node","seamark_type":"beacon_special_purpose","display_class":"BEACON","min_zoom":9,"importance":4,"name":null,"ref":null,"common":{"type":"beacon_special_purpose"},"children":{"beacon_special_purpose":{"colour":"yellow"},"topmark":{"colour":"yellow","shape":"x-shape"}},"osm_tags":{"seamark:beacon_special_purpose:colour":"yellow","seamark:topmark:colour":"yellow","seamark:topmark:shape":"x-shape","seamark:type":"beacon_special_purpose"}}},{"type":"Feature","geometry":{"type":"Point","coordinates":[145.0123247,-37.9761101]},"properties":{"osm_id":12893913205,"osm_type":"node","seamark_type":"beacon_special_purpose","display_class":"BEACON","min_zoom":9,"importance":4,"name":null,"ref":null,"common":{"type":"beacon_special_purpose"},"children":{"beacon_special_purpose":{"colour":"yellow"},"topmark":{"colour":"yellow","shape":"x-shape"}},"osm_tags":{"seamark:beacon_special_purpose:colour":"yellow","seamark:topmark:colour":"yellow","seamark:topmark:shape":"x-shape","seamark:type":"beacon_special_purpose"}}},{"type":"Feature","geometry":{"type":"Point","coordinates":[145.0117551,-37.9803755]},"properties":{"osm_id":12893913206,"osm_type":"node","seamark_type":"beacon_lateral","display_class":"BEACON","min_zoom":9,"importance":4,"name":null,"ref":null,"common":{"type":"beacon_lateral"},"children":{"beacon_lateral":{"category":"starboard","colour":"green","system":"iala-a"},"topmark":{"colour":"green","shape":"cone, point up"}},"osm_tags":{"seamark:beacon_lateral:category":"starboard","seamark:beacon_lateral:colour":"green","seamark:beacon_lateral:system":"iala-a","seamark:topmark:colour":"green","seamark:topmark:shape":"cone, point up","seamark:type":"beacon_lateral"}}},{"type":"Feature","geometry":{"type":"Point","coordinates":[145.0197776,-37.989162]},"properties":{"osm_id":12893913210,"osm_type":"node","seamark_type":"beacon_special_purpose","display_class":"BEACON","min_zoom":9,"importance":4,"name":null,"ref":null,"common":{"type":"beacon_special_purpose"},"children":{"beacon_special_purpose":{"colour":"yellow"},"topmark":{"colour":"yellow","shape":"x-shape"}},"osm_tags":{"seamark:beacon_special_purpose:colour":"yellow","seamark:topmark:colour":"yellow","seamark:topmark:shape":"x-shape","seamark:type":"beacon_special_purpose"}}},{"type":"Feature","geometry":{"type":"Point","coordinates":[145.0264319,-37.9949559]},"properties":{"osm_id":12893913211,"osm_type":"node","seamark_type":"beacon_special_purpose","display_class":"BEACON","min_zoom":9,"importance":4,"name":null,"ref":null,"common":{"type":"beacon_special_purpose"},"children":{"beacon_special_purpose":{"colour":"yellow"},"topmark":{"colour":"yellow","shape":"x-shape"}},"osm_tags":{"seamark:beacon_special_purpose:colour":"yellow","seamark:topmark:colour":"yellow","seamark:topmark:shape":"x-shape","seamark:type":"beacon_special_purpose"}}},{"type":"Feature","geometry":{"type":"Point","coordinates":[145.0420885,-37.9950082]},"properties":{"osm_id":12893913212,"osm_type":"node","seamark_type":"beacon_special_purpose","display_class":"BEACON","min_zoom":9,"importance":4,"name":null,"ref":null,"common":{"type":"beacon_special_purpose"},"children":{"beacon_special_purpose":{"colour":"yellow"},"topmark":{"colour":"yellow","shape":"x-shape"}},"osm_tags":{"seamark:beacon_special_purpose:colour":"yellow","seamark:topmark:colour":"yellow","seamark:topmark:shape":"x-shape","seamark:type":"beacon_special_purpose"}}},{"type":"Feature","geometry":{"type":"Point","coordinates":[145.0434899,-37.9932069]},"properties":{"osm_id":12893913213,"osm_type":"node","seamark_type":"beacon_special_purpose","display_class":"BEACON","min_zoom":9,"importance":4,"name":null,"ref":null,"common":{"type":"beacon_special_purpose"},"children":{"beacon_special_purpose":{"category":"east","colour":"black;yellow;black","colour_pattern":"horizontal"},"light":{"character":"Q","group":"3","period":"10"},"topmark":{"colour":"black","shape":"2 cones base together"}},"osm_tags":{"seamark:beacon_special_purpose:category":"east","seamark:beacon_special_purpose:colour":"black;yellow;black","seamark:beacon_special_purpose:colour_pattern":"horizontal","seamark:light:character":"Q","seamark:light:group":"3","seamark:light:period":"10","seamark:topmark:colour":"black","seamark:topmark:shape":"2 cones base together","seamark:type":"beacon_special_purpose"}}},{"type":"Feature","geometry":{"type":"Point","coordinates":[145.0459266,-37.990869]},"properties":{"osm_id":12893913218,"osm_type":"node","seamark_type":"beacon_special_purpose","display_class":"BEACON","min_zoom":9,"importance":4,"name":null,"ref":null,"common":{"type":"beacon_special_purpose"},"children":{"beacon_special_purpose":{"category":"west","colour":"yellow;black;yellow","colour_pattern":"horizontal"},"light":{"character":"VQ","group":"9","period":"10"},"topmark":{"colour":"black","shape":"2 cones point together"}},"osm_tags":{"seamark:beacon_special_purpose:category":"west","seamark:beacon_special_purpose:colour":"yellow;black;yellow","seamark:beacon_special_purpose:colour_pattern":"horizontal","seamark:light:character":"VQ","seamark:light:group":"9","seamark:light:period":"10","seamark:topmark:colour":"black","seamark:topmark:shape":"2 cones point together","seamark:type":"beacon_special_purpose"}}},{"type":"Feature","geometry":{"type":"Point","coordinates":[145.0475255,-37.9910613]},"properties":{"osm_id":12893913219,"osm_type":"node","seamark_type":"beacon_special_purpose","display_class":"BEACON","min_zoom":9,"importance":4,"name":null,"ref":null,"common":{"type":"beacon_special_purpose"},"children":{"beacon_special_purpose":{"colour":"yellow"},"topmark":{"colour":"yellow","shape":"x-shape"}},"osm_tags":{"seamark:beacon_special_purpose:colour":"yellow","seamark:topmark:colour":"yellow","seamark:topmark:shape":"x-shape","seamark:type":"beacon_special_purpose"}}},{"type":"Feature","geometry":{"type":"Point","coordinates":[145.0514802,-37.9889543]},"properties":{"osm_id":12893913220,"osm_type":"node","seamark_type":"beacon_special_purpose","display_class":"BEACON","min_zoom":9,"importance":4,"name":null,"ref":null,"common":{"type":"beacon_special_purpose"},"children":{"beacon_special_purpose":{"colour":"yellow"},"topmark":{"colour":"yellow","shape":"x-shape"}},"osm_tags":{"seamark:beacon_special_purpose:colour":"yellow","seamark:topmark:colour":"yellow","seamark:topmark:shape":"x-shape","seamark:type":"beacon_special_purpose"}}},{"type":"Feature","geometry":{"type":"Point","coordinates":[145.0544111,-37.9892118]},"properties":{"osm_id":12893913221,"osm_type":"node","seamark_type":"beacon_special_purpose","display_class":"BEACON","min_zoom":9,"importance":4,"name":null,"ref":null,"common":{"type":"beacon_special_purpose"},"children":{"beacon_special_purpose":{"colour":"yellow"},"topmark":{"colour":"yellow","shape":"x-shape"}},"osm_tags":{"seamark:beacon_special_purpose:colour":"yellow","seamark:topmark:colour":"yellow","seamark:topmark:shape":"x-shape","seamark:type":"beacon_special_purpose"}}},{"type":"Feature","geometry":{"type":"Point","coordinates":[145.0583585,-37.9912123]},"properties":{"osm_id":12893913222,"osm_type":"node","seamark_type":"beacon_special_purpose","display_class":"BEACON","min_zoom":9,"importance":4,"name":null,"ref":null,"common":{"type":"beacon_special_purpose"},"children":{"beacon_special_purpose":{"colour":"yellow"},"topmark":{"colour":"yellow","shape":"x-shape"}},"osm_tags":{"seamark:beacon_special_purpose:colour":"yellow","seamark:topmark:colour":"yellow","seamark:topmark:shape":"x-shape","seamark:type":"beacon_special_purpose"}}},{"type":"Feature","geometry":{"type":"Point","coordinates":[145.0625126,-37.9937381]},"properties":{"osm_id":12893913223,"osm_type":"node","seamark_type":"beacon_special_purpose","display_class":"BEACON","min_zoom":9,"importance":4,"name":null,"ref":null,"common":{"type":"beacon_special_purpose"},"children":{"beacon_special_purpose":{"colour":"yellow"},"topmark":{"colour":"yellow","shape":"x-shape"}},"osm_tags":{"seamark:beacon_special_purpose:colour":"yellow","seamark:topmark:colour":"yellow","seamark:topmark:shape":"x-shape","seamark:type":"beacon_special_purpose"}}},{"type":"Feature","geometry":{"type":"Point","coordinates":[145.0698228,-37.9979129]},"properties":{"osm_id":12893913224,"osm_type":"node","seamark_type":"beacon_special_purpose","display_class":"BEACON","min_zoom":9,"importance":4,"name":null,"ref":null,"common":{"type":"beacon_special_purpose"},"children":{"beacon_special_purpose":{"colour":"yellow"},"topmark":{"colour":"yellow","shape":"x-shape"}},"osm_tags":{"seamark:beacon_special_purpose:colour":"yellow","seamark:topmark:colour":"yellow","seamark:topmark:shape":"x-shape","seamark:type":"beacon_special_purpose"}}},{"type":"Feature","geometry":{"type":"Point","coordinates":[145.008614,-37.7923554]},"properties":{"osm_id":599267974,"osm_type":"node","seamark_type":"gate","display_class":"OTHER","min_zoom":12,"importance":1,"name":null,"ref":null,"common":{"type":"gate"},"children":{},"osm_tags":{"seamark:type":"gate","waterway":"lock_gate"}}},{"type":"Feature","geometry":{"type":"Point","coordinates":[145.2492306,-37.8318055]},"properties":{"osm_id":9484958436,"osm_type":"node","seamark_type":"gate","display_class":"OTHER","min_zoom":12,"importance":1,"name":null,"ref":null,"common":{"type":"gate"},"children":{},"osm_tags":{"material":"metal","seamark:type":"gate","waterway":"lock_gate"}}},{"type":"Feature","geometry":{"type":"Point","coordinates":[145.0097036,-37.9670542]},"properties":{"osm_id":12893836299,"osm_type":"node","seamark_type":"buoy_special_purpose","display_class":"OTHER","min_zoom":12,"importance":1,"name":null,"ref":null,"common":{"type":"buoy_special_purpose"},"children":{"buoy_special_purpose":{"colour":"yellow","shape":"pillar"},"topmark":{"colour":"yellow","shape":"x-shape"}},"osm_tags":{"seamark:buoy_special_purpose:colour":"yellow","seamark:buoy_special_purpose:shape":"pillar","seamark:topmark:colour":"yellow","seamark:topmark:shape":"x-shape","seamark:type":"buoy_special_purpose"}}},{"type":"Feature","geometry":{"type":"Point","coordinates":[145.0103421,-37.9678775]},"properties":{"osm_id":12893836300,"osm_type":"node","seamark_type":"buoy_special_purpose","display_class":"OTHER","min_zoom":12,"importance":1,"name":null,"ref":null,"common":{"type":"buoy_special_purpose"},"children":{"buoy_special_purpose":{"colour":"yellow","shape":"pillar"},"topmark":{"colour":"yellow","shape":"x-shape"}},"osm_tags":{"seamark:buoy_special_purpose:colour":"yellow","seamark:buoy_special_purpose:shape":"pillar","seamark:topmark:colour":"yellow","seamark:topmark:shape":"x-shape","seamark:type":"buoy_special_purpose"}}},{"type":"Feature","geometry":{"type":"Point","coordinates":[145.0327064,-37.996918]},"properties":{"osm_id":12893913208,"osm_type":"node","seamark_type":"buoy_special_purpose","display_class":"OTHER","min_zoom":12,"importance":1,"name":null,"ref":null,"common":{"type":"buoy_special_purpose"},"children":{"buoy_special_purpose":{"colour":"yellow","shape":"pillar"},"topmark":{"colour":"yellow","shape":"x-shape"}},"osm_tags":{"seamark:buoy_special_purpose:colour":"yellow","seamark:buoy_special_purpose:shape":"pillar","seamark:topmark:colour":"yellow","seamark:topmark:shape":"x-shape","seamark:type":"buoy_special_purpose"}}},{"type":"Feature","geometry":{"type":"Point","coordinates":[145.034562,-37.996838]},"properties":{"osm_id":12893913209,"osm_type":"node","seamark_type":"buoy_special_purpose","display_class":"OTHER","min_zoom":12,"importance":1,"name":null,"ref":null,"common":{"type":"buoy_special_purpose"},"children":{"buoy_special_purpose":{"colour":"yellow","shape":"pillar"},"topmark":{"colour":"yellow","shape":"x-shape"}},"osm_tags":{"seamark:buoy_special_purpose:colour":"yellow","seamark:buoy_special_purpose:shape":"pillar","seamark:topmark:colour":"yellow","seamark:topmark:shape":"x-shape","seamark:type":"buoy_special_purpose"}}},{"type":"Feature","geometry":{"type":"Point","coordinates":[145.0460177,-37.9993153]},"properties":{"osm_id":12893913214,"osm_type":"node","seamark_type":"buoy_special_purpose","display_class":"OTHER","min_zoom":12,"importance":1,"name":null,"ref":null,"common":{"type":"buoy_special_purpose"},"children":{"buoy_special_purpose":{"colour":"yellow","shape":"pillar"},"topmark":{"colour":"yellow","shape":"x-shape"}},"osm_tags":{"seamark:buoy_special_purpose:colour":"yellow","seamark:buoy_special_purpose:shape":"pillar","seamark:topmark:colour":"yellow","seamark:topmark:shape":"x-shape","seamark:type":"buoy_special_purpose"}}},{"type":"Feature","geometry":{"type":"Point","coordinates":[145.0517628,-37.9993498]},"properties":{"osm_id":12893913215,"osm_type":"node","seamark_type":"buoy_special_purpose","display_class":"OTHER","min_zoom":12,"importance":1,"name":null,"ref":null,"common":{"type":"buoy_special_purpose"},"children":{"buoy_special_purpose":{"colour":"yellow","shape":"pillar"},"topmark":{"colour":"yellow","shape":"x-shape"}},"osm_tags":{"seamark:buoy_special_purpose:colour":"yellow","seamark:buoy_special_purpose:shape":"pillar","seamark:topmark:colour":"yellow","seamark:topmark:shape":"x-shape","seamark:type":"buoy_special_purpose"}}},{"type":"Feature","geometry":{"type":"Point","coordinates":[145.051806,-37.99489]},"properties":{"osm_id":12893913216,"osm_type":"node","seamark_type":"buoy_special_purpose","display_class":"OTHER","min_zoom":12,"importance":1,"name":null,"ref":null,"common":{"type":"buoy_special_purpose"},"children":{"buoy_special_purpose":{"colour":"yellow","shape":"pillar"},"topmark":{"colour":"yellow","shape":"x-shape"}},"osm_tags":{"seamark:buoy_special_purpose:colour":"yellow","seamark:buoy_special_purpose:shape":"pillar","seamark:topmark:colour":"yellow","seamark:topmark:shape":"x-shape","seamark:type":"buoy_special_purpose"}}},{"type":"Feature","geometry":{"type":"Point","coordinates":[145.0460608,-37.9948555]},"properties":{"osm_id":12893913217,"osm_type":"node","seamark_type":"buoy_special_purpose","display_class":"OTHER","min_zoom":12,"importance":1,"name":null,"ref":null,"common":{"type":"buoy_special_purpose"},"children":{"buoy_special_purpose":{"colour":"yellow","shape":"pillar"},"topmark":{"colour":"yellow","shape":"x-shape"}},"osm_tags":{"seamark:buoy_special_purpose:colour":"yellow","seamark:buoy_special_purpose:shape":"pillar","seamark:topmark:colour":"yellow","seamark:topmark:shape":"x-shape","seamark:type":"buoy_special_purpose"}}},{"type":"Feature","geometry":{"type":"Point","coordinates":[145.0063254,-37.9603449]},"properties":{"osm_id":12901814847,"osm_type":"node","seamark_type":"buoy_special_purpose","display_class":"OTHER","min_zoom":12,"importance":1,"name":null,"ref":null,"common":{"type":"buoy_special_purpose"},"children":{"buoy_special_purpose":{"colour":"yellow","shape":"pillar"},"topmark":{"colour":"yellow","shape":"x-shape"}},"osm_tags":{"seamark:buoy_special_purpose:colour":"yellow","seamark:buoy_special_purpose:shape":"pillar","seamark:topmark:colour":"yellow","seamark:topmark:shape":"x-shape","seamark:type":"buoy_special_purpose"}}},{"type":"Feature","geometry":{"type":"Polygon","coordinates":[[[145.0082224,-37.9649939],[145.0103804,-37.9643018],[145.0103768,-37.9643187],[145.0104094,-37.9643516],[145.0104531,-37.9643744],[145.0105094,-37.9643711],[145.0105352,-37.9643633],[145.0105607,-37.9643657],[145.0105927,-37.9643813],[145.010637,-37.9644305],[145.0106779,-37.9644776],[145.0107028,-37.9645198],[145.0107209,-37.9645548],[145.0107255,-37.9645769],[145.0107215,-37.9645933],[145.0107068,-37.9646303],[145.01068,-37.9646547],[145.0106605,-37.964679],[145.0106337,-37.9647538],[145.010635,-37.9647742],[145.0106578,-37.964803],[145.0106847,-37.9648157],[145.0107242,-37.9648026],[145.0107383,-37.9648021],[145.010766,-37.9648156],[145.0108166,-37.9648692],[145.0108892,-37.9649872],[145.0109417,-37.9650906],[145.0109848,-37.96521],[145.0110074,-37.9652931],[145.0110117,-37.9653267],[145.0110106,-37.9653565],[145.0110099,-37.9653826],[145.0110166,-37.9654153],[145.011034,-37.9654814],[145.0110403,-37.965509],[145.0111004,-37.9656263],[145.0111453,-37.9657162],[145.0111701,-37.9657833],[145.0111822,-37.9658155],[145.0111956,-37.965879],[145.0111835,-37.9659324],[145.0111721,-37.9659699],[145.011152,-37.9660307],[145.01115,-37.9660698],[145.0111789,-37.9661314],[145.0112808,-37.9663299],[145.0113626,-37.9665192],[145.0113934,-37.9666238],[145.0114042,-37.9667137],[145.0114202,-37.966812],[145.0114216,-37.9669706],[145.0114042,-37.9671747],[145.0113606,-37.9675109],[145.0113491,-37.9677678],[145.0113286,-37.9679541],[145.0112875,-37.9681384],[145.0112342,-37.9682933],[145.0111733,-37.9684225],[145.0111089,-37.9685558],[145.0110856,-37.9686152],[145.0110594,-37.9686875],[145.0110394,-37.968733],[145.0103421,-37.9678775],[145.0097036,-37.9670542],[145.0088971,-37.9664388],[145.0082224,-37.9649939]]]},"properties":{"osm_id":1392887225,"osm_type":"way","seamark_type":"restricted_area","display_class":"OTHER","min_zoom":12,"importance":1,"name":null,"ref":null,"common":{"type":"restricted_area"},"children":{"restricted_area":{"restriction":"no_entry"}},"osm_tags":{"seamark:restricted_area:restriction":"no_entry","seamark:type":"restricted_area"}}},{"type":"Feature","geometry":{"type":"Polygon","coordinates":[[[145.0123247,-37.9761101],[145.0116733,-37.9750505],[145.0139145,-37.9743003],[145.0141679,-37.9746306],[145.0145285,-37.975329],[145.0123247,-37.9761101]]]},"properties":{"osm_id":1392887226,"osm_type":"way","seamark_type":"restricted_area","display_class":"OTHER","min_zoom":12,"importance":1,"name":null,"ref":null,"common":{"type":"restricted_area"},"children":{"restricted_area":{"restriction":"no_entry"}},"osm_tags":{"seamark:restricted_area:restriction":"no_entry","seamark:type":"restricted_area"}}},{"type":"Feature","geometry":{"type":"Polygon","coordinates":[[[145.0601335,-37.9898013],[145.0583585,-37.9912123],[145.0544111,-37.9892118],[145.0561916,-37.9878925],[145.0569591,-37.9882183],[145.0584367,-37.9889271],[145.0601335,-37.9898013]]]},"properties":{"osm_id":1392887227,"osm_type":"way","seamark_type":"restricted_area","display_class":"OTHER","min_zoom":12,"importance":1,"name":null,"ref":null,"common":{"type":"restricted_area"},"children":{"restricted_area":{"restriction":"no_entry"}},"osm_tags":{"seamark:restricted_area:restriction":"no_entry","seamark:type":"restricted_area"}}},{"type":"Feature","geometry":{"type":"Polygon","coordinates":[[[145.0324199,-37.9947595],[145.0327355,-37.9947783],[145.0329687,-37.9947724],[145.0331704,-37.994779],[145.0335285,-37.994839],[145.0340908,-37.9948947],[145.0343954,-37.9949299],[145.0346768,-37.994975],[145.034562,-37.996838],[145.0327064,-37.996918],[145.0324199,-37.9947595]]]},"properties":{"osm_id":1392887229,"osm_type":"way","seamark_type":"restricted_area","display_class":"OTHER","min_zoom":12,"importance":1,"name":null,"ref":null,"common":{"type":"restricted_area"},"children":{"restricted_area":{"restriction":"no_entry"}},"osm_tags":{"seamark:restricted_area:restriction":"no_entry","seamark:type":"restricted_area"}}},{"type":"Feature","geometry":{"type":"Polygon","coordinates":[[[145.0078041,-37.9669572],[145.0084663,-37.9672923],[145.0079804,-37.9678891],[145.0073182,-37.9675541],[145.0078041,-37.9669572]]]},"properties":{"osm_id":1393410364,"osm_type":"way","seamark_type":"restricted_area","display_class":"OTHER","min_zoom":12,"importance":1,"name":null,"ref":null,"common":{"type":"restricted_area"},"children":{"restricted_area":{"restriction":"no_entry"}},"osm_tags":{"seamark:restricted_area:restriction":"no_entry","seamark:type":"restricted_area"}}},{"type":"Feature","geometry":{"type":"Polygon","coordinates":[[[145.0078367,-37.9675564],[145.0078029,-37.9675603],[145.0077697,-37.9675416],[145.0077723,-37.9674993],[145.0077938,-37.9674718],[145.007936,-37.9673005],[145.0079708,-37.9672836],[145.0080057,-37.9673005],[145.0080202,-37.9673171],[145.007995,-37.9673618],[145.0079514,-37.96742],[145.0078904,-37.9674887],[145.0078727,-37.9675286],[145.0078367,-37.9675564]]]},"properties":{"osm_id":651859000,"osm_type":"way","seamark_type":"wreck","display_class":"OTHER","min_zoom":12,"importance":1,"name":"HMVS Cerberus","ref":null,"common":{"type":"wreck"},"children":{},"osm_tags":{"description":"Partially visible above water. Australian navy Ironclad Breastwork Monitor launched 1869-12-10 , decommssioned  in 1921 and deliberately scuttled here in 1926. Source: http://www.navy.gov.au/hmas-cerberus-hmvs","historic":"wreck","name":"HMVS Cerberus","seamark:type":"wreck","source":"EsriWorldImageryClarity","start_date":"1926-09-26","tourism":"attraction","website":"https://www.cerberus.com.au","wikidata":"Q1565703","wikipedia":"en:HMVS Cerberus"}}},{"type":"Feature","geometry":{"type":"Point","coordinates":[145.010562,-37.9692924]},"properties":{"osm_id":1019733252,"osm_type":"node","seamark_type":"harbour","display_class":"OTHER","min_zoom":12,"importance":1,"name":"Half Moon Bay Sailing Club","ref":null,"common":{"type":"harbour"},"children":{"harbour":{"category":"marina"}},"osm_tags":{"leisure":"marina","name":"Half Moon Bay Sailing Club","seamark:harbour:category":"marina","seamark:type":"harbour"}}},{"type":"Feature","geometry":{"type":"Point","coordinates":[145.8844186,-37.6706735]},"properties":{"osm_id":803825224,"osm_type":"node","seamark_type":"wreck","display_class":"OTHER","min_zoom":12,"importance":1,"name":"McVeigh's Water Wheel","ref":null,"common":{"type":"wreck"},"children":{},"osm_tags":{"historic":"wreck","name":"McVeigh's Water Wheel","seamark:type":"wreck"}}}],"type":"FeatureCollection"}