{"type":"FeatureCollection","features":[{"type":"Feature","geometry":{"type":"Point","coordinates":[-175.28,-39.74]},"properties":{"osm_id":11703891325,"osm_type":"node","seamark_type":"sea_area","display_class":"OTHER","min_zoom":12,"importance":1,"name":"Rekohu Embayment","ref":null,"common":{"type":"sea_area"},"children":{"sea_area":{"category":"valley"}},"osm_tags":{"name":"Rekohu Embayment","ref:linz:place_id":"14751","seamark:sea_area:category":"valley","seamark:type":"sea_area"}}}],"type":"FeatureCollection"}