{"type":"FeatureCollection","features":[{"type":"Feature","geometry":{"type":"LineString","coordinates":[[177.8146024,-40.2433735],[177.8656829,-40.1831247],[177.8879488,-40.1477613],[177.9429586,-40.1307344],[178.0149952,-40.0783441],[178.1433514,-39.9526074],[178.1643076,-39.927722]]},"properties":{"osm_id":1259273262,"osm_type":"way","seamark_type":"sea_area","display_class":"OTHER","min_zoom":12,"importance":1,"name":"Paoanui Ridge","ref":null,"common":{"type":"sea_area"},"children":{"sea_area":{"category":"ridge"}},"osm_tags":{"name":"Paoanui Ridge","name:mi":"Paoanui","ref:linz:place_id":"14692","seamark:sea_area:category":"ridge","seamark:type":"sea_area"}}},{"type":"Feature","geometry":{"type":"Point","coordinates":[178.2,-40.033333]},"properties":{"osm_id":11052551449,"osm_type":"node","seamark_type":"sea_area","display_class":"OTHER","min_zoom":12,"importance":1,"name":"Rock Garden","ref":null,"common":{"type":"sea_area"},"children":{"sea_area":{"category":"bank"}},"osm_tags":{"name":"Rock Garden","ref:linz:place_id":"14758","seamark:sea_area:category":"bank","seamark:type":"sea_area"}}}],"type":"FeatureCollection"}