{"type":"FeatureCollection","features":[{"type":"Feature","geometry":{"type":"Point","coordinates":[-73.9436174,-40.9854568]},"properties":{"osm_id":7771788987,"osm_type":"node","seamark_type":"light_major","display_class":"LIGHTHOUSE","min_zoom":7,"importance":5,"name":"Faro Cabo Quedal","ref":null,"common":{"type":"light_major"},"children":{"light":{"1:character":"Fl","1:colour":"white","1:height":"82","1:period":"15","1:range":"16","1:sector_end":"196","1:sector_start":"356","1:sequence":"0.5+(14.5)","reference":"G 1720"}},"osm_tags":{"man_made":"lighthouse","name":"Faro Cabo Quedal","seamark:light:1:character":"Fl","seamark:light:1:colour":"white","seamark:light:1:height":"82","seamark:light:1:period":"15","seamark:light:1:range":"16","seamark:light:1:sector_end":"196","seamark:light:1:sector_start":"356","seamark:light:1:sequence":"0.5+(14.5)","seamark:light:reference":"G 1720","seamark:type":"light_major","source":"US NGA Pub. 111. 2010-09-02."}}},{"type":"Feature","geometry":{"type":"Point","coordinates":[-73.8516485,-40.8905991]},"properties":{"osm_id":7775003606,"osm_type":"node","seamark_type":"wreck","display_class":"OTHER","min_zoom":12,"importance":1,"name":null,"ref":null,"common":{"type":"wreck"},"children":{"wreck":{"category":"non-dangerous"}},"osm_tags":{"access":"yes","historic":"wreck","seamark:type":"wreck","seamark:wreck:category":"non-dangerous","wreck:visible_at_high_tide":"yes","wreck:visible_at_low_tide":"yes"}}}],"type":"FeatureCollection"}