{"type":"FeatureCollection","features":[{"type":"Feature","geometry":{"type":"Point","coordinates":[169.528996,-41.901296]},"properties":{"osm_id":11052486965,"osm_type":"node","seamark_type":"sea_area","display_class":"OTHER","min_zoom":12,"importance":1,"name":"Foulwind Canyon","ref":null,"common":{"type":"sea_area"},"children":{"sea_area":{"category":"canyon"}},"osm_tags":{"name":"Foulwind Canyon","ref:linz:place_id":"14441","seamark:sea_area:category":"canyon","seamark:type":"sea_area","wikidata":"Q125838727"}}}],"type":"FeatureCollection"}