{"type":"FeatureCollection","features":[{"type":"Feature","geometry":{"type":"Point","coordinates":[-71.4497651,-41.0921286]},"properties":{"osm_id":4588450589,"osm_type":"node","seamark_type":"harbour","display_class":"OTHER","min_zoom":12,"importance":1,"name":"Amarras del Nahuel","ref":null,"common":{"type":"harbour"},"children":{"harbour":{"category":"marina_no_facilities"}},"osm_tags":{"addr:housenumber":"14000","addr:street":"Avenida Ezequiel Bustillo","leisure":"marina","name":"Amarras del Nahuel","name:es":"Amarras del Nahuel","seamark:harbour:category":"marina_no_facilities","seamark:type":"harbour","website":"http://www.pinaresgolf.com.ar"}}},{"type":"Feature","geometry":{"type":"Polygon","coordinates":[[[-71.3484883,-41.1281585],[-71.3482473,-41.1282137],[-71.3480316,-41.1282549],[-71.3478767,-41.1282818],[-71.3477028,-41.1283093],[-71.3475671,-41.1283231],[-71.3474357,-41.1283323],[-71.3472409,-41.128327],[-71.3470564,-41.1283257],[-71.346839,-41.1283447],[-71.346685,-41.128365],[-71.3465771,-41.1283801],[-71.3465356,-41.1283847],[-71.3465395,-41.1284228],[-71.3465625,-41.12856],[-71.3465843,-41.1287416],[-71.346741,-41.1287352],[-71.346758,-41.1287772],[-71.3467155,-41.1287961],[-71.3467044,-41.1288019],[-71.3466565,-41.1288381],[-71.3465274,-41.1289107],[-71.3464247,-41.1289574],[-71.3465751,-41.1290962],[-71.3468625,-41.1292467],[-71.3480987,-41.129044],[-71.3483683,-41.128981],[-71.3486106,-41.1289197],[-71.3487807,-41.1288415],[-71.3490309,-41.1286672],[-71.3493651,-41.1284165],[-71.3490158,-41.1279567],[-71.3488989,-41.1279819],[-71.3488063,-41.1280213],[-71.3487393,-41.1280647],[-71.3486769,-41.128121],[-71.3484883,-41.1281585]]]},"properties":{"osm_id":30510641,"osm_type":"way","seamark_type":"harbour","display_class":"OTHER","min_zoom":12,"importance":1,"name":"Club Nautico Bariloche","ref":null,"common":{"type":"harbour"},"children":{"harbour":{"category":"marina"}},"osm_tags":{"leisure":"marina","name":"Club Nautico Bariloche","seamark:harbour:category":"marina","seamark:type":"harbour"}}},{"type":"Feature","geometry":{"type":"Polygon","coordinates":[[[-71.4898325,-41.0570372],[-71.489337,-41.0570161],[-71.4889649,-41.0570464],[-71.4887332,-41.0570808],[-71.4887327,-41.0573134],[-71.4887946,-41.0580052],[-71.4900567,-41.0579316],[-71.4899898,-41.0575267],[-71.4898325,-41.0570372]]]},"properties":{"osm_id":323358570,"osm_type":"way","seamark_type":"harbour","display_class":"OTHER","min_zoom":12,"importance":1,"name":"Puerto Península","ref":null,"common":{"type":"harbour"},"children":{"harbour":{"category":"marina"}},"osm_tags":{"leisure":"marina","name":"Puerto Península","seamark:harbour:category":"marina","seamark:type":"harbour"}}},{"type":"Feature","geometry":{"type":"Point","coordinates":[-71.4694253,-41.0718041]},"properties":{"osm_id":5347706293,"osm_type":"node","seamark_type":"harbour","display_class":"OTHER","min_zoom":12,"importance":1,"name":"Puerto Pireo","ref":null,"common":{"type":"harbour"},"children":{"harbour":{"category":"marina"}},"osm_tags":{"leisure":"marina","name":"Puerto Pireo","seamark:harbour:category":"marina","seamark:type":"harbour"}}}],"type":"FeatureCollection"}