{"type":"FeatureCollection","features":[{"type":"Feature","geometry":{"type":"Point","coordinates":[146.59274,-42.00157]},"properties":{"osm_id":13059234191,"osm_type":"node","seamark_type":"rock","display_class":"OTHER","min_zoom":12,"importance":1,"name":"Senators Rock","ref":null,"common":{"type":"rock"},"children":{},"osm_tags":{"name":"Senators Rock","ref:gaz_au":"TAS_12807J","seamark:type":"rock","source:name":"Gazetteer of Australia","source:name:date":"2025-06-18"}}}],"type":"FeatureCollection"}