{"type":"FeatureCollection","features":[{"type":"Feature","geometry":{"type":"Point","coordinates":[-73.6671604,-42.3858847]},"properties":{"osm_id":7555121841,"osm_type":"node","seamark_type":"light_major","display_class":"LIGHTHOUSE","min_zoom":7,"importance":5,"name":null,"ref":null,"common":{"type":"light_major"},"children":{"light":{"1:character":"Fl","1:colour":"white","1:height":"32","1:period":"5","1:range":"10","1:sector_end":"169","1:sector_start":"149","1:sequence":"1+(4)"}},"osm_tags":{"man_made":"lighthouse","seamark:light:1:character":"Fl","seamark:light:1:colour":"white","seamark:light:1:height":"32","seamark:light:1:period":"5","seamark:light:1:range":"10","seamark:light:1:sector_end":"169","seamark:light:1:sector_start":"149","seamark:light:1:sequence":"1+(4)","seamark:type":"light_major"}}},{"type":"Feature","geometry":{"type":"Point","coordinates":[-73.7456904,-42.5748651]},"properties":{"osm_id":1199792093,"osm_type":"node","seamark_type":"light_minor","display_class":"OTHER","min_zoom":12,"importance":1,"name":"Isla Linlinao","ref":null,"common":{"name":"Isla Linlinao","type":"light_minor"},"children":{"light":{"1:character":"Fl","1:colour":"white","1:height":"39","1:period":"5","1:range":"8","1:sector_end":"57","1:sector_start":"172","1:sequence":"1+(4)","reference":"G 1636"}},"osm_tags":{"seamark:light:1:character":"Fl","seamark:light:1:colour":"white","seamark:light:1:height":"39","seamark:light:1:period":"5","seamark:light:1:range":"8","seamark:light:1:sector_end":"57","seamark:light:1:sector_start":"172","seamark:light:1:sequence":"1+(4)","seamark:light:reference":"G 1636","seamark:name":"Isla Linlinao","seamark:type":"light_minor","source":"US NGA Pub. 111. 2010-09-02."}}},{"type":"Feature","geometry":{"type":"Point","coordinates":[-73.6571371,-42.6593801]},"properties":{"osm_id":1199792095,"osm_type":"node","seamark_type":"light_minor","display_class":"OTHER","min_zoom":12,"importance":1,"name":"Islote Yal","ref":null,"common":{"name":"Islote Yal","type":"light_minor"},"children":{"light":{"character":"Fl","colour":"green","height":"9","period":"10","range":"6","reference":"G 1632","sequence":"0.5+(9.5)"}},"osm_tags":{"seamark:light:character":"Fl","seamark:light:colour":"green","seamark:light:height":"9","seamark:light:period":"10","seamark:light:range":"6","seamark:light:reference":"G 1632","seamark:light:sequence":"0.5+(9.5)","seamark:name":"Islote Yal","seamark:type":"light_minor","source":"US NGA Pub. 111. 2010-09-02."}}},{"type":"Feature","geometry":{"type":"Point","coordinates":[-73.9699218,-42.7722973]},"properties":{"osm_id":9586658253,"osm_type":"node","seamark_type":"harbour","display_class":"OTHER","min_zoom":12,"importance":1,"name":"Marina Lago Tepuhueico","ref":null,"common":{"type":"harbour"},"children":{"harbour":{"category":"marina"}},"osm_tags":{"leisure":"marina","name":"Marina Lago Tepuhueico","seamark:harbour:category":"marina","seamark:type":"harbour"}}},{"type":"Feature","geometry":{"type":"Point","coordinates":[-73.6500496,-42.4332805]},"properties":{"osm_id":1199792083,"osm_type":"node","seamark_type":"light_minor","display_class":"OTHER","min_zoom":12,"importance":1,"name":"Punta Chulequehue","ref":null,"common":{"name":"Punta Chulequehue","type":"light_minor"},"children":{"light":{"1:category":"lower","1:character":"Fl","1:colour":"white","1:height":"11","1:period":"5","1:range":"8","1:sector_end":"226","1:sector_start":"138","1:sequence":"1+(4)","2:category":"lower","2:character":"Fl","2:colour":"white","2:height":"11","2:period":"5","2:sector_end":"320","2:sector_start":"262","2:sequence":"1+(4)","reference":"G 1644"}},"osm_tags":{"seamark:light:1:category":"lower","seamark:light:1:character":"Fl","seamark:light:1:colour":"white","seamark:light:1:height":"11","seamark:light:1:period":"5","seamark:light:1:range":"8","seamark:light:1:sector_end":"226","seamark:light:1:sector_start":"138","seamark:light:1:sequence":"1+(4)","seamark:light:2:category":"lower","seamark:light:2:character":"Fl","seamark:light:2:colour":"white","seamark:light:2:height":"11","seamark:light:2:period":"5","seamark:light:2:sector_end":"320","seamark:light:2:sector_start":"262","seamark:light:2:sequence":"1+(4)","seamark:light:reference":"G 1644","seamark:name":"Punta Chulequehue","seamark:type":"light_minor","source":"US NGA Pub. 111. 2010-09-02."}}},{"type":"Feature","geometry":{"type":"Point","coordinates":[-73.0009152,-42.6870422]},"properties":{"osm_id":1199792104,"osm_type":"node","seamark_type":"light_minor","display_class":"OTHER","min_zoom":12,"importance":1,"name":"Roca Naranjo","ref":null,"common":{"name":"Roca Naranjo","type":"light_minor"},"children":{"light":{"character":"Fl","colour":"white","height":"6","period":"5","range":"2","reference":"G 1623","sequence":"0.4+(4.6)"}},"osm_tags":{"seamark:light:character":"Fl","seamark:light:colour":"white","seamark:light:height":"6","seamark:light:period":"5","seamark:light:range":"2","seamark:light:reference":"G 1623","seamark:light:sequence":"0.4+(4.6)","seamark:name":"Roca Naranjo","seamark:type":"light_minor","source":"US NGA Pub. 111. 2010-09-02."}}}],"type":"FeatureCollection"}