{"type":"FeatureCollection","features":[{"type":"Feature","geometry":{"type":"Point","coordinates":[-178.154,-42.459333]},"properties":{"osm_id":10983434196,"osm_type":"node","seamark_type":"sea_area","display_class":"OTHER","min_zoom":12,"importance":1,"name":"Rekohu Salient","ref":null,"common":{"type":"sea_area"},"children":{"sea_area":{"category":"terrace"}},"osm_tags":{"name":"Rekohu Salient","ref:linz:place_id":"14752","seamark:sea_area:category":"terrace","seamark:type":"sea_area","wikidata":"Q121438184"}}}],"type":"FeatureCollection"}