{"type":"FeatureCollection","features":[{"type":"Feature","geometry":{"type":"Polygon","coordinates":[[[168.676548,-43.9934829],[168.6770575,-43.9929394],[168.6774707,-43.9928332],[168.6777311,-43.99287],[168.6779858,-43.9929885],[168.678133,-43.9931724],[168.6782405,-43.9934748],[168.6781443,-43.993769],[168.676548,-43.9934829]]]},"properties":{"osm_id":1051478565,"osm_type":"way","seamark_type":"water_turbulence","display_class":"OTHER","min_zoom":12,"importance":1,"name":null,"ref":null,"common":{"type":"water_turbulence"},"children":{"water_turbulence":{"category":"breakers"}},"osm_tags":{"ref:linz:hydrographic_id":"447149","seamark:type":"water_turbulence","seamark:water_turbulence:category":"breakers","source":"LINZ;Jackson Bay Chart"}}},{"type":"Feature","geometry":{"type":"Point","coordinates":[168.464326,-43.861532]},"properties":{"osm_id":11052517705,"osm_type":"node","seamark_type":"sea_area","display_class":"OTHER","min_zoom":12,"importance":1,"name":"Arawhata Canyon","ref":null,"common":{"type":"sea_area"},"children":{"sea_area":{"category":"canyon"}},"osm_tags":{"name":"Arawhata Canyon","name:en":"Arawhata Canyon","name:mi":"Arawhata","ref:linz:place_id":"14311","seamark:sea_area:category":"canyon","seamark:type":"sea_area","wikidata":"Q125768234"}}},{"type":"Feature","geometry":{"type":"Point","coordinates":[168.2,-44.0]},"properties":{"osm_id":11052517706,"osm_type":"node","seamark_type":"sea_area","display_class":"OTHER","min_zoom":12,"importance":1,"name":"Cascade Canyon","ref":null,"common":{"type":"sea_area"},"children":{"sea_area":{"category":"canyon"}},"osm_tags":{"name":"Cascade Canyon","ref:linz:place_id":"14361","seamark:sea_area:category":"canyon","seamark:type":"sea_area","wikidata":"Q125725287"}}},{"type":"Feature","geometry":{"type":"Point","coordinates":[168.853478,-43.660565]},"properties":{"osm_id":11052517711,"osm_type":"node","seamark_type":"sea_area","display_class":"OTHER","min_zoom":12,"importance":1,"name":"Haast Canyon","ref":null,"common":{"type":"sea_area"},"children":{"sea_area":{"category":"canyon"}},"osm_tags":{"name":"Haast Canyon","name:etymology":"Haast River","name:etymology:wikidata":"Q917275","ref:linz:place_id":"14461","seamark:sea_area:category":"canyon","seamark:type":"sea_area","wikidata":"Q125837262"}}},{"type":"Feature","geometry":{"type":"Point","coordinates":[168.6161,-43.9732]},"properties":{"osm_id":9270842570,"osm_type":"node","seamark_type":"signal_station_warning","display_class":"OTHER","min_zoom":12,"importance":1,"name":"Jackson Bay","ref":null,"common":{"type":"signal_station_warning"},"children":{"signal_station_warning":{"category":"tide_gauge"}},"osm_tags":{"description":"Seaframe acoustic","int_ref":"6518","man_made":"monitoring_station","monitoring:tide_gauge":"yes","name":"Jackson Bay","operator":"Bureau of Meteorology (Australia), NIWA","ref:linz:hydrographic_id":"tg1142","seamark:signal_station_warning:category":"tide_gauge","seamark:type":"signal_station_warning","source":"LINZ","start_date":"1999-01-01","website":"ftp://ftp.soest.hawaii.edu/uhslc/rqds/pacific/hourly/h403b.zip"}}},{"type":"Feature","geometry":{"type":"Point","coordinates":[168.4565,-43.8989]},"properties":{"osm_id":11052471504,"osm_type":"node","seamark_type":"sea_area","display_class":"OTHER","min_zoom":12,"importance":1,"name":"Jackson Canyon","ref":null,"common":{"type":"sea_area"},"children":{"sea_area":{"category":"canyon"}},"osm_tags":{"name":"Jackson Canyon","ref:linz:place_id":"14510","seamark:sea_area:category":"canyon","seamark:type":"sea_area","wikidata":"Q125725278"}}},{"type":"Feature","geometry":{"type":"Point","coordinates":[168.9048,-43.9075]},"properties":{"osm_id":9270842569,"osm_type":"node","seamark_type":"signal_station_warning","display_class":"OTHER","min_zoom":12,"importance":1,"name":"Okuru River","ref":null,"common":{"type":"signal_station_warning"},"children":{"signal_station_warning":{"category":"tide_gauge"}},"osm_tags":{"man_made":"monitoring_station","monitoring:tide_gauge":"yes","name":"Okuru River","ref:linz:hydrographic_id":"tg1167","seamark:signal_station_warning:category":"tide_gauge","seamark:type":"signal_station_warning","source":"LINZ","website":"https://data.linz.govt.nz/layer/52101"}}}],"type":"FeatureCollection"}