{"type":"FeatureCollection","features":[{"type":"Feature","geometry":{"type":"Point","coordinates":[-66.4625888,-45.1475567]},"properties":{"osm_id":6277717447,"osm_type":"node","seamark_type":"beacon_isolated_danger","display_class":"BEACON","min_zoom":9,"importance":4,"name":null,"ref":"Baliza \"Ulloa\"","common":{"type":"beacon_isolated_danger"},"children":{},"osm_tags":{"fixme":"Corregir la ubicación precisa del lugar de esta baliza.","ref":"Baliza \"Ulloa\"","seamark:type":"beacon_isolated_danger"}}},{"type":"Feature","geometry":{"type":"Point","coordinates":[-66.7636459,-45.915291]},"properties":{"osm_id":7982417731,"osm_type":"node","seamark_type":"platform","display_class":"OTHER","min_zoom":12,"importance":1,"name":"YPF.Ch.MG.Au.x-1","ref":"132418","common":{"type":"platform"},"children":{},"osm_tags":{"abandoned":"yes","abandoned:man_made":"offshore_platform","ele":"42.1","field_name":"CGSJM-1 (Z019)","name":"YPF.Ch.MG.Au.x-1","operator":"Pan American Energy S.L.","ref":"132418","seamark:type":"platform"}}},{"type":"Feature","geometry":{"type":"Point","coordinates":[-66.9210635,-45.9779906]},"properties":{"osm_id":7982417728,"osm_type":"node","seamark_type":"platform","display_class":"OTHER","min_zoom":12,"importance":1,"name":"YPF.Ch.MG.Eli.x-1","ref":"132419","common":{"type":"platform"},"children":{},"osm_tags":{"abandoned":"yes","abandoned:man_made":"offshore_platform","ele":"34.3","field_name":"CGSJM-1 (Z019)","name":"YPF.Ch.MG.Eli.x-1","operator":"Pan American Energy S.L.","ref":"132419","seamark:type":"platform"}}},{"type":"Feature","geometry":{"type":"Point","coordinates":[-66.8553,-45.9175912]},"properties":{"osm_id":7982417730,"osm_type":"node","seamark_type":"platform","display_class":"OTHER","min_zoom":12,"importance":1,"name":"YPF.Ch.MG.Sil.x-1","ref":"133006","common":{"type":"platform"},"children":{},"osm_tags":{"abandoned":"yes","abandoned:man_made":"offshore_platform","ele":"37.4","field_name":"CGSJM-1 (Z019)","name":"YPF.Ch.MG.Sil.x-1","operator":"Pan American Energy S.L.","ref":"133006","seamark:type":"platform"}}}],"type":"FeatureCollection"}