{"type":"FeatureCollection","features":[{"type":"Feature","geometry":{"type":"Point","coordinates":[163.816667,-50.68]},"properties":{"osm_id":10983440011,"osm_type":"node","seamark_type":"sea_area","display_class":"OTHER","min_zoom":12,"importance":1,"name":"Maungamoana Knoll","ref":null,"common":{"type":"sea_area"},"children":{"sea_area":{"category":"knoll"}},"osm_tags":{"name":"Maungamoana Knoll","name:mi":"Maungamoana","ref:linz:place_id":"14593","seamark:sea_area:category":"knoll","seamark:type":"sea_area"}}}],"type":"FeatureCollection"}