{"type":"FeatureCollection","features":[{"type":"Feature","geometry":{"type":"Point","coordinates":[-69.0270567,-51.6087827]},"properties":{"osm_id":5614869249,"osm_type":"node","seamark_type":"obstruction","display_class":"OTHER","min_zoom":12,"importance":1,"name":null,"ref":null,"common":{"type":"obstruction"},"children":{"obstruction":{"category":"foul_ground"}},"osm_tags":{"seamark:obstruction:category":"foul_ground","seamark:type":"obstruction"}}},{"type":"Feature","geometry":{"type":"Point","coordinates":[-69.0325713,-51.6032921]},"properties":{"osm_id":5614869250,"osm_type":"node","seamark_type":"obstruction","display_class":"OTHER","min_zoom":12,"importance":1,"name":null,"ref":null,"common":{"type":"obstruction"},"children":{"obstruction":{"category":"foul_ground"}},"osm_tags":{"seamark:obstruction:category":"foul_ground","seamark:type":"obstruction"}}},{"type":"Feature","geometry":{"type":"Point","coordinates":[-69.2201208,-51.6116928]},"properties":{"osm_id":12371900601,"osm_type":"node","seamark_type":"wreck","display_class":"OTHER","min_zoom":12,"importance":1,"name":null,"ref":null,"common":{"type":"wreck"},"children":{},"osm_tags":{"historic":"wreck","seamark:type":"wreck"}}}],"type":"FeatureCollection"}