{"type":"FeatureCollection","features":[{"type":"Feature","geometry":{"type":"Point","coordinates":[-69.6013984,-52.5450846]},"properties":{"osm_id":1199793741,"osm_type":"node","seamark_type":"light_major","display_class":"LIGHTHOUSE","min_zoom":7,"importance":5,"name":"Crawford","ref":null,"common":{"name":"Crawford","radar_reflector":"yes","type":"light_major"},"children":{"light":{"1:character":"Fl","1:colour":"white","1:height":"15","1:period":"5","1:range":"17","1:sector_end":"191","1:sector_start":"22","1:sequence":"0.4+(4.6)","reference":"G 1420"}},"osm_tags":{"seamark:light:1:character":"Fl","seamark:light:1:colour":"white","seamark:light:1:height":"15","seamark:light:1:period":"5","seamark:light:1:range":"17","seamark:light:1:sector_end":"191","seamark:light:1:sector_start":"22","seamark:light:1:sequence":"0.4+(4.6)","seamark:light:reference":"G 1420","seamark:name":"Crawford","seamark:radar_reflector":"yes","seamark:type":"light_major","source":"US NGA Pub. 111. 2010-09-02."}}},{"type":"Feature","geometry":{"type":"Point","coordinates":[-69.5448795,-52.4558419]},"properties":{"osm_id":345518842,"osm_type":"node","seamark_type":"light_major","display_class":"LIGHTHOUSE","min_zoom":7,"importance":5,"name":"Punta Delgada","ref":null,"common":{"information":"Signal station.","name":"Punta Delgada","type":"light_major"},"children":{"light":{"1:character":"Fl","1:colour":"white","1:height":"21","1:period":"5","1:range":"19","1:sector_end":"39","1:sector_start":"229","1:sequence":"0.3+(4.7)","reference":"G 1414"}},"osm_tags":{"man_made":"lighthouse","name":"Faro Punta Delgada","seamark:information":"Signal station.","seamark:light:1:character":"Fl","seamark:light:1:colour":"white","seamark:light:1:height":"21","seamark:light:1:period":"5","seamark:light:1:range":"19","seamark:light:1:sector_end":"39","seamark:light:1:sector_start":"229","seamark:light:1:sequence":"0.3+(4.7)","seamark:light:reference":"G 1414","seamark:name":"Punta Delgada","seamark:type":"light_major","source":"US NGA Pub. 111. 2010-09-02.","wikidata":"Q5856262","wikipedia":"es:Faro Punta Delgada (Chile)"}}},{"type":"Feature","geometry":{"type":"Point","coordinates":[-69.0785507,-52.4153631]},"properties":{"osm_id":7851363202,"osm_type":"node","seamark_type":"platform","display_class":"OTHER","min_zoom":12,"importance":1,"name":null,"ref":null,"common":{"type":"platform"},"children":{},"osm_tags":{"aeroway":"helipad","man_made":"offshore_platform","seamark:type":"platform"}}},{"type":"Feature","geometry":{"type":"Polygon","coordinates":[[[-69.8108799,-52.7056499],[-69.8108701,-52.7053901],[-69.81129,-52.7053901],[-69.8113001,-52.7056399],[-69.8108799,-52.7056499]]]},"properties":{"osm_id":12739748,"osm_type":"way","seamark_type":"platform","display_class":"OTHER","min_zoom":12,"importance":1,"name":null,"ref":null,"common":{"type":"platform"},"children":{"platform":{"category":"gas"}},"osm_tags":{"seamark:platform:category":"gas","seamark:type":"platform"}}},{"type":"Feature","geometry":{"type":"Polygon","coordinates":[[[-69.9303701,-52.67146],[-69.9303701,-52.6712],[-69.93079,-52.6712],[-69.93079,-52.67146],[-69.9303701,-52.67146]]]},"properties":{"osm_id":12740383,"osm_type":"way","seamark_type":"platform","display_class":"OTHER","min_zoom":12,"importance":1,"name":null,"ref":null,"common":{"type":"platform"},"children":{"platform":{"category":"gas"}},"osm_tags":{"seamark:platform:category":"gas","seamark:type":"platform"}}},{"type":"Feature","geometry":{"type":"Polygon","coordinates":[[[-69.9997799,-52.6837101],[-69.9997699,-52.68345],[-70.0001901,-52.68345],[-70.0002001,-52.6837],[-69.9997799,-52.6837101]]]},"properties":{"osm_id":12740834,"osm_type":"way","seamark_type":"platform","display_class":"OTHER","min_zoom":12,"importance":1,"name":null,"ref":null,"common":{"type":"platform"},"children":{"platform":{"category":"gas"}},"osm_tags":{"seamark:platform:category":"gas","seamark:type":"platform"}}},{"type":"Feature","geometry":{"type":"Polygon","coordinates":[[[-69.9109201,-52.68878],[-69.9109201,-52.6885199],[-69.91134,-52.6885199],[-69.91134,-52.68877],[-69.9109201,-52.68878]]]},"properties":{"osm_id":12742263,"osm_type":"way","seamark_type":"platform","display_class":"OTHER","min_zoom":12,"importance":1,"name":null,"ref":null,"common":{"type":"platform"},"children":{"platform":{"category":"gas"}},"osm_tags":{"seamark:platform:category":"gas","seamark:type":"platform"}}},{"type":"Feature","geometry":{"type":"Polygon","coordinates":[[[-69.92166,-52.6981701],[-69.92165,-52.69766],[-69.9220699,-52.69766],[-69.92208,-52.6981701],[-69.92166,-52.6981701]]]},"properties":{"osm_id":12745198,"osm_type":"way","seamark_type":"platform","display_class":"OTHER","min_zoom":12,"importance":1,"name":null,"ref":null,"common":{"type":"platform"},"children":{"platform":{"category":"gas"}},"osm_tags":{"seamark:platform:category":"gas","seamark:type":"platform"}}},{"type":"Feature","geometry":{"type":"Polygon","coordinates":[[[-69.96378,-52.6573601],[-69.96377,-52.6571],[-69.9641999,-52.6571],[-69.9641999,-52.65735],[-69.96378,-52.6573601]]]},"properties":{"osm_id":12748771,"osm_type":"way","seamark_type":"platform","display_class":"OTHER","min_zoom":12,"importance":1,"name":null,"ref":null,"common":{"type":"platform"},"children":{"platform":{"category":"gas"}},"osm_tags":{"seamark:platform:category":"gas","seamark:type":"platform"}}},{"type":"Feature","geometry":{"type":"Polygon","coordinates":[[[-69.0646619,-52.3164344],[-69.0646264,-52.3164545],[-69.064495,-52.3164549],[-69.0644614,-52.3164353],[-69.0644567,-52.3163627],[-69.0644997,-52.3163348],[-69.0646264,-52.3163356],[-69.0646619,-52.316357],[-69.0646619,-52.3164344]]]},"properties":{"osm_id":1221998923,"osm_type":"way","seamark_type":"platform","display_class":"OTHER","min_zoom":12,"importance":1,"name":null,"ref":null,"common":{"type":"platform"},"children":{},"osm_tags":{"aeroway":"helipad","man_made":"offshore_platform","seamark:type":"platform"}}},{"type":"Feature","geometry":{"type":"Polygon","coordinates":[[[-69.0790741,-52.3091928],[-69.0790727,-52.3090936],[-69.0789158,-52.3090944],[-69.0789172,-52.3091936],[-69.0790741,-52.3091928]]]},"properties":{"osm_id":1221999198,"osm_type":"way","seamark_type":"platform","display_class":"OTHER","min_zoom":12,"importance":1,"name":null,"ref":null,"common":{"type":"platform"},"children":{},"osm_tags":{"aeroway":"helipad","man_made":"offshore_platform","seamark:type":"platform"}}},{"type":"Feature","geometry":{"type":"Polygon","coordinates":[[[-69.0748463,-52.335026],[-69.0749717,-52.335026],[-69.0749717,-52.3349207],[-69.0748463,-52.3349207],[-69.0748463,-52.335026]]]},"properties":{"osm_id":1221999435,"osm_type":"way","seamark_type":"platform","display_class":"OTHER","min_zoom":12,"importance":1,"name":null,"ref":null,"common":{"type":"platform"},"children":{},"osm_tags":{"aeroway":"helipad","man_made":"offshore_platform","seamark:type":"platform"}}},{"type":"Feature","geometry":{"type":"Polygon","coordinates":[[[-69.0853565,-52.3468912],[-69.0853525,-52.3467937],[-69.0851929,-52.3467962],[-69.0851969,-52.3468937],[-69.0853565,-52.3468912]]]},"properties":{"osm_id":1221999448,"osm_type":"way","seamark_type":"platform","display_class":"OTHER","min_zoom":12,"importance":1,"name":null,"ref":null,"common":{"type":"platform"},"children":{},"osm_tags":{"aeroway":"helipad","man_made":"offshore_platform","seamark:type":"platform"}}},{"type":"Feature","geometry":{"type":"Polygon","coordinates":[[[-69.0975237,-52.373328],[-69.0974781,-52.3733276],[-69.0973896,-52.3732711],[-69.0973896,-52.3732363],[-69.0974774,-52.3731863],[-69.0975291,-52.3731855],[-69.0976189,-52.37324],[-69.0976142,-52.3732744],[-69.0975237,-52.373328]]]},"properties":{"osm_id":1221999453,"osm_type":"way","seamark_type":"platform","display_class":"OTHER","min_zoom":12,"importance":1,"name":null,"ref":null,"common":{"type":"platform"},"children":{},"osm_tags":{"aeroway":"helipad","man_made":"offshore_platform","seamark:type":"platform"}}},{"type":"Feature","geometry":{"type":"Polygon","coordinates":[[[-69.0803891,-52.3757277],[-69.0803401,-52.3757277],[-69.0802476,-52.3756745],[-69.0802483,-52.3756401],[-69.0803327,-52.3755865],[-69.0803938,-52.3755848],[-69.0804809,-52.3756372],[-69.0804756,-52.37567],[-69.0803891,-52.3757277]]]},"properties":{"osm_id":1221999603,"osm_type":"way","seamark_type":"platform","display_class":"OTHER","min_zoom":12,"importance":1,"name":null,"ref":null,"common":{"type":"platform"},"children":{},"osm_tags":{"aeroway":"helipad","man_made":"offshore_platform","seamark:type":"platform"}}},{"type":"Feature","geometry":{"type":"Polygon","coordinates":[[[-69.0780797,-52.4012234],[-69.0780948,-52.4011269],[-69.0779339,-52.4011175],[-69.0779188,-52.401214],[-69.0780797,-52.4012234]]]},"properties":{"osm_id":1221999626,"osm_type":"way","seamark_type":"platform","display_class":"OTHER","min_zoom":12,"importance":1,"name":null,"ref":null,"common":{"type":"platform"},"children":{},"osm_tags":{"aeroway":"helipad","man_made":"offshore_platform","seamark:type":"platform"}}},{"type":"Feature","geometry":{"type":"Polygon","coordinates":[[[-69.0786088,-52.4154427],[-69.0784974,-52.4154418],[-69.0784471,-52.4154157],[-69.0784478,-52.4153445],[-69.0784927,-52.4153106],[-69.0786088,-52.415311],[-69.0786611,-52.4153457],[-69.0786631,-52.4154165],[-69.0786088,-52.4154427]]]},"properties":{"osm_id":1221999909,"osm_type":"way","seamark_type":"platform","display_class":"OTHER","min_zoom":12,"importance":1,"name":null,"ref":null,"common":{"type":"platform"},"children":{},"osm_tags":{"aeroway":"helipad","man_made":"offshore_platform","seamark:type":"platform"}}},{"type":"Feature","geometry":{"type":"Polygon","coordinates":[[[-69.0597897,-52.4398862],[-69.0599173,-52.4398887],[-69.0599226,-52.4397873],[-69.0597951,-52.4397848],[-69.0597897,-52.4398862]]]},"properties":{"osm_id":1221999943,"osm_type":"way","seamark_type":"platform","display_class":"OTHER","min_zoom":12,"importance":1,"name":null,"ref":null,"common":{"type":"platform"},"children":{},"osm_tags":{"aeroway":"helipad","man_made":"offshore_platform","seamark:type":"platform"}}},{"type":"Feature","geometry":{"type":"Polygon","coordinates":[[[-69.0392661,-52.4852165],[-69.0393922,-52.4852162],[-69.0393915,-52.4851104],[-69.0392654,-52.4851107],[-69.0392661,-52.4852165]]]},"properties":{"osm_id":1222000252,"osm_type":"way","seamark_type":"platform","display_class":"OTHER","min_zoom":12,"importance":1,"name":null,"ref":null,"common":{"type":"platform"},"children":{},"osm_tags":{"aeroway":"helipad","man_made":"offshore_platform","seamark:type":"platform"}}},{"type":"Feature","geometry":{"type":"Polygon","coordinates":[[[-69.0271284,-52.4889988],[-69.0272091,-52.4889415],[-69.0271294,-52.4888998],[-69.0270486,-52.4889571],[-69.0271284,-52.4889988]]]},"properties":{"osm_id":1222000464,"osm_type":"way","seamark_type":"platform","display_class":"OTHER","min_zoom":12,"importance":1,"name":null,"ref":null,"common":{"type":"platform"},"children":{},"osm_tags":{"aeroway":"helipad","man_made":"offshore_platform","seamark:type":"platform"}}},{"type":"Feature","geometry":{"type":"Polygon","coordinates":[[[-69.0348928,-52.5030534],[-69.0349439,-52.5029609],[-69.0347923,-52.5029299],[-69.0347412,-52.5030224],[-69.0348928,-52.5030534]]]},"properties":{"osm_id":1222000760,"osm_type":"way","seamark_type":"platform","display_class":"OTHER","min_zoom":12,"importance":1,"name":null,"ref":null,"common":{"type":"platform"},"children":{},"osm_tags":{"aeroway":"helipad","man_made":"offshore_platform","seamark:type":"platform"}}},{"type":"Feature","geometry":{"type":"Polygon","coordinates":[[[-69.022619,-52.5052142],[-69.0224661,-52.5051979],[-69.0224394,-52.5052905],[-69.0225923,-52.5053068],[-69.022619,-52.5052142]]]},"properties":{"osm_id":1222000987,"osm_type":"way","seamark_type":"platform","display_class":"OTHER","min_zoom":12,"importance":1,"name":null,"ref":null,"common":{"type":"platform"},"children":{},"osm_tags":{"aeroway":"helipad","man_made":"offshore_platform","seamark:type":"platform"}}},{"type":"Feature","geometry":{"type":"Polygon","coordinates":[[[-69.0172593,-52.5184374],[-69.0171513,-52.5184553],[-69.0171017,-52.518439],[-69.0170728,-52.5183778],[-69.0170977,-52.5183427],[-69.0171942,-52.5183247],[-69.0172572,-52.518339],[-69.0172821,-52.5184059],[-69.0172593,-52.5184374]]]},"properties":{"osm_id":1222001205,"osm_type":"way","seamark_type":"platform","display_class":"OTHER","min_zoom":12,"importance":1,"name":null,"ref":null,"common":{"type":"platform"},"children":{},"osm_tags":{"aeroway":"helipad","man_made":"offshore_platform","seamark:type":"platform"}}},{"type":"Feature","geometry":{"type":"Polygon","coordinates":[[[-69.0125064,-52.5978515],[-69.0125822,-52.5978532],[-69.0126204,-52.5978731],[-69.0126197,-52.5979428],[-69.0125882,-52.5979636],[-69.0124849,-52.5979627],[-69.0124541,-52.5979416],[-69.0124574,-52.5978772],[-69.0125064,-52.5978515]]]},"properties":{"osm_id":1222001312,"osm_type":"way","seamark_type":"platform","display_class":"OTHER","min_zoom":12,"importance":1,"name":null,"ref":null,"common":{"type":"platform"},"children":{},"osm_tags":{"aeroway":"helipad","man_made":"offshore_platform","seamark:type":"platform"}}},{"type":"Feature","geometry":{"type":"Polygon","coordinates":[[[-69.0126137,-52.6112255],[-69.0125962,-52.6112585],[-69.012503,-52.6112988],[-69.0124501,-52.611298],[-69.0123676,-52.6112312],[-69.0123783,-52.6111975],[-69.0124729,-52.6111584],[-69.0125399,-52.6111637],[-69.0126137,-52.6112255]]]},"properties":{"osm_id":1222001437,"osm_type":"way","seamark_type":"platform","display_class":"OTHER","min_zoom":12,"importance":1,"name":null,"ref":null,"common":{"type":"platform"},"children":{},"osm_tags":{"aeroway":"helipad","man_made":"offshore_platform","seamark:type":"platform"}}},{"type":"Feature","geometry":{"type":"Point","coordinates":[-69.6636124,-52.5752792]},"properties":{"osm_id":1042137944,"osm_type":"node","seamark_type":"platform","display_class":"OTHER","min_zoom":12,"importance":1,"name":"Catalina Norte 2 Heliport","ref":null,"common":{"type":"platform"},"children":{"platform":{"category":"gas"}},"osm_tags":{"aeroway":"helipad","fixme":"cannot be seen from sat img","name":"Catalina Norte 2 Heliport","seamark:platform:category":"gas","seamark:type":"platform","source":"ourairports.com"}}},{"type":"Feature","geometry":{"type":"Polygon","coordinates":[[[-69.0721352,-52.2682534],[-69.0720199,-52.2682534],[-69.0719837,-52.2682337],[-69.0719837,-52.2681656],[-69.0720145,-52.2681377],[-69.0721299,-52.2681369],[-69.0721755,-52.2681598],[-69.0721728,-52.2682345],[-69.0721352,-52.2682534]]]},"properties":{"osm_id":1276358938,"osm_type":"way","seamark_type":"platform","display_class":"OTHER","min_zoom":12,"importance":1,"name":"Posesión 5 Heliport","ref":null,"common":{"type":"platform"},"children":{"platform":{"category":"gas"}},"osm_tags":{"aeroway":"helipad","man_made":"offshore_platform","name":"Posesión 5 Heliport","seamark:platform:category":"gas","seamark:type":"platform","source":"ourairports.com"}}},{"type":"Feature","geometry":{"type":"Point","coordinates":[-69.4700958,-52.4790101]},"properties":{"osm_id":1199793775,"osm_type":"node","seamark_type":"light_minor","display_class":"OTHER","min_zoom":12,"importance":1,"name":"Puerto Progreso","ref":null,"common":{"name":"Puerto Progreso","radar_reflector":"yes","type":"light_minor"},"children":{"light":{"character":"Fl","colour":"green","group":"2","height":"8","period":"6","range":"5","reference":"G 1411.5","sequence":"0.3+(1.7)+0.3+(3.7)"}},"osm_tags":{"seamark:light:character":"Fl","seamark:light:colour":"green","seamark:light:group":"2","seamark:light:height":"8","seamark:light:period":"6","seamark:light:range":"5","seamark:light:reference":"G 1411.5","seamark:light:sequence":"0.3+(1.7)+0.3+(3.7)","seamark:name":"Puerto Progreso","seamark:radar_reflector":"yes","seamark:type":"light_minor","source":"US NGA Pub. 111. 2010-09-02."}}}],"type":"FeatureCollection"}