{"type":"FeatureCollection","features":[{"type":"Feature","geometry":{"type":"Point","coordinates":[-74.0711849,-52.9607268]},"properties":{"osm_id":6528230330,"osm_type":"node","seamark_type":"light_major","display_class":"LIGHTHOUSE","min_zoom":7,"importance":5,"name":"Faro Bahía Félix","ref":null,"common":{"information":"signal_station","type":"light_major"},"children":{"light":{"1:character":"Fl","1:colour":"white","1:height":"30","1:period":"15","1:range":"21","1:sector_end":"294","1:sector_start":"122","1:sequence":"0.2+(14.8)","reference":"G 1478"}},"osm_tags":{"man_made":"lighthouse","name":"Faro Bahía Félix","seamark:information":"signal_station","seamark:light:1:character":"Fl","seamark:light:1:colour":"white","seamark:light:1:height":"30","seamark:light:1:period":"15","seamark:light:1:range":"21","seamark:light:1:sector_end":"294","seamark:light:1:sector_start":"122","seamark:light:1:sequence":"0.2+(14.8)","seamark:light:reference":"G 1478","seamark:type":"light_major","wikidata":"Q5856110","wikipedia":"es:Faro Bahía Félix"}}},{"type":"Feature","geometry":{"type":"Point","coordinates":[-74.6622437,-52.5553898]},"properties":{"osm_id":6344120202,"osm_type":"node","seamark_type":"rock","display_class":"OTHER","min_zoom":12,"importance":1,"name":null,"ref":null,"common":{"type":"rock"},"children":{"rock":{"water_level":"covers"}},"osm_tags":{"seamark:rock:water_level":"covers","seamark:type":"rock"}}},{"type":"Feature","geometry":{"type":"Point","coordinates":[-74.6604788,-52.5459303]},"properties":{"osm_id":6344120203,"osm_type":"node","seamark_type":"rock","display_class":"OTHER","min_zoom":12,"importance":1,"name":null,"ref":null,"common":{"type":"rock"},"children":{"rock":{"water_level":"covers"}},"osm_tags":{"seamark:rock:water_level":"covers","seamark:type":"rock"}}},{"type":"Feature","geometry":{"type":"Point","coordinates":[-74.660967,-52.5471422]},"properties":{"osm_id":6344120204,"osm_type":"node","seamark_type":"rock","display_class":"OTHER","min_zoom":12,"importance":1,"name":null,"ref":null,"common":{"type":"rock"},"children":{"rock":{"water_level":"awash"}},"osm_tags":{"seamark:rock:water_level":"awash","seamark:type":"rock"}}},{"type":"Feature","geometry":{"type":"Point","coordinates":[-74.599244,-52.446383]},"properties":{"osm_id":6348855729,"osm_type":"node","seamark_type":"rock","display_class":"OTHER","min_zoom":12,"importance":1,"name":null,"ref":null,"common":{"type":"rock"},"children":{"rock":{"water_level":"awash"}},"osm_tags":{"seamark:rock:water_level":"awash","seamark:type":"rock"}}}],"type":"FeatureCollection"}