{"type":"FeatureCollection","features":[{"type":"Feature","geometry":{"type":"Point","coordinates":[-67.6918397,-53.791956]},"properties":{"osm_id":1922221712,"osm_type":"node","seamark_type":"light_minor","display_class":"OTHER","min_zoom":12,"importance":1,"name":null,"ref":null,"common":{"type":"light_minor"},"children":{"light":{"category":"lower","character":"Q","colour":"white","height":"10","range":"11","reference":"G 1270"}},"osm_tags":{"addr:city":"Río Grande","addr:country":"AR","addr:housenumber":"780","addr:postcode":"V9420","addr:province":"Tierra del Fuego","addr:street":"Ricardo Rojas","phone":"+54 2964 432507","seamark:light:category":"lower","seamark:light:character":"Q","seamark:light:colour":"white","seamark:light:height":"10","seamark:light:range":"11","seamark:light:reference":"G 1270","seamark:type":"light_minor","shop":"confectionery","source":"Klöber RG"}}},{"type":"Feature","geometry":{"type":"LineString","coordinates":[[-68.3144903,-52.928739],[-68.3141847,-52.9286418],[-68.3102419,-52.9274292],[-68.2558252,-52.9108689],[-68.2427789,-52.907349],[-68.2297327,-52.9045536],[-68.2170297,-52.9031041],[-68.2017519,-52.9019651],[-68.186474,-52.9023793],[-68.1746294,-52.9031041],[-68.1626131,-52.9043466],[-68.1497385,-52.9065208],[-68.1396105,-52.9089019],[-68.1269075,-52.9133533],[-68.1142046,-52.9178043],[-68.0910303,-52.9293953],[-68.0474283,-52.9547398],[-68.0388452,-52.9579456],[-68.0338671,-52.9611512],[-68.0295755,-52.9650802],[-68.0228807,-52.9686988],[-67.9524996,-53.0083797],[-67.9452898,-53.0123045],[-67.9379083,-53.015093],[-67.9298403,-53.0167453],[-67.8903581,-53.0244897],[-67.8733637,-53.0280001],[-67.8618624,-53.0317166],[-67.8525926,-53.0356393],[-67.8446962,-53.0406969],[-67.8354265,-53.0469923],[-67.82959,-53.0536995],[-67.8246118,-53.0614373],[-67.8223802,-53.0671108],[-67.8215219,-53.0744337],[-67.8211786,-53.0804148],[-67.8222086,-53.0860858],[-67.8246118,-53.0930962],[-67.8404047,-53.1351345],[-67.841263,-53.1384299],[-67.841263,-53.141931],[-67.8400614,-53.1460495],[-67.8266718,-53.1834072],[-67.8091623,-53.2343999],[-67.7990343,-53.2445706],[-67.7724268,-53.2695249],[-67.7470209,-53.2961061]]},"properties":{"osm_id":587838354,"osm_type":"way","seamark_type":"pipeline_submarine","display_class":"OTHER","min_zoom":12,"importance":1,"name":null,"ref":null,"common":{"type":"pipeline_submarine"},"children":{"pipeline_submarine":{"category":"gas","product":"gas"}},"osm_tags":{"seamark:pipeline_submarine:category":"gas","seamark:pipeline_submarine:product":"gas","seamark:type":"pipeline_submarine"}}},{"type":"Feature","geometry":{"type":"Point","coordinates":[-67.6845905,-53.7930356]},"properties":{"osm_id":3391826793,"osm_type":"node","seamark_type":"harbour","display_class":"OTHER","min_zoom":12,"importance":1,"name":"Río Grande","ref":null,"common":{"name":"Río Grande","type":"harbour"},"children":{},"osm_tags":{"harbour":"yes","seamark:name":"Río Grande","seamark:type":"harbour"}}},{"type":"Feature","geometry":{"type":"Point","coordinates":[-67.62915,-53.35514]},"properties":{"osm_id":8001843021,"osm_type":"node","seamark_type":"platform","display_class":"OTHER","min_zoom":12,"importance":1,"name":"TA.CMA-1.Ple.e-3","ref":"10509","common":{"type":"platform"},"children":{},"osm_tags":{"abandoned":"yes","abandoned:man_made":"offshore_platform","depth":"1535","ele":"35.5","field_name":"Cuenca Marina Austral 1 (cau)","name":"TA.CMA-1.Ple.e-3","operator":"Total Austral S.A.","pump":"no","ref":"10509","seamark:type":"platform","source":"http://datos.minem.gob.ar/"}}},{"type":"Feature","geometry":{"type":"Point","coordinates":[-67.74564,-53.29255]},"properties":{"osm_id":8001859496,"osm_type":"node","seamark_type":"platform","display_class":"OTHER","min_zoom":12,"importance":1,"name":"TA.CMA-1.Ple.e-4","ref":"10514","common":{"type":"platform"},"children":{},"osm_tags":{"abandoned":"yes","abandoned:man_made":"offshore_platform","depth":"1467","ele":"33.1","field_name":"Cuenca Marina Austral 1 (cau)","name":"TA.CMA-1.Ple.e-4","operator":"Total Austral S.A.","pump":"no","ref":"10514","seamark:type":"platform","source":"http://datos.minem.gob.ar/"}}},{"type":"Feature","geometry":{"type":"Point","coordinates":[-67.77292,-53.37968]},"properties":{"osm_id":8001859395,"osm_type":"node","seamark_type":"platform","display_class":"OTHER","min_zoom":12,"importance":1,"name":"TA.CMA-1.Ple.e-5","ref":"10510","common":{"type":"platform"},"children":{},"osm_tags":{"abandoned":"yes","abandoned:man_made":"offshore_platform","depth":"1426","ele":"32.4","field_name":"Cuenca Marina Austral 1 (cau)","name":"TA.CMA-1.Ple.e-5","operator":"Total Austral S.A.","pump":"no","ref":"10510","seamark:type":"platform","source":"http://datos.minem.gob.ar/"}}},{"type":"Feature","geometry":{"type":"Point","coordinates":[-67.75563,-53.26681]},"properties":{"osm_id":8001852547,"osm_type":"node","seamark_type":"platform","display_class":"OTHER","min_zoom":12,"importance":1,"name":"TA.CMA-1.Ple.e-6","ref":"10511","common":{"type":"platform"},"children":{},"osm_tags":{"abandoned":"yes","abandoned:man_made":"offshore_platform","depth":"1442","ele":"34.4","field_name":"Cuenca Marina Austral 1 (cau)","name":"TA.CMA-1.Ple.e-6","operator":"Total Austral S.A.","pump":"no","ref":"10511","seamark:type":"platform","source":"http://datos.minem.gob.ar/"}}},{"type":"Feature","geometry":{"type":"Point","coordinates":[-67.76543,-53.32733]},"properties":{"osm_id":8001855456,"osm_type":"node","seamark_type":"platform","display_class":"OTHER","min_zoom":12,"importance":1,"name":"TA.CMA-1.Ple.e-7","ref":"10515","common":{"type":"platform"},"children":{},"osm_tags":{"abandoned":"yes","abandoned:man_made":"offshore_platform","depth":"1375","ele":"33.2","field_name":"Cuenca Marina Austral 1 (cau)","name":"TA.CMA-1.Ple.e-7","operator":"Total Austral S.A.","pump":"no","ref":"10515","seamark:type":"platform","source":"http://datos.minem.gob.ar/"}}},{"type":"Feature","geometry":{"type":"Point","coordinates":[-67.7826,-53.29794]},"properties":{"osm_id":8001855464,"osm_type":"node","seamark_type":"platform","display_class":"OTHER","min_zoom":12,"importance":1,"name":"TA.CMA-1.Ple.e-8","ref":"10512","common":{"type":"platform"},"children":{},"osm_tags":{"abandoned":"yes","abandoned:man_made":"offshore_platform","depth":"1381","ele":"35","field_name":"Cuenca Marina Austral 1 (cau)","name":"TA.CMA-1.Ple.e-8","operator":"Total Austral S.A.","pump":"no","ref":"10512","seamark:type":"platform","source":"http://datos.minem.gob.ar/"}}},{"type":"Feature","geometry":{"type":"Point","coordinates":[-67.36347,-53.18418]},"properties":{"osm_id":8001859399,"osm_type":"node","seamark_type":"platform","display_class":"OTHER","min_zoom":12,"importance":1,"name":"TA.CMA-9.Fen.e-2","ref":"10470","common":{"type":"platform"},"children":{},"osm_tags":{"abandoned":"yes","abandoned:man_made":"offshore_platform","depth":"1106","ele":"31.1","field_name":"Cuenca Marina Austral 1 (cau)","name":"TA.CMA-9.Fen.e-2","operator":"Total Austral S.A.","pump":"no","ref":"10470","seamark:type":"platform","source":"http://datos.minem.gob.ar/"}}},{"type":"Feature","geometry":{"type":"Point","coordinates":[-67.45001,-53.1729]},"properties":{"osm_id":8001843026,"osm_type":"node","seamark_type":"platform","display_class":"OTHER","min_zoom":12,"importance":1,"name":"TA.CMA-9.Fen.x-1","ref":"10469","common":{"type":"platform"},"children":{},"osm_tags":{"abandoned":"yes","abandoned:man_made":"offshore_platform","depth":"1356","ele":"34.7","field_name":"Cuenca Marina Austral 1 (cau)","name":"TA.CMA-9.Fen.x-1","operator":"Total Austral S.A.","pump":"no","ref":"10469","seamark:type":"platform","source":"http://datos.minem.gob.ar/"}}},{"type":"Feature","geometry":{"type":"Point","coordinates":[-67.81256,-53.29511]},"properties":{"osm_id":8001852556,"osm_type":"node","seamark_type":"platform","display_class":"OTHER","min_zoom":12,"importance":1,"name":"TA.CMA-9.Ple.e-2","ref":"10508","common":{"type":"platform"},"children":{},"osm_tags":{"abandoned":"yes","abandoned:man_made":"offshore_platform","depth":"1351","ele":"35.3","field_name":"Cuenca Marina Austral 1 (cau)","name":"TA.CMA-9.Ple.e-2","operator":"Total Austral S.A.","pump":"no","ref":"10508","seamark:type":"platform","source":"http://datos.minem.gob.ar/"}}},{"type":"Feature","geometry":{"type":"Point","coordinates":[-67.70896,-53.31816]},"properties":{"osm_id":8001859386,"osm_type":"node","seamark_type":"platform","display_class":"OTHER","min_zoom":12,"importance":1,"name":"TA.CMA-9.Ple.x-1","ref":"10513","common":{"type":"platform"},"children":{},"osm_tags":{"abandoned":"yes","abandoned:man_made":"offshore_platform","depth":"1380","ele":"34.4","field_name":"Cuenca Marina Austral 1 (cau)","name":"TA.CMA-9.Ple.x-1","operator":"Total Austral S.A.","pump":"no","ref":"10513","seamark:type":"platform","source":"http://datos.minem.gob.ar/"}}},{"type":"Feature","geometry":{"type":"Point","coordinates":[-67.61172,-53.43637]},"properties":{"osm_id":8001843036,"osm_type":"node","seamark_type":"platform","display_class":"OTHER","min_zoom":12,"importance":1,"name":"TA.CMA-9.Veg.e-2","ref":"79516","common":{"type":"platform"},"children":{},"osm_tags":{"abandoned":"yes","abandoned:man_made":"offshore_platform","depth":"1378","ele":"35.6","field_name":"Cuenca Marina Austral 1 (cau)","name":"TA.CMA-9.Veg.e-2","operator":"Total Austral S.A.","pump":"no","ref":"79516","seamark:type":"platform","source":"http://datos.minem.gob.ar/"}}},{"type":"Feature","geometry":{"type":"Point","coordinates":[-67.72666,-53.43574]},"properties":{"osm_id":8001859510,"osm_type":"node","seamark_type":"platform","display_class":"OTHER","min_zoom":12,"importance":1,"name":"TA.CMA-9.Veg.x-1","ref":"79517","common":{"type":"platform"},"children":{},"osm_tags":{"abandoned":"yes","abandoned:man_made":"offshore_platform","depth":"1390","ele":"34.5","field_name":"Cuenca Marina Austral 1 (cau)","name":"TA.CMA-9.Veg.x-1","operator":"Total Austral S.A.","pump":"no","ref":"79517","seamark:type":"platform","source":"http://datos.minem.gob.ar/"}}},{"type":"Feature","geometry":{"type":"Point","coordinates":[-67.3325,-53.067499]},"properties":{"osm_id":8001859412,"osm_type":"node","seamark_type":"platform","display_class":"OTHER","min_zoom":12,"importance":1,"name":"TAU.MA.Fen.e-3","ref":"153645","common":{"type":"platform"},"children":{},"osm_tags":{"depth":"1166.7","ele":"51.44","end_date":"2014-09-03","field_name":"Cuenca Marina Austral 1 (cau)","man_made":"offshore_platform","name":"TAU.MA.Fen.e-3","operator":"Total Austral S.A.","pump":"no","ref":"153645","seamark:type":"platform","source":"http://datos.minem.gob.ar/","start_date":"2014-08-11"}}},{"type":"Feature","geometry":{"type":"Point","coordinates":[-67.2965761,-53.1048746]},"properties":{"osm_id":8001843013,"osm_type":"node","seamark_type":"platform","display_class":"OTHER","min_zoom":12,"importance":1,"name":"TAU.MA.Fen.e-4","ref":"155373","common":{"type":"platform"},"children":{},"osm_tags":{"depth":"1093.775","ele":"44.4","end_date":"2015-08-13","field_name":"Cuenca Marina Austral 1 (cau)","man_made":"offshore_platform","name":"TAU.MA.Fen.e-4","operator":"Total Austral S.A.","pump":"no","ref":"155373","seamark:type":"platform","source":"http://datos.minem.gob.ar/","start_date":"2015-07-29"}}},{"type":"Feature","geometry":{"type":"Point","coordinates":[-67.74612,-53.299]},"properties":{"osm_id":8001855449,"osm_type":"node","seamark_type":"platform","display_class":"OTHER","min_zoom":12,"importance":1,"name":"TAU.MA.Ple-10(h)","ref":"155876","common":{"type":"platform"},"children":{},"osm_tags":{"depth":"3566.01","ele":"52.33","end_date":"2016-01-09","field_name":"Cuenca Marina Austral 1 (cau)","man_made":"offshore_platform","name":"TAU.MA.Ple-10(h)","operator":"Total Austral S.A.","pump":"no","ref":"155876","seamark:type":"platform","source":"http://datos.minem.gob.ar/","start_date":"2015-12-04","substance":"gas"}}},{"type":"Feature","geometry":{"type":"Point","coordinates":[-67.7460379,-53.2990205]},"properties":{"osm_id":8001859520,"osm_type":"node","seamark_type":"platform","display_class":"OTHER","min_zoom":12,"importance":1,"name":"TAU.MA.Ple-9(h)","ref":"156516","common":{"type":"platform"},"children":{},"osm_tags":{"depth":"4234","ele":"52.33","end_date":"2016-03-20","field_name":"Cuenca Marina Austral 1 (cau)","man_made":"offshore_platform","name":"TAU.MA.Ple-9(h)","operator":"Total Austral S.A.","pump":"no","ref":"156516","seamark:type":"platform","source":"http://datos.minem.gob.ar/","start_date":"2015-11-22","substance":"gas"}}},{"type":"Feature","geometry":{"type":"Point","coordinates":[-67.7446176,-53.2989788]},"properties":{"osm_id":5614869011,"osm_type":"node","seamark_type":"platform","display_class":"OTHER","min_zoom":12,"importance":1,"name":"Vega-Pléyade","ref":null,"common":{"name":"Vega-Pléyade","type":"platform"},"children":{"light":{"character":"Mo","colour":"red","group":"U","period":"15","range":"10"},"platform":{"category":"gas"},"radar_transponder":{"group":"Z","wavelength":"0.03-X"},"radio_station":{"category":"ais"}},"osm_tags":{"seamark:light:character":"Mo","seamark:light:colour":"red","seamark:light:group":"U","seamark:light:period":"15","seamark:light:range":"10","seamark:name":"Vega-Pléyade","seamark:platform:category":"gas","seamark:radar_transponder:group":"Z","seamark:radar_transponder:wavelength":"0.03-X","seamark:radio_station:category":"ais","seamark:type":"platform"}}}],"type":"FeatureCollection"}