{"type":"FeatureCollection","features":[{"type":"Feature","geometry":{"type":"Point","coordinates":[-70.4573221,-53.3147583]},"properties":{"osm_id":1659769893,"osm_type":"node","seamark_type":"light_major","display_class":"LIGHTHOUSE","min_zoom":7,"importance":5,"name":"Faro Bahía Porvenir","ref":null,"common":{"type":"light_major"},"children":{"light":{"1:character":"Fl","1:colour":"white","1:height":"21","1:period":"12","1:range":"10","1:sector_end":"131","1:sector_start":"276","1:sequence":"0.7+(11.3)","reference":"G 1440"}},"osm_tags":{"man_made":"lighthouse","name":"Faro Bahía Porvenir","seamark:light:1:character":"Fl","seamark:light:1:colour":"white","seamark:light:1:height":"21","seamark:light:1:period":"12","seamark:light:1:range":"10","seamark:light:1:sector_end":"131","seamark:light:1:sector_start":"276","seamark:light:1:sequence":"0.7+(11.3)","seamark:light:reference":"G 1440","seamark:type":"light_major","wikidata":"Q17174530","wikipedia":"es:Faro Bahía Porvenir"}}},{"type":"Feature","geometry":{"type":"Point","coordinates":[-70.8741705,-53.0964986]},"properties":{"osm_id":1468548523,"osm_type":"node","seamark_type":"harbour","display_class":"OTHER","min_zoom":12,"importance":1,"name":null,"ref":null,"common":{"type":"harbour"},"children":{},"osm_tags":{"leisure":"slipway","seamark:type":"harbour"}}},{"type":"Feature","geometry":{"type":"Point","coordinates":[-70.9168178,-53.1770836]},"properties":{"osm_id":12384570558,"osm_type":"node","seamark_type":"wreck","display_class":"OTHER","min_zoom":12,"importance":1,"name":null,"ref":null,"common":{"type":"wreck"},"children":{},"osm_tags":{"historic":"wreck","seamark:type":"wreck"}}},{"type":"Feature","geometry":{"type":"Point","coordinates":[-70.9178478,-53.1769904]},"properties":{"osm_id":12384570559,"osm_type":"node","seamark_type":"wreck","display_class":"OTHER","min_zoom":12,"importance":1,"name":null,"ref":null,"common":{"type":"wreck"},"children":{},"osm_tags":{"historic":"wreck","seamark:type":"wreck"}}},{"type":"Feature","geometry":{"type":"Point","coordinates":[-70.4461122,-53.8352724]},"properties":{"osm_id":1199793599,"osm_type":"node","seamark_type":"light_minor","display_class":"OTHER","min_zoom":12,"importance":1,"name":"Bahia Harris","ref":null,"common":{"name":"Bahia Harris","type":"light_minor"},"children":{"light":{"1:character":"Fl","1:colour":"red","1:height":"6","1:period":"10","1:range":"8","1:sector_end":"334","1:sector_start":"285","1:sequence":"0.5+(9.5)","reference":"G 1443.3"}},"osm_tags":{"seamark:light:1:character":"Fl","seamark:light:1:colour":"red","seamark:light:1:height":"6","seamark:light:1:period":"10","seamark:light:1:range":"8","seamark:light:1:sector_end":"334","seamark:light:1:sector_start":"285","seamark:light:1:sequence":"0.5+(9.5)","seamark:light:reference":"G 1443.3","seamark:name":"Bahia Harris","seamark:type":"light_minor","source":"US NGA Pub. 111. 2010-09-02."}}},{"type":"Feature","geometry":{"type":"Polygon","coordinates":[[[-70.9745693,-53.785201],[-70.9745557,-53.7851997],[-70.9745422,-53.7852027],[-70.9745326,-53.7852091],[-70.974529,-53.7852174],[-70.9745325,-53.7852257],[-70.974542,-53.7852322],[-70.9745555,-53.7852352],[-70.9745699,-53.7852342],[-70.9745819,-53.7852294],[-70.9745887,-53.7852219],[-70.9745894,-53.7852157],[-70.9745857,-53.7852087],[-70.9745799,-53.7852043],[-70.9745693,-53.785201]]]},"properties":{"osm_id":103998150,"osm_type":"way","seamark_type":"landmark","display_class":"OTHER","min_zoom":12,"importance":1,"name":"Cabo San Isidro","ref":null,"common":{"information":"White cylindrical concrete tower, white dwelling","name":"Cabo San Isidro","type":"landmark"},"children":{"landmark":{"category":"tower","colour":"red;white","colour_pattern":"horizontal","function":"light_support","height":"8"},"light":{"1:character":"Fl","1:colour":"white","1:height":"28","1:period":"5","1:range":"9","1:sector_end":"46","1:sector_start":"208","1:sequence":"0.4+(4.6)"}},"osm_tags":{"building":"yes","man_made":"lighthouse","name":"Faro San Isidro","ref:admiralty":"G1446","ref:nga":"111-2380","seamark:information":"White cylindrical concrete tower, white dwelling","seamark:landmark:category":"tower","seamark:landmark:colour":"red;white","seamark:landmark:colour_pattern":"horizontal","seamark:landmark:function":"light_support","seamark:landmark:height":"8","seamark:light:1:character":"Fl","seamark:light:1:colour":"white","seamark:light:1:height":"28","seamark:light:1:period":"5","seamark:light:1:range":"9","seamark:light:1:sector_end":"46","seamark:light:1:sector_start":"208","seamark:light:1:sequence":"0.4+(4.6)","seamark:name":"Cabo San Isidro","seamark:type":"landmark","wikidata":"Q5856513","wikimedia_commons":"File:Faro San Isidro 01.JPG","wikipedia":"es:Faro de San Isidro"}}},{"type":"Feature","geometry":{"type":"Point","coordinates":[-70.4360129,-53.8378449]},"properties":{"osm_id":1199793594,"osm_type":"node","seamark_type":"light_minor","display_class":"OTHER","min_zoom":12,"importance":1,"name":"Islote Cuervo","ref":null,"common":{"name":"Islote Cuervo","type":"light_minor"},"children":{"light":{"character":"Fl","colour":"white","group":"3","height":"6","period":"9","range":"6","reference":"G 1443.2","sequence":"0.3+(1.7)+0.3+(1.7)+0.3+(4.7)"}},"osm_tags":{"seamark:light:character":"Fl","seamark:light:colour":"white","seamark:light:group":"3","seamark:light:height":"6","seamark:light:period":"9","seamark:light:range":"6","seamark:light:reference":"G 1443.2","seamark:light:sequence":"0.3+(1.7)+0.3+(1.7)+0.3+(4.7)","seamark:name":"Islote Cuervo","seamark:type":"light_minor","source":"US NGA Pub. 111. 2010-09-02."}}},{"type":"Feature","geometry":{"type":"Point","coordinates":[-70.3959567,-53.8301157]},"properties":{"osm_id":1199793606,"osm_type":"node","seamark_type":"light_minor","display_class":"OTHER","min_zoom":12,"importance":1,"name":"Islote Tesner","ref":null,"common":{"name":"Islote Tesner","type":"light_minor"},"children":{"light":{"1:character":"Fl","1:colour":"white","1:height":"6","1:period":"3","1:range":"8","1:sector_end":"278","1:sector_start":"314","1:sequence":"1+(2)","reference":"G 1443"}},"osm_tags":{"seamark:light:1:character":"Fl","seamark:light:1:colour":"white","seamark:light:1:height":"6","seamark:light:1:period":"3","seamark:light:1:range":"8","seamark:light:1:sector_end":"278","seamark:light:1:sector_start":"314","seamark:light:1:sequence":"1+(2)","seamark:light:reference":"G 1443","seamark:name":"Islote Tesner","seamark:type":"light_minor","source":"US NGA Pub. 111. 2010-09-02."}}},{"type":"Feature","geometry":{"type":"Polygon","coordinates":[[[-70.8786676,-53.1068205],[-70.8786408,-53.1068095],[-70.8786252,-53.1067755],[-70.8786281,-53.1067043],[-70.8787185,-53.1064014],[-70.8787496,-53.106381],[-70.8787991,-53.1063734],[-70.8788499,-53.106387],[-70.8788641,-53.1064116],[-70.8787779,-53.1067094],[-70.8787411,-53.1067721],[-70.8787086,-53.106812],[-70.8786676,-53.1068205]]]},"properties":{"osm_id":1481548061,"osm_type":"way","seamark_type":"wreck","display_class":"OTHER","min_zoom":12,"importance":1,"name":"Magallanes III","ref":null,"common":{"type":"wreck"},"children":{"wreck":{"category":"hull_showing"}},"osm_tags":{"access":"yes","historic":"wreck","name":"Magallanes III","seamark:type":"wreck","seamark:wreck:category":"hull_showing","tourism":"attraction","wreck:date_sunk":"july 16 2016","wreck:visible_at_high_tide":"yes","wreck:visible_at_low_tide":"yes"}}},{"type":"Feature","geometry":{"type":"Point","coordinates":[-70.9179875,-53.1762885]},"properties":{"osm_id":1199793648,"osm_type":"node","seamark_type":"light_minor","display_class":"OTHER","min_zoom":12,"importance":1,"name":"Munoz Gamero Hulk","ref":null,"common":{"information":"Visible 113°-093°.","name":"Munoz Gamero Hulk","type":"light_minor"},"children":{"light":{"character":"Fl","colour":"white","height":"9","period":"5","range":"7","reference":"G 1438","sequence":"0.4+(4.6)"}},"osm_tags":{"leisure":"slipway","seamark:information":"Visible 113°-093°.","seamark:light:character":"Fl","seamark:light:colour":"white","seamark:light:height":"9","seamark:light:period":"5","seamark:light:range":"7","seamark:light:reference":"G 1438","seamark:light:sequence":"0.4+(4.6)","seamark:name":"Munoz Gamero Hulk","seamark:type":"light_minor","source":"US NGA Pub. 111. 2010-09-02."}}},{"type":"Feature","geometry":{"type":"Point","coordinates":[-70.918465,-53.1769301]},"properties":{"osm_id":6578976704,"osm_type":"node","seamark_type":"wreck","display_class":"OTHER","min_zoom":12,"importance":1,"name":"Muñoz Gamero","ref":null,"common":{"type":"wreck"},"children":{},"osm_tags":{"historic":"wreck","name":"Muñoz Gamero","seamark:type":"wreck"}}},{"type":"Feature","geometry":{"type":"Polygon","coordinates":[[[-70.9398714,-53.2198075],[-70.9392437,-53.2196919],[-70.9392357,-53.2196566],[-70.9392652,-53.2196309],[-70.9399062,-53.2197401],[-70.9398714,-53.2198075]]]},"properties":{"osm_id":502672949,"osm_type":"way","seamark_type":"wreck","display_class":"OTHER","min_zoom":12,"importance":1,"name":"Myun Jin M°601","ref":null,"common":{"type":"wreck"},"children":{"wreck":{"category":"hull_visible"}},"osm_tags":{"historic":"wreck","name":"Myun Jin M°601","seamark:type":"wreck","seamark:wreck:category":"hull_visible","tourism":"attraction"}}},{"type":"Feature","geometry":{"type":"Point","coordinates":[-70.9244553,-53.1823769]},"properties":{"osm_id":5298831421,"osm_type":"node","seamark_type":"wreck","display_class":"OTHER","min_zoom":12,"importance":1,"name":"Pontón Lord Lonsdale","ref":null,"common":{"type":"wreck"},"children":{},"osm_tags":{"historic":"ship","image":"https://commons.wikimedia.org/wiki/File:Lonsdale_shipwreck,_Punta_Arenas_%2826355621808%29.jpg","name":"Pontón Lord Lonsdale","name:de":"Lord Lonsdale Schiffswrack","name:en":"Lord Lonsdale Shipwreck","seamark:type":"wreck","tourism":"attraction"}}},{"type":"Feature","geometry":{"type":"Point","coordinates":[-70.4774179,-53.567059]},"properties":{"osm_id":1199793587,"osm_type":"node","seamark_type":"light_minor","display_class":"OTHER","min_zoom":12,"importance":1,"name":"Punta Arska","ref":null,"common":{"name":"Punta Arska","type":"light_minor"},"children":{"light":{"1:character":"Fl","1:colour":"white","1:group":"4","1:height":"29","1:period":"12","1:range":"8","1:sector_end":"314","1:sector_start":"78","1:sequence":"0.5+(1.5),0.5+(1.5),0.5+(1.5),0.5+(5.5)","reference":"G 1442"}},"osm_tags":{"seamark:light:1:character":"Fl","seamark:light:1:colour":"white","seamark:light:1:group":"4","seamark:light:1:height":"29","seamark:light:1:period":"12","seamark:light:1:range":"8","seamark:light:1:sector_end":"314","seamark:light:1:sector_start":"78","seamark:light:1:sequence":"0.5+(1.5),0.5+(1.5),0.5+(1.5),0.5+(5.5)","seamark:light:reference":"G 1442","seamark:name":"Punta Arska","seamark:type":"light_minor","source":"US NGA Pub. 111. 2010-09-02."}}},{"type":"Feature","geometry":{"type":"Point","coordinates":[-70.9171635,-53.6332023]},"properties":{"osm_id":1199793536,"osm_type":"node","seamark_type":"light_minor","display_class":"OTHER","min_zoom":12,"importance":1,"name":"Punta Santa Ana","ref":null,"common":{"name":"Punta Santa Ana","type":"light_minor"},"children":{"light":{"1:character":"Fl","1:colour":"white","1:height":"40","1:period":"10","1:range":"10","1:sector_end":"94","1:sector_start":"151","1:sequence":"0.5+(9.5)","reference":"G 1444"}},"osm_tags":{"seamark:light:1:character":"Fl","seamark:light:1:colour":"white","seamark:light:1:height":"40","seamark:light:1:period":"10","seamark:light:1:range":"10","seamark:light:1:sector_end":"94","seamark:light:1:sector_start":"151","seamark:light:1:sequence":"0.5+(9.5)","seamark:light:reference":"G 1444","seamark:name":"Punta Santa Ana","seamark:type":"light_minor","source":"US NGA Pub. 111. 2010-09-02."}}},{"type":"Feature","geometry":{"type":"Polygon","coordinates":[[[-70.9374574,-53.2197802],[-70.9377578,-53.2193996],[-70.9377658,-53.2193498],[-70.9377363,-53.2193209],[-70.9376317,-53.2193707],[-70.9373421,-53.2197593],[-70.9374574,-53.2197802]]]},"properties":{"osm_id":502672948,"osm_type":"way","seamark_type":"wreck","display_class":"OTHER","min_zoom":12,"importance":1,"name":"Sofia","ref":null,"common":{"type":"wreck"},"children":{"wreck":{"category":"hull_visible"}},"osm_tags":{"historic":"wreck","name":"Sofia","seamark:type":"wreck","seamark:wreck:category":"hull_visible","tourism":"attraction"}}}],"type":"FeatureCollection"}