{"type":"FeatureCollection","features":[{"type":"Feature","geometry":{"type":"Point","coordinates":[-66.84517,-53.22876]},"properties":{"osm_id":8001843005,"osm_type":"node","seamark_type":"platform","display_class":"OTHER","min_zoom":12,"importance":1,"name":"TA.CMA-1.Ind.x-1","ref":"10307","common":{"type":"platform"},"children":{},"osm_tags":{"abandoned":"yes","abandoned:man_made":"offshore_platform","depth":"1169","ele":"34.3","field_name":"Cuenca Marina Austral 1 (cau)","name":"TA.CMA-1.Ind.x-1","operator":"Total Austral S.A.","pump":"no","ref":"10307","seamark:type":"platform","source":"http://datos.minem.gob.ar/"}}},{"type":"Feature","geometry":{"type":"Point","coordinates":[-66.93793,-53.11272]},"properties":{"osm_id":8001846581,"osm_type":"node","seamark_type":"platform","display_class":"OTHER","min_zoom":12,"importance":1,"name":"TA.CMA-1.Sir.x-1","ref":"10308","common":{"type":"platform"},"children":{},"osm_tags":{"abandoned":"yes","abandoned:man_made":"offshore_platform","depth":"1154","ele":"34.2","field_name":"Cuenca Marina Austral 1 (cau)","name":"TA.CMA-1.Sir.x-1","operator":"Total Austral S.A.","pump":"no","ref":"10308","seamark:type":"platform","source":"http://datos.minem.gob.ar/"}}}],"type":"FeatureCollection"}