{"type":"FeatureCollection","features":[{"type":"Feature","geometry":{"type":"LineString","coordinates":[[-169.524,-59.5481],[-168.067,-59.9665],[-166.862,-60.3088],[-164.961,-60.7651],[-163.477,-61.0947],[-161.867,-61.5384],[-160.891,-61.7793],[-159.56,-62.261],[-158.419,-62.7174],[-157.075,-63.1358],[-154.679,-63.833],[-152.22,-64.5429],[-149.12,-65.1641],[-148.144,-65.3923]]},"properties":{"osm_id":1259262072,"osm_type":"way","seamark_type":"sea_area","display_class":"OTHER","min_zoom":12,"importance":1,"name":"Le Renard Fracture Zone","ref":null,"common":{"type":"sea_area"},"children":{"sea_area":{"category":"fracture_zone"}},"osm_tags":{"name":"Le Renard Fracture Zone","ref:linz:place_id":"61611","seamark:sea_area:category":"fracture_zone","seamark:type":"sea_area","wikidata":"Q124727231"}}}],"type":"FeatureCollection"}